{"type":"Feature","properties":{"route_number":130,"name":"国道130号","source":"OpenStreetMap contributors (ODbL) via Overpass API","osm_relation_id":3767038},"geometry":{"type":"LineString","coordinates":[[139.7582598,35.6472221],[139.7577493,35.6473824],[139.757639,35.6474169],[139.7573453,35.6475074],[139.7573004,35.6475231],[139.7570805,35.6475932],[139.7565043,35.6477771],[139.7551713,35.6482107],[139.7551247,35.6482307],[139.7551164,35.6482347],[139.7549929,35.6483],[139.7549207,35.6483456],[139.7548796,35.6483786],[139.754854,35.6484033],[139.7547153,35.6485261],[139.7546897,35.648546],[139.7546325,35.648577],[139.7545535,35.6486061],[139.7542012,35.6487154],[139.7536546,35.6488872],[139.7536377,35.6488925],[139.7533187,35.6489917],[139.7532649,35.6490084],[139.7531423,35.6490458],[139.7529459,35.649107]]}}