{"type":"Feature","properties":{"route_number":292,"name":"国道292号","source":"OpenStreetMap contributors (ODbL) via Overpass API"},"geometry":{"type":"LineString","coordinates":[[138.5900383,36.5753552],[138.5898257,36.5762662],[138.5890248,36.5769084],[138.5870894,36.5778614],[138.5865253,36.5785371],[138.5865098,36.5788354],[138.5872651,36.5795327],[138.5874799,36.5802072],[138.5869449,36.5826094],[138.5870284,36.5847135],[138.5864974,36.5861414],[138.5873365,36.5877396],[138.5869663,36.5897682],[138.5874315,36.5925058],[138.5871239,36.593272],[138.585712,36.5946287],[138.5854288,36.59558],[138.5870737,36.5978579],[138.5866397,36.5991312],[138.5871929,36.600158],[138.5862996,36.6013737],[138.5836928,36.603773],[138.5835992,36.6050201],[138.5839055,36.6059925],[138.5835104,36.6069274],[138.5843937,36.6080938],[138.583445,36.6087582],[138.5831861,36.6093692],[138.5839003,36.6112727],[138.5843445,36.6116782],[138.5870455,36.6120915],[138.5891142,36.6128745],[138.5909649,36.6155014],[138.5923678,36.6162143],[138.5933641,36.6181697],[138.5930932,36.6208146],[138.5877443,36.621706],[138.5874344,36.62205],[138.5872562,36.6231287],[138.5857389,36.6236844],[138.5853008,36.6241213],[138.5854629,36.6263933],[138.5861881,36.6272336],[138.5877636,36.6281096],[138.588301,36.6292847],[138.5881403,36.6300132],[138.585822,36.6312444],[138.5851132,36.6331728],[138.5845145,36.6336629],[138.5840429,36.6336139],[138.5837261,36.6325958],[138.5833886,36.6324154],[138.5805382,36.6339938],[138.579224,36.6343143],[138.579121,36.6341048],[138.5799838,36.633526],[138.5799577,36.6332689],[138.5791226,36.6333456],[138.5784266,36.6338853],[138.5781586,36.6337944],[138.578187,36.6335174],[138.5791139,36.6328981],[138.5816815,36.6319808],[138.5823862,36.6311188],[138.5822774,36.6306754],[138.5818156,36.6305999],[138.5803304,36.6310984],[138.5793604,36.6317728],[138.5780444,36.6315882],[138.57805,36.6309469],[138.5778249,36.6307493],[138.5761665,36.6312473],[138.5747324,36.630104],[138.5748158,36.6290534],[138.5743736,36.6287948],[138.5737352,36.6291203],[138.5734441,36.6295924],[138.5735577,36.63123],[138.5726244,36.6314771],[138.5711728,36.6306487],[138.5709782,36.6298116],[138.5703534,36.628822],[138.5700265,36.6288739],[138.5700343,36.6295476],[138.5698194,36.6296769],[138.5678961,36.6290354],[138.5666225,36.6291597],[138.5659534,36.6288434],[138.5655944,36.627992],[138.5653612,36.628069],[138.5654269,36.6285249],[138.5651177,36.628504],[138.5646123,36.6270575],[138.5629094,36.6264594],[138.5624624,36.6266347],[138.5628446,36.6271127],[138.5634229,36.6273519],[138.5634001,36.627556],[138.561195,36.6278213],[138.5598019,36.6273559],[138.5587799,36.6278775],[138.5582691,36.6277467],[138.5584058,36.6273699],[138.5588597,36.6271467],[138.5606229,36.6270201],[138.5605788,36.6267497],[138.5587564,36.6267953],[138.555941,36.6275676],[138.5534562,36.6267973],[138.5533554,36.6270274],[138.5539933,36.627984],[138.552683,36.6290509],[138.5536542,36.629621],[138.5533747,36.6306474],[138.5558371,36.6297449],[138.5567353,36.6299804],[138.5583378,36.6308795],[138.5582885,36.6312051],[138.5578823,36.6314349],[138.5567787,36.6309833],[138.5563167,36.6311284],[138.5552147,36.6329534],[138.5556533,36.6342335],[138.5554891,36.6345022],[138.5537821,36.6335929],[138.5535193,36.632983],[138.5535846,36.632169],[138.553358,36.6320596],[138.5527729,36.6327775],[138.5505346,36.6331336],[138.5503002,36.633961],[138.5486483,36.6348849],[138.5471601,36.6351609],[138.5485873,36.6344615],[138.5487918,36.6341233],[138.5486621,36.6338441],[138.5479308,36.6344054],[138.5453599,36.6347961],[138.5451996,36.6351472],[138.546018,36.6358632],[138.5459512,36.6361388],[138.5445403,36.6347733],[138.5466165,36.6337673],[138.5466289,36.633507],[138.5459024,36.6338191],[138.5435603,36.6341762],[138.5434159,36.6344718],[138.5437566,36.6352429],[138.5434785,36.6356977],[138.5428038,36.6357338],[138.5416359,36.6350332],[138.541311,36.6350612],[138.5398003,36.6360898],[138.5397059,36.6369002],[138.5394734,36.6370674],[138.5381835,36.6371011],[138.5366734,36.6367934],[138.5341643,36.6373652],[138.5323019,36.6381479],[138.528653,36.6383496],[138.528192,36.6388885],[138.5269856,36.6393699],[138.5257521,36.6392911],[138.5256203,36.6395086],[138.526132,36.6399467],[138.5264043,36.6406841],[138.5255689,36.6411641],[138.5249271,36.6411618],[138.5246746,36.6417775],[138.5240862,36.6421827],[138.5226333,36.6412705],[138.521574,36.6416342],[138.5199336,36.6418056],[138.5196785,36.6421396],[138.5197956,36.642326],[138.5220888,36.6422998],[138.5235037,36.6430163],[138.5250088,36.6434124],[138.524702,36.6442102],[138.5248816,36.6456218],[138.5254413,36.646388],[138.5251799,36.6479224],[138.5254768,36.6496477],[138.5254189,36.6511859],[138.5266955,36.652845],[138.5285162,36.6542479],[138.5293198,36.6544189],[138.5301241,36.6552605],[138.5297391,36.6571147],[138.5302137,36.6575608],[138.531408,36.657962],[138.5303904,36.6580574],[138.5296474,36.657797],[138.5294882,36.6580278],[138.5317333,36.6585308],[138.5341413,36.6583924],[138.5341621,36.6596582],[138.5356649,36.6613975],[138.5363627,36.6636424],[138.5363462,36.6643158],[138.5348621,36.6656534],[138.5343516,36.6664365],[138.5300806,36.666332],[138.5290087,36.6658419],[138.5267135,36.6666326],[138.5256994,36.6662072],[138.5250181,36.6662718],[138.5206622,36.6690794],[138.5196497,36.6688191],[138.5189965,36.6689987],[138.5186882,36.6698558],[138.519085,36.6707209],[138.5189209,36.6709417],[138.5179438,36.6699389],[138.5177508,36.6691188],[138.5174429,36.6692537],[138.5179545,36.670557],[138.5177802,36.6707463],[138.5169272,36.6695355],[138.5158396,36.6692623],[138.5139552,36.6680036],[138.5138997,36.6683203],[138.5152884,36.6697635],[138.5149384,36.670012],[138.5135677,36.6693279],[138.5130541,36.669543],[138.5131879,36.6699407],[138.5143577,36.6710812],[138.5143355,36.6713719],[138.5138601,36.6714362],[138.5123017,36.6704875],[138.511882,36.6705208],[138.5117251,36.6707628],[138.5134447,36.673449],[138.5134406,36.6739931],[138.5128047,36.6741232],[138.5086766,36.6731409],[138.5082167,36.6732218],[138.5081057,36.6741401],[138.5093875,36.6757732],[138.5098758,36.6766912],[138.5097451,36.6770073],[138.5092333,36.6770808],[138.508088,36.6759808],[138.5076049,36.6758857],[138.5073692,36.6775619],[138.5075314,36.6785062],[138.5073217,36.6787693],[138.5055338,36.6794284],[138.5043128,36.6801615],[138.5028343,36.6800846],[138.5026686,36.6804444],[138.5030055,36.6811107],[138.502928,36.6814361],[138.5025237,36.6814597],[138.501804,36.6809369],[138.5011311,36.6812759],[138.5010995,36.6815887],[138.5016413,36.6820039],[138.5016023,36.682192],[138.5001969,36.6815973],[138.4996119,36.6817093],[138.4994392,36.6830095],[138.4986032,36.6844812],[138.4972151,36.685392],[138.4966966,36.6864683],[138.4953643,36.6872336],[138.4945482,36.6886998],[138.4929613,36.6905769],[138.4921838,36.6919862],[138.4916648,36.6937498],[138.490733,36.695302],[138.4915079,36.6962693],[138.491402,36.6971435],[138.4922455,36.6977232],[138.4931749,36.6979565],[138.493376,36.6989795],[138.4928826,36.7002188],[138.4919277,36.7012186],[138.4915788,36.7019251],[138.4911248,36.7047065],[138.4900109,36.7054715],[138.4896424,36.7062895],[138.4885952,36.7070076],[138.488781,36.7072553],[138.4901896,36.7070916],[138.4903398,36.7073604],[138.4885711,36.7078658],[138.4884631,36.7080678],[138.4896486,36.7094979],[138.4916757,36.7103496],[138.4927307,36.7113709],[138.4952571,36.711815],[138.49593,36.7133716],[138.4957276,36.7138141],[138.4939424,36.7139168],[138.4936899,36.7146512],[138.4939451,36.7156608],[138.4923773,36.7178845],[138.4916184,36.7182587],[138.4898722,36.7175718],[138.4876878,36.7179323],[138.4872089,36.7182064],[138.4868704,36.7190448],[138.4862897,36.7192207],[138.4837045,36.7182044],[138.4831828,36.717326],[138.4827554,36.7173041],[138.4814624,36.7182021],[138.4795939,36.7187196],[138.4762232,36.7209363],[138.4751128,36.7220443],[138.4751743,36.7232722],[138.474779,36.7244235],[138.4743624,36.7245949],[138.473948,36.7244146],[138.4742388,36.7233147],[138.4737386,36.7226754],[138.4733331,36.7227469],[138.4729148,36.7234765],[138.4724332,36.723789],[138.4704552,36.7244885],[138.4695901,36.724349],[138.4695254,36.7235907],[138.4698476,36.7229277],[138.4715008,36.7222607],[138.4715063,36.7218003],[138.4711628,36.7215437],[138.4702154,36.7217972],[138.4691361,36.7230199],[138.4678887,36.7238752],[138.4662974,36.7240875],[138.4658842,36.7238307],[138.4659168,36.7233221],[138.4676676,36.723198],[138.4688356,36.7221385],[138.4688341,36.7213323],[138.4683968,36.7209345],[138.462652,36.719084],[138.4620899,36.7191819],[138.4613482,36.7197509],[138.4602141,36.7192013],[138.4595029,36.7191711],[138.458548,36.7200654],[138.4574718,36.7203759],[138.4537747,36.7193195],[138.4536187,36.7172906],[138.4533623,36.7170552],[138.4506762,36.7173615],[138.4504253,36.7178804],[138.4511272,36.719782],[138.4522717,36.7201114],[138.4552442,36.721825],[138.4562888,36.7226675],[138.4563826,36.7232274],[138.4557428,36.7232726],[138.454417,36.722115],[138.4517066,36.7211556],[138.4510654,36.7213279],[138.4507732,36.7217469],[138.4506349,36.722679],[138.4511131,36.7231088],[138.4518957,36.7228336],[138.4517464,36.7221997],[138.4512835,36.722062],[138.449813,36.7223392],[138.4479408,36.7220124],[138.4475277,36.7217071],[138.4468795,36.720503],[138.4462926,36.7203526],[138.445901,36.7207074],[138.4459801,36.7218049],[138.4445626,36.7260111],[138.4426501,36.7281501],[138.440392,36.7292168],[138.4389682,36.7295845],[138.435833,36.7295242],[138.4301375,36.7280738],[138.42844,36.7280294],[138.4274168,36.7282539],[138.4240436,36.7294617],[138.4213336,36.731658],[138.4197727,36.7335085],[138.418879,36.7341185],[138.4179156,36.7343954],[138.4146368,36.7346131],[138.4131159,36.7352085],[138.4044999,36.7420367],[138.40369,36.7431695],[138.4024592,36.7463971],[138.3977618,36.7513033],[138.3949344,36.755232],[138.394064,36.7560657],[138.3896272,36.759168],[138.3885446,36.7596705],[138.386971,36.7597369],[138.3838211,36.7584867],[138.3770583,36.7587253],[138.3708984,36.7579302],[138.3582055,36.7553246],[138.3526954,36.7538488],[138.3508153,36.7581804],[138.3504354,36.7596056],[138.3507267,36.7987529],[138.3493489,36.8015348],[138.350931,36.8061089],[138.3509998,36.8074989],[138.3506801,36.8089636],[138.349281,36.8118125],[138.3490979,36.8166167],[138.3484938,36.8191011],[138.3493161,36.8211639],[138.3505097,36.8223203],[138.3502744,36.8231656],[138.352535,36.8250592],[138.3535642,36.8264772],[138.3546883,36.8301302],[138.3587651,36.837302],[138.3612274,36.8391075],[138.363898,36.8441437],[138.365553,36.8495184],[138.3674235,36.8537128],[138.3693225,36.8605652],[138.3710471,36.8646886],[138.3581891,36.8689183],[138.3474296,36.8691934],[138.3456478,36.8697242],[138.345008,36.8694388],[138.3440139,36.8682773],[138.3413997,36.8678709],[138.3405464,36.8669905],[138.3394239,36.8670075],[138.3384194,36.8664957],[138.3362741,36.866577],[138.3349218,36.8669098],[138.3338885,36.8667642],[138.3331396,36.8671734],[138.3324372,36.866546],[138.3319928,36.8664563],[138.3305209,36.8670431],[138.3293812,36.8671137],[138.3286744,36.8679972],[138.3265187,36.8679796],[138.3221159,36.8703227],[138.3219142,36.8707349],[138.3220025,36.8730982],[138.3198666,36.8750178],[138.3188002,36.8790694],[138.3208115,36.8811832],[138.3203629,36.8820805],[138.3203456,36.8827189],[138.3213919,36.8851323],[138.322844,36.886285],[138.3233085,36.8875836],[138.3227677,36.8887497],[138.3230469,36.8900213],[138.3237026,36.8902974],[138.3237544,36.890539],[138.32353,36.8913155],[138.3228053,36.8919712],[138.3217354,36.8937658],[138.3211972,36.8959175],[138.3195095,36.8980452],[138.3181635,36.9007716],[138.3170933,36.9023181],[138.3160773,36.9028592],[138.3147852,36.9030911],[138.3141004,36.9045599],[138.313979,36.9050459],[138.3143986,36.907354],[138.3161387,36.910225],[138.3163044,36.9111775],[138.315704,36.912046],[138.3137995,36.9131909],[138.313049,36.91423],[138.3120664,36.9149185],[138.3086196,36.9187274],[138.3073898,36.9191515],[138.3049339,36.9216905],[138.3036128,36.9226122],[138.302077,36.9244908],[138.3018744,36.9258263],[138.3013899,36.9269977],[138.3009226,36.9274625],[138.2995029,36.9280985],[138.2983622,36.9290894],[138.2982392,36.9298883],[138.2986014,36.9308329],[138.2976485,36.9318866],[138.2978227,36.9337087],[138.2968229,36.934458],[138.2956069,36.9345765],[138.2952589,36.9354963],[138.2942019,36.9362015],[138.2940705,36.9369421],[138.293176,36.9385747],[138.2916896,36.9394665],[138.2918699,36.9401232],[138.291414,36.940745],[138.2914688,36.9421431],[138.290787,36.9432934],[138.2916496,36.9443712],[138.2915885,36.9448196],[138.2906675,36.9450955],[138.2899299,36.9456381],[138.2879059,36.945814],[138.2879065,36.9466452],[138.2874994,36.9470026],[138.2854285,36.9473611],[138.2830768,36.948957],[138.2816657,36.9492751],[138.2800036,36.9510639],[138.2778102,36.9524713],[138.2772933,36.9540011],[138.2767031,36.9547541],[138.2737172,36.9558677],[138.2713841,36.958492],[138.2705127,36.9616025],[138.2717686,36.9671786],[138.271476,36.9695198],[138.2718434,36.9713801],[138.2715395,36.9730481],[138.2718717,36.9741578],[138.2702102,36.9795238],[138.2718755,36.9834142],[138.2722345,36.985348],[138.2712968,36.9885647],[138.2704487,36.9901903],[138.2685054,36.9959373],[138.2623169,37.0046054],[138.2606694,37.0052182],[138.2615137,37.0083343],[138.260222,37.0131555],[138.2591563,37.0155077],[138.2596203,37.0187993],[138.2586032,37.0256314],[138.2601285,37.0298026],[138.26097,37.0417329],[138.2604074,37.0558756],[138.2597709,37.0588369]]}}