{"type":"Feature","properties":{"route_number":134,"name":"国道134号","source":"OpenStreetMap contributors (ODbL) via Overpass API"},"geometry":{"type":"LineString","coordinates":[[139.6934158,35.2637571],[139.6910552,35.2590658],[139.686256,35.2552953],[139.6856826,35.2545284],[139.6854655,35.2536276],[139.6858127,35.2481577],[139.6869288,35.2458371],[139.6877374,35.2448262],[139.6963216,35.2395498],[139.7014865,35.2349585],[139.7017815,35.2340264],[139.705285,35.2313449],[139.7006109,35.2262438],[139.6991972,35.2250583],[139.6978294,35.2231133],[139.6945908,35.2202661],[139.6935403,35.2182002],[139.6915445,35.2175268],[139.6894672,35.2173672],[139.6885575,35.2168419],[139.6868309,35.213134],[139.685896,35.2121255],[139.6847994,35.2086547],[139.6827604,35.2060572],[139.6739162,35.2001364],[139.6698723,35.1979585],[139.6663105,35.1952391],[139.6622657,35.1916561],[139.6582141,35.1888946],[139.6567613,35.1874213],[139.6551817,35.1850272],[139.6543188,35.1845495],[139.6527613,35.1842362],[139.6520005,35.1837272],[139.6516541,35.1829365],[139.6517184,35.1812052],[139.6510968,35.180473],[139.6490487,35.179797],[139.6452825,35.1795519],[139.6438182,35.17885],[139.6427569,35.1772063],[139.6426922,35.1754902],[139.6422042,35.1733519],[139.6428383,35.1717769],[139.6428356,35.1712309],[139.6421934,35.1694533],[139.6419392,35.1670658],[139.6417169,35.1669567],[139.6399468,35.1676274],[139.6390034,35.1696486],[139.6347195,35.174381],[139.633322,35.1766756],[139.6319885,35.1779181],[139.6319022,35.1785728],[139.6324657,35.1797709],[139.632307,35.1811991],[139.6318616,35.1818612],[139.6309718,35.1824708],[139.6305203,35.1833283],[139.6289925,35.1850669],[139.6275342,35.1876261],[139.626967,35.1896262],[139.6271524,35.195438],[139.6259653,35.198818],[139.6256369,35.2039529],[139.6263876,35.2070002],[139.6271622,35.2079407],[139.6278022,35.20827],[139.6309936,35.2088007],[139.6318763,35.2093964],[139.6324228,35.2101415],[139.6332,35.2155426],[139.633456,35.2199967],[139.6295662,35.2221599],[139.6204672,35.2291122],[139.6182022,35.2306],[139.6169104,35.2318293],[139.6119254,35.2334971],[139.6099376,35.2338367],[139.6078501,35.2361037],[139.6071782,35.2365413],[139.6036444,35.2371749],[139.6020791,35.2377289],[139.601411,35.23881],[139.5976647,35.2411841],[139.5965037,35.2424822],[139.5949201,35.2435917],[139.5938842,35.2466637],[139.5933103,35.2474259],[139.5897665,35.2492526],[139.5840382,35.2531071],[139.5809431,35.2539405],[139.5806643,35.2547218],[139.5812446,35.2558238],[139.5815802,35.2575319],[139.5813907,35.2585596],[139.5799624,35.2617593],[139.5815082,35.2641236],[139.5851852,35.2687793],[139.5854539,35.2697107],[139.585186,35.2707104],[139.5846816,35.271216],[139.5826987,35.2720778],[139.5806974,35.2724584],[139.5788917,35.2738762],[139.5789967,35.2782371],[139.5798053,35.2799635],[139.5796246,35.2817374],[139.5799378,35.2829448],[139.5780861,35.2834715],[139.5744241,35.2863925],[139.5741399,35.2869805],[139.5737342,35.290488],[139.5728331,35.2922453],[139.5718866,35.2932861],[139.5704416,35.2940834],[139.5685843,35.2946358],[139.5678656,35.2944728],[139.5666724,35.2934042],[139.5657404,35.293043],[139.5629413,35.2927466],[139.5614587,35.2931162],[139.5605229,35.293914],[139.5580415,35.2981601],[139.5527997,35.3018637],[139.5523135,35.3037925],[139.5518806,35.3044115],[139.5454148,35.3092771],[139.5389723,35.3103145],[139.5378733,35.3101721],[139.5339841,35.3088327],[139.5333569,35.3069598],[139.5321546,35.3048068],[139.5310858,35.3039111],[139.5267325,35.3027973],[139.5249213,35.3028616],[139.5219243,35.3033723],[139.5191862,35.3033072],[139.5161653,35.3038235],[139.5113899,35.3051809],[139.5059808,35.3060809],[139.5013147,35.3065819],[139.4973269,35.3067512],[139.494498,35.3066113],[139.4922662,35.3078603],[139.4907319,35.3082926],[139.4874036,35.3082744],[139.4862417,35.3077057],[139.4843648,35.307421],[139.4817326,35.3083418],[139.4765949,35.3134447],[139.4706565,35.3170307],[139.4684206,35.3173223],[139.4655495,35.316937],[139.4454145,35.3201201],[139.4405694,35.3204742],[139.4280615,35.3198173],[139.4230809,35.3191396],[139.4173291,35.3179841],[139.4071203,35.3186661],[139.4015728,35.3186111],[139.3986287,35.3184689],[139.3926465,35.3175793],[139.3848384,35.3168262],[139.3820416,35.3173752],[139.3779872,35.3199073],[139.3762137,35.3202208],[139.3660703,35.3174432],[139.3635851,35.317105],[139.3605455,35.3163429],[139.3492605,35.3157582],[139.3396804,35.3147329],[139.3354141,35.3148846],[139.3271342,35.3127758],[139.3220587,35.3109113],[139.3209326,35.3108573],[139.3193932,35.3102791],[139.3184415,35.3103244],[139.3164865,35.3111157]]}}