{"type":"Feature","properties":{"route_number":1,"name":"国道1号","source":"OpenStreetMap contributors (ODbL) via Overpass API"},"geometry":{"type":"LineString","coordinates":[[139.7737674,35.6825677],[139.7632034,35.685231],[139.7595755,35.6748962],[139.7535465,35.6776207],[139.7505838,35.673079],[139.7465034,35.6644786],[139.7430813,35.6602261],[139.7452722,35.6550713],[139.744631,35.6479569],[139.7410251,35.6478417],[139.7393963,35.645623],[139.7342346,35.6429265],[139.7319622,35.6387506],[139.7308221,35.6320799],[139.7219691,35.6254757],[139.7167278,35.6152148],[139.7145595,35.6094341],[139.7113992,35.5940949],[139.7022506,35.58194],[139.6964153,35.5704733],[139.6972146,35.5592326],[139.6952142,35.553019],[139.684257,35.5278617],[139.6820094,35.5257024],[139.6729821,35.5221897],[139.6643199,35.5139417],[139.6619462,35.5080383],[139.662327,35.4996988],[139.6612844,35.4972886],[139.6529095,35.4904102],[139.6456236,35.4871867],[139.6421381,35.4845318],[139.6366662,35.4821475],[139.6265219,35.4710677],[139.6275222,35.4699527],[139.6241031,35.4657581],[139.6238692,35.4601185],[139.6226123,35.4583299],[139.604668,35.4506948],[139.5996239,35.4458484],[139.5962989,35.4437417],[139.5883765,35.4454462],[139.5834836,35.4449021],[139.5796231,35.4453412],[139.5777006,35.4447671],[139.5750842,35.4408829],[139.5762888,35.4353639],[139.5756136,35.4325058],[139.5736137,35.4293447],[139.5624245,35.4205636],[139.556078,35.4213101],[139.5514495,35.4203789],[139.5423549,35.4146267],[139.5379423,35.4066329],[139.5350464,35.4034523],[139.5322185,35.4014346],[139.5290763,35.3933312],[139.5242149,35.39205],[139.5210363,35.3887133],[139.5190291,35.3878898],[139.5167758,35.3852532],[139.5152982,35.3844702],[139.5141142,35.3822864],[139.5119562,35.3805077],[139.505295,35.377041],[139.4955513,35.3618964],[139.4922898,35.3587579],[139.4824967,35.3519751],[139.4795417,35.3509292],[139.4691653,35.3492973],[139.4515651,35.3478065],[139.4465174,35.3446687],[139.4400966,35.3430762],[139.4319382,35.3373975],[139.4292697,35.337023],[139.4214448,35.3376128],[139.4141084,35.3362883],[139.4095058,35.3341406],[139.3926939,35.3285288],[139.3905718,35.3291541],[139.3870513,35.3325581],[139.3815359,35.3331785],[139.3616701,35.3315144],[139.3548154,35.3329859],[139.3459302,35.3325585],[139.3370672,35.3310759],[139.3343018,35.3293555],[139.3315474,35.3249705],[139.3236452,35.3194023],[139.3223826,35.3157514],[139.3166585,35.3113357],[139.3140695,35.3075599],[139.3069105,35.3078065],[139.2910223,35.3038368],[139.2814795,35.3045371],[139.2722578,35.3036307],[139.2620757,35.2990471],[139.2392851,35.2913956],[139.2371656,35.2896611],[139.2306428,35.2863052],[139.222659,35.2835257],[139.2180543,35.2811842],[139.2050602,35.2784864],[139.2014787,35.2740428],[139.1943705,35.269001],[139.1827255,35.264563],[139.1768374,35.2591134],[139.1677205,35.2545002],[139.1631925,35.2509073],[139.1593067,35.2505895],[139.1596748,35.2483249],[139.1565998,35.247339],[139.1454323,35.2457465],[139.139936,35.2468563],[139.1319119,35.2467602],[139.1186909,35.2390632],[139.114325,35.2352522],[139.1117884,35.2339901],[139.1053355,35.2337916],[139.1008201,35.2316475],[139.0965244,35.2330385],[139.0933771,35.2331135],[139.0918761,35.2322794],[139.0901231,35.2332951],[139.0872577,35.2328495],[139.086109,35.2347075],[139.0841035,35.2330317],[139.082656,35.232747],[139.0807468,35.2335938],[139.0817868,35.2339716],[139.0817001,35.2345357],[139.07896,35.2344567],[139.0786145,35.236105],[139.0768963,35.2365579],[139.076826,35.2376678],[139.0725628,35.2402531],[139.0738082,35.2382329],[139.0714071,35.2384947],[139.0693519,35.2373378],[139.0688084,35.238698],[139.0671576,35.2385188],[139.0670206,35.2394181],[139.064618,35.2415786],[139.0638672,35.241495],[139.0628715,35.242805],[139.0593051,35.2449449],[139.0562103,35.2431232],[139.0553933,35.2402085],[139.0548467,35.2412807],[139.0529324,35.2412312],[139.0531817,35.2405474],[139.0543145,35.2402725],[139.05204,35.2403143],[139.0497753,35.2395043],[139.0500761,35.2400895],[139.0490208,35.2411255],[139.0470183,35.2415087],[139.0475007,35.2397934],[139.0463621,35.2389302],[139.0478107,35.23514],[139.0492535,35.2337007],[139.0487573,35.2316648],[139.0508245,35.2311902],[139.0502891,35.2307073],[139.0495377,35.2310053],[139.0488183,35.2296017],[139.0494742,35.2279316],[139.0489729,35.2250456],[139.0484552,35.2263546],[139.0469245,35.2242949],[139.0493954,35.2224838],[139.0508072,35.2226463],[139.0512615,35.2213892],[139.048292,35.2218076],[139.047969,35.220603],[139.0467446,35.2213076],[139.0453319,35.2211785],[139.0384854,35.217497],[139.0364209,35.2148686],[139.036119,35.2132286],[139.0368554,35.2099701],[139.0381122,35.2094328],[139.0384568,35.2084333],[139.0321572,35.2056396],[139.0325749,35.2049998],[139.0345625,35.2053194],[139.0337678,35.2044692],[139.0321271,35.2043904],[139.0336085,35.2039902],[139.0315446,35.203021],[139.0288267,35.1962116],[139.0270394,35.1934725],[139.0274203,35.1915135],[139.023909,35.187887],[139.021339,35.1868609],[139.019911,35.1867576],[139.0175443,35.1879073],[139.0161678,35.1875242],[139.0143226,35.1885294],[139.014094,35.1871739],[139.016206,35.1863097],[139.0166377,35.1845678],[139.0141502,35.1831483],[139.0136597,35.1791751],[139.0152458,35.1776259],[139.0153447,35.176779],[139.0134521,35.1743354],[139.0109939,35.174298],[139.0096631,35.174952],[139.0090046,35.1732487],[139.0071324,35.1724655],[139.0076977,35.1718866],[139.0120826,35.1718803],[139.0124244,35.1711946],[139.0091526,35.1693512],[139.0068203,35.1667045],[139.0030864,35.1661898],[139.0034356,35.1639428],[139.0010793,35.1621578],[138.9990808,35.1618254],[138.9955567,35.1585679],[138.9908973,35.1567725],[138.9902258,35.1553983],[138.989877,35.1493644],[138.9882623,35.1495013],[138.9882403,35.1514261],[138.9873864,35.1524031],[138.9847662,35.1530232],[138.9837732,35.1526895],[138.9835972,35.1518123],[138.9850831,35.1502169],[138.9862814,35.1464434],[138.9859875,35.1455238],[138.9844046,35.145615],[138.9844665,35.1476817],[138.9828504,35.1480925],[138.9808634,35.1457637],[138.9775041,35.1435654],[138.9765577,35.1419602],[138.9734252,35.1417004],[138.9718718,35.139408],[138.9654458,35.1350873],[138.9622544,35.1354093],[138.9598379,35.1339603],[138.9587057,35.1346372],[138.9587803,35.1362506],[138.9582265,35.1368284],[138.9556716,35.1358017],[138.9527025,35.136278],[138.9514315,35.1346308],[138.9473835,35.1321984],[138.9436701,35.1311928],[138.9408054,35.1277262],[138.9341359,35.1233063],[138.9296709,35.1192998],[138.9280556,35.1151131],[138.9269847,35.1139482],[138.9080571,35.1079071],[138.9034019,35.1076274],[138.8946141,35.1097214],[138.8925693,35.1115467],[138.8875739,35.1184919],[138.8818359,35.121163],[138.8749937,35.1206544],[138.8582,35.1215401],[138.8388545,35.1164919],[138.8361647,35.1164331],[138.8182454,35.1227553],[138.7905161,35.1308995],[138.7842224,35.1343638],[138.7782532,35.1337148],[138.7691453,35.1355553],[138.7349043,35.1395172],[138.7332169,35.1402105],[138.7265564,35.146085],[138.7241773,35.147318],[138.7021491,35.1503903],[138.6908226,35.1485211],[138.6861723,35.146805],[138.6806223,35.1432428],[138.6258299,35.1261183],[138.6231991,35.1236168],[138.6233262,35.1179387],[138.6211959,35.1159578],[138.6028731,35.1161328],[138.5898226,35.1134054],[138.57443,35.1112269],[138.5678946,35.1067386],[138.5575855,35.1024154],[138.5557501,35.1009835],[138.5501136,35.0915129],[138.5480439,35.086103],[138.5463328,35.0782863],[138.5432254,35.0734099],[138.5423557,35.0698101],[138.5408329,35.0674805],[138.5402302,35.0651109],[138.5376743,35.0618367],[138.5284075,35.0541266],[138.5151155,35.0471184],[138.5060944,35.0460698],[138.5051083,35.0451994],[138.503559,35.045144],[138.4988528,35.0431287],[138.4966797,35.0395589],[138.4891891,35.0315843],[138.4871392,35.0235672],[138.4795556,35.023976],[138.4749677,35.018386],[138.4608544,35.0162258],[138.4535659,35.0134153],[138.4098499,34.985501],[138.4044747,34.9799537],[138.3872455,34.9723119],[138.3748809,34.961737],[138.3671847,34.9536922],[138.3575418,34.9481214],[138.3549683,34.9477592],[138.3346255,34.9513708],[138.3322019,34.950205],[138.3295093,34.9444464],[138.3253265,34.9419707],[138.3208824,34.9410752],[138.3171426,34.9388641],[138.312963,34.9386709],[138.3090725,34.9376022],[138.3028516,34.9295498],[138.3012333,34.9254148],[138.2933863,34.9231519],[138.2921107,34.9222415],[138.2916767,34.9186001],[138.2870396,34.9052148],[138.2853932,34.9030027],[138.2723692,34.8945756],[138.2643374,34.8925801],[138.2564321,34.8896204],[138.2462652,34.8839594],[138.2372074,34.8806945],[138.2335485,34.8773912],[138.230412,34.8733307],[138.2268616,34.8707023],[138.2143066,34.8673918],[138.2119921,34.8651666],[138.208332,34.8576449],[138.2058623,34.8553941],[138.1849039,34.8482791],[138.1769164,34.8487525],[138.1668526,34.8457021],[138.1581379,34.8459934],[138.1294284,34.8371134],[138.1270926,34.8370056],[138.1209437,34.8384244],[138.1187572,34.8380907],[138.1173684,34.8369279],[138.1169885,34.8351514],[138.1211565,34.8253204],[138.1206404,34.8233062],[138.1183594,34.8202794],[138.115514,34.8188799],[138.1132446,34.8187746],[138.1080945,34.8207511],[138.1014554,34.820964],[138.0979112,34.821699],[138.0912634,34.8186777],[138.0848653,34.8130451],[138.0820779,34.8085891],[138.0768613,34.804298],[138.076571,34.8027582],[138.0781965,34.7968907],[138.0770995,34.7942214],[138.0717256,34.7903628],[138.0612402,34.7867378],[138.056273,34.785994],[138.0474866,34.7863377],[138.0337311,34.7837514],[138.0282792,34.7844222],[138.0176548,34.7882023],[138.0119931,34.7877992],[137.9935486,34.7795139],[137.9821555,34.7755526],[137.9797951,34.7733318],[137.9756846,34.7670788],[137.9701982,34.7631282],[137.9579282,34.7629291],[137.9340446,34.7571748],[137.9264638,34.7581061],[137.9230171,34.7575699],[137.8969506,34.7489019],[137.8934395,34.7462165],[137.8904608,34.7407002],[137.8868729,34.7384962],[137.8830288,34.737144],[137.8801707,34.7371165],[137.8684249,34.7403614],[137.8642909,34.7406773],[137.8277854,34.7310159],[137.8141573,34.7284122],[137.7985182,34.7316387],[137.7927277,34.7307552],[137.7860776,34.7278962],[137.7840232,34.7202678],[137.7722358,34.6943849],[137.7704954,34.6916413],[137.7556373,34.6752554],[137.7527673,34.6732639],[137.7493563,34.6718912],[137.7260077,34.6702976],[137.7182537,34.6705327],[137.6909854,34.6746009],[137.6736971,34.6794088],[137.665427,34.6806867],[137.6626252,34.6798614],[137.6593453,34.6760995],[137.6560037,34.6751602],[137.6435567,34.6765214],[137.636894,34.6763788],[137.593118,34.6791557],[137.5803448,34.6810841],[137.5255243,34.6789795],[137.4996131,34.6766948],[137.4951416,34.6775111],[137.4923372,34.6806152],[137.4889011,34.6913151],[137.4886396,34.6950123],[137.4864045,34.6987472],[137.4825321,34.7017973],[137.4765175,34.709123],[137.4668274,34.7170067],[137.4601969,34.7203515],[137.4482425,34.7201999],[137.4310969,34.725],[137.4269247,34.726774],[137.4247532,34.7306836],[137.4241608,34.7373507],[137.4150828,34.7446569],[137.4125889,34.7516947],[137.4086307,34.7581628],[137.4034584,34.7636818],[137.3998973,34.7659384],[137.3905125,34.76786],[137.3898791,34.7739066],[137.3679911,34.7962355],[137.3565591,34.8102512],[137.3518114,34.8141275],[137.3407856,34.8258031],[137.3308291,34.8312754],[137.3193764,34.8481648],[137.3143641,34.8538478],[137.3049458,34.862772],[137.3001516,34.8653693],[137.2891035,34.8694748],[137.2844624,34.8726316],[137.2767267,34.8758942],[137.2663531,34.883603],[137.2652155,34.8850807],[137.2638387,34.8900837],[137.2577323,34.8941103],[137.2531582,34.8952691],[137.2473581,34.8980006],[137.2434459,34.8985928],[137.2402165,34.8998426],[137.2360121,34.9025988],[137.2335465,34.9057197],[137.2301469,34.907802],[137.2283252,34.9103484],[137.2085447,34.9187246],[137.1981231,34.9293903],[137.1967452,34.9322556],[137.1959732,34.9367484],[137.1882705,34.9465397],[137.1745771,34.9539819],[137.1604056,34.9581561],[137.1502081,34.9590522],[137.1451564,34.9606828],[137.1344832,34.9658998],[137.1309946,34.9683506],[137.1210608,34.9724854],[137.1177128,34.9753853],[137.0890441,34.9861034],[137.0789232,34.9926502],[137.0552102,35.0030669],[137.049686,35.0087876],[137.0369023,35.0160246],[137.0323277,35.0205062],[137.0228886,35.0270502],[137.0135185,35.0364144],[137.0039779,35.0475625],[136.9975942,35.0534007],[136.9917762,35.0575067],[136.9855743,35.0608334],[136.9807136,35.0609086],[136.9691509,35.0654431],[136.9636424,35.0690896],[136.9554837,35.0719861],[136.9482629,35.0768465],[136.9401136,35.080385],[136.9344992,35.0844911],[136.9234585,35.1048751],[136.9218396,35.115062],[136.9144491,35.1175734],[136.9113772,35.1202507],[136.902111,35.1239368],[136.8845186,35.1237141],[136.877378,35.1251738],[136.8545295,35.1240537],[136.834129,35.1240532],[136.8267894,35.126148],[136.8160038,35.126401],[136.7826793,35.1242618],[136.7682012,35.1218051],[136.7240587,35.1112299],[136.7052828,35.100421],[136.7039328,35.0985783],[136.7001871,35.0861957],[136.6863277,35.0783794],[136.6850772,35.0771407],[136.6848651,35.0755229],[136.6872585,35.0703289],[136.6871406,35.0685685],[136.6836016,35.0554322],[136.677765,35.045906],[136.6722341,35.040043],[136.6714027,35.0245295],[136.6689765,35.0214405],[136.6545249,35.008234],[136.6542561,35.0071334],[136.65543,35.0045686],[136.6551858,35.0035274],[136.6530351,35.00106],[136.6487896,34.9987934],[136.6419637,34.9916007],[136.6339623,34.9856037],[136.6290168,34.981006],[136.6252369,34.974712],[136.6250424,34.9716434],[136.6207801,34.9618952],[136.617086,34.9575392],[136.6098474,34.9519985],[136.5984195,34.9367703],[136.5982875,34.9327999],[136.596039,34.9321767],[136.5920112,34.9268744],[136.5856925,34.9243671],[136.5827352,34.9224513],[136.5772353,34.9164539],[136.570348,34.9144236],[136.5574938,34.9147586],[136.5519453,34.9114838],[136.5505927,34.9097462],[136.5503539,34.9067586],[136.5486294,34.9027676],[136.5482609,34.8989563],[136.5436984,34.8922681],[136.5397623,34.8902784],[136.534534,34.8902664],[136.5310946,34.8885165],[136.5287217,34.8865948],[136.5239641,34.8802998],[136.5223329,34.879208],[136.5069511,34.8771608],[136.501999,34.8776579],[136.4957903,34.8755595],[136.4942246,34.8740193],[136.4880081,34.8642332],[136.4853591,34.862534],[136.4830355,34.8622704],[136.4731873,34.863306],[136.461454,34.8614594],[136.4463767,34.8645515],[136.4411928,34.8644825],[136.4372367,34.8633919],[136.4313213,34.8605171],[136.4259811,34.8592428],[136.4227737,34.8586627],[136.4171671,34.859145],[136.4140814,34.8585961],[136.410849,34.8568784],[136.4053826,34.8505172],[136.4033312,34.8496732],[136.3896965,34.8498926],[136.385348,34.8541211],[136.3752845,34.8581407],[136.373689,34.8597603],[136.374452,34.8634768],[136.3722454,34.8676374],[136.3695548,34.8697362],[136.3668156,34.8685974],[136.3627549,34.8707606],[136.3590824,34.8816511],[136.3555902,34.88598],[136.3529686,34.8880365],[136.3420117,34.8898989],[136.3398814,34.8895821],[136.3394214,34.8881795],[136.3371237,34.8868602],[136.336694,34.8889443],[136.337391,34.8899111],[136.3363246,34.8911164],[136.3380925,34.8924547],[136.338364,34.8937372],[136.3361328,34.8965074],[136.3347761,34.9026001],[136.331598,34.9049842],[136.3301669,34.9071416],[136.3239692,34.9098463],[136.31998,34.9147619],[136.3167888,34.916391],[136.3142919,34.9189727],[136.3090267,34.9204497],[136.3070568,34.9226647],[136.2955084,34.9287598],[136.2856961,34.935954],[136.2754561,34.9386946],[136.2669475,34.9379017],[136.2541497,34.9399686],[136.2453707,34.9441399],[136.2340978,34.9474198],[136.2252552,34.9527806],[136.2160878,34.9551285],[136.2105287,34.9583828],[136.2011008,34.9614156],[136.1911728,34.9714676],[136.1838863,34.9770365],[136.1815634,34.9781547],[136.1787204,34.9785304],[136.1657911,34.9776911],[136.1532738,34.9810735],[136.1343253,34.9847059],[136.1250947,34.9851435],[136.1205684,34.9861761],[136.1026543,35.000783],[136.0948,35.0053725],[136.081778,35.014486],[136.0787912,35.0173194],[136.05621,35.0246673],[136.0526996,35.0242281],[136.0494641,35.021335],[136.0232817,35.0309072],[136.019543,35.0315199],[136.0014372,35.0292408],[135.9877413,35.023412],[135.9722365,35.02073],[135.9697097,35.0192682],[135.9667607,35.0155287],[135.9555865,35.0075586],[135.9493252,35.0011803],[135.9356681,34.9903609],[135.9320312,34.9879285],[135.9201647,34.9826744],[135.9159089,34.9791496],[135.9132627,34.9783927],[135.9017759,34.9779296],[135.8903861,34.9827374],[135.8889525,34.9842801],[135.8864278,34.9912324],[135.882016,34.9972896],[135.8766861,35.0005668],[135.8700185,35.0021657],[135.8615879,35.0021883],[135.8599564,35.0017088],[135.8579665,34.9990081],[135.8574378,34.9972299],[135.8577597,34.9950178],[135.8569326,34.9941356],[135.8522555,34.9941129],[135.8487938,34.9920558],[135.8420284,34.990298],[135.8344048,34.9918648],[135.8302291,34.9909994],[135.8288042,34.989556],[135.8267006,34.9822297],[135.824773,34.9811373],[135.7985864,34.9815005],[135.7966372,34.9825613],[135.7954658,34.9848192],[135.7950399,34.9878171],[135.7932521,34.9889583],[135.7873166,34.9889389],[135.7837552,34.991117],[135.7775504,34.9928221],[135.7757428,34.9941639],[135.7731621,34.9948233],[135.764709,34.9959338],[135.7525429,34.9961814],[135.753751,34.9793343],[135.7462314,34.9791569],[135.7437408,34.8901819],[135.7424534,34.8872712],[135.7267846,34.8673059],[135.705803,34.8538859],[135.7039203,34.8514915],[135.6996067,34.842968],[135.6894646,34.8311982],[135.6690022,34.8138334],[135.6432564,34.8026007],[135.6351654,34.8026575],[135.6310891,34.8012201],[135.6284533,34.7987548],[135.6270077,34.7953001],[135.6211939,34.7944937],[135.6191747,34.7934158],[135.6176016,34.7889685],[135.6133025,34.7822154],[135.6043595,34.7782727],[135.5876458,34.7627669],[135.5770049,34.7564307],[135.5746886,34.7532945],[135.5760884,34.7533544],[135.5776435,34.7490918],[135.5507378,34.7281814],[135.5465016,34.7154195],[135.5462501,34.7003361],[135.5405686,34.700093],[135.5263382,34.6973816],[135.5212823,34.6978122],[135.5182888,34.6971192],[135.5005918,34.6983108]]}}