{"type":"Feature","properties":{"route_number":4,"name":"国道4号","source":"OpenStreetMap contributors (ODbL) via Overpass API","osm_relation_id":416684},"geometry":{"type":"LineString","coordinates":[[139.7744454,35.6840643],[139.772977,35.6886229],[139.7755534,35.6894263],[139.7746638,35.6918567],[139.7766073,35.7113734],[139.7783908,35.7127303],[139.7917136,35.7300101],[139.7928393,35.7326594],[139.7966489,35.7369942],[139.7979854,35.740754],[139.7975355,35.7438813],[139.80374,35.762452],[139.8027614,35.7888742],[139.8014457,35.8045413],[139.8006042,35.8062028],[139.7952274,35.8098548],[139.7937456,35.8119958],[139.7923181,35.8306847],[139.7803326,35.8628618],[139.7772876,35.8766276],[139.7665583,35.9002466],[139.7667319,35.9028744],[139.7702435,35.9120935],[139.782877,35.9241438],[139.7822085,35.9272441],[139.7777034,35.9342268],[139.7756739,35.9464313],[139.7765517,35.9557568],[139.7716438,35.9630015],[139.7681621,35.9700967],[139.7613621,35.9813634],[139.759963,35.9854198],[139.7530181,35.9910393],[139.7521653,35.9948531],[139.752521,36.0024629],[139.7549328,36.0110335],[139.7543749,36.013257],[139.7404891,36.0245714],[139.7238646,36.0347903],[139.714735,36.0571094],[139.7174276,36.0686713],[139.7229079,36.0746384],[139.7241668,36.07739],[139.7229986,36.084553],[139.7211568,36.0889157],[139.7208504,36.0938305],[139.7230522,36.1003853],[139.7239982,36.1122073],[139.7229159,36.1151484],[139.720248,36.1171852],[139.7183275,36.120035],[139.7113947,36.1267995],[139.7080495,36.1319936],[139.703747,36.1415211],[139.7132782,36.1488129],[139.7195656,36.1607144],[139.7201558,36.1629281],[139.7179046,36.1872484],[139.7189252,36.195545],[139.7189052,36.2016592],[139.7174028,36.2050694],[139.711987,36.210549],[139.711395,36.2129259],[139.7133877,36.2191124],[139.7136772,36.2249768],[139.7176987,36.2300771],[139.7305629,36.2383226],[139.7420984,36.2487839],[139.759953,36.2602171],[139.7724274,36.2746079],[139.775214,36.2795655],[139.7794194,36.2845864],[139.7836181,36.2874521],[139.7857644,36.2897167],[139.7862487,36.2965749],[139.7913197,36.3033232],[139.7958997,36.307479],[139.8007062,36.3133075],[139.8035965,36.3217964],[139.8040361,36.32607],[139.8100653,36.333469],[139.8191436,36.3391906],[139.8292079,36.3548044],[139.8320996,36.3618438],[139.8433927,36.3815172],[139.8571759,36.4020254],[139.8616269,36.4165656],[139.8634797,36.427712],[139.863742,36.4368727],[139.8649759,36.4479526],[139.8690099,36.4607382],[139.8715165,36.4769186],[139.872175,36.4923493],[139.8744722,36.5008351],[139.8779625,36.5195511],[139.8811794,36.5285588],[139.880934,36.536794],[139.8814327,36.5381218],[139.8829816,36.5394608],[139.9032192,36.5482769],[139.9064521,36.550542],[139.9155845,36.5619398],[139.9166768,36.5746283],[139.9183605,36.5772858],[139.9396982,36.5925179],[139.9522848,36.5992073],[139.9651443,36.6076294],[139.9668226,36.6095794],[139.9738295,36.6103689],[139.9747902,36.6111433],[139.9753362,36.6173127],[139.9743801,36.6225042],[139.9720056,36.6278049],[139.9677482,36.6412829],[139.961313,36.650476],[139.9619815,36.6528015],[139.9672451,36.6563887],[139.9683582,36.6590262],[139.9674151,36.6613155],[139.9631227,36.6651205],[139.9600531,36.6708987],[139.9598015,36.6725495],[139.9608743,36.6767778],[139.958311,36.6843896],[139.9586564,36.6863185],[139.9628791,36.6926644],[139.9587371,36.7046023],[139.9566663,36.7157346],[139.9586145,36.7204797],[139.9606051,36.7381357],[139.957394,36.7454239],[139.9550624,36.7483798],[139.9508493,36.7514386],[139.9433725,36.7644161],[139.943778,36.774636],[139.9468569,36.7815621],[139.9474625,36.7862222],[139.9468275,36.7895779],[139.9441481,36.7959972],[139.941536,36.8073339],[139.9425598,36.8098126],[139.9458106,36.813312],[139.9477963,36.8186123],[139.9474072,36.8247472],[139.9489904,36.8325941],[139.9534347,36.8383548],[139.9531737,36.8408803],[139.950748,36.8464583],[139.9455616,36.854011],[139.9439338,36.8587957],[139.9605563,36.8783527],[139.985125,36.897914],[139.9860347,36.8999707],[139.9861332,36.9047826],[139.9873992,36.9069162],[140.0024223,36.9184529],[140.0264408,36.9307251],[140.0345615,36.940845],[140.0440351,36.9448087],[140.0498673,36.9482862],[140.0580696,36.9545265],[140.0662842,36.9623152],[140.0678934,36.9656198],[140.0686717,36.9732441],[140.0724525,36.9776542],[140.07303,36.9794327],[140.0631601,36.9969292],[140.0630086,36.9990965],[140.0646062,37.0046726],[140.0670982,37.0067232],[140.0699102,37.0078179],[140.0731712,37.0121734],[140.0819273,37.0157397],[140.0920185,37.0245188],[140.0951532,37.0357138],[140.0980417,37.0386307],[140.1000386,37.0440501],[140.1055864,37.0515631],[140.1071292,37.0578873],[140.1102335,37.0611182],[140.1158104,37.0651723],[140.1174072,37.0678238],[140.1210039,37.0709013],[140.1235737,37.0713662],[140.1257749,37.0728454],[140.1286963,37.0771043],[140.1314271,37.0844018],[140.1317278,37.089317],[140.1336727,37.0949974],[140.1374329,37.0982921],[140.1394411,37.101652],[140.1394832,37.1030624],[140.1383092,37.1055582],[140.138934,37.1070077],[140.1461434,37.1108432],[140.1521517,37.1172192],[140.1680257,37.1227956],[140.1761157,37.1227898],[140.1899852,37.1265968],[140.1966114,37.1320522],[140.208308,37.1373468],[140.2115428,37.1394636],[140.2169747,37.1415239],[140.2222266,37.1421213],[140.2300864,37.1399772],[140.2365628,37.1414189],[140.2424456,37.1449809],[140.2452264,37.1479961],[140.2489576,37.1501277],[140.250215,37.1537824],[140.2516413,37.1552344],[140.2844847,37.1673351],[140.2861047,37.1698572],[140.2873359,37.1813251],[140.2976733,37.191139],[140.2997539,37.1924933],[140.3191303,37.1994253],[140.3218728,37.2017465],[140.3248181,37.2115507],[140.3279083,37.2161194],[140.3329585,37.2365439],[140.3382457,37.2484036],[140.3502793,37.2631835],[140.3615169,37.2729289],[140.3646344,37.277947],[140.3685368,37.2863341],[140.3671172,37.305047],[140.361245,37.3340164],[140.3615494,37.3397891],[140.3576803,37.3447257],[140.3552896,37.3525141],[140.3497497,37.3625047],[140.3485982,37.3686658],[140.348169,37.3777312],[140.3401737,37.3919797],[140.3439206,37.4084188],[140.3600101,37.4266408],[140.3657548,37.4309512],[140.3709154,37.436796],[140.3793899,37.4447415],[140.3770378,37.4654605],[140.3802699,37.4864701],[140.3817242,37.4895166],[140.3922831,37.5019705],[140.3947141,37.5076599],[140.3953835,37.510439],[140.3952515,37.5170563],[140.3975407,37.5433506],[140.4031797,37.5551836],[140.4104509,37.5627862],[140.4141478,37.5689301],[140.4196254,37.5730954],[140.4219077,37.5786315],[140.423774,37.5806348],[140.4271441,37.5820577],[140.4327321,37.5823639],[140.4373098,37.5839107],[140.4439451,37.5848295],[140.4502203,37.5882231],[140.4538193,37.5920443],[140.4570066,37.593944],[140.4613532,37.5986224],[140.4645163,37.6038355],[140.472951,37.611581],[140.4740813,37.6192334],[140.4808545,37.6270364],[140.482697,37.6360134],[140.4864607,37.6441625],[140.4885293,37.6523176],[140.4908297,37.6571292],[140.4907657,37.659592],[140.488032,37.6664212],[140.4802638,37.6723276],[140.4754401,37.6818381],[140.472902,37.6837065],[140.4655971,37.687014],[140.4635237,37.6887591],[140.4623125,37.6908043],[140.4597735,37.6986057],[140.460063,37.7002345],[140.4629844,37.7042674],[140.4638023,37.7086523],[140.4668291,37.7113206],[140.4674572,37.712656],[140.4673439,37.714426],[140.4652011,37.7188594],[140.4668183,37.7243165],[140.4666105,37.7367785],[140.4689739,37.742444],[140.4720973,37.7456506],[140.4716198,37.7493571],[140.4719381,37.7538136],[140.4837939,37.7733622],[140.4870942,37.7836378],[140.4879449,37.7908421],[140.4913641,37.801373],[140.5064006,37.8223009],[140.5175306,37.8334672],[140.5195962,37.8363334],[140.521107,37.8408556],[140.5212693,37.8463128],[140.5226605,37.855652],[140.5240057,37.8587916],[140.5365358,37.8686688],[140.5464585,37.8733902],[140.5555321,37.8823956],[140.5678419,37.8889588],[140.5700985,37.89237],[140.5704404,37.8963318],[140.5712338,37.8980438],[140.5792793,37.9041473],[140.581577,37.9082414],[140.586104,37.9114578],[140.5904215,37.9130906],[140.5971108,37.9198707],[140.6026363,37.9263997],[140.6109578,37.9397476],[140.6115009,37.9415753],[140.6109023,37.9451172],[140.6112526,37.94763],[140.6099347,37.9501738],[140.6081519,37.9569636],[140.6123552,37.9659471],[140.6124473,37.9688741],[140.6110918,37.9742021],[140.6141693,37.9826447],[140.6132507,37.9849842],[140.61046,37.9877424],[140.6099581,37.9894337],[140.6120307,37.9951383],[140.6116345,38.001725],[140.6103287,38.0070153],[140.6111278,38.0096996],[140.6202004,38.0168222],[140.6245189,38.0225],[140.6283914,38.0261722],[140.630646,38.0296996],[140.640289,38.036091],[140.6543704,38.0435665],[140.6588342,38.0445427],[140.6648078,38.0443088],[140.6761896,38.0405162],[140.6863784,38.0384035],[140.7016008,38.0382818],[140.7136306,38.0449646],[140.7230341,38.0462482],[140.7253414,38.0470727],[140.7365545,38.0596831],[140.7402477,38.0622348],[140.7440844,38.0626714],[140.7504701,38.0602354],[140.7548981,38.0599336],[140.7584988,38.0609911],[140.7644955,38.0655996],[140.7668044,38.0665009],[140.7780892,38.0658763],[140.7877419,38.0698211],[140.794625,38.0696799],[140.8004473,38.0711572],[140.8059367,38.0699451],[140.8092033,38.0702161],[140.8134757,38.0727105],[140.8191684,38.079281],[140.8257906,38.0843606],[140.8573126,38.0914277],[140.8610128,38.0936106],[140.8715315,38.1029217],[140.876199,38.1142758],[140.8731606,38.1232499],[140.8731132,38.1250245],[140.8749974,38.1303664],[140.8895014,38.161547],[140.8924436,38.2121612],[140.8930803,38.2154957],[140.8955348,38.2195895],[140.9085271,38.232871],[140.91947,38.241319],[140.9272068,38.2501688],[140.9364646,38.2577395],[140.9379197,38.2610497],[140.9387297,38.2738214],[140.93804,38.2782768],[140.9383516,38.2843532],[140.9364236,38.2885552],[140.9296629,38.2957121],[140.9201081,38.3024809],[140.9158242,38.3042055],[140.907874,38.3052876],[140.90372,38.3077623],[140.9019469,38.3104687],[140.9003902,38.3159207],[140.8963633,38.321524],[140.891436,38.3316612],[140.8706784,38.3543068],[140.8709235,38.3565661],[140.8731129,38.3588994],[140.8737026,38.360625],[140.8727725,38.3650277],[140.8739808,38.3688548],[140.8739172,38.3743574],[140.8725599,38.3785114],[140.8725708,38.3806162],[140.8832861,38.3945904],[140.8863704,38.4059116],[140.8868053,38.4122604],[140.8911289,38.4271469],[140.8909687,38.4350139],[140.8921191,38.4437656],[140.8916448,38.4456913],[140.8903475,38.4471853],[140.8794768,38.4542966],[140.8782478,38.4620644],[140.8748048,38.4691746],[140.8747168,38.4722915],[140.8779009,38.479663],[140.8818178,38.4935334],[140.888134,38.5032885],[140.8960974,38.5119475],[140.9113052,38.5198077],[140.9151996,38.5200449],[140.9182055,38.5213601],[140.9221338,38.5218702],[140.935662,38.5202578],[140.9377736,38.5206856],[140.9390417,38.5217149],[140.9396905,38.5283211],[140.945232,38.534458],[140.9495113,38.5417229],[140.9529134,38.5523129],[140.9525803,38.5539532],[140.9498545,38.5568415],[140.9488053,38.5589237],[140.945594,38.5789051],[140.9461736,38.5819738],[140.9527731,38.5884396],[140.9629402,38.591987],[140.9694171,38.5988859],[140.978268,38.6030121],[140.9805657,38.6048689],[140.9827439,38.6090591],[140.9843325,38.6200369],[140.9823289,38.6262179],[140.9825332,38.6305954],[140.9852522,38.633239],[140.9866031,38.6380347],[140.9888628,38.6407786],[140.9910634,38.6414844],[140.999682,38.6417416],[141.0022035,38.6428948],[141.0061434,38.6518011],[141.0061768,38.6539168],[141.0036851,38.6595151],[141.0034927,38.6625002],[141.0047814,38.6653264],[141.0088741,38.6692997],[141.0096744,38.6737813],[141.0087095,38.6760372],[141.0049228,38.6798061],[141.0023578,38.6842023],[141.003097,38.6888682],[141.0013718,38.693303],[141.0014592,38.6954883],[141.0030828,38.6978833],[141.0076717,38.7012386],[141.0154515,38.7091168],[141.020194,38.712685],[141.0242629,38.720284],[141.0239834,38.7223167],[141.0210113,38.7252647],[141.0225811,38.7316305],[141.0222108,38.7368146],[141.0155111,38.7439544],[141.0142826,38.7479389],[141.0144915,38.7492603],[141.0263518,38.7568599],[141.033667,38.75839],[141.0354689,38.759494],[141.0431028,38.7726809],[141.0446652,38.7802643],[141.0496106,38.7855639],[141.0512231,38.7919866],[141.055674,38.7997152],[141.0733813,38.806456],[141.0771722,38.8098154],[141.0777528,38.8115743],[141.0766484,38.8172093],[141.0828855,38.8317906],[141.083875,38.8332136],[141.0925839,38.8402337],[141.0966614,38.8517385],[141.0979116,38.8537465],[141.0984078,38.8563886],[141.1026096,38.8593847],[141.1089866,38.8674862],[141.1175744,38.8724203],[141.1187778,38.8740335],[141.11799,38.8807106],[141.1180955,38.8876354],[141.1165638,38.8903735],[141.1151031,38.8962897],[141.1133599,38.8996966],[141.1124351,38.9040102],[141.1124808,38.9071492],[141.1079981,38.9142038],[141.107535,38.9162356],[141.1083614,38.9183916],[141.1182014,38.9319487],[141.118907,38.9390149],[141.1154684,38.9434209],[141.115305,38.9445674],[141.1177806,38.9469747],[141.1187825,38.949196],[141.1211141,38.9518781],[141.1227236,38.9571219],[141.1182032,38.9735348],[141.1229555,38.9821519],[141.1237955,38.9860179],[141.12156,38.9929696],[141.1140567,38.9979784],[141.1129837,38.9997144],[141.1127625,39.0019213],[141.1173972,39.0103724],[141.1171927,39.012329],[141.1150887,39.0152508],[141.1147874,39.0166809],[141.1185609,39.0366844],[141.1201627,39.0387742],[141.1268161,39.0421397],[141.1289408,39.0440355],[141.1358549,39.0602627],[141.1350879,39.0662455],[141.131856,39.070009],[141.1311783,39.0718799],[141.1319734,39.0743076],[141.1346406,39.0774609],[141.1367932,39.0874226],[141.1346708,39.0926713],[141.133991,39.0971599],[141.1380901,39.1049826],[141.1422844,39.1100109],[141.1436425,39.1130905],[141.1463151,39.1167842],[141.1461488,39.1267488],[141.1494417,39.1302944],[141.1500707,39.1318328],[141.1496271,39.1482588],[141.1489758,39.1531871],[141.144624,39.1587822],[141.1439359,39.1642358],[141.142092,39.1686795],[141.1299108,39.1682403],[141.1265351,39.1696313],[141.1238079,39.1725628],[141.1224971,39.1751242],[141.1207936,39.1826919],[141.113785,39.1937391],[141.107866,39.2073995],[141.092785,39.2291264],[141.0917785,39.2317302],[141.0924691,39.2335816],[141.0973451,39.2393298],[141.0985905,39.2417398],[141.0999228,39.2523866],[141.0989918,39.2628355],[141.102781,39.2832161],[141.1087128,39.304536],[141.1127129,39.3124989],[141.1112973,39.324561],[141.1071592,39.3448231],[141.1143373,39.3628794],[141.1167593,39.3644729],[141.1225891,39.365976],[141.1350902,39.371167],[141.1372327,39.3738136],[141.1441362,39.386263],[141.1438771,39.3900707],[141.1385797,39.4064839],[141.1357591,39.409338],[141.1287845,39.4120559],[141.1274899,39.4136936],[141.1271727,39.4155545],[141.1419333,39.4631763],[141.140923,39.4672951],[141.1413273,39.4705931],[141.1392878,39.4738698],[141.1389725,39.4767281],[141.1423669,39.4867921],[141.1419065,39.4908271],[141.1435298,39.4955459],[141.1439951,39.4995682],[141.1504033,39.507681],[141.1560838,39.5096186],[141.1576808,39.5108525],[141.1634819,39.5289451],[141.1693374,39.5403499],[141.1673738,39.5515927],[141.1676358,39.5567695],[141.1670497,39.5612865],[141.1660391,39.5633131],[141.1657008,39.5700486],[141.1663684,39.5767084],[141.1690251,39.5808477],[141.1700046,39.5844281],[141.1709329,39.596494],[141.1707694,39.6034518],[141.1721858,39.61576],[141.1740316,39.6214963],[141.1747154,39.6267657],[141.1726808,39.6353467],[141.1694629,39.6392496],[141.1652429,39.6469462],[141.1649026,39.6519815],[141.1555688,39.6726314],[141.1560353,39.681784],[141.1574984,39.6834868],[141.1624839,39.685808],[141.164827,39.6880536],[141.1703598,39.7058033],[141.1691751,39.706779],[141.1635266,39.7086164],[141.1543337,39.7151048],[141.1470984,39.7166206],[141.1420278,39.7186793],[141.1354848,39.7227261],[141.1253112,39.7252867],[141.123743,39.7263264],[141.1228569,39.7279122],[141.1231868,39.7305409],[141.1255442,39.7370333],[141.1318809,39.7468936],[141.1355498,39.7560136],[141.1316473,39.7649989],[141.130563,39.7703681],[141.1270189,39.775691],[141.1249513,39.7854974],[141.1221747,39.7907751],[141.1241392,39.7941609],[141.1227804,39.8007059],[141.1293656,39.8107368],[141.1338658,39.8152932],[141.1362787,39.8195781],[141.1397256,39.8218092],[141.1419113,39.8249948],[141.1482892,39.827512],[141.1492914,39.8299572],[141.1508524,39.8312384],[141.1601551,39.8350167],[141.1692789,39.8364007],[141.1725753,39.8386815],[141.1737271,39.8410251],[141.1751922,39.8545889],[141.1800416,39.8619353],[141.1811182,39.8671915],[141.1843962,39.8717805],[141.1899607,39.8826613],[141.19235,39.884634],[141.1959258,39.8899566],[141.1970811,39.8949911],[141.200246,39.902499],[141.2015915,39.9093466],[141.2002741,39.9120491],[141.1965153,39.9142915],[141.1948342,39.9162776],[141.1946658,39.918653],[141.1960208,39.9224622],[141.1948514,39.9254036],[141.1950504,39.927299],[141.199614,39.9311168],[141.2020407,39.9351719],[141.2097733,39.9393168],[141.2143449,39.942548],[141.21572,39.944655],[141.2175187,39.9483161],[141.2175541,39.9504212],[141.2119209,39.9556919],[141.2110708,39.9574668],[141.2108927,39.9620746],[141.2127963,39.9688043],[141.2152885,39.9734337],[141.2189578,39.9752065],[141.2209707,39.9773482],[141.2270288,39.9803782],[141.2303696,39.9931723],[141.2342421,39.9976247],[141.237916,40.00346],[141.238671,40.008802],[141.236687,40.014977],[141.2377131,40.0182646],[141.2374784,40.025572],[141.2386642,40.0330488],[141.2382628,40.0382836],[141.236965,40.039764],[141.2377563,40.0441231],[141.2369164,40.0460758],[141.2326305,40.0480666],[141.2327413,40.0494941],[141.2310497,40.0536544],[141.2320704,40.0585127],[141.2302555,40.0694528],[141.2318858,40.0741495],[141.2341086,40.0774971],[141.2342237,40.0789962],[141.2332416,40.0816794],[141.2336751,40.083309],[141.2368751,40.0857014],[141.2445181,40.0869955],[141.2508887,40.089282],[141.2563416,40.0969325],[141.2608391,40.1007174],[141.2620092,40.1035409],[141.2617076,40.106604],[141.2605496,40.1085692],[141.2613699,40.110442],[141.2591042,40.1143154],[141.2586921,40.1170506],[141.2601259,40.1213244],[141.2633067,40.1266826],[141.2698186,40.1306403],[141.2761259,40.1316875],[141.2884873,40.1371883],[141.2964912,40.1427725],[141.3052544,40.1452322],[141.3074123,40.1464927],[141.3082507,40.1481209],[141.3086411,40.1612672],[141.3073282,40.1631857],[141.3032123,40.1660381],[141.3025192,40.167881],[141.3037386,40.1715233],[141.3037446,40.1763078],[141.3085915,40.180955],[141.3084662,40.1837893],[141.3108264,40.1868896],[141.308869,40.1883699],[141.3071736,40.1943004],[141.3038007,40.1982136],[141.3078895,40.2076923],[141.306453,40.2116872],[141.3059425,40.2176013],[141.3006621,40.2229678],[141.2974895,40.2244083],[141.2956878,40.2259941],[141.2927843,40.2268253],[141.2906612,40.2290752],[141.2875919,40.2293349],[141.2845572,40.2287724],[141.2813206,40.2304845],[141.2765673,40.2375186],[141.2758127,40.2403772],[141.2736016,40.2421864],[141.2706871,40.2459566],[141.2695811,40.2492246],[141.2705575,40.2507797],[141.2772594,40.2524892],[141.2802837,40.2543912],[141.2811772,40.2557579],[141.2812014,40.2611032],[141.281759,40.2624168],[141.2875947,40.2665941],[141.2895041,40.2686859],[141.2931009,40.2708583],[141.294085,40.2807199],[141.290884,40.28799],[141.2910548,40.2916183],[141.2958312,40.2979608],[141.3008038,40.3012036],[141.3038702,40.3053667],[141.3072416,40.3076936],[141.3103768,40.3133419],[141.3105538,40.315718],[141.3067121,40.3224903],[141.3053054,40.3270215],[141.3004419,40.3338347],[141.2948227,40.3370276],[141.2784354,40.339879],[141.2765944,40.3418126],[141.2762753,40.3460722],[141.2730768,40.3474376],[141.2681156,40.350951],[141.2602504,40.3511159],[141.2550805,40.3531291],[141.2537397,40.3550311],[141.2525713,40.3592028],[141.2477175,40.3624553],[141.2455261,40.3668651],[141.2403942,40.3695962],[141.2396789,40.3708618],[141.2398242,40.3729227],[141.240946,40.3750586],[141.245797,40.380719],[141.251808,40.383178],[141.255627,40.3866643],[141.2615419,40.3877761],[141.2631581,40.3887776],[141.2637629,40.3904806],[141.2626927,40.393696],[141.2626464,40.3962877],[141.2631122,40.3996962],[141.2645677,40.4014624],[141.2742354,40.4075438],[141.2775686,40.4108283],[141.2851146,40.413376],[141.2895012,40.4161519],[141.2967585,40.4164985],[141.2982373,40.4159137],[141.2997747,40.4142395],[141.3016838,40.4143869],[141.3061361,40.4175219],[141.307168,40.421973],[141.308376,40.423487],[141.3251148,40.4313047],[141.3273225,40.4348284],[141.3369332,40.4458423],[141.3356863,40.4469684],[141.3312686,40.447168],[141.3275895,40.448588],[141.3262783,40.4522519],[141.320172,40.4547035],[141.3190015,40.4570655],[141.3154063,40.4610761],[141.3141534,40.463699],[141.3096499,40.4661903],[141.3082957,40.4676245],[141.3078858,40.4710907],[141.3060353,40.4740517],[141.3087948,40.477842],[141.3089666,40.4819908],[141.3128442,40.486243],[141.3200869,40.4923579],[141.3204566,40.4937687],[141.3165296,40.4991559],[141.314617,40.506534],[141.3122416,40.5091546],[141.309906,40.5103482],[141.303399,40.5113899],[141.2984898,40.5143066],[141.2934808,40.5150648],[141.2912305,40.5166673],[141.2896369,40.5211776],[141.2862626,40.5259108],[141.2880506,40.5310974],[141.2834116,40.5398811],[141.2843476,40.5443509],[141.2832824,40.5472957],[141.2797104,40.5521176],[141.2775372,40.5539746],[141.2769048,40.5561257],[141.2738194,40.55825],[141.2725587,40.5649715],[141.2685022,40.5677555],[141.2608539,40.5767069],[141.2585037,40.5894311],[141.2610142,40.6155547],[141.2600761,40.6190276],[141.243591,40.635443],[141.239669,40.637989],[141.2345387,40.6391243],[141.223106,40.6388752],[141.1988921,40.6446833],[141.1918329,40.6587785],[141.187578,40.6636924],[141.1832902,40.6710066],[141.1816948,40.6724906],[141.1770492,40.6745881],[141.1726505,40.6782616],[141.1711312,40.6803256],[141.1687852,40.6903522],[141.1694771,40.6943661],[141.1690224,40.6967797],[141.1626117,40.7039805],[141.1605004,40.7091866],[141.1571838,40.7134282],[141.1565622,40.7151117],[141.1570537,40.7184293],[141.1618109,40.7291888],[141.1625436,40.7356003],[141.161682,40.7374052],[141.157947,40.7404241],[141.1432506,40.7665969],[141.1447702,40.7718107],[141.148245,40.7980483],[141.1469067,40.7991383],[141.1380083,40.8023367],[141.1336258,40.8068046],[141.1266901,40.8120502],[141.124715,40.81465],[141.122095,40.821385],[141.12206,40.82358],[141.1274965,40.8292791],[141.1294572,40.8339928],[141.129102,40.8360793],[141.1269049,40.84007],[141.1268241,40.844097],[141.1261119,40.8466183],[141.1210313,40.8521227],[141.1144671,40.8553559],[141.1137145,40.8568952],[141.1130045,40.8620901],[141.1097742,40.8665031],[141.1046046,40.8697398],[141.0945188,40.874646],[141.0891981,40.8803227],[141.0827164,40.8857792],[141.0812751,40.8887436],[141.0810592,40.8909775],[141.0786324,40.8955901],[141.0763089,40.898286],[141.0725896,40.9008257],[141.0696768,40.9037486],[141.056822,40.9095889],[141.0512995,40.9103212],[141.0462835,40.9130172],[141.0380922,40.9151066],[141.0198028,40.9259515],[141.0144594,40.9265181],[140.9934671,40.9329339],[140.9876481,40.9323858],[140.9821737,40.9306654],[140.977174,40.9264371],[140.9745985,40.925267],[140.9619979,40.9253466],[140.9546789,40.922722],[140.9460961,40.9216439],[140.9384915,40.9184008],[140.9180541,40.9171894],[140.9105551,40.9157641],[140.9064051,40.9171089],[140.9004717,40.9176042],[140.8883142,40.9200611],[140.8741947,40.9178727],[140.8719627,40.9169102],[140.8704399,40.9154169],[140.8687325,40.9087901],[140.8676313,40.9068983],[140.8622441,40.9034957],[140.8610176,40.9019434],[140.8602253,40.8972308],[140.8610532,40.8915024],[140.8603391,40.888799],[140.8569279,40.8859881],[140.8521483,40.884745],[140.8504839,40.8827977],[140.8498383,40.8781899],[140.8515629,40.8750942],[140.8512147,40.87247],[140.8463585,40.8667231],[140.844761,40.8619175],[140.8391282,40.854383],[140.8370941,40.8480082],[140.8342792,40.8452948],[140.8267733,40.8413298],[140.8178541,40.8311554],[140.8143836,40.8297499],[140.8001176,40.8266923],[140.7861948,40.828565],[140.7729853,40.8256908],[140.7611918,40.8242781],[140.7453159,40.8230124],[140.7413625,40.8236031]]}}