{"type":"Feature","properties":{"route_number":174,"name":"国道174号","source":"OpenStreetMap contributors (ODbL) via Overpass API","osm_relation_id":3767143},"geometry":{"type":"LineString","coordinates":[[135.1985544,34.6847064],[135.1985836,34.6851427],[135.1985823,34.6851747],[135.1985819,34.6851807],[135.1985764,34.6852184],[135.1985671,34.6852556],[135.1985541,34.685292],[135.1985374,34.6853275],[135.198517,34.685362],[135.1984679,34.685468],[135.1984158,34.685565],[135.1984648,34.6857969],[135.1981895,34.6862737],[135.1981269,34.6863857],[135.198085,34.6864785]]}}