{"type":"FeatureCollection", "features": [
{"type":"Feature","geometry":{"type":"MultiPolygon","coordinates":[[[[138.344,37.822],[138.497,37.904],[138.454,38.076],[138.461,38.291],[138.25,38.078],[138.344,37.822]]],[[[134.933,34.288],[134.834,34.473],[134.668,34.294],[134.824,34.203],[134.933,34.288]]],[[[130.623,30.263],[130.673,30.367],[130.497,30.466],[130.388,30.388],[130.446,30.265],[130.623,30.263]]],[[[130.083,32.23],[130.2,32.341],[130.168,32.541],[130.01,32.522],[129.979,32.346],[130.083,32.23]]],[[[129.279,34.123],[129.337,34.285],[129.215,34.321],[129.186,34.145],[129.279,34.123]]],[[[129.386,34.354],[129.475,34.54],[129.326,34.607],[129.267,34.37],[129.386,34.354]]],[[[128.665,32.784],[128.657,32.628],[128.895,32.652],[128.839,32.763],[128.665,32.784]]],[[[143.824,44.117],[143.289,44.397],[142.704,44.819],[142.416,45.125],[141.938,45.51],[141.668,45.401],[141.583,45.156],[141.719,44.941],[141.782,44.716],[141.761,44.483],[141.661,44.264],[141.645,44.019],[141.398,43.643],[141.412,43.381],[141.296,43.2],[141.138,43.18],[140.781,43.215],[140.487,43.338],[140.397,43.167],[140.486,43.05],[140.224,42.796],[139.891,42.649],[139.821,42.388],[139.895,42.19],[140.057,42.067],[140.108,41.913],[139.995,41.576],[140.149,41.423],[140.385,41.519],[140.66,41.816],[141,41.737],[141.151,41.805],[140.734,42.116],[140.528,42.132],[140.315,42.334],[140.48,42.559],[140.71,42.556],[140.986,42.342],[141.407,42.547],[141.851,42.579],[142.508,42.258],[143.237,42],[143.429,42.419],[143.581,42.599],[143.969,42.881],[144.302,42.984],[144.631,42.947],[145.029,43.032],[145.347,43.177],[145.341,43.303],[145.101,43.765],[145.126,43.869],[145.352,44.23],[145.343,44.334],[144.799,43.94],[144.482,43.95],[144.101,44.102],[143.824,44.117]]],[[[131.175,33.603],[131.058,33.673],[130.953,33.872],[130.716,33.928],[130.484,33.835],[130.365,33.634],[130.168,33.598],[130.072,33.522],[129.66,33.365],[129.58,33.236],[129.897,33.022],[129.828,32.893],[129.827,32.725],[130.054,32.771],[130.246,32.677],[130.34,32.702],[130.326,32.853],[130.175,32.851],[130.127,33.105],[130.238,33.178],[130.382,33.093],[130.547,32.832],[130.641,32.619],[130.462,32.305],[130.319,32.144],[130.194,32.091],[130.188,31.769],[130.322,31.601],[130.294,31.451],[130.147,31.408],[130.201,31.292],[130.589,31.179],[130.645,31.267],[130.528,31.46],[130.655,31.718],[130.79,31.269],[130.686,31.015],[130.902,31.112],[131.098,31.256],[131.035,31.378],[131.14,31.442],[131.337,31.405],[131.46,31.671],[131.46,31.883],[131.565,32.223],[131.732,32.593],[131.977,32.844],[131.949,33.047],[131.848,33.118],[131.897,33.255],[131.537,33.274],[131.711,33.502],[131.583,33.652],[131.419,33.584],[131.175,33.603]]],[[[134.357,34.256],[134.076,34.358],[133.948,34.348],[133.706,34.237],[133.582,34.017],[133.134,33.927],[132.99,34.088],[132.784,33.992],[132.643,33.69],[132.366,33.512],[132.405,33.331],[132.511,33.293],[132.476,33.126],[132.495,32.917],[132.709,32.902],[132.692,32.776],[132.87,32.755],[132.977,32.842],[133.286,33.36],[133.632,33.511],[133.959,33.448],[134.182,33.247],[134.243,33.439],[134.377,33.608],[134.739,33.821],[134.635,34.044],[134.638,34.227],[134.357,34.256]]],[[[141.229,41.373],[140.937,41.506],[140.86,41.425],[140.801,41.139],[141.2,41.244],[141.262,41.103],[141.119,40.882],[140.936,40.941],[140.801,40.834],[140.679,40.893],[140.628,41.195],[140.386,41.23],[140.315,41.161],[140.344,41.006],[140.281,40.846],[140.029,40.733],[139.923,40.598],[140.014,40.315],[139.908,40.022],[140.055,39.749],[140.048,39.464],[139.912,39.229],[139.802,38.882],[139.58,38.599],[139.477,38.4],[139.401,38.143],[139.247,38.009],[138.885,37.844],[138.709,37.561],[138.548,37.392],[138.32,37.218],[137.913,37.065],[137.514,36.952],[137.343,36.77],[137.124,36.774],[137.017,36.837],[136.924,37.172],[137.152,37.283],[137.338,37.437],[137.323,37.522],[136.843,37.382],[136.719,37.198],[136.749,36.951],[136.698,36.742],[136.359,36.362],[136.156,36.223],[136.006,35.991],[136.095,35.768],[135.903,35.607],[135.68,35.503],[135.327,35.526],[135.232,35.592],[135.174,35.747],[134.882,35.663],[134.456,35.628],[134.214,35.539],[133.86,35.495],[133.615,35.511],[133.376,35.459],[133.267,35.557],[132.923,35.511],[132.698,35.418],[132.619,35.307],[131.856,34.726],[131.608,34.615],[131.354,34.413],[131.004,34.393],[130.889,34.262],[130.919,33.976],[131.072,34.021],[131.233,33.948],[131.476,34.019],[131.741,34.052],[132.09,33.855],[132.202,34.032],[132.238,34.227],[132.421,34.353],[132.657,34.246],[133.019,34.33],[133.142,34.302],[133.445,34.433],[133.968,34.527],[134.208,34.698],[134.584,34.771],[134.74,34.765],[135.042,34.631],[135.355,34.654],[135.385,34.5],[135.1,34.288],[135.128,34.007],[135.175,33.898],[135.347,33.722],[135.453,33.553],[135.695,33.487],[135.916,33.562],[136.33,34.177],[136.544,34.258],[136.854,34.324],[136.88,34.434],[136.616,34.589],[136.533,34.678],[136.69,34.984],[136.852,35.06],[136.885,34.806],[137.032,34.766],[137.275,34.773],[137.318,34.636],[137.543,34.664],[137.979,34.641],[138.189,34.596],[138.253,34.733],[138.577,35.086],[138.72,35.124],[138.803,34.975],[138.761,34.699],[138.838,34.619],[138.983,34.698],[139.086,34.839],[139.116,35.097],[139.249,35.278],[139.474,35.299],[139.636,35.142],[139.744,35.252],[139.65,35.409],[139.768,35.495],[139.835,35.658],[139.988,35.668],[140.086,35.54],[139.826,35.297],[139.799,34.957],[139.92,34.9],[140.059,35.038],[140.315,35.155],[140.417,35.267],[140.457,35.51],[140.639,35.661],[140.874,35.725],[140.622,36.059],[140.574,36.231],[140.627,36.503],[140.792,36.847],[140.968,37.002],[141.036,37.467],[140.928,37.95],[140.962,38.149],[141.108,38.338],[141.467,38.404],[141.546,38.763],[141.659,38.975],[141.901,39.111],[141.977,39.429],[141.978,39.844],[141.797,40.291],[141.646,40.474],[141.463,40.611],[141.4,41.096],[141.455,41.405],[141.229,41.373]]],[[[124.293,24.516],[124.085,24.436],[124.234,24.358],[124.293,24.516]]],[[[123.889,24.28],[123.771,24.414],[123.681,24.288],[123.889,24.28]]],[[[128.259,26.653],[128.217,26.797],[127.926,26.556],[128.127,26.552],[128.259,26.653]]],[[[129.453,28.209],[129.642,28.411],[129.322,28.36],[129.248,28.283],[129.366,28.128],[129.453,28.209]]]]},"properties":{"featurecla":"Admin-0 country","scalerank":3,"LABELRANK":2,"SOVEREIGNT":"Japan","SOV_A3":"JPN","ADM0_DIF":0,"LEVEL":2,"TYPE":"Sovereign country","TLC":"1","ADMIN":"Japan","ADM0_A3":"JPN","GEOU_DIF":0,"GEOUNIT":"Japan","GU_A3":"JPN","SU_DIF":0,"SUBUNIT":"Japan","SU_A3":"JPN","BRK_DIFF":0,"NAME":"Japan","NAME_LONG":"Japan","BRK_A3":"JPN","BRK_NAME":"Japan","BRK_GROUP":"","ABBREV":"Japan","POSTAL":"J","FORMAL_EN":"Japan","FORMAL_FR":"","NAME_CIAWF":"Japan","NOTE_ADM0":"","NOTE_BRK":"","NAME_SORT":"Japan","NAME_ALT":"","MAPCOLOR7":5,"MAPCOLOR8":3,"MAPCOLOR9":5,"MAPCOLOR13":4,"POP_EST":126264931,"POP_RANK":17,"POP_YEAR":2019,"GDP_MD":5081769,"GDP_YEAR":2019,"ECONOMY":"1. Developed region: G7","INCOME_GRP":"1. High income: OECD","FIPS_10":"JA","ISO_A2":"JP","ISO_A2_EH":"JP","ISO_A3":"JPN","ISO_A3_EH":"JPN","ISO_N3":"392","ISO_N3_EH":"392","UN_A3":"392","WB_A2":"JP","WB_A3":"JPN","WOE_ID":23424856,"WOE_ID_EH":23424856,"WOE_NOTE":"Exact WOE match as country","ADM0_ISO":"JPN","ADM0_DIFF":"","ADM0_TLC":"JPN","ADM0_A3_US":"JPN","ADM0_A3_FR":"JPN","ADM0_A3_RU":"JPN","ADM0_A3_ES":"JPN","ADM0_A3_CN":"JPN","ADM0_A3_TW":"JPN","ADM0_A3_IN":"JPN","ADM0_A3_NP":"JPN","ADM0_A3_PK":"JPN","ADM0_A3_DE":"JPN","ADM0_A3_GB":"JPN","ADM0_A3_BR":"JPN","ADM0_A3_IL":"JPN","ADM0_A3_PS":"JPN","ADM0_A3_SA":"JPN","ADM0_A3_EG":"JPN","ADM0_A3_MA":"JPN","ADM0_A3_PT":"JPN","ADM0_A3_AR":"JPN","ADM0_A3_JP":"JPN","ADM0_A3_KO":"JPN","ADM0_A3_VN":"JPN","ADM0_A3_TR":"JPN","ADM0_A3_ID":"JPN","ADM0_A3_PL":"JPN","ADM0_A3_GR":"JPN","ADM0_A3_IT":"JPN","ADM0_A3_NL":"JPN","ADM0_A3_SE":"JPN","ADM0_A3_BD":"JPN","ADM0_A3_UA":"JPN","ADM0_A3_UN":-99,"ADM0_A3_WB":-99,"CONTINENT":"Asia","REGION_UN":"Asia","SUBREGION":"Eastern Asia","REGION_WB":"East Asia & Pacific","NAME_LEN":5,"LONG_LEN":5,"ABBREV_LEN":5,"TINY":-99,"HOMEPART":1,"MIN_ZOOM":0,"MIN_LABEL":1.7,"MAX_LABEL":7,"LABEL_X":138.44217,"LABEL_Y":36.142538,"NE_ID":1159320937,"WIKIDATAID":"Q17","NAME_AR":"اليابان","NAME_BN":"জাপান","NAME_DE":"Japan","NAME_EN":"Japan","NAME_ES":"Japón","NAME_FA":"ژاپن","NAME_FR":"Japon","NAME_EL":"Ιαπωνία","NAME_HE":"יפן","NAME_HI":"जापान","NAME_HU":"Japán","NAME_ID":"Jepang","NAME_IT":"Giappone","NAME_JA":"日本","NAME_KO":"일본","NAME_NL":"Japan","NAME_PL":"Japonia","NAME_PT":"Japão","NAME_RU":"Япония","NAME_SV":"Japan","NAME_TR":"Japonya","NAME_UK":"Японія","NAME_UR":"جاپان","NAME_VI":"Nhật Bản","NAME_ZH":"日本","NAME_ZHT":"日本","FCLASS_ISO":"Admin-0 country","TLC_DIFF":"","FCLASS_TLC":"Admin-0 country","FCLASS_US":"","FCLASS_FR":"","FCLASS_RU":"","FCLASS_ES":"","FCLASS_CN":"","FCLASS_TW":"","FCLASS_IN":"","FCLASS_NP":"","FCLASS_PK":"","FCLASS_DE":"","FCLASS_GB":"","FCLASS_BR":"","FCLASS_IL":"","FCLASS_PS":"","FCLASS_SA":"","FCLASS_EG":"","FCLASS_MA":"","FCLASS_PT":"","FCLASS_AR":"","FCLASS_JP":"","FCLASS_KO":"","FCLASS_VN":"","FCLASS_TR":"","FCLASS_ID":"","FCLASS_PL":"","FCLASS_GR":"","FCLASS_IT":"","FCLASS_NL":"","FCLASS_SE":"","FCLASS_BD":"","FCLASS_UA":""}}
]}