{"type":"FeatureCollection","features":[{"type":"Feature","properties":{"route_id":"253","route_number":253,"name":"国道253号","source":"OpenStreetMap contributors (ODbL)","osm_relations":[7451451,8197220,10265734]},"geometry":{"type":"MultiLineString","coordinates":[[[138.26606,37.17281],[138.32125,37.16926],[138.35342,37.16461],[138.36873,37.16327],[138.38683,37.15922],[138.39933,37.15901],[138.40859,37.16085],[138.4146,37.15887],[138.42295,37.15753],[138.42501,37.15862],[138.43238,37.15905],[138.43679,37.15677],[138.44225,37.15523],[138.45,37.1567],[138.45392,37.15872],[138.45867,37.15816],[138.4678,37.15942],[138.47413,37.1615],[138.47658,37.15999],[138.48034,37.16001],[138.48143,37.15847],[138.48694,37.15626],[138.49091,37.15833],[138.49498,37.15818],[138.49674,37.15929],[138.50123,37.15936],[138.5036,37.15788],[138.50771,37.15764],[138.51131,37.15404],[138.51668,37.15295],[138.52333,37.15398],[138.52521,37.15502],[138.5278,37.15481],[138.52981,37.15611],[138.5329,37.1556],[138.53891,37.15659],[138.53955,37.15725],[138.53921,37.15929],[138.54054,37.15968],[138.54252,37.15857],[138.55317,37.14071],[138.55226,37.13916],[138.55214,37.1363],[138.55532,37.13601],[138.55843,37.13726],[138.55928,37.13499],[138.56115,37.13341],[138.56487,37.13375],[138.56684,37.13308],[138.56965,37.13601],[138.57577,37.13588],[138.57802,37.13471],[138.57936,37.13246],[138.58091,37.13172],[138.58006,37.12915],[138.58167,37.12813],[138.58157,37.12672],[138.58399,37.12496],[138.58625,37.12458],[138.58884,37.12234],[138.59486,37.12306],[138.60127,37.1257],[138.60282,37.12755],[138.60743,37.1298],[138.61041,37.13225],[138.6176,37.13363],[138.62458,37.13868],[138.62723,37.13946],[138.63607,37.13941],[138.64772,37.13544],[138.65758,37.1358],[138.67348,37.12654],[138.68153,37.12571],[138.69865,37.13038],[138.70197,37.12983],[138.70525,37.13248],[138.70921,37.13275],[138.7113,37.13695],[138.71652,37.13822],[138.71971,37.14008],[138.73094,37.13795],[138.73423,37.14065],[138.74006,37.13752],[138.7428,37.132],[138.75047,37.12711],[138.75798,37.11947],[138.76676,37.11468],[138.77126,37.10838],[138.77646,37.10279],[138.77788,37.10233],[138.78146,37.09758],[138.78569,37.09596],[138.78641,37.09459],[138.78839,37.09364],[138.78848,37.09186],[138.78993,37.09006],[138.79449,37.08872],[138.80119,37.08402],[138.8038,37.08414],[138.80421,37.08342],[138.80887,37.08211],[138.81317,37.08231],[138.81861,37.08399],[138.83364,37.09103],[138.8443,37.09245],[138.84773,37.09389],[138.8575,37.09583],[138.86825,37.09516],[138.87329,37.09306],[138.86825,37.09516]],[[138.87298,37.09279],[138.87116,37.09074],[138.87327,37.08407],[138.87324,37.08047],[138.87216,37.07812],[138.879,37.07914],[138.88425,37.07795]],[[138.39126,37.15363],[138.40556,37.15298],[138.41514,37.15014],[138.42771,37.14817],[138.43995,37.14371]]]}}]}