{"type":"FeatureCollection","features":[{"type":"Feature","properties":{"route_id":"137","route_number":137,"name":"国道137号","source":"OpenStreetMap contributors (ODbL)","osm_relations":[3908565,9077744,9077745,9077746]},"geometry":{"type":"MultiLineString","coordinates":[[[138.77354,35.49705],[138.76749,35.50151],[138.7713,35.50411],[138.77228,35.50646],[138.77383,35.50759],[138.77461,35.51185],[138.77298,35.5133],[138.76817,35.51251],[138.76658,35.51367],[138.76906,35.51638],[138.77657,35.52058],[138.77776,35.52353],[138.77761,35.52747],[138.77668,35.53098],[138.772,35.53919],[138.77396,35.54196],[138.76828,35.53875],[138.76533,35.53832],[138.76793,35.53904],[138.7714,35.54199],[138.76837,35.54561],[138.76248,35.57114],[138.76687,35.57389],[138.76985,35.57329],[138.76396,35.57541],[138.76323,35.57719],[138.76099,35.57929],[138.75485,35.58364],[138.74756,35.58468],[138.74288,35.58681],[138.73915,35.5869],[138.73438,35.58934],[138.71904,35.59287],[138.71401,35.59509],[138.70445,35.60438],[138.70027,35.61022],[138.69364,35.61483],[138.69365,35.61978],[138.68684,35.62374],[138.68091,35.631],[138.67427,35.63389],[138.66837,35.64557],[138.65784,35.64593],[138.64929,35.64352]],[[138.79182,35.47506],[138.79814,35.48344],[138.78919,35.48509],[138.78456,35.48777]],[[138.78449,35.48784],[138.77888,35.49262],[138.77767,35.49522],[138.7736,35.49701]],[[138.76872,35.51605],[138.76772,35.5147]],[[138.64925,35.64359],[138.65699,35.6459],[138.66528,35.64631],[138.66634,35.6471],[138.6676,35.64648],[138.66961,35.64424],[138.67091,35.6399],[138.67431,35.634],[138.681,35.63105],[138.68654,35.62413],[138.69369,35.61988],[138.69349,35.61615]],[[138.77657,35.52058],[138.78123,35.51726],[138.79172,35.49776]]]}}]}