{"type":"FeatureCollection","features":[{"type":"Feature","properties":{"route_id":"456","route_number":456,"name":"国道456号","source":"OpenStreetMap contributors (ODbL)","osm_relations":[446122,9390115]},"geometry":{"type":"MultiLineString","coordinates":[[[141.3248,39.02275],[141.32154,39.02402],[141.31968,39.02622],[141.31362,39.02841],[141.30447,39.02974],[141.30246,39.03201],[141.2987,39.03332],[141.29526,39.0331],[141.29371,39.04249],[141.29356,39.04994],[141.29141,39.05183],[141.2885,39.05763],[141.28242,39.06488],[141.28261,39.06847],[141.2811,39.07039],[141.2819,39.07228],[141.27721,39.0797],[141.27586,39.08508],[141.274,39.08869],[141.26589,39.09899],[141.26622,39.10173],[141.27069,39.10444],[141.27371,39.10453],[141.27408,39.10563],[141.27069,39.10917],[141.26789,39.11059],[141.26559,39.11425],[141.25843,39.11713],[141.25306,39.1247],[141.24904,39.12801],[141.24932,39.13139],[141.2522,39.13275],[141.2483,39.13462],[141.2459,39.14275],[141.24215,39.15055],[141.23863,39.15396],[141.23737,39.15427],[141.22718,39.15459],[141.22074,39.1539],[141.21555,39.15205],[141.21118,39.15496],[141.2062,39.15688],[141.20199,39.16041],[141.19666,39.16066],[141.19482,39.16479],[141.19546,39.16844],[141.19271,39.17353],[141.18876,39.18411],[141.18318,39.18663],[141.17582,39.18577],[141.17532,39.1959],[141.16636,39.19948],[141.16289,39.20453],[141.1581,39.20629],[141.1595,39.20812],[141.16023,39.21132],[141.16193,39.21327],[141.16149,39.21995],[141.16621,39.22064],[141.17051,39.224],[141.17599,39.22627],[141.17665,39.22776],[141.1792,39.22844],[141.18276,39.23079],[141.18953,39.23287],[141.192,39.23544],[141.19528,39.23633],[141.20212,39.24273],[141.20192,39.2456],[141.20439,39.24918],[141.21171,39.25554],[141.21401,39.25852],[141.21364,39.25984],[141.21544,39.26396],[141.2151,39.26574],[141.2179,39.26627],[141.2173,39.26777],[141.2178,39.2695],[141.21626,39.27272],[141.21593,39.27814],[141.21398,39.28293],[141.21158,39.285],[141.21033,39.28878],[141.2076,39.29115],[141.20751,39.29252],[141.20146,39.29719],[141.20279,39.29971],[141.20172,39.30321],[141.21175,39.31001],[141.21588,39.31788],[141.21849,39.32054],[141.21932,39.32355],[141.22866,39.32504],[141.23449,39.32827],[141.2358,39.3318],[141.23926,39.33516],[141.2374,39.33984],[141.23594,39.34075],[141.23582,39.34228],[141.23889,39.34468],[141.23962,39.34666],[141.23627,39.35257],[141.23719,39.35534],[141.23613,39.35933],[141.23285,39.36202],[141.23258,39.3689],[141.22963,39.37275],[141.23129,39.37768],[141.23073,39.38323],[141.22231,39.38632],[141.21714,39.38725],[141.21298,39.39019],[141.21103,39.39052],[141.20737,39.38965],[141.20149,39.39387],[141.19363,39.39625],[141.18012,39.396],[141.17385,39.39495],[141.16984,39.39314],[141.16531,39.39383],[141.16545,39.39817],[141.16756,39.4002],[141.16848,39.40956],[141.17239,39.41396],[141.17427,39.41831],[141.17888,39.4243],[141.17827,39.42811],[141.17912,39.43101],[141.17714,39.44021],[141.176,39.44247],[141.17553,39.45491],[141.1742,39.45772],[141.17044,39.45911],[141.1678,39.4611],[141.16785,39.46535],[141.16599,39.47101],[141.16885,39.47915],[141.17466,39.48919],[141.17462,39.49249],[141.1714,39.4968],[141.17163,39.50309],[141.17413,39.50767],[141.17803,39.51124],[141.18265,39.51377],[141.19057,39.51466],[141.19279,39.51581],[141.1941,39.51803],[141.19432,39.52292],[141.19364,39.52529],[141.19191,39.52683],[141.17906,39.54584],[141.17753,39.54999],[141.17835,39.55318],[141.17745,39.55914],[141.18011,39.56605],[141.20011,39.58845],[141.20226,39.59348],[141.20238,39.59942],[141.20495,39.60273],[141.20213,39.61108],[141.1977,39.61478],[141.19144,39.61623],[141.18411,39.62319],[141.18316,39.62867],[141.18452,39.63259],[141.18439,39.63473],[141.18596,39.63698],[141.18625,39.63888],[141.18201,39.65655],[141.18064,39.65843],[141.17269,39.66395],[141.16679,39.67342],[141.16125,39.68532]],[[141.33019,39.01917],[141.32831,39.01372],[141.32868,39.0121],[141.32563,39.00868],[141.32606,39.00436],[141.32257,38.99784],[141.32641,38.99598],[141.33095,38.99231],[141.33192,38.98969],[141.33194,38.98476],[141.33051,38.9823],[141.33119,38.979],[141.32931,38.97337],[141.33516,38.96203],[141.33408,38.95425],[141.33576,38.95198],[141.33737,38.94637],[141.33966,38.94351],[141.33904,38.93918],[141.34149,38.93585],[141.3406,38.93256],[141.34083,38.93008],[141.33947,38.92788],[141.34178,38.92314],[141.32989,38.91681],[141.33251,38.91438],[141.33446,38.91398],[141.33528,38.91257],[141.33773,38.91172],[141.33729,38.90961],[141.34014,38.907],[141.34074,38.90297],[141.34386,38.9002],[141.34441,38.89771],[141.34369,38.89584],[141.34513,38.89276],[141.3486,38.89159],[141.34835,38.8879],[141.34903,38.88599],[141.35219,38.88412],[141.3542,38.88188],[141.35553,38.87743],[141.35746,38.87697],[141.35823,38.87518],[141.35407,38.87304],[141.35369,38.86979],[141.35079,38.86832],[141.3487,38.86496],[141.35006,38.86338],[141.34932,38.86262],[141.35056,38.86195],[141.34876,38.85894],[141.34973,38.85187],[141.34781,38.84896],[141.3478,38.84729],[141.34944,38.84602],[141.34204,38.84509],[141.34231,38.84323],[141.34049,38.84077],[141.34206,38.83861],[141.34173,38.83615],[141.33566,38.82951],[141.3306,38.82607],[141.3275,38.82205],[141.32312,38.8212],[141.32044,38.82252],[141.32202,38.81999],[141.32007,38.81872],[141.31791,38.81944],[141.31749,38.82095],[141.31603,38.82062],[141.31471,38.82176],[141.31375,38.82163],[141.31525,38.81914],[141.31411,38.81641],[141.31465,38.81335],[141.31401,38.81248],[141.31487,38.81149],[141.31403,38.80908],[141.31727,38.80367],[141.31909,38.79672],[141.32191,38.79288],[141.324,38.78658],[141.3261,38.78298],[141.32986,38.77893],[141.32923,38.776],[141.3305,38.77345],[141.33026,38.77232],[141.33333,38.77232],[141.33723,38.77662],[141.34433,38.77565],[141.34841,38.77783],[141.35314,38.77766],[141.35844,38.7804],[141.36809,38.7828],[141.37249,38.78264],[141.37659,38.78112],[141.38109,38.78202],[141.38506,38.78101],[141.38898,38.78207],[141.39204,38.78456],[141.40071,38.78486],[141.40779,38.78719],[141.41085,38.78628],[141.41482,38.78658],[141.41914,38.7839],[141.42546,38.78291],[141.42931,38.77841],[141.44129,38.77377],[141.44413,38.77444],[141.44711,38.77767],[141.4553,38.77921],[141.4646,38.78314],[141.46928,38.78278],[141.47567,38.78358],[141.4819,38.78603],[141.48909,38.78561],[141.49467,38.7843],[141.50525,38.78946],[141.50449,38.79314],[141.50521,38.79393],[141.50704,38.79305],[141.5137,38.79367],[141.51696,38.79231],[141.51697,38.79148]],[[141.16144,39.6853],[141.16691,39.67342],[141.17233,39.66464],[141.18113,39.65792]]]}}]}