{"type":"FeatureCollection","features":[{"type":"Feature","properties":{"route_id":"319","route_number":319,"name":"国道319号","source":"OpenStreetMap contributors (ODbL)","osm_relations":[31661,9836574]},"geometry":{"type":"MultiLineString","coordinates":[[[133.84868,34.30193],[133.83731,34.29547],[133.82661,34.28507],[133.81168,34.27741],[133.80571,34.27054],[133.79036,34.26187],[133.78225,34.25905],[133.78766,34.25096],[133.79627,34.23487],[133.79664,34.23258],[133.79546,34.2271],[133.79741,34.22088],[133.81075,34.20002],[133.8125,34.19896],[133.82398,34.19612],[133.83048,34.18677],[133.82959,34.18299],[133.82683,34.17861],[133.82687,34.17192],[133.82513,34.17063],[133.82651,34.16592],[133.82547,34.16201],[133.82319,34.15817],[133.82296,34.15595],[133.82033,34.15415],[133.81995,34.15],[133.81773,34.14744],[133.81681,34.1441],[133.81696,34.13635],[133.81109,34.13063],[133.81004,34.12834],[133.80802,34.12649],[133.807,34.12381],[133.80283,34.12163],[133.80268,34.11823],[133.80051,34.1157],[133.79888,34.1116],[133.80045,34.10763],[133.79915,34.10572],[133.79868,34.1031],[133.80233,34.09895],[133.80255,34.09294],[133.80354,34.08945],[133.8184,34.0553],[133.82243,34.04937],[133.82793,34.04332],[133.83025,34.04196],[133.83511,34.041],[133.83644,34.03897],[133.83448,34.03562],[133.82858,34.03351],[133.82953,34.02916],[133.82266,34.02828],[133.81571,34.02959],[133.81152,34.03181],[133.80809,34.03222],[133.79548,34.03075],[133.78619,34.02288],[133.78525,34.02135],[133.78528,34.01949],[133.78284,34.01846],[133.78323,34.01727],[133.78202,34.01918],[133.78126,34.01898],[133.78306,34.01868]],[[133.78323,34.01727],[133.78247,34.01189],[133.78361,34.00626],[133.78668,34.00215],[133.79117,33.993],[133.79007,33.99076],[133.78783,33.98997],[133.78532,33.98399],[133.78534,33.97703],[133.78138,33.97269],[133.77731,33.97071],[133.77375,33.97023],[133.76775,33.97116],[133.76309,33.97081],[133.75908,33.96956],[133.75537,33.966],[133.75434,33.9613],[133.75519,33.95936],[133.75427,33.95995],[133.75109,33.95922],[133.74757,33.9598],[133.74448,33.95902],[133.74224,33.95992],[133.74077,33.9632],[133.74145,33.96501],[133.74347,33.96657],[133.74377,33.96847],[133.74258,33.96911],[133.73839,33.96831],[133.73426,33.9719],[133.7305,33.97198],[133.72402,33.96979],[133.72226,33.96482],[133.71612,33.96257],[133.71496,33.96304],[133.71344,33.96562],[133.70694,33.96676],[133.70432,33.96893],[133.70001,33.96942],[133.69777,33.97253],[133.6914,33.97393],[133.68947,33.97026],[133.6903,33.96772],[133.68607,33.96573],[133.68763,33.96422],[133.68723,33.96273],[133.68094,33.96137],[133.67873,33.96348],[133.67693,33.96335],[133.67603,33.96235],[133.67762,33.95838],[133.67646,33.95708],[133.67388,33.95611],[133.66915,33.95788],[133.66754,33.9575],[133.66645,33.95937],[133.66449,33.95976],[133.66158,33.95851],[133.66017,33.95632],[133.6566,33.95437],[133.65422,33.95504],[133.65026,33.95816],[133.64628,33.95839],[133.64489,33.95646],[133.6433,33.9508],[133.642,33.95019],[133.64213,33.94806],[133.64122,33.9464],[133.6398,33.94633],[133.63886,33.94658],[133.63705,33.95757],[133.63333,33.95813],[133.63124,33.95657],[133.62751,33.95642],[133.62744,33.95877],[133.629,33.96138],[133.62843,33.96232],[133.62678,33.96093],[133.62633,33.96299],[133.62382,33.96343],[133.62303,33.96478],[133.62021,33.96171],[133.6162,33.96539],[133.61533,33.96458],[133.61575,33.96386],[133.61434,33.96332],[133.61519,33.96258],[133.61472,33.96182],[133.6153,33.96018],[133.61378,33.95898],[133.61485,33.9581],[133.61354,33.95731],[133.61435,33.95639],[133.61354,33.95456],[133.6147,33.95568],[133.61396,33.95432],[133.61141,33.95392],[133.6141,33.95244],[133.61388,33.95027],[133.6127,33.95002],[133.61146,33.95082],[133.61195,33.94957],[133.61131,33.94938],[133.60651,33.95017],[133.6028,33.94846],[133.60093,33.94666],[133.60139,33.94519],[133.59966,33.94442],[133.59557,33.94369],[133.59246,33.94433],[133.59147,33.94345],[133.59124,33.94496],[133.58878,33.9458],[133.58468,33.94398],[133.5804,33.94352],[133.58039,33.94136],[133.57936,33.93999],[133.5766,33.93927],[133.57798,33.93778],[133.57752,33.93452],[133.57805,33.93366],[133.57221,33.93291],[133.57005,33.93451],[133.56943,33.93374],[133.56993,33.93238],[133.56759,33.93342],[133.56774,33.93432],[133.56641,33.93578],[133.56485,33.93608],[133.56047,33.93456],[133.55958,33.93489],[133.56028,33.93613],[133.55882,33.93629],[133.5587,33.93719],[133.55589,33.93648],[133.55429,33.93704],[133.55147,33.93479],[133.5526,33.93364],[133.55068,33.93393],[133.548,33.93164],[133.54483,33.93091],[133.54602,33.92956],[133.54525,33.92766],[133.54632,33.9254],[133.54422,33.9243],[133.54361,33.92531],[133.54438,33.9261],[133.54289,33.92822],[133.54153,33.92621],[133.53843,33.92543],[133.53458,33.92622],[133.53289,33.92746],[133.52913,33.92614],[133.52653,33.92694],[133.52593,33.92486],[133.52358,33.92706],[133.52365,33.92907],[133.52553,33.93074],[133.52862,33.93],[133.52889,33.93192],[133.52997,33.93316],[133.53496,33.93263],[133.53204,33.93431],[133.53105,33.93386],[133.53011,33.93453],[133.53047,33.93654],[133.52222,33.95049],[133.52368,33.95162],[133.52531,33.95713],[133.5274,33.9555],[133.52782,33.95799],[133.52931,33.95961],[133.53087,33.95763],[133.52942,33.96077],[133.53161,33.95857],[133.53177,33.96226],[133.53551,33.96333],[133.54026,33.9635],[133.54578,33.97029],[133.54567,33.97263],[133.54264,33.97465],[133.53896,33.98159]],[[133.84859,34.30164],[133.83773,34.29566],[133.82668,34.28502],[133.81223,34.27767],[133.80576,34.27043],[133.79086,34.26203],[133.78226,34.25909]],[[133.78235,34.25903],[133.78776,34.251],[133.79642,34.2349],[133.79679,34.23257],[133.79557,34.22711],[133.79806,34.2197]],[[133.82953,34.02916],[133.82387,34.0282]]]}}]}