{"type":"FeatureCollection","features":[{"type":"Feature","properties":{"route_id":"332","route_number":332,"name":"国道332号","source":"OpenStreetMap contributors (ODbL)","osm_relations":[3771098]},"geometry":{"type":"MultiLineString","coordinates":[[[127.65271,26.20364],[127.65213,26.21188],[127.65347,26.21364],[127.65604,26.21306],[127.66112,26.21026],[127.66398,26.20747],[127.66889,26.20452],[127.67238,26.20489],[127.67432,26.20781]],[[127.67445,26.20778],[127.67265,26.20491],[127.6692,26.20431],[127.66387,26.20743],[127.66136,26.21],[127.65599,26.21299],[127.65319,26.21335],[127.65467,26.21334]],[[127.67374,26.20602],[127.67206,26.20447],[127.66974,26.2041],[127.66512,26.20669]],[[127.65319,26.21335],[127.65223,26.21179],[127.6528,26.20369]]]}}]}