{"type":"FeatureCollection","features":[{"type":"Feature","properties":{"route_id":"321","route_number":321,"name":"国道321号","source":"OpenStreetMap contributors (ODbL)","osm_relations":[9730724,9732500]},"geometry":{"type":"MultiLineString","coordinates":[[[132.71991,32.93344],[132.71527,32.92985],[132.71528,32.92691],[132.71218,32.92535],[132.71091,32.92345],[132.71281,32.9171],[132.71488,32.91395],[132.71718,32.91274],[132.72012,32.9065],[132.71992,32.90458],[132.72201,32.89889],[132.72104,32.89453],[132.72236,32.89359],[132.72538,32.89333],[132.72617,32.89202],[132.72348,32.88804],[132.7231,32.8844],[132.72219,32.88303],[132.72312,32.88113],[132.72182,32.87926],[132.72262,32.87719],[132.72461,32.87561],[132.72382,32.87399],[132.72043,32.87174],[132.72099,32.86951],[132.71935,32.86407],[132.72114,32.85976],[132.71946,32.85806],[132.71963,32.85694],[132.71781,32.85478],[132.71668,32.85141],[132.70769,32.84355],[132.71023,32.83295],[132.708,32.82454],[132.7102,32.82211],[132.71513,32.82413],[132.7217,32.823],[132.72857,32.81456],[132.73601,32.80017],[132.73997,32.7968],[132.74061,32.79394],[132.74564,32.7933],[132.75261,32.78972],[132.75685,32.78696],[132.76002,32.78281],[132.76485,32.77979],[132.76724,32.77527],[132.76739,32.77268],[132.76624,32.76861],[132.76731,32.7659],[132.76888,32.76486],[132.76969,32.76246],[132.77273,32.76104],[132.77474,32.75847],[132.77798,32.75642],[132.77922,32.75429],[132.78155,32.75475],[132.78393,32.75757],[132.78517,32.75764],[132.78705,32.75685],[132.79437,32.75012],[132.79943,32.74928],[132.80239,32.74988],[132.80328,32.75068],[132.80349,32.75277],[132.80589,32.75342],[132.809,32.75597],[132.81159,32.76115],[132.81327,32.7627],[132.81548,32.763],[132.81817,32.7613],[132.82068,32.76133],[132.83002,32.76805],[132.84015,32.78195],[132.84441,32.78148],[132.84848,32.78307],[132.85186,32.78697],[132.85825,32.78832],[132.86133,32.79157],[132.86519,32.79158],[132.86811,32.78876],[132.87319,32.79047],[132.88172,32.79102],[132.88464,32.79432],[132.89024,32.79556],[132.89815,32.80286],[132.9004,32.80362],[132.90254,32.80166],[132.90228,32.79924],[132.90441,32.79498],[132.90417,32.79369],[132.90649,32.78974],[132.90845,32.7887],[132.91091,32.78781],[132.9128,32.78824],[132.92887,32.78363],[132.93221,32.78372],[132.9336,32.78611],[132.93501,32.78693],[132.9373,32.78661],[132.9395,32.78779],[132.94401,32.78777],[132.94736,32.7851],[132.94666,32.78162],[132.95672,32.77941],[132.95975,32.7797],[132.96038,32.78343],[132.96142,32.78402],[132.96183,32.78557],[132.96094,32.78704],[132.9609,32.79285],[132.9574,32.79986],[132.95424,32.81002],[132.95222,32.81215],[132.94965,32.81179],[132.94884,32.81253],[132.94719,32.8152],[132.94485,32.82354],[132.94969,32.82586],[132.95595,32.82667],[132.9584,32.82814],[132.95835,32.82965],[132.95723,32.8308],[132.95745,32.83263],[132.95559,32.83411],[132.95388,32.83426],[132.9531,32.83621],[132.95555,32.83993],[132.95455,32.84248],[132.95226,32.84455],[132.95262,32.84582],[132.95479,32.84635],[132.95487,32.85059],[132.94789,32.85656],[132.94992,32.85923],[132.95032,32.8647],[132.9525,32.86707],[132.94831,32.86982],[132.9449,32.87349],[132.94338,32.88036],[132.94019,32.88515],[132.94112,32.88786],[132.93989,32.89023],[132.94144,32.89832],[132.93947,32.90082],[132.93608,32.90278],[132.93561,32.90431],[132.93751,32.90854],[132.96117,32.92614],[132.96145,32.92839],[132.96299,32.92977],[132.96673,32.9295],[132.96957,32.93104],[132.96798,32.9353],[132.96915,32.93817],[132.97514,32.9431],[132.97308,32.94684],[132.97235,32.95163],[132.97022,32.95422],[132.96839,32.95977],[132.96484,32.96596],[132.95988,32.97077],[132.94259,32.97236],[132.93162,32.97862],[132.92743,32.98015]]]}}]}