{"type":"FeatureCollection","features":[{"type":"Feature","properties":{"route_id":"175","route_number":175,"name":"国道175号","source":"OpenStreetMap contributors (ODbL)","osm_relations":[9349685,9349686,9349687,9349688,9349689,9349690,10021095,10847003]},"geometry":{"type":"MultiLineString","coordinates":[[[134.98624,34.72394],[134.98337,34.71238],[134.98303,34.69039],[134.9815,34.67181],[134.97694,34.65822],[134.97484,34.65414],[134.98142,34.67183],[134.98291,34.69027],[134.98336,34.71396],[134.98522,34.72204],[134.98671,34.72482],[134.98575,34.72856],[134.98756,34.73219],[134.98777,34.73431],[134.98731,34.73732],[134.98345,34.74562],[134.98286,34.75156],[134.97701,34.75593],[134.97587,34.75939],[134.97708,34.76239],[134.98431,34.77018],[134.98551,34.77522],[134.9808,34.78209],[134.9684,34.7945],[134.96507,34.80408],[134.95789,34.81697],[134.9512,34.82146],[134.94715,34.84124],[134.94988,34.846],[134.94992,34.85791],[134.95236,34.86261],[134.9521,34.87464],[134.94977,34.88661],[134.95312,34.9074],[134.95997,34.92324],[134.9597,34.9307],[134.96672,34.94156],[134.97263,34.95418],[134.97362,34.95798],[134.97358,34.96354],[134.97493,34.96883],[134.9766,34.97178],[134.97696,34.97549],[134.982,34.97973],[134.98475,34.986],[134.98897,34.98909],[134.99101,34.99209],[134.99244,35.00266],[134.99138,35.01063],[134.98817,35.01651],[134.98378,35.02016],[134.98368,35.02276],[134.98308,35.02042],[134.98373,35.01821],[134.98994,35.0115],[134.98766,34.99609],[134.98979,34.99093],[134.98891,34.98921],[134.98511,34.98617],[134.98242,34.98016],[134.97988,34.97797]],[[135.10945,35.29806],[135.11797,35.29257],[135.12236,35.29077],[135.13319,35.29135],[135.13787,35.29038],[135.13327,35.29111],[135.12232,35.29067],[135.10967,35.29743],[135.10819,35.30247],[135.10367,35.30537],[135.10288,35.31145],[135.09699,35.32335],[135.09721,35.32443],[135.10041,35.32643],[135.09952,35.32848],[135.10009,35.33103],[135.09776,35.33456]],[[135.09818,35.33558],[135.09768,35.33451],[135.09997,35.33854],[135.10627,35.34031],[135.10798,35.34429],[135.10826,35.34958],[135.11232,35.35504],[135.11478,35.36343],[135.11706,35.36676],[135.1316,35.37427],[135.13759,35.38139],[135.14443,35.38499],[135.14526,35.38769],[135.15002,35.3939],[135.15446,35.39365],[135.15785,35.39694],[135.16133,35.39783],[135.17032,35.39629],[135.17656,35.39278],[135.18018,35.39259],[135.18284,35.39831],[135.18219,35.4041],[135.18278,35.40576],[135.19034,35.41047],[135.19928,35.41218],[135.20169,35.41447],[135.2047,35.42068],[135.20838,35.42404],[135.21853,35.4262],[135.22449,35.4289],[135.23238,35.42941],[135.24073,35.42646],[135.24979,35.42973],[135.25164,35.43126],[135.25755,35.44069],[135.25899,35.44452],[135.26568,35.45319],[135.2704,35.45017],[135.27598,35.44816],[135.28021,35.44915],[135.28332,35.4478],[135.28759,35.44832],[135.29671,35.44538],[135.3018,35.44776],[135.30729,35.44798],[135.32259,35.45109],[135.32907,35.45075]],[[134.98962,35.00904],[134.98966,35.01243],[134.98468,35.01699],[134.98332,35.01932],[134.9845,35.02655],[134.98138,35.03203],[134.98123,35.03655],[134.98407,35.03927],[134.98502,35.04303],[134.98771,35.04695],[134.98942,35.05398],[134.99321,35.05689],[134.99923,35.05885],[135.00423,35.06199],[135.00844,35.06628],[135.00952,35.07055],[135.00736,35.07493],[135.00709,35.07869],[135.0051,35.08291],[135.00005,35.08745],[134.99969,35.09116],[134.99812,35.09283],[134.99688,35.0959],[134.99712,35.09912],[134.99455,35.10446],[134.99523,35.11103],[135.00096,35.11361],[135.00377,35.11915],[135.00667,35.12214],[135.01009,35.12916],[135.01913,35.13438],[135.0242,35.13517],[135.02938,35.14277],[135.03487,35.14636],[135.0404,35.1525],[135.05312,35.15248],[135.06085,35.15365],[135.06433,35.1618],[135.06867,35.16389],[135.0706,35.16708],[135.07847,35.1688],[135.09026,35.16856],[135.09718,35.16683],[135.11364,35.16629],[135.11738,35.16733],[135.11764,35.17249],[135.11911,35.17819],[135.12238,35.18071],[135.12409,35.18532],[135.12327,35.18807],[135.11861,35.19226],[135.1215,35.19486],[135.12436,35.20069],[135.12869,35.20254],[135.13663,35.21108],[135.13498,35.21572],[135.13202,35.21731],[135.13053,35.21969],[135.12796,35.23256],[135.12367,35.23929],[135.12354,35.24213],[135.12567,35.2446],[135.13924,35.25145],[135.14638,35.25908],[135.14665,35.26201],[135.14414,35.26541],[135.14645,35.26881],[135.14532,35.26971],[135.14718,35.27161],[135.13959,35.27505],[135.13687,35.27754],[135.13854,35.28251],[135.13755,35.28647],[135.13787,35.29038]],[[134.97708,34.76239],[134.9841,34.77008],[134.98535,34.77388],[134.98511,34.77614],[134.98123,34.78146],[134.9683,34.79447],[134.96506,34.80382],[134.95797,34.81668],[134.9511,34.82145],[134.94706,34.84111],[134.94977,34.84602],[134.94978,34.85783],[134.95223,34.86229],[134.95197,34.87473],[134.94954,34.88557],[134.95292,34.90705],[134.95985,34.92325],[134.95973,34.93137],[134.96621,34.94086],[134.97234,34.95377],[134.97352,34.95834],[134.97348,34.96357],[134.97612,34.97155],[134.97647,34.97496],[134.97903,34.97755]],[[134.98368,35.02276],[134.98397,35.02311]],[[135.27108,35.4499],[135.26568,35.45319]],[[135.09814,35.33423],[135.09768,35.33451]],[[134.98779,34.98855],[134.98975,34.99035]]]}}]}