{"type":"FeatureCollection","features":[{"type":"Feature","properties":{"route_id":"407","route_number":407,"name":"国道407号","source":"OpenStreetMap contributors (ODbL)","osm_relations":[7021581,21308480]},"geometry":{"type":"MultiLineString","coordinates":[[[139.41366,36.02347],[139.41223,36.0211],[139.41652,36.0276],[139.4204,36.02986],[139.41742,36.03473],[139.40844,36.06156],[139.41749,36.03475],[139.42055,36.02978],[139.4166,36.02753],[139.41018,36.01765],[139.40848,36.00331],[139.40317,35.99005],[139.40304,35.98403],[139.4072,35.96876],[139.40713,35.96616],[139.39697,35.95191],[139.39156,35.93555],[139.38537,35.93148]],[[139.38054,36.13816],[139.37975,36.14087],[139.38055,36.13783],[139.3764,36.12986],[139.37604,36.12761],[139.37625,36.12976],[139.38054,36.13816]],[[139.37975,36.14087],[139.38129,36.14568],[139.37646,36.14878],[139.36788,36.15661],[139.37016,36.15761],[139.37102,36.15933],[139.37001,36.17879],[139.37068,36.20691],[139.36824,36.21972],[139.37144,36.23049],[139.38111,36.24326],[139.37959,36.24708],[139.37682,36.26006],[139.37722,36.27976],[139.37639,36.29258],[139.37709,36.29584],[139.37642,36.29238]],[[139.38647,35.84223],[139.38328,35.84462],[139.38378,35.84945],[139.37942,35.86142],[139.38026,35.87122],[139.37724,35.88298],[139.37844,35.88819],[139.37775,35.89668],[139.37899,35.90147],[139.37552,35.90749],[139.37494,35.91099],[139.38543,35.93161],[139.39167,35.93593],[139.39688,35.95194],[139.40694,35.9659],[139.40713,35.96858],[139.40291,35.98428],[139.40292,35.98892],[139.40423,35.99412],[139.40829,36.00309],[139.4098,36.01668],[139.41223,36.0211]],[[139.36788,36.15661],[139.37007,36.15766],[139.37091,36.15947],[139.3699,36.17878],[139.37057,36.2069],[139.36812,36.21958],[139.37133,36.23048],[139.38045,36.24225],[139.38079,36.24438]],[[139.37501,35.9111],[139.37562,35.90753],[139.37905,35.90166],[139.37779,35.89517]],[[139.41386,36.02329],[139.41254,36.02137]],[[139.37634,36.12753],[139.38158,36.1101],[139.38645,36.10539],[139.38835,36.1019],[139.39811,36.09521],[139.40149,36.09177],[139.40473,36.08466],[139.40801,36.08064],[139.40758,36.07099],[139.40844,36.06156]],[[139.37709,36.29584],[139.37996,36.29558],[139.38237,36.30352],[139.38612,36.30748],[139.39437,36.31313],[139.41227,36.317],[139.41691,36.32009]],[[139.37297,36.15215],[139.38129,36.14568]],[[139.37616,36.12846],[139.37604,36.12761]]]}}]}