{"type":"FeatureCollection","features":[{"type":"Feature","properties":{"route_id":"43","route_number":43,"name":"国道43号","source":"OpenStreetMap contributors (ODbL)","osm_relations":[2878993,9090662,19781751]},"geometry":{"type":"MultiLineString","coordinates":[[[135.4977,34.65048],[135.47376,34.65648],[135.46856,34.65843],[135.45147,34.6878],[135.44362,34.6974],[135.43886,34.70126],[135.42897,34.71198],[135.40308,34.71706],[135.3893,34.71471],[135.3727,34.71834],[135.35974,34.72337],[135.34719,34.73182],[135.34342,34.73321],[135.33272,34.73383],[135.32507,34.73303],[135.31735,34.73095],[135.30061,34.72447],[135.2739,34.7122],[135.26772,34.71103],[135.24354,34.71002],[135.23373,34.7059],[135.21968,34.70278]],[[135.49769,34.65036],[135.47639,34.6556],[135.46836,34.65832],[135.45126,34.68773],[135.44218,34.69887],[135.43889,34.70136],[135.43375,34.70719]],[[135.21963,34.70295],[135.23377,34.70611],[135.24404,34.71029],[135.26761,34.71123],[135.27401,34.71242],[135.29261,34.72142],[135.317,34.73105],[135.32648,34.7335],[135.33322,34.73405],[135.34539,34.7329],[135.36045,34.72318],[135.37046,34.71911],[135.38575,34.71534],[135.39013,34.71492],[135.40274,34.71725],[135.42886,34.71222],[135.44362,34.6974]],[[135.4557,34.6797],[135.45088,34.6885]],[[135.43463,34.70646],[135.43902,34.70134],[135.44229,34.69888],[135.45106,34.68811],[135.45585,34.67976]],[[135.34095,34.71783],[135.34512,34.72217],[135.34936,34.72285],[135.35428,34.72675]],[[135.35518,34.72616],[135.34917,34.72268],[135.34539,34.72226],[135.34144,34.71826]]]}}]}