{"type":"FeatureCollection","features":[{"type":"Feature","properties":{"route_id":"114","route_number":114,"name":"国道114号","source":"OpenStreetMap contributors (ODbL)","osm_relations":[3128448,9035047,9035048,9035049]},"geometry":{"type":"MultiLineString","coordinates":[[[140.48188,37.74427],[140.48203,37.74823],[140.48049,37.75369],[140.48053,37.75622],[140.47347,37.75663],[140.48063,37.75622],[140.48211,37.74742],[140.48176,37.74342],[140.4782,37.73439],[140.47937,37.73035],[140.48838,37.72423],[140.49579,37.72268],[140.4976,37.72155],[140.50097,37.71747],[140.50335,37.71077],[140.50576,37.70887],[140.50718,37.70639],[140.50922,37.69976],[140.51422,37.69947],[140.51967,37.70051],[140.52193,37.69961],[140.5251,37.69547],[140.52362,37.68921],[140.52472,37.68735],[140.52763,37.68659],[140.53054,37.68696],[140.5344,37.68529],[140.54307,37.68766],[140.54776,37.68658],[140.54881,37.685],[140.54894,37.68267],[140.55211,37.68148],[140.55501,37.68275],[140.56367,37.68217],[140.56491,37.68068],[140.56474,37.67633],[140.56578,37.67439],[140.56811,37.672],[140.57475,37.66871],[140.57822,37.66565],[140.58818,37.66599],[140.59126,37.66406],[140.60467,37.65864],[140.61213,37.6515],[140.61338,37.64786],[140.61736,37.64527],[140.61955,37.64512],[140.62217,37.6467],[140.62605,37.64609],[140.62716,37.64521],[140.62743,37.64333],[140.6289,37.64243],[140.63362,37.64222],[140.64216,37.64025],[140.64345,37.63887],[140.64371,37.63721],[140.63866,37.63145],[140.6384,37.62975],[140.63926,37.6274],[140.64453,37.62382],[140.64721,37.61948],[140.65691,37.61333],[140.65816,37.61082],[140.66048,37.60923],[140.66393,37.60918],[140.67202,37.60577],[140.6738,37.60154],[140.68012,37.59873],[140.68232,37.59562],[140.68475,37.594],[140.68782,37.59329],[140.68969,37.58997],[140.68992,37.588],[140.69301,37.58592],[140.69917,37.58497],[140.71046,37.58745],[140.71369,37.58695],[140.71766,37.58468],[140.71888,37.58275],[140.72316,37.57984],[140.72517,37.5772],[140.74264,37.5672],[140.74393,37.56481],[140.74314,37.56202],[140.74753,37.55954],[140.75568,37.5581],[140.75951,37.55869],[140.76641,37.56129],[140.77532,37.55661],[140.78215,37.55478],[140.78651,37.55748],[140.78964,37.56147],[140.79301,37.56181],[140.796,37.56536],[140.80031,37.56725],[140.80595,37.56293],[140.81258,37.56289],[140.81721,37.56063],[140.82806,37.56089],[140.83233,37.55742],[140.83388,37.55353],[140.83765,37.55352],[140.84068,37.5516],[140.84434,37.54329],[140.84793,37.54272],[140.85567,37.54398],[140.86158,37.54174],[140.86619,37.53947],[140.86721,37.53472],[140.8718,37.52948],[140.8805,37.52574],[140.88857,37.52345],[140.89077,37.52093],[140.8915,37.51378],[140.89341,37.51098],[140.89684,37.50887],[140.90156,37.50782],[140.90619,37.50975],[140.90839,37.50888],[140.91043,37.50632],[140.91461,37.50403],[140.91816,37.50886],[140.92291,37.50686],[140.92915,37.50857],[140.93202,37.50831],[140.93396,37.50698],[140.93917,37.50629],[140.95,37.50007],[140.95368,37.49895],[140.9571,37.49922],[140.97761,37.49591],[141.00171,37.49545]]]}}]}