{"type":"FeatureCollection","features":[{"type":"Feature","properties":{"route_id":"338","route_number":338,"name":"国道338号","source":"OpenStreetMap contributors (ODbL)","osm_relations":[33014,9398110,11070459,11070460,11070461,11070462,14165638]},"geometry":{"type":"MultiLineString","coordinates":[[[140.71389,41.76578],[140.717,41.76407],[140.71981,41.76462],[140.72302,41.76692],[140.7281,41.77277],[140.72114,41.76522],[140.7182,41.76397],[140.7159,41.76442],[140.71382,41.76571],[140.71708,41.77181],[140.71697,41.77405],[140.71172,41.78269],[140.70293,41.79445],[140.69836,41.79645],[140.69051,41.79549],[140.68763,41.79155],[140.6869,41.7875],[140.68752,41.75339],[140.68908,41.74686],[140.69123,41.74307],[140.89918,41.53077],[140.89982,41.52782],[140.89803,41.52614],[140.89836,41.52552],[140.89979,41.52425],[140.90556,41.52297],[140.90762,41.52049],[140.91157,41.52008],[140.91536,41.5179],[140.91781,41.51541],[140.91943,41.51125],[140.91777,41.50813],[140.90868,41.50081],[140.9079,41.49849],[140.90952,41.49613],[140.90946,41.49344],[140.90535,41.49113],[140.90338,41.48331],[140.89992,41.47647],[140.89513,41.4748],[140.89257,41.47196],[140.89175,41.46904],[140.88743,41.4672],[140.88591,41.46184],[140.8811,41.45837],[140.87918,41.45294],[140.8764,41.45149],[140.87496,41.44975],[140.87073,41.44189],[140.86957,41.43778],[140.86578,41.43507],[140.86527,41.43368],[140.86593,41.43298],[140.86378,41.43311],[140.86243,41.43196],[140.85577,41.42978],[140.85073,41.42521],[140.85034,41.42309],[140.84736,41.41989],[140.84239,41.41903],[140.83849,41.4193],[140.83916,41.41729],[140.83818,41.41602],[140.83942,41.41326],[140.83599,41.40934],[140.83645,41.40635],[140.83367,41.40524],[140.83325,41.40215],[140.83397,41.40032],[140.83132,41.39798],[140.832,41.39623],[140.82779,41.38678],[140.82826,41.38428],[140.8304,41.38339],[140.82837,41.38296],[140.82918,41.37982],[140.83031,41.37908],[140.82854,41.3749],[140.82844,41.37033],[140.82965,41.36604],[140.83312,41.36512],[140.83091,41.36432],[140.82722,41.36486],[140.82907,41.36369],[140.82854,41.36159],[140.8316,41.36164],[140.82984,41.36133],[140.82904,41.36012],[140.82751,41.36073],[140.82785,41.35832],[140.82643,41.35596],[140.82731,41.35463],[140.82492,41.35267],[140.82381,41.34926],[140.8245,41.348],[140.82131,41.34307],[140.82125,41.34066],[140.81845,41.33865],[140.81884,41.33679],[140.82132,41.33695],[140.8185,41.33587],[140.81777,41.33639],[140.8132,41.33257],[140.80943,41.33161],[140.80756,41.32918],[140.80784,41.32827],[140.81135,41.32827],[140.81365,41.32696],[140.81379,41.32572],[140.8145,41.32603],[140.81718,41.32457],[140.81632,41.32265],[140.81868,41.32338],[140.81941,41.32212],[140.82234,41.32131],[140.82232,41.32021],[140.82212,41.32112],[140.8205,41.32161],[140.81804,41.32177],[140.81456,41.32059],[140.81404,41.32208],[140.81152,41.32111],[140.81074,41.32259],[140.80964,41.32135],[140.80541,41.32154],[140.80443,41.32057],[140.80536,41.31897],[140.80918,41.31927],[140.81083,41.31851],[140.81066,41.31627],[140.81267,41.31576],[140.80876,41.31463],[140.81084,41.31142],[140.80767,41.31008],[140.8055,41.30716],[140.80756,41.30634],[140.80757,41.30545],[140.81043,41.30357],[140.81433,41.30336],[140.81197,41.30206],[140.81225,41.29934],[140.81041,41.30077],[140.80754,41.30111],[140.80847,41.29875],[140.80721,41.2982],[140.80782,41.29718],[140.80613,41.29605],[140.80952,41.2957],[140.80904,41.29428],[140.80971,41.29348],[140.80734,41.29239],[140.81028,41.29163],[140.80776,41.29022],[140.80792,41.28939],[140.80934,41.28953],[140.80918,41.28868],[140.81119,41.28782],[140.81105,41.28717],[140.82321,41.27961],[140.82472,41.27583],[140.82409,41.2738],[140.82541,41.27427],[140.82513,41.2779],[140.82838,41.27695],[140.82717,41.27913],[140.82971,41.27882],[140.83098,41.27954],[140.83142,41.27811],[140.83363,41.27689],[140.83434,41.27375],[140.84004,41.2707],[140.83931,41.26891],[140.84104,41.2678],[140.83992,41.2652],[140.82834,41.26544],[140.82867,41.26329],[140.83038,41.26298],[140.82866,41.26166],[140.83143,41.25919],[140.82878,41.25708],[140.83227,41.25695],[140.83239,41.25564],[140.83048,41.25534],[140.82953,41.25418],[140.82778,41.25452],[140.82227,41.25166],[140.82767,41.24816],[140.82495,41.24671],[140.82562,41.24431],[140.82733,41.24324],[140.826,41.23982],[140.82669,41.23885],[140.82553,41.2382],[140.82891,41.23623],[140.8238,41.2337],[140.82034,41.23606],[140.81885,41.23235],[140.81657,41.23219],[140.81623,41.23098],[140.81226,41.23069],[140.80566,41.22782],[140.8058,41.22606],[140.80408,41.22403],[140.80428,41.22206],[140.80724,41.22011],[140.81177,41.22085],[140.8111,41.21953],[140.81249,41.21768],[140.80965,41.21744],[140.8088,41.21621],[140.80668,41.21756],[140.80522,41.21719],[140.80668,41.21715],[140.8069,41.21532],[140.80796,41.21494],[140.80682,41.21329],[140.80549,41.21305],[140.80556,41.21212],[140.80159,41.21347],[140.80225,41.21231],[140.80131,41.21114],[140.79748,41.21018],[140.79788,41.20919],[140.80018,41.20952],[140.80023,41.20825],[140.79647,41.20685],[140.79384,41.20675],[140.79232,41.20567],[140.79333,41.20314],[140.79559,41.20331],[140.79463,41.20198],[140.79506,41.20132],[140.79334,41.20081],[140.79365,41.19786],[140.79525,41.19507],[140.79466,41.19414],[140.7951,41.19138],[140.79653,41.18967],[140.79502,41.18812],[140.79419,41.18571],[140.79829,41.18162],[140.79858,41.1788],[140.80018,41.17734],[140.79915,41.1742],[140.79938,41.1718],[140.80422,41.16781],[140.80457,41.16527],[140.80794,41.16147],[140.80835,41.15868],[140.81224,41.15652],[140.81293,41.1527],[140.81992,41.14474],[140.82254,41.14396],[140.82395,41.14569],[140.82811,41.1464],[140.83172,41.14938],[140.8384,41.1516],[140.84265,41.15444],[140.84509,41.15495],[140.84815,41.15852],[140.85384,41.16134],[140.8608,41.16199],[140.87061,41.166],[140.87683,41.16701],[140.89266,41.16458],[140.89679,41.16711],[140.90338,41.16857],[140.906,41.17186],[140.91244,41.17531],[140.91693,41.17616],[140.92185,41.17587],[140.92967,41.17364],[140.93271,41.17586],[140.94963,41.17731],[140.95624,41.18319],[140.95652,41.18573],[140.95853,41.18797],[140.96883,41.1943],[140.97951,41.19912],[140.98854,41.19951],[140.99574,41.19699],[141.00279,41.19813],[141.01034,41.19778],[141.01524,41.19617],[141.03457,41.18522],[141.04731,41.18535],[141.05246,41.18771],[141.06125,41.19028],[141.0773,41.20313],[141.08703,41.20674],[141.09367,41.21142],[141.10089,41.21386],[141.11468,41.21456],[141.1243,41.22034],[141.12648,41.22243],[141.12777,41.2251],[141.12696,41.22643],[141.12348,41.22716],[141.12191,41.22839],[141.12167,41.23412],[141.12633,41.2382],[141.12955,41.23807],[141.13322,41.24001],[141.13273,41.24486],[141.13452,41.25044],[141.13812,41.25461],[141.14229,41.25702],[141.15203,41.26667],[141.15546,41.27794],[141.15745,41.27971],[141.16181,41.28121],[141.1695,41.28226],[141.18474,41.28746],[141.18688,41.28928],[141.19497,41.29246],[141.21454,41.29357],[141.23051,41.2926],[141.23316,41.2876],[141.24325,41.28288],[141.25081,41.28143],[141.25594,41.28238],[141.25854,41.28207],[141.26325,41.27387],[141.26635,41.27242],[141.2675,41.27099],[141.27582,41.2693],[141.2854,41.26867],[141.2942,41.2661],[141.29617,41.26462],[141.29812,41.26438],[141.29836,41.26351],[141.30245,41.26123],[141.30618,41.26017],[141.30792,41.26014],[141.31461,41.26405],[141.31905,41.26403],[141.32347,41.26612],[141.32585,41.26889],[141.33099,41.27172],[141.33932,41.26871],[141.34459,41.26425],[141.35232,41.26471],[141.35614,41.26616],[141.36175,41.26523],[141.36436,41.26435],[141.36651,41.26174],[141.37635,41.25655],[141.37731,41.25483],[141.37718,41.25156],[141.38339,41.2457],[141.38519,41.24173],[141.3848,41.22386],[141.38277,41.21676],[141.38135,41.20591],[141.37658,41.1952],[141.37962,41.19011],[141.37746,41.18294],[141.3777,41.18076],[141.37607,41.17784],[141.37437,41.17096],[141.37629,41.16885],[141.38513,41.16705],[141.38567,41.1652],[141.3874,41.16387],[141.38702,41.15146],[141.3884,41.14604],[141.38616,41.14569],[141.38828,41.14112],[141.38724,41.13665],[141.39093,41.12238],[141.39187,41.11466],[141.38838,41.1025],[141.39216,41.09538],[141.38641,41.0875],[141.38521,41.07184],[141.38674,41.0635],[141.38507,41.05966],[141.38568,41.05367],[141.38398,41.04727],[141.38337,41.0401],[141.38102,41.03744],[141.38074,41.03313],[141.37585,41.02354],[141.37478,41.01508],[141.3774,41.01058],[141.37371,41.00589],[141.37015,41.00321],[141.36744,40.9951],[141.36795,40.99063],[141.3696,40.98942],[141.3709,40.98597],[141.37121,40.97871],[141.37535,40.97031],[141.37443,40.96364],[141.37069,40.95667],[141.37074,40.95385],[141.37513,40.94708],[141.37571,40.94391],[141.3746,40.92968],[141.37859,40.92707],[141.37916,40.92557],[141.37803,40.91986],[141.37303,40.91323],[141.37466,40.90927],[141.36861,40.90541],[141.37,40.90079],[141.36877,40.89426],[141.36941,40.88401],[141.36778,40.87599],[141.36647,40.87412],[141.36266,40.87291],[141.35963,40.87075],[141.35702,40.86804],[141.35618,40.86556],[141.36038,40.85624],[141.36894,40.84564],[141.38124,40.84605],[141.38265,40.84537],[141.38299,40.84125],[141.38668,40.83945],[141.38822,40.83733],[141.39181,40.82439],[141.39519,40.81774],[141.39981,40.79259],[141.39964,40.78602],[141.40457,40.77044],[141.41098,40.73563],[141.41901,40.71443],[141.41992,40.70642],[141.42369,40.69829],[141.42396,40.69377],[141.4261,40.68543],[141.42821,40.68224],[141.43028,40.67609],[141.43199,40.66506],[141.43588,40.65745],[141.4384,40.65429],[141.43803,40.64835],[141.44243,40.63974],[141.4427,40.63671],[141.43427,40.6269],[141.43001,40.6206],[141.42901,40.61746],[141.42884,40.61213],[141.43051,40.60486],[141.43045,40.60018]],[[141.1329,41.24336],[141.13111,41.24647],[141.13179,41.24929],[141.13487,41.25391],[141.14616,41.26357],[141.15301,41.27825],[141.15986,41.28754],[141.16687,41.29135],[141.17816,41.29201],[141.19015,41.29715],[141.19894,41.29965],[141.20658,41.30339],[141.22012,41.30505]],[[141.15611,41.27854],[141.15489,41.28072]],[[141.36795,40.99063],[141.36511,40.98381],[141.36191,40.98153],[141.33346,40.97787],[141.32808,40.97579],[141.3185,40.96632],[141.31695,40.96216],[141.31683,40.95628],[141.31738,40.95176],[141.3201,40.94516],[141.32746,40.93956],[141.32827,40.93112],[141.33499,40.92653],[141.34319,40.91671],[141.34722,40.91501],[141.37303,40.91323]],[[141.38238,40.84562],[141.38333,40.84459]],[[141.38328,40.84415],[141.38539,40.84006]]]}}]}