{"type":"FeatureCollection","features":[{"type":"Feature","properties":{"route_id":"450","route_number":450,"name":"国道450号","source":"OpenStreetMap contributors (ODbL)","osm_relations":[12079873]},"geometry":{"type":"MultiLineString","coordinates":[[[142.78119,43.83536],[142.77436,43.83551],[142.75282,43.84148],[142.74478,43.84219],[142.7515,43.84189],[142.77511,43.83549],[142.78174,43.83545],[142.8101,43.84719],[142.81918,43.8544],[142.83463,43.86038],[142.83956,43.86087],[142.85118,43.85948],[142.86184,43.86164],[142.87269,43.86184],[142.88151,43.86371],[142.90003,43.86342],[142.91295,43.86462],[142.92753,43.86859],[142.96997,43.88739],[142.97745,43.88838],[142.98628,43.88726],[142.97822,43.88845],[142.97182,43.88796],[142.95774,43.88194]],[[142.6628,43.87256],[142.67572,43.86284],[142.6858,43.85912],[142.67562,43.86274],[142.66548,43.87081],[142.66041,43.87371],[142.63106,43.88114],[142.61783,43.88742],[142.59033,43.89051],[142.57427,43.89466],[142.55992,43.89713],[142.55429,43.899],[142.54958,43.90238],[142.55361,43.89926],[142.55784,43.89753],[142.57428,43.89454],[142.59033,43.89051]],[[142.46965,43.91503],[142.46949,43.91691],[142.46761,43.91829],[142.46771,43.91935],[142.47907,43.9231],[142.47033,43.92026],[142.46981,43.91585]],[[143.49829,44.02272],[143.48229,44.02125],[143.47896,44.01991],[143.47446,44.01673],[143.471,44.01564],[143.46695,44.01557],[143.4608,44.01702],[143.45721,44.01664],[143.45336,44.01405],[143.44915,44.00846],[143.44584,44.00686],[143.42968,44.00525],[143.42151,44.00543],[143.40815,44.00432],[143.39962,44.00464],[143.39591,44.00566],[143.38433,44.01476],[143.37684,44.01955],[143.36359,44.02056],[143.35865,44.01974],[143.35532,44.01769],[143.34466,44.00388],[143.33453,43.99446],[143.32241,43.9848],[143.31182,43.98036],[143.30387,43.97211],[143.30224,43.9694],[143.30169,43.96659],[143.30391,43.95813],[143.30178,43.95376],[143.28497,43.94574],[143.30166,43.95382],[143.30381,43.95814],[143.30158,43.96613],[143.30206,43.96922],[143.30377,43.97215],[143.31175,43.98041],[143.32229,43.98488],[143.33517,43.99519],[143.34458,44.00391],[143.35522,44.01772],[143.35862,44.01979],[143.36359,44.02062],[143.37687,44.0196],[143.3879,44.01229],[143.39594,44.00572],[143.39963,44.00471],[143.40815,44.00439],[143.4215,44.00547],[143.43025,44.00533],[143.44581,44.00692],[143.44907,44.00849],[143.45329,44.01407],[143.45716,44.01669],[143.46082,44.01708],[143.46696,44.01562],[143.47098,44.01569],[143.47442,44.01677],[143.48155,44.02111],[143.49385,44.02224],[143.49811,44.02335]],[[143.19254,43.88487],[143.18294,43.88014],[143.18933,43.88368],[143.20232,43.88881],[143.20596,43.89135],[143.20911,43.89494],[143.20697,43.89211],[143.20326,43.88923],[143.19254,43.88487]],[[142.6858,43.85912],[142.69629,43.85607],[142.70094,43.85384],[142.7044,43.85087],[142.71073,43.84242],[142.71749,43.83877],[142.72621,43.83816],[142.74478,43.84219]],[[143.2508,43.93344],[143.24134,43.92904],[143.21669,43.9084],[143.21166,43.90388],[143.21026,43.90155],[143.21177,43.90385],[143.21676,43.90834],[143.24302,43.9301],[143.25121,43.93365],[143.26067,43.94019],[143.26525,43.94149],[143.27861,43.94314],[143.28497,43.94574]],[[142.48832,43.92357],[142.49505,43.92162],[142.50457,43.91526],[142.51022,43.91313],[142.50449,43.91516],[142.49421,43.92188],[142.48553,43.92375],[142.48832,43.92357]],[[142.98628,43.88726],[143.0007,43.88417],[143.04836,43.86849],[143.05542,43.86736],[143.06271,43.86778],[143.07838,43.87101],[143.10028,43.87753],[143.10597,43.87831],[143.11402,43.8777],[143.12751,43.87437],[143.1454,43.87165],[143.15676,43.87108],[143.1717,43.87385],[143.18294,43.88014]],[[142.46802,43.9242],[142.46943,43.92113],[142.47211,43.92117]],[[142.4709,43.92062],[142.46755,43.91868],[142.46887,43.91821],[142.46935,43.91918]],[[142.48553,43.92375],[142.47907,43.9231]],[[142.51022,43.91313],[142.53997,43.90857],[142.54541,43.90623],[142.54958,43.90238]],[[142.88445,43.86373],[142.87272,43.86173],[142.85847,43.86098]],[[143.08965,43.87415],[143.07889,43.87102],[143.06044,43.86746]],[[143.20911,43.89494],[143.21026,43.90155]]]}}]}