{"type":"FeatureCollection","features":[{"type":"Feature","properties":{"route_id":"428","route_number":428,"name":"国道428号","source":"OpenStreetMap contributors (ODbL)","osm_relations":[10012952]},"geometry":{"type":"MultiLineString","coordinates":[[[135.11502,34.88733],[135.11285,34.88623],[135.11298,34.8827],[135.11607,34.88033],[135.11864,34.877],[135.12375,34.8746],[135.12495,34.87182],[135.12493,34.8676],[135.12352,34.8659],[135.12333,34.86296],[135.12095,34.85894],[135.12102,34.85631],[135.11545,34.85266],[135.11579,34.8502],[135.11342,34.84652],[135.11135,34.83934],[135.11129,34.83668],[135.10648,34.83212],[135.10505,34.82746],[135.10222,34.82455],[135.10143,34.82148],[135.0986,34.81894],[135.09751,34.81506],[135.09799,34.81291],[135.10575,34.8085],[135.1064,34.80593],[135.10588,34.80523],[135.10889,34.80227],[135.10893,34.80097],[135.11144,34.80077],[135.11719,34.7975],[135.12015,34.79693],[135.12631,34.798],[135.12863,34.79663],[135.12827,34.79341],[135.13294,34.79001],[135.13218,34.78444],[135.13306,34.78099],[135.13851,34.77474],[135.13935,34.77078],[135.138,34.76969],[135.14001,34.76969],[135.13902,34.76842],[135.13847,34.76508],[135.14014,34.7643],[135.14788,34.76492],[135.15502,34.76173],[135.15634,34.75997],[135.15357,34.7564],[135.15563,34.75187],[135.15524,34.74984],[135.15978,34.74558],[135.15846,34.73749],[135.16028,34.7284],[135.15873,34.7253],[135.1605,34.71809],[135.1594,34.71498],[135.15986,34.71265],[135.15929,34.71019],[135.161,34.70902],[135.16037,34.70711],[135.16306,34.70444],[135.16338,34.70233],[135.16466,34.70165],[135.1652,34.6994],[135.1641,34.69743],[135.16636,34.6955],[135.16576,34.69405],[135.16709,34.69233],[135.16768,34.68912],[135.17062,34.68291],[135.17423,34.67908]],[[135.15634,34.75997],[135.15366,34.75635]],[[135.16747,34.69045],[135.17077,34.68284],[135.17433,34.67914]],[[135.15514,34.76164],[135.15645,34.75994]],[[135.11513,34.88692],[135.11306,34.88646],[135.11296,34.88507]]]}}]}