{"type":"FeatureCollection","features":[{"type":"Feature","properties":{"route_id":"370","route_number":370,"name":"国道370号","source":"OpenStreetMap contributors (ODbL)","osm_relations":[8547781,10069265,10069340]},"geometry":{"type":"MultiLineString","coordinates":[[[135.84524,34.39431],[135.82292,34.39022],[135.81402,34.38739],[135.80759,34.38633],[135.79626,34.3871],[135.79382,34.38522],[135.79355,34.38287],[135.78824,34.38086],[135.7854,34.38164],[135.784,34.38392],[135.78135,34.3842],[135.75583,34.37592],[135.74887,34.37624],[135.74202,34.37283],[135.73263,34.37256],[135.72845,34.3715],[135.72008,34.37231],[135.7183,34.3702],[135.71688,34.36991],[135.71595,34.36271],[135.70928,34.35741],[135.68806,34.3482],[135.68389,34.34476],[135.67436,34.34066],[135.66744,34.33879],[135.66377,34.33495],[135.65856,34.3337],[135.65585,34.33134],[135.63608,34.32463],[135.6269,34.32254],[135.62407,34.31924],[135.61857,34.31879],[135.61267,34.31542],[135.61458,34.31291],[135.60897,34.30872],[135.59278,34.30454],[135.58323,34.29802],[135.57998,34.29681],[135.578,34.29742],[135.57009,34.28953],[135.56439,34.28872],[135.5637,34.28725],[135.56078,34.28521],[135.56389,34.27834],[135.5654,34.27704],[135.56804,34.27672],[135.56831,34.27548],[135.56955,34.27489],[135.56917,34.2737],[135.56693,34.27243],[135.5663,34.27088],[135.56424,34.27066],[135.5637,34.27227],[135.56097,34.27236],[135.55995,34.2732],[135.55933,34.27201],[135.5562,34.27064],[135.55225,34.26654],[135.55063,34.26621],[135.55106,34.26322],[135.54742,34.26228],[135.54691,34.25875],[135.54478,34.2581],[135.54293,34.25615],[135.54541,34.25412],[135.54399,34.25254],[135.54439,34.25108],[135.54527,34.25096],[135.5453,34.24782],[135.54647,34.24733],[135.54562,34.24532],[135.54791,34.24453],[135.54698,34.24212],[135.54824,34.24081],[135.54711,34.23998],[135.54624,34.23754],[135.54792,34.23821],[135.54711,34.23645],[135.54813,34.23532],[135.54667,34.23457],[135.54674,34.23388],[135.5449,34.23363],[135.54517,34.23263],[135.54319,34.23254],[135.54208,34.23118],[135.54422,34.23055],[135.54303,34.22942],[135.5431,34.228],[135.54012,34.22713],[135.54091,34.22568],[135.53723,34.22334],[135.53739,34.22226],[135.53654,34.22183],[135.5372,34.21951],[135.5338,34.21846],[135.53165,34.21651],[135.53006,34.21857],[135.52711,34.2164],[135.52429,34.21588],[135.5224,34.21154],[135.51986,34.21084],[135.51918,34.2086],[135.51617,34.20722],[135.51557,34.20238],[135.51267,34.20255],[135.50677,34.19995],[135.50589,34.19855],[135.50209,34.19719],[135.50055,34.19427],[135.49623,34.1925],[135.49109,34.18828],[135.4905,34.18682],[135.49122,34.18436],[135.48894,34.18262],[135.48114,34.18213]],[[135.95874,34.61361],[135.95908,34.60772],[135.96043,34.60398],[135.96254,34.60192],[135.96292,34.59825],[135.9642,34.59566],[135.96336,34.58979],[135.96508,34.58682],[135.96912,34.58446],[135.96967,34.58184],[135.96798,34.57865],[135.95985,34.57029],[135.95837,34.55764],[135.95725,34.55506],[135.95494,34.55442],[135.95797,34.55334],[135.95789,34.55211],[135.95934,34.54979],[135.9627,34.54634],[135.96318,34.54234],[135.96137,34.53889],[135.96394,34.53357],[135.9619,34.5319],[135.9587,34.53083],[135.95755,34.52889],[135.95469,34.52948],[135.95136,34.52898],[135.94839,34.52626],[135.94589,34.52618],[135.94499,34.52427],[135.9434,34.5235],[135.94192,34.52378],[135.93985,34.52218],[135.93993,34.51958],[135.93818,34.51531],[135.93428,34.51035],[135.93365,34.50698],[135.93437,34.50414],[135.93299,34.50193],[135.93332,34.50014],[135.93099,34.49898],[135.92761,34.48144],[135.92904,34.47927],[135.93251,34.47647],[135.93366,34.47344],[135.93296,34.47024],[135.93402,34.46378],[135.93285,34.4614],[135.93496,34.45637],[135.93619,34.45519],[135.93766,34.44839],[135.9381,34.44257],[135.93732,34.4399],[135.93835,34.43725],[135.93831,34.4332],[135.93733,34.43012],[135.93892,34.42752],[135.93798,34.42636],[135.93769,34.4201],[135.93473,34.41515],[135.9341,34.41168],[135.93059,34.41006],[135.93042,34.40429],[135.92681,34.40089],[135.92638,34.39902],[135.92211,34.39785],[135.92456,34.39337],[135.92689,34.39352],[135.92688,34.39161],[135.92543,34.39268],[135.92334,34.39245],[135.91981,34.38839],[135.91626,34.38595],[135.91508,34.3827],[135.91625,34.38178],[135.91523,34.37982],[135.91628,34.3769],[135.91417,34.37634],[135.90918,34.37881],[135.90901,34.37997],[135.91047,34.38162],[135.91067,34.38318],[135.90532,34.38759],[135.90236,34.38782],[135.90024,34.38663],[135.90014,34.37905],[135.89529,34.37736],[135.89169,34.37826],[135.89248,34.38066],[135.89132,34.38323],[135.88897,34.38398],[135.88337,34.38358],[135.88171,34.38536],[135.88094,34.38886],[135.87617,34.3894],[135.87111,34.39285]],[[135.37749,34.14584],[135.37432,34.14726],[135.36986,34.14565],[135.36207,34.14676],[135.35651,34.1437],[135.35319,34.14399],[135.34682,34.14768],[135.34592,34.15026],[135.34243,34.15436],[135.33764,34.15649],[135.33565,34.15826],[135.32949,34.15738],[135.32969,34.15849],[135.33655,34.15921],[135.33841,34.15739],[135.34368,34.1548],[135.34726,34.15152],[135.34788,34.15003],[135.35293,34.14723],[135.35509,34.14711],[135.35528,34.14928],[135.35604,34.1498],[135.35766,34.14882],[135.36515,34.14789],[135.36838,34.15075],[135.3718,34.15075],[135.37246,34.14957],[135.37414,34.14961],[135.37666,34.14798],[135.37749,34.14584],[135.37987,34.14473],[135.38045,34.14257],[135.38332,34.14332],[135.385,34.14273],[135.38725,34.14011],[135.38629,34.13867],[135.38942,34.1355],[135.39228,34.13628],[135.39387,34.13529],[135.39777,34.13567],[135.39892,34.13689],[135.40814,34.13824],[135.41043,34.14044],[135.41208,34.13886],[135.41402,34.13979],[135.41611,34.13952],[135.41961,34.14193],[135.42256,34.14082],[135.43465,34.14263],[135.43829,34.1444],[135.44108,34.14368],[135.44506,34.1455],[135.44975,34.14871],[135.45025,34.15025],[135.45271,34.15063],[135.45634,34.15301],[135.45688,34.15811],[135.45996,34.15922],[135.46035,34.1624],[135.46515,34.16661],[135.46759,34.16729],[135.46999,34.17177],[135.47283,34.17303],[135.47629,34.17824],[135.4787,34.17977]],[[135.32949,34.15738],[135.32638,34.15817],[135.31988,34.15529],[135.3191,34.15598],[135.317,34.15477],[135.31319,34.15415],[135.31021,34.16008],[135.30496,34.16527],[135.30333,34.16593],[135.2833,34.16206],[135.27976,34.16259],[135.28778,34.16426],[135.2913,34.16405],[135.30617,34.16633]],[[135.24586,34.15683],[135.24958,34.15727],[135.24429,34.15648],[135.23949,34.15371],[135.23306,34.15278],[135.22201,34.15333],[135.21455,34.15252],[135.21277,34.15318],[135.21582,34.15272]],[[135.20536,34.15871],[135.21303,34.15855],[135.21339,34.15421],[135.21277,34.15318]],[[135.27827,34.15747],[135.26755,34.15817],[135.2584,34.15971],[135.25158,34.15745],[135.25714,34.16051],[135.26401,34.15932],[135.27372,34.16176],[135.27618,34.16329],[135.27976,34.16259]],[[135.84606,34.39425],[135.86412,34.39636],[135.86983,34.39317]],[[135.20537,34.15878],[135.20583,34.15869]],[[135.41778,34.14106],[135.42003,34.14218],[135.4214,34.1412]],[[135.24958,34.15727],[135.25158,34.15745]],[[135.21333,34.15407],[135.21336,34.15461]]]}}]}