{"type":"FeatureCollection","features":[{"type":"Feature","properties":{"route_id":"354","route_number":354,"name":"国道354号","source":"OpenStreetMap contributors (ODbL)","osm_relations":[3644591,8123867,11367879,12243434,12243516,12243517,12254582,13460982,14243532]},"geometry":{"type":"MultiLineString","coordinates":[[[139.95877,36.03766],[139.96863,36.03906],[139.97929,36.03947],[139.98147,36.03883],[139.98537,36.03604],[139.98756,36.03574]],[[139.80534,36.09972],[139.80233,36.09866],[139.79961,36.0991],[139.79157,36.10345],[139.7875,36.10777],[139.78992,36.10729],[139.79122,36.10628],[139.79067,36.10538],[139.79432,36.1036],[139.79974,36.10398],[139.8061,36.09941],[139.81814,36.09838],[139.82135,36.09735],[139.82505,36.09237],[139.8307,36.0873],[139.83431,36.08615],[139.83933,36.08608],[139.84148,36.07976],[139.84371,36.07794],[139.85328,36.07547],[139.86861,36.0673],[139.8767,36.05425],[139.88269,36.05191],[139.88722,36.04689],[139.8876,36.04495],[139.89329,36.03774],[139.89602,36.03476],[139.89902,36.0329],[139.90495,36.03241],[139.91158,36.03489],[139.92543,36.03691],[139.93376,36.03928],[139.93544,36.03859],[139.94083,36.03328],[139.9648,36.02508],[139.97738,36.02522],[139.98875,36.02313],[139.99544,36.02427],[140.00078,36.02406],[140.00064,36.02869],[140.00268,36.03278],[140.00248,36.03726],[140.01431,36.03757],[140.0402,36.04173],[140.04384,36.04084],[140.04963,36.03696],[140.05275,36.03591],[140.05667,36.03618],[140.06171,36.03874],[140.06433,36.03303],[140.06163,36.03861],[140.05708,36.03621],[140.05281,36.03581],[140.04961,36.03684],[140.04376,36.04078],[140.04003,36.04166],[140.01454,36.03752],[140.00269,36.03716],[140.00267,36.03224],[140.0007,36.02852],[140.00078,36.02406]],[[140.25539,36.09596],[140.24944,36.09635],[140.24104,36.09161],[140.23519,36.09118],[140.22537,36.09564],[140.21783,36.09749],[140.21457,36.10009],[140.20475,36.10537],[140.21469,36.09992],[140.21797,36.09733],[140.22566,36.09543],[140.23628,36.09093],[140.24108,36.09152],[140.24984,36.09633],[140.26496,36.09524],[140.27436,36.09812],[140.28871,36.10009],[140.29844,36.09668],[140.30396,36.09137],[140.30645,36.09039],[140.31397,36.08989],[140.32064,36.09374],[140.33937,36.09475],[140.35366,36.09454],[140.36117,36.0966],[140.36751,36.09485],[140.37423,36.09157],[140.38062,36.09151],[140.38698,36.08809],[140.38993,36.0876],[140.39282,36.08847],[140.40709,36.09785],[140.42505,36.1015],[140.42847,36.1042],[140.43203,36.10499],[140.44488,36.11143],[140.45407,36.11259],[140.45785,36.1138],[140.46191,36.11275],[140.47203,36.10728],[140.47646,36.10625],[140.47926,36.1065],[140.48527,36.10192],[140.49186,36.10136],[140.5032,36.09775],[140.50693,36.09537],[140.51031,36.09511],[140.5282,36.08989],[140.53312,36.08628],[140.53492,36.08587],[140.55119,36.0874],[140.55334,36.08913],[140.55866,36.09034],[140.56094,36.09262],[140.56561,36.09419],[140.56779,36.09746],[140.57114,36.1],[140.57856,36.11606],[140.58064,36.11717],[140.58784,36.11801]],[[138.99159,36.33336],[138.99504,36.33473],[139.00102,36.33475],[139.00147,36.33039],[139.00619,36.33065],[139.0066,36.32818],[139.01445,36.32811],[139.00967,36.32818]],[[140.15442,36.05863],[140.16024,36.06103],[140.16282,36.06132],[140.17697,36.05685],[140.16379,36.06109],[140.16102,36.06114],[140.12475,36.04627],[140.09531,36.04026],[140.08501,36.04016],[140.06433,36.03303]],[[139.69539,36.19345],[139.69693,36.19297],[139.69756,36.18998],[139.70261,36.1811],[139.6832,36.18634],[139.67838,36.18878],[139.67244,36.1946],[139.66118,36.19808],[139.64927,36.19974],[139.64231,36.20827],[139.63947,36.2105],[139.62874,36.21523],[139.62048,36.2174],[139.62421,36.21653]],[[140.17697,36.05685],[140.18107,36.06165],[140.18521,36.06906],[140.18837,36.07187],[140.18819,36.07499],[140.18982,36.07815],[140.19555,36.08453],[140.19926,36.08711],[140.19993,36.09413],[140.20152,36.09644],[140.20475,36.10537]],[[139.32286,36.26872],[139.34769,36.27059],[139.37445,36.26945],[139.39586,36.2668],[139.40584,36.26407],[139.40856,36.26495],[139.41504,36.27061],[139.42274,36.27079],[139.42577,36.26973],[139.42816,36.26783],[139.43322,36.26182],[139.43736,36.25453],[139.43917,36.25279],[139.46063,36.24445],[139.46874,36.23857],[139.4757,36.23688],[139.49331,36.2287],[139.49874,36.22946],[139.5169,36.23537],[139.53599,36.23538],[139.55729,36.2309],[139.56814,36.22954],[139.5771,36.22738],[139.57891,36.22572],[139.57692,36.22734],[139.56812,36.22947],[139.5573,36.23082],[139.53579,36.23533],[139.51697,36.23529],[139.49882,36.22939],[139.49328,36.2286],[139.47589,36.23673],[139.46867,36.23848],[139.46088,36.24423],[139.43931,36.2526],[139.43729,36.25445],[139.43293,36.26206],[139.42778,36.26805],[139.42286,36.27067],[139.41502,36.27051],[139.40859,36.26486],[139.40581,36.26397],[139.39624,36.26665],[139.38013,36.26894],[139.34954,36.27044],[139.32653,36.26937],[139.31759,36.26745],[139.30871,36.26757],[139.30574,36.2687],[139.29695,36.27595],[139.29385,36.27759],[139.28071,36.28097],[139.26738,36.27987],[139.2551,36.28184],[139.2471,36.28463],[139.23833,36.28455],[139.20777,36.29878],[139.20182,36.29858],[139.18209,36.30315],[139.15641,36.3059],[139.14814,36.30328],[139.13391,36.30613],[139.11967,36.30631],[139.11241,36.30761],[139.09867,36.30777],[139.09403,36.30876],[139.07923,36.3088],[139.06976,36.31144],[139.06088,36.31558],[139.04618,36.32084],[139.01443,36.32201],[139.01445,36.32811],[139.01456,36.32215],[139.04621,36.32094],[139.06124,36.31554],[139.0702,36.31136],[139.07925,36.30886],[139.09404,36.30886],[139.09893,36.30785],[139.11243,36.30768],[139.1196,36.30641],[139.13389,36.30623],[139.14814,36.30338],[139.15636,36.30598],[139.18161,36.30332],[139.2015,36.29871],[139.20789,36.29887],[139.2383,36.28466],[139.24709,36.28472],[139.25512,36.28194],[139.26738,36.27995],[139.2811,36.28099],[139.29537,36.27707],[139.30763,36.26788],[139.31737,36.26751],[139.32286,36.26872]],[[139.70261,36.1811],[139.71157,36.18042],[139.7251,36.17577],[139.73043,36.17234],[139.74114,36.16768],[139.74468,36.16512],[139.74827,36.15697],[139.76414,36.13717],[139.7706,36.1316],[139.77369,36.13069],[139.77536,36.12865],[139.77334,36.12156],[139.77521,36.1182],[139.77606,36.11453],[139.7875,36.10777]],[[139.95881,36.03777],[139.96923,36.03921],[139.97884,36.0396],[139.98132,36.03891]],[[139.57891,36.22572],[139.58291,36.22198],[139.59719,36.21793],[139.6158,36.21676],[139.62048,36.2174]],[[139.59078,36.21968],[139.58601,36.221]],[[138.99136,36.3334],[138.99232,36.33371]],[[139.80999,36.12869],[139.81182,36.12735],[139.80828,36.13001],[139.80521,36.13378],[139.80999,36.12869]],[[139.98503,36.03621],[139.98755,36.03583]],[[139.81182,36.12735],[139.81851,36.12274],[139.82036,36.12063],[139.82283,36.11299],[139.82652,36.10575],[139.83189,36.1004],[139.83462,36.09334],[139.83833,36.0897],[139.83958,36.08567]],[[139.86632,36.06817],[139.86861,36.0673]]]}}]}