{"type":"FeatureCollection","features":[{"type":"Feature","properties":{"route_id":"437","route_number":437,"name":"国道437号","source":"OpenStreetMap contributors (ODbL)","osm_relations":[9846585,9846586]},"geometry":{"type":"MultiLineString","coordinates":[[[132.18325,33.96269],[132.18326,33.96415],[132.18203,33.96488],[132.18239,33.96554],[132.18542,33.96321],[132.1852,33.9547],[132.18592,33.95359],[132.1877,33.9545],[132.19218,33.95445],[132.19619,33.95198],[132.19959,33.94842],[132.20634,33.94725],[132.20905,33.94742],[132.21242,33.94919],[132.21312,33.9514],[132.21231,33.95422],[132.21365,33.95676],[132.21692,33.95707],[132.22039,33.95855],[132.2234,33.95884],[132.22629,33.95806],[132.22983,33.95879],[132.23216,33.9655],[132.23364,33.9671],[132.24466,33.96231],[132.24683,33.95909],[132.24707,33.95511],[132.24848,33.95391],[132.2634,33.94862],[132.27257,33.9479],[132.28295,33.95551],[132.28454,33.95552],[132.28685,33.94967],[132.28757,33.94103],[132.29276,33.93754],[132.29334,33.93579],[132.29785,33.93435],[132.29828,33.93234],[132.30031,33.93028],[132.30086,33.92564],[132.2978,33.92222],[132.2994,33.9193],[132.30587,33.91382],[132.31214,33.91055],[132.31701,33.90332],[132.32184,33.90204],[132.32771,33.90338],[132.33091,33.9011],[132.33514,33.90142],[132.34334,33.90424],[132.34905,33.90489],[132.35582,33.90783],[132.35955,33.91364],[132.36044,33.91753],[132.365,33.92128],[132.36694,33.92568],[132.36969,33.92794],[132.37181,33.92778],[132.37262,33.92572],[132.37768,33.92455],[132.38411,33.92686],[132.38687,33.92654],[132.3884,33.92487],[132.39037,33.92478],[132.39673,33.92622],[132.40159,33.92833],[132.4044,33.93046],[132.40592,33.93302],[132.40497,33.93781],[132.40395,33.93878],[132.40413,33.94116],[132.40813,33.94309],[132.41202,33.94638],[132.41459,33.9508],[132.41689,33.95311],[132.42403,33.95372],[132.43156,33.94991],[132.43653,33.95092],[132.43858,33.94829],[132.43748,33.94496]],[[132.08713,34.09919],[132.0891,34.09773],[132.08956,34.09181],[132.09092,34.08957],[132.09557,34.0843],[132.09938,34.08288],[132.10389,34.07996],[132.10884,34.07151],[132.11448,34.07036],[132.12371,34.06686],[132.12521,34.0656],[132.12707,34.06192],[132.13414,34.05965],[132.1381,34.05526],[132.14354,34.05203],[132.1447,34.04837],[132.1443,34.04039],[132.14553,34.0363],[132.15263,34.03168],[132.15555,34.03124],[132.15844,34.02681],[132.15621,34.02284],[132.15672,34.0183],[132.15944,34.01478],[132.16539,34.00955],[132.16964,34.0078],[132.17545,34.00005],[132.18554,33.99163],[132.18663,33.98822],[132.19207,33.98638],[132.1922,33.98503],[132.19026,33.98273],[132.18927,33.97782],[132.18976,33.97214],[132.18752,33.96642],[132.18399,33.96469]],[[132.74804,33.85499],[132.74335,33.85563],[132.74074,33.85741],[132.73771,33.85724],[132.73508,33.8561],[132.71918,33.85734],[132.71955,33.86249],[132.71214,33.86235],[132.71128,33.86531],[132.70986,33.86529]],[[132.71918,33.85739],[132.73508,33.85616],[132.73769,33.8573],[132.74074,33.85747],[132.74338,33.85569],[132.74805,33.85506]]]}}]}