{"type":"FeatureCollection","features":[{"type":"Feature","properties":{"route_id":"350","route_number":350,"name":"国道350号","source":"OpenStreetMap contributors (ODbL)","osm_relations":[8660479,11545641,11545642]},"geometry":{"type":"MultiLineString","coordinates":[[[138.25163,37.18354],[138.25167,37.18263],[138.25238,37.18287],[138.25432,37.18007],[138.25649,37.16532]],[[138.43825,38.08096],[138.43759,38.08076],[138.43865,38.07994],[138.43651,38.08155],[138.43536,38.08111],[138.43246,38.08731],[138.42603,38.08651],[138.41891,38.08156],[138.41707,38.0781],[138.41133,38.07247],[138.40993,38.06971],[138.39962,38.05943],[138.395,38.04958],[138.39282,38.04675],[138.38172,38.04138],[138.37118,38.02985],[138.36825,38.02537],[138.36406,38.02209],[138.37202,38.00889],[138.36739,38.00589],[138.36489,38.00518],[138.34322,38.0044],[138.32861,38.00045],[138.32477,38.00283],[138.31577,38.00618],[138.30852,38.00762],[138.30577,38.0068],[138.32645,37.99927],[138.33537,37.99244],[138.34027,37.98715],[138.34867,37.98385],[138.34749,37.97983],[138.34799,37.97292],[138.34678,37.9674],[138.34202,37.95999],[138.33839,37.95693],[138.33333,37.95518],[138.33164,37.95058],[138.32397,37.94654],[138.30816,37.94087],[138.30826,37.93865],[138.30704,37.93666],[138.30144,37.93036],[138.30143,37.92731],[138.29627,37.92084],[138.29182,37.91691],[138.28791,37.91002],[138.28364,37.90702],[138.28347,37.90481],[138.28798,37.89948],[138.29113,37.89765],[138.28929,37.89557],[138.29064,37.8926],[138.29044,37.89016],[138.28942,37.88864],[138.29393,37.8862],[138.29158,37.88534],[138.29141,37.88144],[138.29513,37.87819],[138.303,37.87398],[138.3031,37.8724],[138.30174,37.87073],[138.3005,37.86647],[138.30485,37.86435],[138.3046,37.86113],[138.30252,37.85845],[138.29299,37.85157],[138.29215,37.84489],[138.28769,37.84186],[138.28668,37.83973],[138.28229,37.8351],[138.27791,37.83256],[138.27817,37.8304],[138.28024,37.83035],[138.28526,37.82707],[138.28599,37.82391],[138.28815,37.82242],[138.28459,37.82021],[138.28353,37.81849],[138.27857,37.81588],[138.27846,37.81499],[138.2796,37.81491],[138.28122,37.8168],[138.28298,37.81739],[138.28535,37.81646],[138.28149,37.81601]]]}}]}