{"type":"FeatureCollection","features":[{"type":"Feature","properties":{"route_id":"279","route_number":279,"name":"国道279号","source":"OpenStreetMap contributors (ODbL)","osm_relations":[7346573,10408524,10408525,10408526,10408527,10408528,20362026,20362027]},"geometry":{"type":"MultiLineString","coordinates":[[[140.71389,41.76578],[140.717,41.76407],[140.71981,41.76462],[140.72302,41.76692],[140.7281,41.77277],[140.72114,41.76522],[140.7182,41.76397],[140.7159,41.76442],[140.71382,41.76571],[140.71708,41.77181],[140.71697,41.77405],[140.71172,41.78269],[140.70293,41.79445],[140.69836,41.79645],[140.69051,41.79549],[140.68763,41.79155],[140.6869,41.7875],[140.68752,41.75339],[140.68908,41.74686],[140.69123,41.74307],[140.89918,41.53077],[140.89982,41.52782],[140.89804,41.52605],[140.89953,41.52439],[140.90497,41.52292],[140.91205,41.52521],[140.9255,41.52493],[140.93295,41.52756],[140.93864,41.52677],[140.9419,41.52511],[140.94394,41.52267],[140.95127,41.52201],[140.95744,41.51566],[140.9628,41.51387],[140.96293,41.51006],[140.96468,41.50771],[140.96715,41.50652],[140.96813,41.50416],[140.97315,41.49874],[140.98,41.49533],[140.99265,41.49139],[140.99614,41.48813],[141.0022,41.48531],[141.01034,41.48506],[141.02015,41.48273],[141.02568,41.48322],[141.02911,41.48245],[141.04041,41.48228],[141.047,41.4831],[141.06687,41.48167],[141.06927,41.4807],[141.0704,41.47809],[141.08072,41.47329],[141.0854,41.4722],[141.08873,41.46932],[141.10188,41.46509],[141.10574,41.4647],[141.1134,41.45675],[141.1187,41.45345],[141.11939,41.45007],[141.12085,41.44798],[141.12686,41.44195],[141.13145,41.4386],[141.13285,41.43458],[141.13422,41.43429],[141.13225,41.4334],[141.13697,41.43274],[141.13752,41.43172],[141.13633,41.43055],[141.14525,41.43017],[141.146,41.4279],[141.14793,41.42609],[141.14915,41.42245],[141.14803,41.42203],[141.14502,41.42287],[141.1486,41.42145],[141.15113,41.4215],[141.15867,41.41479],[141.16159,41.41363],[141.16259,41.41238],[141.16289,41.41097],[141.16187,41.40915],[141.15805,41.4068],[141.15643,41.40406],[141.15235,41.40099],[141.15215,41.39933],[141.15389,41.39661],[141.16281,41.395],[141.16829,41.39762],[141.17349,41.3965],[141.18788,41.38406],[141.20877,41.37209],[141.2095,41.37078],[141.20953,41.36667],[141.20547,41.36038],[141.20463,41.35642],[141.20675,41.35243],[141.21115,41.34889],[141.21218,41.34628],[141.21486,41.34361],[141.2139,41.33683],[141.21531,41.32976],[141.21755,41.32669],[141.21543,41.3112],[141.21416,41.3085],[141.2141,41.30012],[141.21272,41.29858],[141.2127,41.29636]],[[141.12611,40.84662],[141.1246,40.84999],[141.1282,40.86804],[141.12957,40.86801],[141.13319,40.87198],[141.13903,40.87525],[141.14827,40.87869],[141.15648,40.88353],[141.17162,40.89672],[141.18281,40.90782],[141.19147,40.91885],[141.20623,40.93433],[141.20919,40.93792],[141.21254,40.9455],[141.22122,40.95516],[141.22183,40.9582],[141.22027,40.96356],[141.2217,40.96724],[141.22318,40.96815],[141.22358,40.97396],[141.22739,40.98366],[141.23031,40.98869],[141.23302,40.9999],[141.24145,41.00784],[141.24371,41.01466],[141.24336,41.0161],[141.24435,41.01646],[141.25053,41.04624],[141.25043,41.0576],[141.24873,41.06741],[141.25036,41.06924],[141.25567,41.07245],[141.25676,41.07423],[141.25582,41.09299],[141.25244,41.09738],[141.25164,41.09962],[141.25437,41.10667],[141.25665,41.12007],[141.25982,41.12361],[141.26606,41.12589],[141.27076,41.12945],[141.27578,41.13807],[141.28312,41.15451],[141.28263,41.16921],[141.28334,41.18032],[141.28246,41.18758],[141.28131,41.19091],[141.2711,41.2067],[141.23955,41.24163],[141.22911,41.25403],[141.22563,41.26115],[141.22149,41.26664],[141.20938,41.27988],[141.21071,41.28376],[141.21674,41.28725],[141.22054,41.29311],[141.22097,41.29493],[141.22182,41.30198],[141.21855,41.30766],[141.21543,41.3112]],[[141.20934,41.37135],[141.21096,41.37256],[141.20965,41.37547],[141.18811,41.38887],[141.18001,41.396],[141.17216,41.40566],[141.16848,41.40837],[141.16288,41.40549],[141.16053,41.40797],[141.16141,41.40871]],[[141.12617,40.84192],[141.12442,40.84102],[141.12499,40.8393],[141.12973,40.8415],[141.13224,40.84369],[141.13304,40.84646],[141.13145,40.85242],[141.13196,40.85533],[141.13398,40.85749],[141.14033,40.86092],[141.14568,40.87102],[141.14832,40.87418],[141.15248,40.87692],[141.16667,40.88269],[141.17537,40.88879],[141.1833,40.89316],[141.19566,40.90504],[141.20652,40.922],[141.21545,40.92966],[141.23071,40.93891],[141.24448,40.95366],[141.24946,40.95723],[141.25896,40.96235],[141.26195,40.96572],[141.26573,40.9735],[141.26574,40.9783],[141.25569,40.99994],[141.25036,41.00699],[141.24917,41.01078],[141.25035,41.01523],[141.25629,41.02347],[141.25837,41.03036],[141.26009,41.04697],[141.25839,41.0825]],[[141.1581,40.87917],[141.16659,40.88278],[141.17528,40.88886],[141.18384,40.89363]],[[141.22918,40.93782],[141.21475,40.929],[141.20665,40.92192],[141.2041,40.91877]],[[141.26206,40.96621],[141.2656,40.97353],[141.26573,40.97779],[141.25534,41.00044],[141.25021,41.00707],[141.24907,41.01078],[141.25003,41.01484],[141.25624,41.02359],[141.25825,41.03036],[141.26001,41.04742],[141.25828,41.08249]],[[141.24114,41.24123],[141.2444,41.24494],[141.24464,41.24682],[141.236,41.25422],[141.23354,41.25779],[141.23267,41.26149],[141.23284,41.26871],[141.23148,41.2764],[141.23251,41.28122],[141.23905,41.29426],[141.23927,41.29764]],[[141.23993,41.29749],[141.23954,41.29498],[141.23226,41.28041],[141.23157,41.27639],[141.23281,41.26972],[141.23278,41.26088],[141.23361,41.2578],[141.23607,41.25425],[141.24471,41.24683],[141.24449,41.24492],[141.24123,41.24123]],[[141.22012,41.30505],[141.22982,41.30529],[141.23507,41.30368],[141.23774,41.30155],[141.23919,41.2992],[141.23963,41.29632],[141.23905,41.29426]],[[141.2395,41.29541],[141.23919,41.29424]]]}}]}