{"type":"FeatureCollection","features":[{"type":"Feature","properties":{"route_id":"14","route_number":14,"name":"国道14号","source":"OpenStreetMap contributors (ODbL)","osm_relations":[2098903,2098947,2098948]},"geometry":{"type":"MultiLineString","coordinates":[[[140.10932,35.61047],[140.10513,35.61103],[140.08041,35.63573],[140.07453,35.64041],[140.07024,35.64257],[140.05557,35.65458],[140.04361,35.66244],[140.03651,35.66834],[140.07607,35.63958],[140.08746,35.62971],[140.10529,35.61125],[140.10932,35.61053]],[[140.11076,35.6105],[140.11626,35.61019],[140.11432,35.61035]],[[139.91372,35.72855],[139.90436,35.73145],[139.90114,35.73356],[139.89486,35.73569],[139.90108,35.73372],[139.90453,35.73147],[139.91205,35.72934],[139.92367,35.72366],[139.94754,35.71492],[139.95759,35.70989],[139.95654,35.71043]],[[139.77454,35.68405],[139.77298,35.68862],[139.77788,35.69043],[139.78446,35.69496],[139.78996,35.6942],[139.84336,35.69755],[139.85357,35.70048],[139.86807,35.7033],[139.89773,35.70164],[139.90826,35.70515]],[[139.77445,35.68406],[139.77461,35.68458]],[[139.86778,35.70724],[139.86745,35.70821],[139.86799,35.70321],[139.85313,35.70023],[139.84415,35.69752],[139.78997,35.69412],[139.78448,35.69487],[139.77583,35.68954]],[[139.90856,35.70505],[139.89795,35.70152],[139.86799,35.70321]],[[139.86745,35.70821],[139.87436,35.71631],[139.89486,35.73569]],[[139.95759,35.70989],[139.97299,35.70354],[139.97785,35.69868],[140.00236,35.68797],[140.01837,35.67886],[140.02495,35.67597],[140.03651,35.66834]],[[140.12024,35.60982],[140.11856,35.6111],[140.12024,35.60982],[140.12455,35.61058]],[[139.96907,35.69963],[139.97717,35.69919]],[[140.11626,35.61019],[140.11856,35.6111]],[[140.11261,35.61043],[140.11073,35.61044]]]}}]}