{"type":"FeatureCollection","features":[{"type":"Feature","properties":{"route_id":"356","route_number":356,"name":"国道356号","source":"OpenStreetMap contributors (ODbL)","osm_relations":[13766033,15461274,15461275,15461276,15461277,15461280,15461283,15461285]},"geometry":{"type":"MultiLineString","coordinates":[[[140.82342,35.73253],[140.81592,35.73308],[140.81022,35.7347],[140.79232,35.74279],[140.78827,35.74738],[140.77988,35.75067],[140.77419,35.75425],[140.77781,35.75757],[140.77773,35.75863],[140.74903,35.77429],[140.7657,35.76295],[140.77419,35.75425]],[[140.14363,35.83428],[140.15196,35.83339],[140.15594,35.83485],[140.15163,35.83346],[140.13871,35.8351],[140.13816,35.83582],[140.14384,35.83942],[140.14404,35.84095],[140.14193,35.84657],[140.13881,35.85151],[140.13331,35.8571],[140.12474,35.85929],[140.11349,35.86341],[140.10987,35.86417],[140.10041,35.86347],[140.09236,35.86562],[140.08432,35.86923],[140.07868,35.86994],[140.07331,35.86938],[140.05986,35.87097],[140.04626,35.8694],[140.04252,35.86624],[140.03858,35.86524],[140.02615,35.86877],[140.01718,35.87226],[140.01483,35.87029],[140.00826,35.87102],[140.00861,35.87326],[140.00429,35.87257],[139.99915,35.87747]],[[140.50315,35.89554],[140.50643,35.89531],[140.5003,35.89594],[140.49442,35.89964],[140.48956,35.90085],[140.48673,35.90288],[140.48476,35.90713],[140.47119,35.91344],[140.46375,35.91539],[140.4569,35.91518],[140.44594,35.91254],[140.42738,35.90576],[140.41931,35.90372],[140.41285,35.90392],[140.40517,35.90704],[140.40058,35.90749],[140.38883,35.90426],[140.36077,35.89468],[140.35608,35.89079],[140.35314,35.88388],[140.34991,35.87995],[140.34044,35.87431],[140.33088,35.8672],[140.31903,35.86228],[140.31072,35.8619],[140.30252,35.86299],[140.29505,35.865],[140.28391,35.86984],[140.27713,35.87007],[140.26245,35.86508],[140.24784,35.85664],[140.23807,35.84876],[140.22824,35.85286],[140.22147,35.85435],[140.20618,35.85519],[140.20135,35.85357],[140.19104,35.84786],[140.18802,35.84741],[140.18698,35.848],[140.16221,35.84244],[140.15997,35.83724],[140.15594,35.83485]],[[140.13816,35.83582],[140.13592,35.84093],[140.12989,35.8486],[140.11805,35.85559],[140.11021,35.85779],[140.08686,35.86013]],[[140.50643,35.89531],[140.51136,35.89583],[140.52495,35.90075],[140.53693,35.89991],[140.55355,35.89612],[140.56676,35.89002],[140.5697,35.88676],[140.57474,35.88487],[140.58057,35.87954],[140.59145,35.87245],[140.60122,35.85806],[140.61271,35.84939],[140.62217,35.8474],[140.62354,35.84497],[140.63294,35.84652],[140.64802,35.84577],[140.64959,35.84475],[140.65692,35.84329],[140.66151,35.8401],[140.67003,35.83924],[140.67923,35.83717],[140.69159,35.83221],[140.69833,35.82625],[140.70213,35.82152],[140.70512,35.81312],[140.71119,35.80467],[140.71821,35.80076],[140.72438,35.79203],[140.73294,35.78378],[140.74903,35.77429]],[[140.66131,35.84885],[140.62519,35.85742],[140.61219,35.86334]],[[140.49913,35.89638],[140.49507,35.89922],[140.49155,35.90047]]]}}]}