{"type":"FeatureCollection","features":[{"type":"Feature","properties":{"route_id":"298","route_number":298,"name":"国道298号","source":"OpenStreetMap contributors (ODbL)","osm_relations":[10481824]},"geometry":{"type":"MultiLineString","coordinates":[[[139.94451,35.6888],[139.93427,35.69993],[139.92761,35.70451],[139.91619,35.72046],[139.91601,35.7228],[139.91862,35.72733],[139.92041,35.73657],[139.91768,35.75453],[139.91493,35.75667],[139.90419,35.76007],[139.89969,35.76315],[139.88401,35.78205],[139.8797,35.79029],[139.87457,35.81622],[139.87204,35.82344],[139.86678,35.82965],[139.85253,35.84228],[139.85007,35.8436],[139.83936,35.84487],[139.82812,35.84965],[139.80864,35.85126],[139.78418,35.8479],[139.76657,35.84903],[139.74263,35.85297],[139.73441,35.853],[139.72663,35.85194],[139.6875,35.84354],[139.68311,35.84177],[139.67581,35.83711],[139.66553,35.83547],[139.63831,35.82032],[139.62037,35.80254],[139.63845,35.8209],[139.66546,35.83555],[139.67471,35.83712],[139.68373,35.84231],[139.68898,35.84412],[139.72703,35.85226],[139.73441,35.85318],[139.74297,35.85315],[139.76658,35.84924],[139.78395,35.84811],[139.80892,35.85144],[139.82822,35.84984],[139.83944,35.84516],[139.85065,35.84381],[139.85383,35.84187],[139.86594,35.83094],[139.87224,35.8235],[139.87461,35.81721],[139.87983,35.7904],[139.88369,35.7828],[139.89951,35.76351],[139.90616,35.75968],[139.91585,35.75647],[139.91786,35.75463],[139.92063,35.73656],[139.9188,35.72729],[139.91625,35.72292],[139.91638,35.72051],[139.92755,35.70486],[139.93663,35.69792],[139.94397,35.68982],[139.9452,35.68655]],[[139.62083,35.80231],[139.62073,35.80217]]]}}]}