{"type":"FeatureCollection","features":[{"type":"Feature","properties":{"route_id":"305","route_number":305,"name":"国道305号","source":"OpenStreetMap contributors (ODbL)","osm_relations":[8606655,10130304,10130341,10606896]},"geometry":{"type":"MultiLineString","coordinates":[[[136.4838,36.42919],[136.48666,36.44319],[136.49258,36.45388],[136.49866,36.47178],[136.50319,36.47744],[136.51261,36.48485],[136.52345,36.49129],[136.54097,36.49899],[136.55617,36.50807],[136.56372,36.50908],[136.56792,36.51078],[136.57444,36.51541],[136.58367,36.52457],[136.59561,36.53234],[136.59325,36.53017],[136.58376,36.52449],[136.57473,36.5155],[136.56895,36.51127],[136.5639,36.50902],[136.55625,36.50798],[136.54084,36.49881],[136.52054,36.48963],[136.5099,36.48277],[136.50173,36.47587],[136.49855,36.47128],[136.49283,36.4542],[136.48652,36.44255],[136.48414,36.42938],[136.4619,36.40656],[136.44449,36.37883],[136.43853,36.37418],[136.43324,36.36749],[136.42902,36.36125],[136.42794,36.35618],[136.42563,36.35271],[136.42475,36.34911],[136.41382,36.32931],[136.41093,36.32699],[136.41116,36.32618],[136.40774,36.32499],[136.39689,36.3183],[136.38387,36.31458]],[[136.65585,36.57208],[136.65417,36.56793],[136.653,36.56039],[136.64957,36.5578],[136.64139,36.54445],[136.62783,36.54406],[136.61229,36.5333],[136.59561,36.53234]],[[136.19498,35.7978],[136.19354,35.80163],[136.19652,35.81279],[136.1998,35.81872],[136.20034,35.82285],[136.19997,35.82174],[136.19859,35.82176],[136.19312,35.81687],[136.18969,35.81493],[136.17756,35.81147],[136.17174,35.81096],[136.16731,35.80839],[136.16241,35.80822],[136.15525,35.81056],[136.15084,35.81056],[136.12351,35.81762],[136.12082,35.81772],[136.11449,35.81602],[136.1079,35.81801],[136.10508,35.81747],[136.09938,35.81801],[136.09765,35.82134],[136.09506,35.8217],[136.09353,35.82406],[136.09064,35.826],[136.08271,35.82269],[136.07924,35.82385],[136.07371,35.82145],[136.07067,35.82496],[136.06809,35.82532],[136.06608,35.82837],[136.06229,35.8296],[136.05726,35.83416],[136.05313,35.83647],[136.04346,35.84434],[136.0423,35.84716],[136.03964,35.85012],[136.0369,35.85111],[136.0257,35.8616],[136.01333,35.87055],[136.00406,35.87857],[135.99999,35.8833],[135.99797,35.88427],[135.99729,35.88703],[135.99507,35.88795],[135.9965,35.89041],[135.9956,35.89177],[135.99547,35.89614],[135.99819,35.90387],[135.99532,35.91371],[135.9976,35.91619],[136.00071,35.92519],[136.00084,35.93454],[135.99966,35.93542],[136.00071,35.93661],[135.99799,35.935],[135.99303,35.94103],[135.98794,35.94342],[135.98732,35.94811],[135.98526,35.95255],[135.98209,35.95405],[135.98177,35.95562],[135.97474,35.95858],[135.97391,35.96032],[135.97121,35.96234],[135.96827,35.96706],[135.96857,35.96834],[135.96224,35.97542],[135.96064,35.97953],[135.95881,35.98178],[135.95923,35.9836],[135.96324,35.98681],[135.96255,35.98828],[135.96312,35.98979],[135.9657,35.99192],[135.96449,35.99546],[135.96491,35.99717],[135.96775,35.99861],[135.96905,36.00021],[135.97229,36.00097],[135.97463,36.00383],[135.97987,36.00513],[135.9822,36.00842],[135.98504,36.00837],[135.98909,36.01201],[135.99102,36.01247],[135.9919,36.0142],[135.99823,36.0188],[135.99846,36.021],[136.0024,36.02623],[136.00991,36.03171],[136.01222,36.03435],[136.01145,36.04183],[136.01211,36.04646],[136.01656,36.04896],[136.01859,36.05243],[136.02037,36.06138],[136.02,36.06522],[136.02153,36.06785],[136.0217,36.07089],[136.0249,36.07071],[136.02639,36.07258],[136.02508,36.07497],[136.02703,36.08025],[136.0285,36.08155],[136.03084,36.0864],[136.03139,36.09133],[136.03028,36.09516],[136.03263,36.09688],[136.03731,36.10346],[136.0417,36.10493],[136.04329,36.10659],[136.04862,36.10938],[136.04954,36.11713],[136.05435,36.12003],[136.05598,36.12348],[136.05807,36.12547],[136.07004,36.12913],[136.07646,36.13233],[136.07855,36.13434],[136.07952,36.13738],[136.08719,36.14296],[136.0935,36.14584],[136.09842,36.14619],[136.10106,36.14868],[136.10723,36.15153],[136.1111,36.15514],[136.10919,36.15664],[136.12211,36.16917],[136.13684,36.18792],[136.14332,36.20367],[136.13772,36.18913],[136.12624,36.17398]],[[136.41093,36.32699],[136.39661,36.3183],[136.38308,36.31446],[136.37119,36.30888],[136.35314,36.30655],[136.34698,36.3046],[136.33913,36.30083],[136.33918,36.30403],[136.33616,36.30723],[136.32687,36.30446],[136.32248,36.30467],[136.32062,36.30579],[136.32049,36.30708],[136.3195,36.30701],[136.31267,36.303],[136.3044,36.30488],[136.29685,36.30305],[136.29406,36.3015],[136.28696,36.3035],[136.27796,36.2979],[136.27287,36.29119],[136.2698,36.28981],[136.26424,36.28893],[136.25247,36.28984],[136.24705,36.28705],[136.25071,36.28256],[136.24624,36.27787],[136.24619,36.27642],[136.24068,36.27674],[136.23968,36.27413],[136.23514,36.27187],[136.23438,36.26975],[136.23208,36.26928],[136.23179,36.26746],[136.23019,36.26674],[136.23035,36.26546],[136.22932,36.26371],[136.22694,36.2628],[136.22442,36.26061],[136.22066,36.2602],[136.21183,36.25404],[136.21116,36.2519],[136.21158,36.24784],[136.20303,36.23885],[136.20226,36.23569],[136.19825,36.23129],[136.19515,36.23098],[136.19251,36.2289],[136.18835,36.22957],[136.17548,36.22829],[136.16337,36.22449],[136.15787,36.22151],[136.1597,36.21534],[136.16004,36.21273],[136.15936,36.21161],[136.15221,36.2075],[136.14476,36.20607],[136.14332,36.20367]],[[136.3647,36.30782],[136.35178,36.30606],[136.33913,36.30083]]]}}]}