{"type":"FeatureCollection","features":[{"type":"Feature","properties":{"route_id":"417","route_number":417,"name":"国道417号","source":"OpenStreetMap contributors (ODbL)","osm_relations":[8292976,8549720,18332572]},"geometry":{"type":"MultiLineString","coordinates":[[[136.60656,35.37847],[136.60657,35.38561],[136.59984,35.38477],[136.59683,35.39004],[136.58747,35.39114],[136.58254,35.40468],[136.57589,35.41598],[136.57577,35.41843],[136.5769,35.4218],[136.57585,35.43705],[136.57427,35.44017],[136.57199,35.44202],[136.57109,35.4443],[136.57097,35.4507],[136.56958,35.45623],[136.57185,35.46568],[136.56935,35.48068],[136.57254,35.48741],[136.56919,35.4881],[136.56098,35.49346],[136.55783,35.49459],[136.55743,35.49742],[136.55157,35.50353],[136.54177,35.50399],[136.53322,35.50608],[136.5326,35.51034],[136.5356,35.51407],[136.53566,35.51883],[136.53225,35.52629],[136.53177,35.52909],[136.52993,35.53124],[136.52484,35.53448],[136.51222,35.54836],[136.50969,35.5532],[136.50183,35.56054],[136.48939,35.56949],[136.48608,35.57026],[136.47998,35.57429],[136.46788,35.57737],[136.4619,35.57653],[136.46023,35.57793],[136.45631,35.59203],[136.45994,35.59567],[136.46376,35.59568],[136.46459,35.5979],[136.46383,35.60029],[136.46229,35.60152],[136.47016,35.60589],[136.46863,35.60637],[136.46982,35.61013],[136.46817,35.61331],[136.46875,35.61891],[136.46523,35.62316],[136.47108,35.62504],[136.47035,35.62681],[136.4724,35.62917],[136.4737,35.62942],[136.47591,35.6278],[136.47755,35.62844],[136.47587,35.63221],[136.47797,35.63757],[136.48024,35.63822],[136.48394,35.63762],[136.48637,35.63965],[136.48967,35.63994],[136.49527,35.64502],[136.498,35.64497],[136.50084,35.6438],[136.50209,35.64997],[136.50411,35.6523],[136.50452,35.65532],[136.49875,35.66299],[136.49634,35.66868],[136.49094,35.67361],[136.48934,35.6764],[136.49021,35.6825],[136.49512,35.69248],[136.48752,35.70065],[136.48472,35.70144],[136.47481,35.70191],[136.473,35.70301],[136.4682,35.70858],[136.45926,35.71104],[136.45677,35.71334],[136.45457,35.71834],[136.4486,35.72068],[136.44176,35.72536],[136.44005,35.73217],[136.42696,35.74418],[136.4233,35.74592],[136.41613,35.74665],[136.41293,35.74883],[136.41193,35.75105],[136.41219,35.75353],[136.41575,35.75758],[136.41607,35.75895],[136.41393,35.76276],[136.41071,35.76591],[136.40498,35.80925],[136.40329,35.81228],[136.39852,35.81591],[136.39811,35.81807],[136.39628,35.81954],[136.39481,35.8234],[136.39261,35.82394],[136.39157,35.82605],[136.38863,35.8261],[136.38634,35.82742],[136.38597,35.83118],[136.38714,35.8339],[136.38888,35.83527],[136.38734,35.84045],[136.38879,35.84228],[136.38777,35.84394],[136.39017,35.84548],[136.38839,35.8469],[136.3874,35.84986],[136.38558,35.85016],[136.38352,35.85188],[136.38272,35.85444],[136.38096,35.85555],[136.38092,35.85723],[136.37671,35.85677],[136.37516,35.8587],[136.37322,35.85868],[136.372,35.86016],[136.36336,35.86161],[136.36223,35.86891],[136.35484,35.8773],[136.34875,35.87762],[136.33638,35.8816],[136.33337,35.8809],[136.32583,35.88305],[136.31609,35.88232],[136.30919,35.88325],[136.29925,35.88228],[136.29845,35.88411],[136.2988,35.88594],[136.29729,35.88703],[136.29444,35.88678],[136.29224,35.88793],[136.29273,35.88939],[136.29398,35.88995],[136.29293,35.8926],[136.29697,35.89206],[136.29749,35.89331],[136.29864,35.89287],[136.30065,35.89364],[136.29448,35.89564],[136.28855,35.89514],[136.2832,35.89616],[136.27832,35.89936],[136.27785,35.90238],[136.27194,35.90943],[136.26671,35.91144],[136.2577,35.91748],[136.25253,35.9198],[136.24803,35.9178],[136.24544,35.91774],[136.24555,35.91644],[136.23767,35.91652],[136.23781,35.91541],[136.23531,35.91509],[136.23335,35.91386],[136.22791,35.91385],[136.2212,35.91513],[136.21903,35.92119],[136.21374,35.92487],[136.21323,35.92924],[136.2115,35.9341],[136.2078,35.93685],[136.20669,35.94594],[136.19989,35.94668],[136.18918,35.9464],[136.1886,35.94752],[136.18844,35.94642],[136.18706,35.94628],[136.17628,35.94748],[136.17564,35.96491],[136.17613,35.97288],[136.12429,35.9735],[136.12333,35.97045],[136.11697,35.96921],[136.11288,35.96685],[136.11065,35.96414],[136.1043,35.96578],[136.09888,35.96592],[136.08895,35.9631],[136.08459,35.95982],[136.07607,35.96232],[136.06745,35.95866],[136.06122,35.96138],[136.04768,35.96106],[136.03998,35.96215],[136.02731,35.9567],[136.02414,35.95652],[136.02093,35.9576],[136.01521,35.95656],[136.0077,35.95815],[136.00278,35.95719],[135.99874,35.95786],[135.9961,35.95947],[135.99457,35.96223],[135.99351,35.96256],[135.99225,35.962],[135.99159,35.95997],[135.99215,35.95909],[135.9933,35.95911],[135.99371,35.96025],[135.9923,35.9607],[135.98191,35.95546],[135.98209,35.95405],[135.98518,35.95264],[135.98588,35.95141],[135.98732,35.94811],[135.98794,35.94342],[135.99303,35.94103],[135.99799,35.935],[136.00071,35.93661],[135.99966,35.93542],[136.00084,35.93454],[136.00071,35.92519],[135.9976,35.91619],[135.99532,35.91371],[135.99819,35.90387],[135.99752,35.90082],[135.99605,35.89873],[135.99523,35.89445],[135.9965,35.89041],[135.99492,35.88843],[135.9975,35.8868],[135.99787,35.88436],[135.99999,35.8833],[136.00406,35.87857],[136.01333,35.87055],[136.03214,35.85621],[136.0369,35.85111],[136.03964,35.85012],[136.0423,35.84716],[136.04383,35.844],[136.05339,35.83627],[136.05741,35.83405],[136.06229,35.8296],[136.06608,35.82837],[136.06832,35.82513],[136.07067,35.82496],[136.07359,35.8215],[136.07924,35.82385],[136.08271,35.82269],[136.09064,35.826],[136.09353,35.82406],[136.09506,35.8217],[136.09765,35.82134],[136.09893,35.81819],[136.10174,35.81766]],[[136.18332,35.9468],[136.18539,35.9464]],[[136.28982,35.89579],[136.29129,35.89504]],[[136.32583,35.88305],[136.29425,35.89549]]]}}]}