{"type":"FeatureCollection","features":[{"type":"Feature","properties":{"route_id":"236","route_number":236,"name":"国道236号","source":"OpenStreetMap contributors (ODbL)","osm_relations":[6626645]},"geometry":{"type":"MultiLineString","coordinates":[[[143.20396,42.9321],[143.20847,42.89682],[143.18957,42.86036],[143.18884,42.85586],[143.18042,42.84458],[143.18156,42.84256],[143.1897,42.83867],[143.19084,42.83553],[143.17312,42.80938],[143.17143,42.80266],[143.15847,42.78527],[143.15181,42.76778],[143.1581,42.74448],[143.15522,42.73189],[143.15096,42.72172],[143.1441,42.71491],[143.12804,42.69241],[143.1274,42.69044],[143.12931,42.68838],[143.16565,42.67541],[143.21587,42.62959],[143.23997,42.61391],[143.2449,42.6119],[143.26489,42.59894],[143.28311,42.59163],[143.29605,42.58903],[143.30097,42.58397],[143.3056,42.58177],[143.30749,42.57972],[143.30931,42.57536],[143.30883,42.5736],[143.27656,42.52864],[143.27931,42.4997],[143.27157,42.48815],[143.27638,42.46507],[143.29442,42.44996],[143.2929,42.44485],[143.30691,42.40161],[143.30444,42.39548],[143.28019,42.40508],[143.2721,42.40359],[143.26899,42.4038],[143.23839,42.41588],[143.23017,42.41608],[143.21396,42.40957],[143.20825,42.40807],[143.1832,42.4146],[143.15592,42.41537],[143.14488,42.40862],[143.13914,42.40191],[143.13216,42.39718],[143.12377,42.38656],[143.11709,42.38299],[143.10869,42.38067],[143.08795,42.3786],[143.08333,42.38021],[143.07766,42.38041],[143.06647,42.38283],[143.0606,42.38161],[143.05959,42.37909],[143.0614,42.37551],[143.05491,42.37125],[143.05175,42.36198],[143.0482,42.35877],[143.0441,42.35726],[143.04245,42.35171],[143.03916,42.34811],[143.037,42.31129],[143.03388,42.30642],[143.03524,42.30321],[143.03489,42.29962],[143.0308,42.29715],[143.02913,42.29455],[143.02525,42.29204],[143.02195,42.28347],[143.02198,42.28179],[143.019,42.27909],[143.01868,42.27641],[143.02011,42.27232],[143.01844,42.26718],[143.01867,42.26363],[143.01661,42.25999],[143.01664,42.25751],[143.01526,42.2542],[143.01564,42.25126],[143.00353,42.24129],[142.99591,42.23673],[142.98895,42.23449],[142.98676,42.23291],[142.97311,42.23197],[142.96913,42.2331],[142.95465,42.2319],[142.95123,42.22872],[142.94742,42.22715],[142.94326,42.22823],[142.93673,42.22726],[142.93063,42.22791],[142.92717,42.22961],[142.9213,42.23106],[142.91345,42.23047],[142.90942,42.23186],[142.90618,42.22793],[142.89938,42.22403],[142.89448,42.21938],[142.89405,42.21843],[142.896,42.2128],[142.89596,42.21021],[142.88903,42.20583],[142.88771,42.20394],[142.88712,42.20058],[142.87576,42.18984],[142.86085,42.19206],[142.85408,42.18332],[142.85092,42.18132],[142.84981,42.17931],[142.84925,42.1742],[142.84108,42.1624],[142.83221,42.14256],[142.82508,42.14116],[142.81548,42.14239],[142.80215,42.15094],[142.79209,42.15452],[142.79034,42.15716],[142.78649,42.15856],[142.78306,42.15845],[142.78038,42.16045],[142.77624,42.16091],[142.7748,42.16243]],[[143.20408,42.93208],[143.20448,42.92855]],[[143.20833,42.89952],[143.20837,42.89619],[143.19673,42.87404]]]}}]}