{"type":"FeatureCollection","features":[{"type":"Feature","properties":{"route_id":"238","route_number":238,"name":"国道238号","source":"OpenStreetMap contributors (ODbL)","osm_relations":[6621211,9448607,10217626]},"geometry":{"type":"MultiLineString","coordinates":[[[141.80213,45.40693],[141.78337,45.40334],[141.75972,45.40268],[141.74976,45.40505],[141.73681,45.39833],[141.71839,45.39522],[141.70625,45.39503],[141.71848,45.39514],[141.73658,45.39819],[141.74217,45.40069],[141.74744,45.40429],[141.75018,45.40499],[141.75999,45.40258],[141.78417,45.40331],[141.79374,45.40497],[141.81265,45.41018],[141.83745,45.42029],[141.8506,45.42801],[141.86201,45.43692],[141.87028,45.44802],[141.87345,45.45091],[141.87921,45.46183],[141.87881,45.46298],[141.87605,45.4645],[141.87358,45.47071],[141.87516,45.4772],[141.87847,45.47994],[141.87979,45.48234],[141.88027,45.48592],[141.87857,45.48781],[141.87937,45.494],[141.88049,45.49503],[141.88595,45.49671],[141.89242,45.50182],[141.89297,45.50712],[141.89405,45.50971],[141.89984,45.51105],[141.9035,45.51449],[141.90856,45.51509],[141.9123,45.5173],[141.9192,45.51792],[141.92422,45.51671],[141.92789,45.51763],[141.93605,45.52225],[141.94003,45.52111],[141.94378,45.51651],[141.95475,45.51491],[141.96338,45.50615],[141.96405,45.50361],[141.96371,45.50052],[141.96703,45.49716],[141.96779,45.49225],[141.96736,45.48917],[141.96893,45.48209],[141.97391,45.47702],[141.97395,45.47213],[141.97771,45.46782],[141.98344,45.46782],[141.98864,45.46521],[141.99529,45.45811],[141.999,45.45629],[142.00269,45.45301],[142.00991,45.44964],[142.01015,45.44794],[142.01149,45.44656],[142.0114,45.44222],[142.01405,45.43933],[142.01434,45.43722],[142.01666,45.43279],[142.01669,45.42985],[142.01782,45.42697],[142.01927,45.42599],[142.0233,45.42533],[142.02948,45.42519],[142.03253,45.41975],[142.04319,45.40629],[142.05234,45.39872],[142.07664,45.38623],[142.08434,45.38334],[142.09002,45.37935],[142.09527,45.37825],[142.11122,45.3669],[142.1209,45.36212],[142.1252,45.3612],[142.14178,45.35261],[142.15306,45.34792],[142.16302,45.34102],[142.16659,45.33978],[142.17654,45.33169],[142.17876,45.32766],[142.18999,45.31611],[142.19773,45.30674],[142.20565,45.29983],[142.22001,45.28296],[142.22462,45.28024],[142.23381,45.26814],[142.23446,45.26634],[142.23131,45.24898],[142.22208,45.23388],[142.22522,45.22665],[142.22922,45.21018],[142.23045,45.20821],[142.25656,45.19218],[142.27796,45.18466],[142.33116,45.15151],[142.34899,45.1491],[142.35295,45.14723],[142.36157,45.14111],[142.36351,45.13651],[142.3662,45.12528],[142.38212,45.12735],[142.39203,45.12506],[142.41244,45.10836],[142.41666,45.10641],[142.42551,45.10405],[142.44064,45.09522],[142.4742,45.06653],[142.49728,45.05034],[142.50119,45.04581],[142.50565,45.04268],[142.50694,45.03967],[142.5093,45.03707],[142.51555,45.03401],[142.52103,45.02929],[142.52819,45.02694],[142.53162,45.02192],[142.53044,45.01393],[142.53356,45.00049],[142.53936,44.98983],[142.54314,44.98638],[142.5507,44.98389],[142.5558,44.98053],[142.56137,44.97431],[142.56492,44.96851],[142.57218,44.96409],[142.57722,44.95934],[142.57762,44.94852],[142.57091,44.94281],[142.56767,44.93668],[142.56771,44.93426],[142.56953,44.92956],[142.57817,44.92206],[142.58537,44.91906],[142.60864,44.89626],[142.61524,44.89147],[142.64448,44.86602],[142.6462,44.86087],[142.65464,44.84585],[142.65349,44.84203],[142.65399,44.84066],[142.67309,44.83163],[142.68078,44.82597],[142.68337,44.81943],[142.6987,44.80768],[142.70051,44.79686],[142.70303,44.79445],[142.70691,44.79341],[142.71181,44.78873],[142.72602,44.77299],[142.72741,44.76811],[142.73058,44.76632],[142.73976,44.75822],[142.75176,44.75155],[142.75443,44.74902],[142.75893,44.74258],[142.76384,44.74078],[142.77047,44.73658],[142.7746,44.7302],[142.78198,44.72531],[142.79162,44.71707],[142.8125,44.70292],[142.81818,44.69404],[142.82407,44.69069],[142.83517,44.68947],[142.84132,44.68566],[142.86672,44.66548],[142.87021,44.66165],[142.87669,44.65859],[142.91309,44.63039],[142.91639,44.62183],[142.92501,44.61814],[142.93184,44.60809],[142.93638,44.60431],[142.93934,44.60011],[142.94312,44.59709],[142.95551,44.58982],[142.96301,44.58069],[142.97716,44.56888],[142.98581,44.55917],[142.99923,44.55347],[143.00845,44.54837],[143.02008,44.54093],[143.04655,44.52666],[143.05813,44.51893],[143.06593,44.51521],[143.0715,44.51095],[143.07597,44.50452],[143.07514,44.50333],[143.07002,44.50099],[143.06814,44.49634],[143.07326,44.48837],[143.0758,44.4876],[143.09291,44.48834],[143.09688,44.48288],[143.10452,44.48184],[143.10924,44.48014],[143.11527,44.47641],[143.12121,44.47445],[143.12684,44.47016],[143.1435,44.46809],[143.14963,44.4643],[143.17154,44.45708],[143.21241,44.43632],[143.2199,44.4341],[143.22528,44.42952],[143.22774,44.42473],[143.23226,44.42175],[143.28994,44.39359],[143.29221,44.39169],[143.30297,44.37774],[143.3096,44.37533],[143.31374,44.37765],[143.31695,44.37766],[143.32513,44.37154],[143.33397,44.36665],[143.33533,44.36367],[143.33488,44.35139],[143.33896,44.3445],[143.33859,44.3343],[143.34002,44.33197],[143.34232,44.33099],[143.36523,44.32927],[143.37159,44.32587],[143.3872,44.31966],[143.39482,44.31492],[143.40893,44.30779],[143.41142,44.30584],[143.42118,44.29415],[143.42456,44.29246],[143.43539,44.29003],[143.44667,44.28032],[143.45125,44.27431],[143.4572,44.27036],[143.46468,44.26315],[143.47522,44.25605],[143.48278,44.25271],[143.489,44.24878],[143.49826,44.24449],[143.50657,44.24513],[143.50977,44.24455],[143.53534,44.23087],[143.55764,44.22714],[143.59258,44.21603],[143.60055,44.2156],[143.60405,44.21245],[143.60871,44.21087],[143.60021,44.1971],[143.65675,44.17885],[143.6641,44.17144],[143.66717,44.16665],[143.67684,44.16043],[143.68739,44.15608],[143.69394,44.14578],[143.70971,44.13955],[143.71317,44.136],[143.71692,44.13403],[143.7208,44.12561],[143.72064,44.12078],[143.72266,44.1156],[143.72192,44.11194],[143.72895,44.10133],[143.72975,44.09736],[143.73266,44.09376],[143.73466,44.09358],[143.73858,44.0954],[143.74295,44.09476],[143.74669,44.09175],[143.75305,44.09255],[143.76737,44.09077],[143.77457,44.09212],[143.78174,44.09651],[143.78768,44.09681],[143.79056,44.09575],[143.79611,44.09606],[143.80008,44.09487],[143.8065,44.09447],[143.81343,44.09786],[143.82069,44.09898],[143.82878,44.10318],[143.83737,44.10631],[143.8404,44.10664],[143.84825,44.10483],[143.8566,44.10024],[143.86706,44.10011],[143.87593,44.09795],[143.8806,44.09872],[143.88579,44.09831],[143.8911,44.09376],[143.91574,44.0812],[143.92185,44.08096],[143.92686,44.07914],[143.94067,44.07953],[143.94326,44.08028],[143.95404,44.08863],[143.95869,44.09487],[143.96782,44.10281],[143.99145,44.10269],[143.99874,44.10654],[144.0355,44.11601],[144.03974,44.1214],[144.04132,44.12215],[144.05063,44.12194],[144.06881,44.1158],[144.0775,44.11686],[144.08752,44.12348],[144.09418,44.12422],[144.10052,44.12233],[144.12,44.10957],[144.12689,44.10896],[144.1298,44.107],[144.13033,44.1058],[144.1296,44.10222],[144.12551,44.09504],[144.11527,44.09158],[144.11082,44.08771],[144.11235,44.08078],[144.11114,44.07556],[144.10867,44.07138],[144.10761,44.06783],[144.10503,44.06424],[144.1045,44.05208],[144.1034,44.04956],[144.09931,44.04541],[144.09755,44.03484],[144.09566,44.02895],[144.0981,44.02097],[144.09925,44.01963],[144.10737,44.01648],[144.11317,44.01197],[144.11623,44.01147],[144.13242,44.01054],[144.1447,44.01107],[144.15567,44.01261],[144.16638,44.01091],[144.16795,44.01007],[144.16981,44.00727],[144.1709,44.00283],[144.1741,44.00019],[144.17601,43.99966],[144.18116,44.00161],[144.18945,44.0075],[144.19806,44.00726],[144.20695,44.00809],[144.21275,44.00745],[144.21434,44.00823],[144.21665,44.01221],[144.21841,44.01332],[144.22084,44.01329],[144.22402,44.01195],[144.23147,44.01319]],[[142.86881,44.66299],[142.87669,44.65859]],[[143.37137,44.32599],[143.38251,44.32156]],[[142.19865,45.30592],[142.20127,45.30379]],[[141.96955,45.4811],[141.9739,45.47724],[141.97385,45.47256],[141.97727,45.46818],[141.97922,45.46755],[141.98353,45.46789],[141.98784,45.46566]],[[143.52986,44.23364],[143.51596,44.24122]]]}}]}