{"type":"FeatureCollection","features":[{"type":"Feature","properties":{"route_id":"5","route_number":5,"name":"国道5号","source":"OpenStreetMap contributors (ODbL)","osm_relations":[33009,8884900,8884901,8884902,8884903]},"geometry":{"type":"MultiLineString","coordinates":[[[140.64727,41.96244],[140.64784,41.96023],[140.6501,41.95762],[140.65043,41.95573],[140.64903,41.95282],[140.64308,41.94892],[140.64143,41.94688],[140.64102,41.94494],[140.64204,41.93832],[140.64042,41.93348],[140.64459,41.929],[140.66487,41.92296],[140.64424,41.92902],[140.64033,41.9334],[140.6419,41.93829],[140.64129,41.94688],[140.65001,41.95581],[140.64993,41.95761],[140.64765,41.96031],[140.64722,41.96228],[140.6499,41.9649],[140.65112,41.97041],[140.64949,41.97244],[140.64147,41.97579],[140.63924,41.98],[140.63918,41.98802],[140.63174,42.0072],[140.62882,42.01078],[140.61334,42.02414],[140.59866,42.0535],[140.59635,42.0568],[140.5967,42.06021],[140.60217,42.06458],[140.60316,42.0672],[140.60256,42.0722],[140.5968,42.07969],[140.58759,42.08206],[140.58027,42.09037],[140.55997,42.10522],[140.53808,42.11732],[140.51555,42.12778],[140.50878,42.13374],[140.49839,42.14704],[140.4921,42.15085],[140.48898,42.1517],[140.48199,42.15541],[140.47574,42.15715],[140.46897,42.16288],[140.4631,42.16566],[140.45805,42.17142],[140.45116,42.17655],[140.44174,42.17956],[140.43961,42.18134],[140.43528,42.18746],[140.43281,42.18815],[140.42602,42.18695],[140.42104,42.18864],[140.41993,42.19026],[140.41924,42.19758],[140.40835,42.20109],[140.40491,42.20593],[140.40278,42.20755],[140.3963,42.20926],[140.38326,42.21713],[140.37209,42.22146],[140.36323,42.22323],[140.34611,42.2244],[140.33188,42.2294],[140.32126,42.23428],[140.3161,42.23455],[140.30866,42.23629],[140.29413,42.24179],[140.28706,42.24885],[140.28302,42.25422],[140.27353,42.26337],[140.27281,42.26569],[140.27155,42.2879],[140.27214,42.30483],[140.27339,42.3125],[140.2847,42.35488],[140.29344,42.38058],[140.30371,42.40191],[140.30724,42.41124],[140.31951,42.43331],[140.33085,42.4492],[140.33266,42.4548],[140.33481,42.45851],[140.35228,42.4836],[140.3658,42.49998],[140.37019,42.50151],[140.38242,42.51576],[140.38123,42.51782],[140.37219,42.52437],[140.36634,42.53322],[140.35394,42.5398],[140.34909,42.54821],[140.34449,42.55298],[140.3381,42.55586],[140.33072,42.56461],[140.32268,42.57243],[140.30788,42.59284],[140.30686,42.6019],[140.31081,42.60506],[140.31664,42.61804],[140.31655,42.62071],[140.3137,42.62684],[140.31387,42.62904],[140.3154,42.63113],[140.31739,42.63167],[140.33218,42.62685],[140.33467,42.62761],[140.3381,42.63023],[140.34454,42.63206],[140.36145,42.63121],[140.36312,42.63171],[140.36385,42.63298],[140.36325,42.63553],[140.36381,42.64104],[140.36801,42.64854],[140.36887,42.65362],[140.36874,42.65615],[140.36595,42.66195],[140.36677,42.66605],[140.37458,42.67325],[140.38928,42.66908],[140.39275,42.66982],[140.39669,42.67356],[140.39917,42.67745],[140.4011,42.6848],[140.40565,42.6935],[140.42273,42.70328],[140.4315,42.7238],[140.4332,42.73272],[140.43998,42.73872],[140.4457,42.74038],[140.46078,42.7425],[140.46337,42.74391],[140.48681,42.76996],[140.48813,42.77439],[140.49315,42.77949],[140.49376,42.78581],[140.48912,42.79033],[140.48686,42.79513],[140.48707,42.79672],[140.48867,42.79802],[140.49787,42.80103],[140.5213,42.80215],[140.52784,42.8068],[140.53424,42.80999],[140.54066,42.80986],[140.54552,42.81359],[140.55377,42.81402],[140.56255,42.81328],[140.57104,42.81089],[140.57219,42.80972],[140.57211,42.80745],[140.5729,42.8064],[140.58752,42.79972],[140.59979,42.7964],[140.60531,42.79611],[140.60934,42.79438],[140.61282,42.79413],[140.61653,42.79102],[140.62113,42.78894],[140.62507,42.78878],[140.63129,42.78662],[140.63498,42.78428],[140.63708,42.78116],[140.63965,42.77965],[140.64701,42.77899],[140.65983,42.77618],[140.67149,42.7788],[140.67859,42.77883],[140.68187,42.78545],[140.6929,42.79263],[140.69485,42.79654],[140.69645,42.79798],[140.7048,42.80071],[140.70978,42.80891],[140.71833,42.81154],[140.7231,42.81583],[140.72863,42.81847],[140.72829,42.82332],[140.72979,42.83475],[140.73236,42.84022],[140.73951,42.85015],[140.74071,42.85465],[140.75007,42.87324],[140.75315,42.91178],[140.74469,42.91889],[140.73118,42.92493],[140.72861,42.92498],[140.72232,42.92195],[140.71932,42.92233],[140.71696,42.92701],[140.71464,42.92865],[140.71236,42.93169],[140.70613,42.93539],[140.70468,42.93807],[140.70447,42.94203],[140.70528,42.94505],[140.6979,42.95212],[140.69171,42.96473],[140.68212,42.96927],[140.67876,42.96964],[140.67357,42.97325],[140.66949,42.97792],[140.65927,42.98016],[140.65583,42.98283],[140.65538,42.98439],[140.66724,42.99633],[140.66885,43.00113],[140.66542,43.00882],[140.66653,43.01771],[140.67145,43.02701],[140.67434,43.02937],[140.67503,43.03133],[140.67701,43.03318],[140.68123,43.0439],[140.68091,43.04864],[140.68618,43.06106],[140.68738,43.06188],[140.69269,43.06232],[140.69483,43.06452],[140.69873,43.06417],[140.70015,43.06712],[140.69906,43.07077],[140.69979,43.07242],[140.70823,43.0744],[140.71091,43.07622],[140.71673,43.09159],[140.71951,43.10284],[140.72336,43.10819],[140.72417,43.11093],[140.73174,43.11933],[140.74147,43.12325],[140.74936,43.13024],[140.75093,43.13563],[140.75424,43.13896],[140.75447,43.14209],[140.7639,43.15469],[140.7794,43.16561],[140.78353,43.17048],[140.78826,43.17229],[140.79126,43.17527],[140.79324,43.18227],[140.79273,43.18956],[140.7941,43.19252],[140.81821,43.19191],[140.83779,43.19526],[140.84514,43.19814],[140.85032,43.19655],[140.85834,43.19858],[140.86481,43.199],[140.87318,43.20354],[140.88813,43.20579],[140.89408,43.20853],[140.89712,43.20903],[140.90283,43.20878],[140.91717,43.21084],[140.92245,43.20882],[140.92674,43.20865],[140.93412,43.21091],[140.94804,43.21957],[140.95021,43.22003],[140.95404,43.21861],[140.96661,43.20756],[140.97159,43.20656],[140.97804,43.20745],[140.98304,43.20541],[140.98612,43.20225],[140.99272,43.20256],[140.99522,43.19641],[141.00036,43.18782],[141.0098,43.18072],[141.02403,43.18163],[141.03796,43.17842],[141.03355,43.18094],[141.03005,43.1803]],[[141.03796,43.17842],[141.04213,43.17762],[141.04911,43.17941],[141.05205,43.17881],[141.06238,43.17372],[141.06794,43.17508],[141.07039,43.1727],[141.07508,43.17084],[141.07898,43.17008],[141.08166,43.17056],[141.09153,43.1679],[141.09937,43.16245],[141.10469,43.16276],[141.10747,43.16172],[141.11255,43.15741],[141.11232,43.15639],[141.10964,43.15427],[141.11082,43.1525],[141.12796,43.15322],[141.13185,43.15144],[141.13851,43.14679],[141.152,43.14093],[141.1678,43.13824],[141.17455,43.13544],[141.18137,43.13502],[141.19173,43.13167],[141.20075,43.13182],[141.20888,43.13064],[141.22722,43.12242],[141.23595,43.12114],[141.24756,43.11254],[141.2542,43.09949],[141.26956,43.09043],[141.28288,43.0929],[141.31515,43.10259],[141.32191,43.10253],[141.33366,43.10021],[141.34507,43.10145],[141.34966,43.08397],[141.35372,43.07537],[141.35691,43.06275]],[[141.35644,43.06268],[141.35287,43.07642],[141.3494,43.08394],[141.34485,43.10113],[141.33432,43.10001],[141.32072,43.10242],[141.31412,43.1022],[141.28451,43.09303],[141.26985,43.09019],[141.25413,43.09944],[141.24721,43.11282],[141.2359,43.12107],[141.22717,43.12235],[141.20885,43.13058],[141.20057,43.13175],[141.19148,43.13163],[141.18132,43.13497],[141.17454,43.13537],[141.16775,43.13818],[141.15194,43.14085],[141.13844,43.14672],[141.12794,43.15314],[141.11072,43.15243],[141.10953,43.15428],[141.11245,43.15738],[141.10742,43.16164],[141.10461,43.16268],[141.09918,43.16227],[141.09145,43.16777],[141.08164,43.17047],[141.07897,43.16999],[141.07504,43.17075],[141.07031,43.17263],[141.0679,43.175],[141.06348,43.17366]],[[140.73425,41.80087],[140.73561,41.81206],[140.73249,41.8228],[140.73538,41.81417],[140.73572,41.80981],[140.7331,41.79384],[140.73047,41.78615],[140.72928,41.77525],[140.7281,41.77277]],[[140.29112,42.24438],[140.28306,42.254],[140.27342,42.26334],[140.2727,42.26575],[140.27193,42.28032]],[[141.04911,43.17941],[141.0533,43.17824]],[[140.99278,43.20244],[140.98565,43.20224],[140.98296,43.20535],[140.97799,43.20736],[140.97227,43.20623],[140.96796,43.20677],[140.96365,43.20904],[140.96135,43.21225],[140.95786,43.21456],[140.95395,43.21856],[140.95021,43.21993],[140.94813,43.2195],[140.9342,43.21082],[140.92731,43.20868],[140.92241,43.20872],[140.91769,43.21071],[140.91187,43.21016]],[[140.73249,41.8228],[140.72548,41.84241],[140.71535,41.86527],[140.69616,41.888],[140.68856,41.90138],[140.68046,41.91168],[140.67194,41.91987],[140.66487,41.92296]],[[140.6994,43.0697],[140.70028,43.06739],[140.69905,43.0643],[140.6948,43.06444],[140.69315,43.06245],[140.69131,43.06212]],[[140.66706,43.01872],[140.66547,43.00971],[140.66609,43.00695]],[[140.68095,43.04699],[140.68132,43.0439],[140.67871,43.03781]]]}}]}