{"type":"FeatureCollection","features":[{"type":"Feature","properties":{"route_id":"333","route_number":333,"name":"国道333号","source":"OpenStreetMap contributors (ODbL)","osm_relations":[6634560,6639468,11012696]},"geometry":{"type":"MultiLineString","coordinates":[[[142.39072,43.78347],[142.42242,43.80331],[142.38806,43.78171],[142.37768,43.76404],[142.36104,43.76888]],[[142.42242,43.80331],[142.5063,43.85569],[142.51009,43.85874],[142.51462,43.86355],[142.52858,43.88653],[142.52794,43.88883],[142.52126,43.89347],[142.52187,43.89511],[142.52933,43.89824],[142.53572,43.89968],[142.54167,43.8996],[142.55245,43.89791],[142.56068,43.90142],[142.57099,43.90152],[142.57986,43.90556],[142.58808,43.90697],[142.59444,43.90712],[142.60178,43.90957],[142.65746,43.89417],[142.67133,43.8821],[142.67251,43.87508],[142.68904,43.85692],[142.69659,43.84676],[142.70291,43.8425],[142.7088,43.84159],[142.71691,43.84342],[142.7262,43.84392],[142.72803,43.84483],[142.73095,43.84808],[142.73346,43.84909],[142.74493,43.84894],[142.74959,43.8484],[142.76742,43.84324],[142.77875,43.84294],[142.78467,43.83985],[142.78786,43.84236],[142.79885,43.84715],[142.81254,43.84953],[142.81733,43.85474],[142.83799,43.86202],[142.84063,43.86212],[142.84474,43.86041],[142.85354,43.86048],[142.86646,43.85902],[142.88101,43.86036],[142.88423,43.8615],[142.89363,43.86728],[142.90165,43.86642],[142.90882,43.86766],[142.91535,43.87052],[142.9206,43.8714],[142.92349,43.87375],[142.92981,43.87431],[142.93266,43.87651],[142.93972,43.87863],[142.94171,43.88066],[142.94469,43.88044],[142.95657,43.88412],[142.96206,43.88438],[142.96311,43.88529],[142.96332,43.88745],[142.97083,43.88972],[142.97683,43.88948],[142.98364,43.88602],[142.98928,43.88595],[142.99234,43.88432],[142.99621,43.88466],[142.99748,43.88334],[143.00078,43.88376],[143.00329,43.88183],[143.00457,43.88369],[143.00805,43.88387],[143.01292,43.88257],[143.01456,43.88006],[143.01792,43.88077],[143.0192,43.87953],[143.02059,43.88177],[143.02177,43.88198],[143.02474,43.87901],[143.03058,43.87716],[143.03226,43.87409],[143.0337,43.87308],[143.03626,43.87297],[143.04259,43.87505],[143.04589,43.87469],[143.04622,43.87363],[143.04412,43.87186],[143.05037,43.87108],[143.04241,43.8674],[143.04293,43.86689],[143.04882,43.86738],[143.04537,43.86442],[143.04473,43.861],[143.04554,43.86047],[143.05401,43.86856],[143.06244,43.87051],[143.06943,43.87099],[143.07352,43.87303],[143.0807,43.87456],[143.0915,43.8794],[143.10018,43.87971],[143.11126,43.88167],[143.12366,43.87909],[143.12832,43.87926],[143.13982,43.8753],[143.16682,43.87823],[143.18395,43.88464],[143.19396,43.88633],[143.1962,43.88883],[143.20175,43.89216],[143.21367,43.90323],[143.22239,43.9086],[143.22934,43.91623],[143.23395,43.91803],[143.23871,43.92192],[143.2441,43.92901],[143.25272,43.93335],[143.26447,43.93756],[143.26923,43.94243],[143.27522,43.94588],[143.29586,43.95278],[143.29747,43.95491],[143.29707,43.9598],[143.29826,43.96444],[143.29784,43.96828],[143.30215,43.97264],[143.3028,43.9765],[143.30496,43.97967],[143.30727,43.98125],[143.31754,43.98433],[143.32275,43.98796],[143.32734,43.9939],[143.32889,43.99836],[143.34073,44.00846],[143.34246,44.01118],[143.35407,44.01818],[143.35631,44.02119],[143.35945,44.02245],[143.36812,44.0209],[143.37613,44.02088],[143.38939,44.01306],[143.39247,44.0123],[143.40202,44.01206],[143.40803,44.0106],[143.41708,44.01058],[143.44617,44.00738],[143.45018,44.0093],[143.45192,44.01192],[143.45772,44.01655],[143.47646,44.01979],[143.48159,44.02194],[143.4933,44.02299],[143.49931,44.02479],[143.50513,44.02425],[143.50836,44.02477],[143.51149,44.02313],[143.51452,44.01648],[143.52017,44.01356],[143.52583,44.0073],[143.53455,44.00062],[143.53823,43.99215],[143.53837,43.9878],[143.54235,43.98577],[143.54489,43.98129],[143.5477,43.97828],[143.54947,43.97804],[143.55494,43.97958],[143.55622,43.98038],[143.55744,43.98279],[143.55993,43.98414],[143.5736,43.9848],[143.59347,43.97893],[143.60304,43.97357],[143.60716,43.97246]],[[143.94887,43.86319],[143.93153,43.87225],[143.92534,43.87229],[143.91867,43.87613],[143.91531,43.87961],[143.90796,43.89222],[143.90564,43.8943],[143.88766,43.90461],[143.87615,43.90602],[143.86251,43.90495],[143.85517,43.90629],[143.84743,43.90904],[143.83839,43.90883],[143.83026,43.9135],[143.82193,43.91473],[143.81518,43.91848],[143.81165,43.92412],[143.81064,43.92724],[143.80391,43.93497],[143.78846,43.94306],[143.78007,43.94538],[143.7685,43.94523],[143.71535,43.95357],[143.71389,43.95487],[143.71341,43.95663],[143.71716,43.96757],[143.70321,43.98451],[143.67924,43.97411],[143.67373,43.96766],[143.66294,43.95876],[143.64797,43.96302],[143.63536,43.96856],[143.61737,43.97225],[143.60785,43.97238]],[[143.60716,43.9724],[143.60215,43.97388],[143.59447,43.97845],[143.58067,43.98313]]]}}]}