{"type":"FeatureCollection","features":[{"type":"Feature","properties":{"route_id":"448","route_number":448,"name":"国道448号","source":"OpenStreetMap contributors (ODbL)","osm_relations":[9714377,9714591,9715273,9717721]},"geometry":{"type":"MultiLineString","coordinates":[[[130.69038,31.09547],[130.69049,31.09447],[130.69361,31.09495],[130.70285,31.09976],[130.70619,31.10304],[130.70939,31.10942],[130.71296,31.11303],[130.71954,31.11484],[130.72332,31.11448],[130.73199,31.11653],[130.73597,31.12086],[130.73926,31.12723],[130.74103,31.12847],[130.74193,31.13025],[130.74488,31.13163],[130.74644,31.135],[130.74903,31.13742],[130.75127,31.14205],[130.75179,31.14532],[130.75443,31.14935],[130.75512,31.1541],[130.75692,31.15719],[130.75708,31.16046],[130.75925,31.16443],[130.75962,31.16749],[130.76235,31.17142],[130.76335,31.17456],[130.76604,31.17728],[130.76751,31.18019],[130.76572,31.19249],[130.76857,31.19326],[130.77246,31.20047],[130.77584,31.20341],[130.77641,31.20827],[130.77794,31.2124],[130.76514,31.21744],[130.76934,31.22659],[130.76966,31.23064],[130.78318,31.23984],[130.78864,31.24567],[130.79071,31.24444],[130.79045,31.24216],[130.79482,31.2395],[130.79634,31.23697],[130.805,31.2354],[130.80999,31.23081],[130.81008,31.22403],[130.81354,31.2205],[130.81529,31.21581],[130.81975,31.21319],[130.82014,31.21032],[130.82191,31.20791],[130.82606,31.20596],[130.83107,31.20746],[130.84503,31.20044],[130.85139,31.19923],[130.85379,31.1973],[130.86072,31.19721],[130.86671,31.1951],[130.87186,31.19201],[130.87395,31.18983],[130.87849,31.18976],[130.88276,31.18753],[130.88714,31.18087],[130.89767,31.17452],[130.90196,31.17489],[130.90466,31.17641],[130.90933,31.17667],[130.91574,31.17961],[130.92023,31.17769],[130.92644,31.17678],[130.92975,31.17405],[130.93605,31.17161],[130.95032,31.17485],[130.95599,31.17715],[130.96214,31.18304],[130.96282,31.18717],[130.96392,31.1885],[130.96911,31.18649],[130.97484,31.18567],[130.97492,31.18288],[130.97655,31.18184],[130.98436,31.18466],[130.98633,31.18722],[130.98889,31.18742],[130.99199,31.18888],[130.99647,31.18873],[130.99888,31.19041],[130.99898,31.19432],[130.99762,31.19667],[130.99844,31.19925],[131.00231,31.20012],[131.00809,31.20502],[131.00676,31.20823],[131.00792,31.20989],[131.00768,31.21151],[131.00628,31.21284],[131.00575,31.21469],[131.00536,31.21762],[131.00641,31.22012],[131.00472,31.22707],[131.01253,31.22768],[131.01648,31.22879],[131.02408,31.22888],[131.03509,31.22707],[131.04033,31.22897],[131.04298,31.23175],[131.04515,31.23206],[131.04691,31.23022],[131.04668,31.22817],[131.05203,31.22762],[131.05454,31.229],[131.05412,31.23033],[131.05492,31.23105],[131.05628,31.23075],[131.0634,31.23452],[131.0685,31.24257],[131.06736,31.2467],[131.07483,31.24931],[131.07496,31.25068],[131.073,31.2525],[131.07284,31.25403],[131.07542,31.25821],[131.07526,31.26012],[131.07445,31.26103],[131.0719,31.26114],[131.07123,31.26256],[131.07797,31.26802],[131.07587,31.26956],[131.07846,31.27498],[131.07574,31.27704],[131.07163,31.28249],[131.07078,31.28876],[131.07352,31.29245],[131.07513,31.29238],[131.08448,31.29703],[131.08747,31.3023],[131.08632,31.30486],[131.08736,31.30658],[131.09358,31.31179],[131.09485,31.31413],[131.09407,31.31528],[131.09542,31.31601],[131.09468,31.31737],[131.09952,31.31943],[131.09999,31.3212],[131.10205,31.32237],[131.10225,31.32351],[131.09895,31.32733],[131.09868,31.3286],[131.09451,31.33004],[131.0932,31.33153],[131.08982,31.33005],[131.08327,31.3309],[131.07969,31.33535],[131.07766,31.33535],[131.07694,31.33673],[131.07193,31.33745],[131.07091,31.33698],[131.07086,31.33834],[131.06818,31.33929],[131.0657,31.33702],[131.06484,31.33778],[131.062,31.33773],[131.05984,31.33997],[131.0572,31.34123],[131.05678,31.342],[131.0574,31.34277],[131.05362,31.34256],[131.05275,31.34403],[131.05093,31.34437],[131.04975,31.34574],[131.04678,31.34704],[131.04583,31.34676],[131.04336,31.3487],[131.03684,31.35149],[131.03361,31.35128],[131.0159,31.35698],[131.00875,31.35605],[131.00909,31.35949],[131.011,31.36165],[131.00691,31.36353],[131.00576,31.36944],[131.00729,31.37733],[131.00771,31.38459],[131.00961,31.39239],[131.02192,31.42079],[131.03316,31.43326],[131.03794,31.43741],[131.04746,31.44391],[131.04776,31.44499],[131.05541,31.44949],[131.05833,31.45297],[131.07336,31.46421],[131.08172,31.46657],[131.09323,31.47281],[131.10774,31.4777],[131.10935,31.47998],[131.11234,31.48101],[131.11799,31.47861],[131.12363,31.47898],[131.12865,31.47427],[131.13403,31.47467],[131.13511,31.4737],[131.13583,31.47008],[131.13875,31.46777],[131.14062,31.46742],[131.14529,31.4687],[131.15089,31.4673],[131.15338,31.46781],[131.15616,31.46408],[131.15938,31.46303],[131.16285,31.46013],[131.16799,31.45929],[131.17077,31.45721],[131.17533,31.45561],[131.18046,31.45836],[131.18256,31.4578],[131.18564,31.45827],[131.18848,31.45699],[131.19654,31.45742],[131.20678,31.45592],[131.21207,31.45202],[131.22248,31.45916],[131.22971,31.46278],[131.23818,31.45717],[131.23884,31.45554],[131.24219,31.45315],[131.24338,31.45078],[131.24578,31.44982],[131.24522,31.44741],[131.24684,31.44604],[131.24699,31.44368],[131.24859,31.44257],[131.25087,31.43896],[131.25736,31.43752],[131.25847,31.43502],[131.26244,31.43258],[131.26298,31.43116],[131.26695,31.43127],[131.27003,31.43397],[131.27655,31.43492],[131.28196,31.43343],[131.28307,31.43201],[131.28338,31.42922],[131.28703,31.42669],[131.28876,31.42373],[131.28872,31.42029],[131.28988,31.41764],[131.29587,31.41476],[131.29814,31.41187],[131.29934,31.4082],[131.30158,31.40618],[131.30541,31.39929],[131.30543,31.39613],[131.30795,31.39646],[131.31224,31.3933],[131.31998,31.3933],[131.32015,31.39059],[131.31818,31.38941],[131.31856,31.38887],[131.32321,31.39113],[131.32294,31.39209],[131.32537,31.39442],[131.32587,31.39265],[131.32821,31.39474],[131.33199,31.39545],[131.33235,31.39724],[131.33348,31.39812],[131.33319,31.39965],[131.33589,31.40086],[131.33762,31.40457],[131.34097,31.40665],[131.34324,31.41282],[131.34474,31.41314],[131.34706,31.41528],[131.34972,31.42038],[131.35397,31.42295],[131.35459,31.42611],[131.36123,31.4263],[131.3638,31.42479],[131.36935,31.42851],[131.37043,31.43142],[131.36996,31.43405],[131.37126,31.43593],[131.3701,31.44109],[131.37045,31.44779],[131.36344,31.45482],[131.36,31.45616],[131.35706,31.45871],[131.35593,31.46338],[131.35785,31.46531],[131.35844,31.46991],[131.36636,31.47523],[131.3732,31.4768],[131.37488,31.47914],[131.37829,31.47895],[131.38344,31.48035],[131.38492,31.48135],[131.38525,31.48339],[131.38733,31.48569],[131.38526,31.48971],[131.38331,31.49063],[131.38384,31.49294],[131.38274,31.4945],[131.38398,31.49788],[131.38131,31.50202],[131.37897,31.50334],[131.37675,31.50293],[131.3741,31.5037],[131.37361,31.50489],[131.37041,31.50522],[131.37043,31.50739],[131.37514,31.5129],[131.37061,31.52002],[131.37152,31.52092],[131.37888,31.52272],[131.37851,31.52413],[131.37587,31.52646],[131.37582,31.52887],[131.37302,31.5332],[131.37283,31.53567],[131.37726,31.5387],[131.38321,31.54143],[131.38217,31.54461],[131.37799,31.54613],[131.38123,31.55638],[131.38442,31.55989],[131.38868,31.56155],[131.38712,31.56316],[131.38771,31.5645],[131.39303,31.56518],[131.39655,31.56673],[131.39719,31.57097],[131.39575,31.57335],[131.39848,31.57747],[131.3982,31.57999],[131.40047,31.58181],[131.40357,31.58262],[131.40285,31.58566],[131.40503,31.58874],[131.40957,31.5922],[131.4178,31.60563],[131.42077,31.61223],[131.42393,31.61331],[131.4291,31.61099],[131.43099,31.61108],[131.43657,31.6149],[131.44067,31.61559],[131.44213,31.617],[131.44632,31.61782],[131.44889,31.62017],[131.45122,31.62453],[131.45283,31.62541],[131.45513,31.6241],[131.45616,31.62438],[131.45811,31.62964],[131.46157,31.63151],[131.4617,31.63315],[131.45982,31.63494],[131.45275,31.63765],[131.4511,31.63926],[131.45142,31.64003],[131.456,31.64154],[131.45629,31.64371],[131.45489,31.64569],[131.4546,31.64773],[131.45735,31.6588],[131.4586,31.66017],[131.46221,31.66121],[131.46257,31.66207],[131.46226,31.66454],[131.46066,31.66591],[131.4606,31.66832],[131.45732,31.66786],[131.45066,31.66999],[131.45151,31.67616],[131.44972,31.67966],[131.45056,31.68122],[131.45275,31.68235],[131.45335,31.68384],[131.45075,31.69231],[131.45488,31.70038],[131.45607,31.7064],[131.45464,31.70983],[131.4553,31.71059],[131.45897,31.71105],[131.45967,31.71374],[131.46181,31.71454],[131.46011,31.71671],[131.45974,31.71907],[131.46263,31.71869],[131.46364,31.71985],[131.4676,31.7212],[131.46597,31.72555],[131.46623,31.7276],[131.46395,31.73055],[131.4627,31.73384],[131.46464,31.73528],[131.46505,31.73714],[131.46834,31.73847],[131.46943,31.74029],[131.46779,31.74934],[131.46966,31.75728],[131.46803,31.75936],[131.47123,31.7613],[131.47381,31.76433],[131.47982,31.77639],[131.47861,31.77878],[131.46786,31.78437],[131.46588,31.78609],[131.46496,31.78931],[131.46615,31.79587],[131.46428,31.79969],[131.46109,31.80179],[131.45126,31.80555],[131.44309,31.81524],[131.44299,31.8237],[131.44144,31.82726],[131.44422,31.83374],[131.44481,31.83905],[131.44303,31.85602],[131.44066,31.86486],[131.43777,31.86657],[131.41857,31.86911],[131.41459,31.87173],[131.41178,31.87608],[131.41082,31.8815],[131.41232,31.88853],[131.41646,31.89384],[131.42151,31.90842],[131.42321,31.91668]],[[131.4233,31.91655],[131.42166,31.90839],[131.41938,31.9034],[131.41657,31.89378],[131.41244,31.88854],[131.41096,31.88196],[131.41116,31.87836],[131.41406,31.87252],[131.4179,31.8695],[131.4381,31.86659],[131.44101,31.86446],[131.4432,31.85605],[131.44492,31.83908],[131.44441,31.83401],[131.44154,31.82727],[131.44306,31.824],[131.44298,31.81628],[131.44434,31.81349]],[[130.63778,31.20706],[130.63454,31.20402],[130.63419,31.20042],[130.6299,31.20121],[130.62812,31.20339],[130.62814,31.20855],[130.63062,31.21184],[130.64081,31.2169],[130.64444,31.21699],[130.64615,31.21829],[130.64681,31.22086],[130.64588,31.22411]],[[131.45581,31.70752],[131.4556,31.70686],[131.46075,31.70603],[131.46231,31.7043],[131.45934,31.70329],[131.45907,31.70031],[131.45455,31.69943]],[[131.37031,31.47608],[131.36555,31.47303],[131.36142,31.47199]]]}}]}