{"type":"FeatureCollection","features":[{"type":"Feature","properties":{"route_id":"167","route_number":167,"name":"国道167号","source":"OpenStreetMap contributors (ODbL)","osm_relations":[8253434,9157720]},"geometry":{"type":"MultiLineString","coordinates":[[[136.84593,34.47249],[136.84534,34.47439],[136.84577,34.48055],[136.84444,34.48267],[136.84509,34.48509],[136.84433,34.48652],[136.84229,34.48757],[136.83979,34.48808],[136.83564,34.48586],[136.82892,34.4865],[136.82119,34.48094],[136.81652,34.48172],[136.81564,34.4861],[136.81661,34.48177],[136.82101,34.481],[136.8292,34.48666],[136.83579,34.48595],[136.84041,34.48824],[136.84464,34.48632],[136.84521,34.48479],[136.84457,34.48247],[136.84588,34.48056],[136.84545,34.47435],[136.84613,34.47165],[136.84274,34.47016],[136.83952,34.46505],[136.84252,34.45789],[136.84192,34.45553],[136.8394,34.45317],[136.83905,34.45154],[136.84013,34.44954],[136.84308,34.44844],[136.84416,34.44609],[136.84396,34.44407],[136.84202,34.44044],[136.84127,34.43574],[136.83922,34.43279],[136.83635,34.43068],[136.83258,34.43059],[136.82951,34.42863],[136.82609,34.42792],[136.82214,34.42506],[136.81669,34.41925],[136.81598,34.41406],[136.81433,34.41216],[136.81182,34.411],[136.80926,34.40627],[136.8086,34.40021],[136.80741,34.39683],[136.80498,34.39361],[136.79521,34.38537],[136.79217,34.37508],[136.79228,34.37159],[136.79646,34.3611],[136.80285,34.35974],[136.80886,34.3525],[136.81851,34.34936],[136.83309,34.33959],[136.83869,34.33207],[136.83111,34.32945],[136.82237,34.32846],[136.82809,34.32301],[136.82862,34.31926],[136.82671,34.31477],[136.82524,34.31319],[136.82511,34.31041],[136.81933,34.3084],[136.81853,34.30799],[136.81879,34.30744]],[[136.81576,34.48613],[136.81722,34.48722],[136.81684,34.48966],[136.81562,34.49082],[136.81289,34.49107],[136.811,34.49224],[136.80595,34.49091],[136.80335,34.49118],[136.7961,34.50121],[136.79509,34.50614],[136.79068,34.50722],[136.78585,34.50751],[136.78025,34.50614],[136.77832,34.50483],[136.76421,34.50479],[136.75778,34.50559],[136.7509,34.50333],[136.74626,34.49987],[136.73959,34.49931]],[[136.77832,34.50483],[136.76467,34.50468],[136.75777,34.50549],[136.751,34.50328],[136.74633,34.49981],[136.74007,34.49934]],[[136.79792,34.4891],[136.8028,34.48816],[136.8062,34.48507],[136.80693,34.4751],[136.81418,34.45285],[136.81743,34.44798],[136.82412,34.44217],[136.82777,34.43758],[136.8291,34.43263],[136.8283,34.43034],[136.82684,34.43025],[136.82811,34.43093],[136.83095,34.42963],[136.82802,34.43102],[136.82675,34.43021],[136.82784,34.42993],[136.82858,34.43078]]]}}]}