{"type":"FeatureCollection","features":[{"type":"Feature","properties":{"route_id":"457","route_number":457,"name":"国道457号","source":"OpenStreetMap contributors (ODbL)","osm_relations":[9156540]},"geometry":{"type":"MultiLineString","coordinates":[[[140.62417,38.02194],[140.61252,38.02635],[140.61089,38.03262],[140.61154,38.0351],[140.61057,38.03708],[140.60386,38.03852],[140.59869,38.04164],[140.59294,38.04295],[140.59035,38.04608],[140.58834,38.04724],[140.58831,38.04905],[140.58552,38.05336],[140.58638,38.05514],[140.58534,38.05971],[140.58841,38.06846],[140.58653,38.06847],[140.58659,38.07014],[140.58557,38.07017],[140.58502,38.07203],[140.58111,38.07094],[140.57732,38.07282],[140.57491,38.07514],[140.57137,38.07623],[140.56743,38.07565],[140.56589,38.07718],[140.56397,38.07745],[140.56166,38.08488],[140.56361,38.08864],[140.5625,38.09604],[140.56473,38.10509],[140.56516,38.11195],[140.5685,38.1157],[140.57458,38.11924],[140.57695,38.1221],[140.5773,38.12378],[140.57509,38.12364],[140.56229,38.12847],[140.55714,38.13383],[140.55641,38.13659],[140.55094,38.13858],[140.54928,38.13827],[140.55211,38.13884],[140.5496,38.13917],[140.54914,38.14099],[140.54595,38.14061],[140.54417,38.14221],[140.54024,38.14127],[140.54002,38.14217],[140.53757,38.14206],[140.53672,38.14311],[140.53544,38.14274],[140.53506,38.14506],[140.53567,38.14653],[140.53322,38.14754],[140.535,38.1481],[140.53472,38.149],[140.53636,38.14893],[140.53687,38.15025],[140.5406,38.15036],[140.54085,38.15172],[140.5396,38.15252],[140.54227,38.15256],[140.54613,38.1546],[140.56155,38.15659],[140.57023,38.15917],[140.57566,38.16165],[140.58501,38.17181],[140.58691,38.17661],[140.59055,38.17751],[140.59399,38.17953],[140.59693,38.18596],[140.6023,38.19248],[140.6272,38.1814],[140.63124,38.18477],[140.64258,38.18468],[140.6518,38.19298],[140.65245,38.1948],[140.65617,38.19718],[140.65582,38.19788],[140.6434,38.20516],[140.63585,38.20605],[140.63081,38.20927],[140.62886,38.20954],[140.62901,38.21173],[140.62682,38.21127],[140.62547,38.21296],[140.61904,38.21543],[140.61483,38.22019],[140.61413,38.22608],[140.61729,38.22914],[140.61874,38.23597],[140.62322,38.23791],[140.62519,38.23733],[140.62819,38.23879],[140.62811,38.23973],[140.62421,38.24199],[140.62525,38.2436],[140.64317,38.24011],[140.64865,38.23988],[140.65336,38.24101],[140.65993,38.23999],[140.66061,38.24041],[140.65977,38.24134],[140.66248,38.24246],[140.66465,38.24556],[140.67403,38.25047],[140.675,38.25385],[140.67701,38.25462],[140.67964,38.25422],[140.68038,38.25517],[140.67241,38.25994],[140.67338,38.26186],[140.67354,38.26735],[140.67537,38.27166],[140.67438,38.27324],[140.67404,38.27634],[140.6765,38.27902],[140.68287,38.28221],[140.68662,38.28553],[140.69048,38.28599],[140.69529,38.28131],[140.70936,38.27776],[140.72618,38.27138],[140.75026,38.2733],[140.75259,38.27139],[140.75509,38.272],[140.76224,38.27096],[140.77922,38.27335],[140.79392,38.27179],[140.7931,38.27637],[140.79074,38.27707],[140.78917,38.27979],[140.78841,38.28365],[140.78496,38.2883],[140.77598,38.29602],[140.77436,38.3015],[140.77908,38.30889],[140.7797,38.31248],[140.78355,38.3159],[140.78358,38.31747],[140.78604,38.32029],[140.7927,38.32582],[140.79937,38.32872],[140.80137,38.33062],[140.8022,38.33047],[140.80213,38.3362],[140.80059,38.34258],[140.79705,38.34395],[140.79757,38.34502],[140.79598,38.34568],[140.7965,38.34641],[140.79483,38.34851],[140.79152,38.35626],[140.79196,38.359],[140.78985,38.36241],[140.78873,38.36074],[140.78102,38.35534],[140.78014,38.35383],[140.78022,38.35185],[140.78153,38.35001],[140.80076,38.33421],[140.80162,38.33244],[140.80137,38.33062]],[[140.87783,38.64968],[140.88057,38.65567],[140.8803,38.65742],[140.87193,38.66336],[140.85993,38.67803],[140.87198,38.66339],[140.87948,38.65833],[140.8807,38.65612],[140.87789,38.64967],[140.87594,38.65043],[140.87331,38.64928],[140.87273,38.64823],[140.86963,38.64842],[140.87173,38.63519],[140.87364,38.63116],[140.87198,38.62698],[140.87344,38.62264],[140.87166,38.61865],[140.87303,38.61447],[140.87068,38.61196],[140.87085,38.60808],[140.86951,38.60282],[140.86538,38.59854],[140.8631,38.59214],[140.86055,38.58951],[140.85928,38.56323],[140.86029,38.5609],[140.85305,38.55187],[140.85087,38.54515],[140.85272,38.54395],[140.85358,38.53874],[140.8595,38.52989],[140.86271,38.51716],[140.86763,38.5105],[140.86692,38.50671],[140.86369,38.50173],[140.8628,38.49865],[140.86301,38.48547],[140.86406,38.48242],[140.86729,38.47928],[140.86738,38.46943],[140.87663,38.45636],[140.87934,38.45481]],[[140.87358,38.4438],[140.87531,38.44806],[140.87358,38.4438],[140.87265,38.44402],[140.87154,38.44291],[140.86646,38.44134],[140.86536,38.43321],[140.8632,38.42987],[140.85906,38.4267],[140.85779,38.42416],[140.85769,38.4211],[140.8596,38.4167],[140.85995,38.4134],[140.85245,38.4115],[140.8478,38.40613],[140.84307,38.40376],[140.84196,38.40233],[140.83583,38.39956],[140.82912,38.39306],[140.82078,38.38789],[140.81332,38.38539],[140.81092,38.37771],[140.80794,38.37614],[140.8042,38.37626],[140.79862,38.37407],[140.79128,38.37276],[140.79013,38.3703],[140.79063,38.36862],[140.78996,38.36734],[140.78985,38.36241]],[[141.11107,38.92209],[141.0914,38.91799],[141.08602,38.91793],[141.07644,38.91257],[141.07071,38.91144],[141.06581,38.91153],[141.06365,38.90977],[141.06172,38.90949],[141.05493,38.91085],[141.04431,38.9049],[141.04284,38.9017],[141.04057,38.8995],[141.03388,38.90197],[141.02774,38.90298],[141.01962,38.89725],[141.01224,38.89664],[141.01124,38.89523],[141.01153,38.89345],[141.0096,38.8925],[140.99021,38.88685],[140.98746,38.88676],[140.98189,38.88893],[140.97918,38.88728],[140.97805,38.88511],[140.9761,38.88454],[140.97463,38.88309],[140.97198,38.88427],[140.96632,38.88445],[140.96156,38.88699],[140.96074,38.88807],[140.96188,38.89043],[140.96134,38.89104],[140.95411,38.89188],[140.95145,38.8915],[140.94893,38.8901],[140.95018,38.88447],[140.95106,38.88356],[140.95078,38.88142],[140.95253,38.87943],[140.95177,38.87477],[140.95239,38.87249],[140.95192,38.86812],[140.95358,38.86688],[140.9551,38.86275],[140.95717,38.84484],[140.96559,38.84076],[140.97338,38.83437],[140.97555,38.83468],[140.97774,38.83381],[140.98067,38.83442],[140.98708,38.83268],[140.98559,38.82702],[140.98588,38.81607],[140.98366,38.8093],[140.97909,38.80972],[140.97779,38.811],[140.97439,38.81139],[140.96895,38.81143],[140.96603,38.81023],[140.96254,38.81093],[140.9446,38.80754],[140.94199,38.80472],[140.93908,38.80367],[140.93011,38.80639],[140.92575,38.8064],[140.92274,38.8055],[140.92032,38.8059],[140.91942,38.80486],[140.91534,38.80398],[140.91338,38.80275],[140.90489,38.8027],[140.90525,38.80024],[140.90049,38.79818],[140.89865,38.79538],[140.89511,38.79371],[140.88946,38.79454],[140.88669,38.79402],[140.88344,38.79026],[140.88085,38.78904],[140.8795,38.7865],[140.88313,38.78429],[140.88761,38.7785],[140.88776,38.7758],[140.8868,38.77514],[140.88785,38.77496],[140.88594,38.77517],[140.88832,38.77285],[140.88801,38.76966],[140.88596,38.76813],[140.88147,38.76768],[140.87635,38.76452],[140.86769,38.76554],[140.86369,38.76526],[140.86475,38.76245],[140.86405,38.7603],[140.86587,38.75748],[140.86778,38.75614],[140.86974,38.75167],[140.8633,38.7505],[140.86202,38.74887],[140.85841,38.74718],[140.8574,38.74498],[140.8505,38.74157],[140.85028,38.73966],[140.8487,38.73861],[140.84909,38.7377],[140.84748,38.73671],[140.8484,38.73578],[140.84485,38.73459],[140.84583,38.73379],[140.84403,38.73282],[140.84345,38.73079],[140.83713,38.7291],[140.8339,38.72925],[140.83243,38.72873],[140.83138,38.72661],[140.83192,38.72521],[140.83068,38.72206],[140.8314,38.7209],[140.83377,38.72139],[140.83243,38.72046],[140.83224,38.71939],[140.83478,38.71659],[140.83569,38.71425],[140.83214,38.71015],[140.83711,38.70506],[140.84021,38.70047],[140.84544,38.69561],[140.84699,38.69241],[140.85627,38.68353],[140.85993,38.67803]],[[140.79991,38.32903],[140.80378,38.3278],[140.80705,38.32801],[140.80211,38.33033]],[[140.87531,38.44806],[140.87767,38.45556]]]}}]}