{"type":"FeatureCollection","features":[{"type":"Feature","properties":{"route_id":"256","route_number":256,"name":"国道256号","source":"OpenStreetMap contributors (ODbL)","osm_relations":[1192346,10179440,10179460,10179480,10276273]},"geometry":{"type":"MultiLineString","coordinates":[[[136.77545,35.45435],[136.77529,35.45272],[136.77612,35.46161],[136.77508,35.46731],[136.7753,35.47145],[136.77874,35.47655],[136.77933,35.48588],[136.77894,35.48953],[136.77746,35.49183],[136.7769,35.49678],[136.78645,35.51257],[136.78166,35.50417],[136.78822,35.50255],[136.79036,35.51343],[136.78836,35.5234],[136.79343,35.52604],[136.7949,35.53073],[136.79473,35.5349],[136.79218,35.53707],[136.79235,35.53917],[136.79141,35.54107],[136.79181,35.55106],[136.79967,35.55675],[136.80029,35.55857],[136.79762,35.56436],[136.79141,35.56734],[136.79244,35.57207],[136.79145,35.57575],[136.78487,35.57908],[136.78524,35.58771],[136.78619,35.59037],[136.78555,35.59186],[136.78607,35.59426],[136.78478,35.59548],[136.78468,35.59696],[136.7921,35.59527],[136.79964,35.59706],[136.80471,35.59533],[136.81582,35.59847],[136.81724,35.60009],[136.81826,35.60646],[136.82054,35.61276],[136.82438,35.61424],[136.82511,35.61623],[136.82128,35.61818],[136.82132,35.62036],[136.81765,35.62318],[136.82428,35.62524],[136.82612,35.62805],[136.82075,35.63181],[136.82054,35.63449],[136.82152,35.63503],[136.8259,35.6343],[136.82784,35.63619],[136.82632,35.63737],[136.82303,35.63701],[136.82293,35.63977],[136.81937,35.64112],[136.8231,35.64646],[136.82298,35.64768],[136.81997,35.65195],[136.82045,35.65478],[136.82274,35.65925],[136.81578,35.66208],[136.81574,35.6633],[136.81914,35.66574],[136.81784,35.66839],[136.81871,35.67005],[136.81394,35.67117],[136.81377,35.67246],[136.81536,35.67543],[136.81395,35.67731],[136.81006,35.67795],[136.80949,35.68035],[136.81132,35.68678],[136.81898,35.68786],[136.83217,35.69299],[136.86123,35.70105],[136.86784,35.70016],[136.86839,35.70099],[136.86715,35.70238],[136.86879,35.7031],[136.87102,35.70273],[136.87295,35.70409],[136.87589,35.70289],[136.87671,35.70148],[136.88107,35.70439],[136.88619,35.7063],[136.89509,35.7055],[136.89681,35.70781],[136.90479,35.70857],[136.90691,35.70945],[136.90981,35.71125],[136.91367,35.71658],[136.92459,35.72064],[136.92831,35.72077],[136.93587,35.71681],[136.94365,35.71682],[136.94653,35.71587],[136.94965,35.71319],[136.9533,35.71412],[136.95094,35.7177],[136.94787,35.72032],[136.94723,35.72216],[136.95159,35.72638],[136.95403,35.72772],[136.95417,35.7307],[136.953,35.73467],[136.94775,35.73887],[136.9465,35.74325],[136.95443,35.74674],[136.96146,35.74745],[136.96506,35.75165],[136.97107,35.74943],[136.97302,35.74682],[136.9719,35.7496],[136.97211,35.74838],[136.97505,35.74674],[136.97267,35.74848],[136.97278,35.74934],[136.97283,35.74856],[136.97563,35.74743],[136.97574,35.74632],[136.97587,35.74757],[136.9739,35.74865],[136.97909,35.74698],[136.97662,35.74656],[136.97711,35.74568],[136.97632,35.74482],[136.98349,35.74173],[136.98578,35.74207],[136.98434,35.74075],[136.98799,35.74171],[136.98741,35.73984],[136.98591,35.739],[136.98751,35.73502],[136.99119,35.73584],[136.99867,35.73918],[137.00688,35.73762],[137.01583,35.73929],[137.02502,35.74418],[137.03255,35.75037],[137.04739,35.75387],[137.05185,35.75272],[137.05072,35.74901],[137.05047,35.74385],[137.05245,35.74025],[137.05691,35.73864],[137.05917,35.73904],[137.06222,35.74173],[137.06367,35.74087],[137.06507,35.73838],[137.06698,35.73984],[137.07006,35.73913],[137.07341,35.74196],[137.0914,35.75244],[137.10429,35.75445],[137.10538,35.75358],[137.1049,35.74601],[137.10914,35.74184],[137.11338,35.74065],[137.11938,35.74142],[137.12237,35.74065],[137.13911,35.74416],[137.14587,35.74481],[137.16208,35.7438],[137.19606,35.74394],[137.20001,35.74487],[137.20664,35.749],[137.20755,35.74888],[137.20454,35.7476]],[[137.722,35.45251],[137.72639,35.45105],[137.71961,35.45313],[137.71592,35.45659],[137.71147,35.45884],[137.71025,35.46383],[137.70779,35.46577],[137.70579,35.46423],[137.70341,35.46652],[137.70105,35.47052],[137.70212,35.47199],[137.70169,35.47333],[137.6994,35.4749],[137.69942,35.47653],[137.70136,35.47837],[137.69996,35.48172],[137.702,35.48437],[137.70179,35.48787],[137.70455,35.49204],[137.70411,35.49494],[137.70582,35.49639],[137.70586,35.4976],[137.69623,35.4991],[137.69312,35.50112],[137.68646,35.50201],[137.68135,35.50387],[137.67956,35.50553],[137.6792,35.50735],[137.67622,35.5086],[137.67512,35.51205],[137.66917,35.51508],[137.66213,35.52134],[137.66252,35.53129],[137.66575,35.54425],[137.66419,35.54304],[137.66443,35.54481],[137.66281,35.54407],[137.66292,35.54761],[137.66382,35.54627],[137.66535,35.55048],[137.66681,35.54966],[137.66711,35.55158],[137.66447,35.55334],[137.66375,35.56077],[137.66018,35.56234],[137.65773,35.56232],[137.6506,35.55994],[137.64042,35.55906],[137.63336,35.56197],[137.63087,35.56158],[137.6258,35.56246],[137.62371,35.5619],[137.62274,35.56044],[137.62127,35.56058],[137.62114,35.55916],[137.61972,35.55829],[137.61908,35.56034],[137.61654,35.56112],[137.61637,35.5629],[137.61355,35.56235],[137.61208,35.56382],[137.61038,35.56368],[137.60398,35.56888],[137.5961,35.56693],[137.59457,35.56805],[137.59498,35.57059],[137.59366,35.57205],[137.59465,35.57361],[137.59372,35.57532],[137.5948,35.57795],[137.59434,35.58182],[137.5929,35.58509],[137.58751,35.58917],[137.5736,35.58875],[137.56208,35.5849],[137.55528,35.58549],[137.55123,35.58669],[137.54727,35.58661],[137.53798,35.58372],[137.53696,35.58239],[137.53931,35.57852],[137.53995,35.57046],[137.53847,35.5693],[137.53444,35.57198],[137.52452,35.57257],[137.5241,35.57199],[137.52533,35.56989],[137.52391,35.56928],[137.52409,35.56673],[137.5209,35.56598],[137.51743,35.56691],[137.51321,35.56985],[137.50907,35.56991],[137.50721,35.56912],[137.50352,35.5707],[137.50121,35.57373],[137.50101,35.57876],[137.50195,35.57935],[137.50508,35.57839],[137.50684,35.57621],[137.51024,35.57798],[137.51196,35.58123],[137.51166,35.58249],[137.50915,35.58369],[137.50896,35.58566],[137.50682,35.58708],[137.50417,35.58691],[137.50182,35.58817],[137.49949,35.58769],[137.49858,35.5894],[137.49693,35.58861],[137.49156,35.59283],[137.48965,35.59277],[137.4813,35.58757],[137.47769,35.59021],[137.47656,35.58973],[137.4759,35.59064],[137.47448,35.58907],[137.46793,35.58958],[137.4643,35.58714],[137.46389,35.58927],[137.46244,35.58957],[137.46147,35.59543],[137.46434,35.59959],[137.46388,35.60536],[137.46296,35.6073],[137.45982,35.60901],[137.45921,35.61426],[137.46291,35.6197],[137.45855,35.62745],[137.44676,35.63453],[137.44545,35.63653],[137.44529,35.63897],[137.43652,35.64883],[137.43404,35.65555],[137.43123,35.65968],[137.42613,35.66441],[137.42467,35.66682],[137.41854,35.67133],[137.41575,35.67606],[137.41222,35.67793],[137.41138,35.68163],[137.40651,35.68344],[137.39835,35.68501],[137.39257,35.68939],[137.38691,35.69076],[137.38428,35.6926],[137.38185,35.68826],[137.37915,35.68708],[137.37717,35.68396],[137.37565,35.6793],[137.36795,35.67341],[137.36683,35.67121],[137.36262,35.67035],[137.35746,35.66808],[137.35345,35.66836],[137.35042,35.66742],[137.34802,35.66415],[137.34724,35.66036],[137.34338,35.65786],[137.34076,35.6534],[137.34076,35.65088],[137.33743,35.64923],[137.33687,35.64649],[137.33452,35.64596],[137.3324,35.64717],[137.33052,35.64706],[137.3268,35.64308],[137.32596,35.64453],[137.32636,35.64584],[137.32767,35.64706],[137.32756,35.64852],[137.32957,35.65228],[137.33073,35.65309],[137.32939,35.6548],[137.32981,35.65698],[137.32924,35.65843],[137.32808,35.65807],[137.32468,35.66055],[137.32291,35.66047],[137.32349,35.66158],[137.32052,35.66249],[137.3206,35.66398],[137.31976,35.66501],[137.31781,35.66293],[137.31819,35.66241],[137.31539,35.66189],[137.31525,35.66383],[137.31299,35.66453],[137.31292,35.66628],[137.31193,35.66698],[137.31231,35.66831],[137.31132,35.6679],[137.3107,35.66925],[137.30895,35.66862],[137.30586,35.66971],[137.30591,35.67212],[137.30413,35.6711],[137.30446,35.67236],[137.30395,35.67194],[137.30287,35.67306],[137.30312,35.674],[137.29908,35.67568],[137.29593,35.67829],[137.29417,35.68288],[137.29127,35.68105],[137.28375,35.67998],[137.27527,35.67585],[137.27153,35.67482],[137.26473,35.67645]],[[137.9666,35.39945],[137.96618,35.40135],[137.96485,35.4019],[137.96496,35.40104],[137.96435,35.40197],[137.96399,35.39951],[137.9631,35.40252],[137.95913,35.40517],[137.95985,35.40945],[137.95667,35.41094],[137.95523,35.41329],[137.95215,35.41381],[137.95146,35.41748],[137.94944,35.41843],[137.94935,35.41929],[137.94582,35.42065],[137.94672,35.42391],[137.94616,35.42771],[137.944,35.42932],[137.94289,35.42881],[137.94276,35.43025],[137.94123,35.43147],[137.94045,35.43124],[137.9404,35.43278],[137.93837,35.43384],[137.93647,35.43342],[137.93451,35.43433],[137.92843,35.43449],[137.9274,35.43559],[137.92475,35.43504],[137.92291,35.43565],[137.92211,35.43778],[137.91827,35.43786],[137.91833,35.43886],[137.92028,35.43939],[137.92015,35.43997],[137.91719,35.44238],[137.91587,35.44255],[137.91462,35.44437],[137.91125,35.44242],[137.90759,35.44192],[137.90908,35.44304],[137.90679,35.44342],[137.90769,35.44376],[137.9076,35.44488],[137.90891,35.44669],[137.90853,35.44891],[137.904,35.44881],[137.89824,35.45014],[137.89513,35.4531],[137.89173,35.45476],[137.88954,35.45844],[137.88605,35.45895],[137.88504,35.45987],[137.87836,35.46182],[137.87366,35.46539],[137.86769,35.4639],[137.8641,35.46464],[137.86254,35.46643],[137.85923,35.46717],[137.86001,35.46919],[137.86184,35.46916],[137.86199,35.46983],[137.85652,35.47244],[137.85623,35.47182],[137.85547,35.47289],[137.85294,35.47386],[137.85432,35.47552],[137.85211,35.47479],[137.84834,35.47534],[137.84915,35.47703],[137.84903,35.47958],[137.85101,35.48189],[137.84569,35.4863],[137.84575,35.49245],[137.84092,35.4943],[137.8394,35.49589],[137.842,35.50065],[137.84422,35.50226],[137.84472,35.50373],[137.83855,35.50755],[137.8373,35.51085],[137.82476,35.51731],[137.81996,35.51228],[137.80885,35.51406],[137.80796,35.51204],[137.80368,35.50857],[137.80284,35.50694],[137.80152,35.50729],[137.79761,35.50622],[137.79318,35.50301],[137.78947,35.49905],[137.78426,35.4907],[137.78054,35.48746],[137.76602,35.4816],[137.76242,35.47666],[137.76251,35.47456],[137.76557,35.47181],[137.76142,35.46627],[137.75619,35.46237],[137.74957,35.44857],[137.74677,35.44618],[137.74354,35.44486],[137.74065,35.44503],[137.73156,35.4493],[137.72822,35.4495],[137.72639,35.45105]],[[137.2076,35.74867],[137.20837,35.74763],[137.20999,35.74728],[137.20837,35.74303],[137.21151,35.74136],[137.2096,35.73889],[137.20921,35.73504],[137.20146,35.7331],[137.19675,35.7307],[137.1962,35.7288],[137.19674,35.72661],[137.19917,35.72297],[137.19508,35.72053],[137.19315,35.71412],[137.19081,35.71237],[137.18378,35.71031],[137.18197,35.70766],[137.18111,35.70358],[137.17714,35.70092],[137.17302,35.69953],[137.17182,35.69817],[137.17169,35.69671],[137.17335,35.69436],[137.17267,35.69163],[137.16738,35.68692],[137.16364,35.6799],[137.16511,35.67552],[137.16477,35.66976],[137.1624,35.66699],[137.15627,35.66276],[137.15679,35.65833],[137.15472,35.65544],[137.15466,35.65339],[137.15938,35.64678],[137.16206,35.64567],[137.16655,35.64633],[137.17463,35.6446],[137.17989,35.6446],[137.18505,35.64343],[137.18728,35.64195],[137.18751,35.64111],[137.18466,35.6395],[137.18173,35.63484],[137.18134,35.63183],[137.182,35.62981],[137.18299,35.63],[137.184,35.63545],[137.18808,35.63767],[137.18936,35.63923],[137.18926,35.64175],[137.18739,35.64426],[137.188,35.6457],[137.18933,35.64742],[137.19176,35.64714],[137.19331,35.64955],[137.19524,35.6498],[137.19598,35.65083],[137.19449,35.6534],[137.19756,35.65506],[137.19918,35.65786],[137.20536,35.65915],[137.20621,35.66118],[137.20953,35.66206],[137.21027,35.66076],[137.21302,35.65988],[137.21408,35.65685],[137.21835,35.65619],[137.21792,35.65379],[137.21868,35.65161],[137.22301,35.65012],[137.22076,35.6477],[137.2215,35.64342],[137.22547,35.64189],[137.22723,35.64208],[137.22833,35.6425],[137.22804,35.64508],[137.23388,35.6524],[137.23227,35.65456],[137.23218,35.65704],[137.23334,35.66042],[137.24534,35.66958],[137.24802,35.67364],[137.25072,35.67455],[137.25418,35.67383],[137.25886,35.67442],[137.25974,35.67542],[137.26256,35.67524],[137.26486,35.67685],[137.2719,35.67607],[137.27671,35.67816],[137.27858,35.67776]],[[136.78156,35.50421],[136.77712,35.49616],[136.77762,35.49169],[136.77915,35.48912],[136.7794,35.48392],[136.77896,35.47682],[136.77544,35.47146],[136.77517,35.46732],[136.77602,35.46267]],[[136.77405,35.44693],[136.77256,35.43409],[136.77194,35.43433],[136.77324,35.43667],[136.774,35.44677],[136.77529,35.45272]],[[137.9683,35.38887],[137.96961,35.38732],[137.97008,35.38775]],[[136.76,35.41721],[136.76201,35.42512],[136.76528,35.43162],[136.76892,35.43196],[136.76944,35.43441],[136.77194,35.43433]],[[137.76557,35.47181],[137.7617,35.46636],[137.7568,35.46285],[137.75508,35.46053]],[[136.76878,35.43193],[136.76554,35.43174],[136.76412,35.42977],[136.7609,35.42178],[136.76007,35.4172]],[[136.78639,35.51268],[136.78626,35.51532],[136.78651,35.51268]],[[136.78836,35.5234],[136.7857,35.52094],[136.78626,35.51532]],[[136.81772,35.62294],[136.81936,35.6241],[136.82428,35.62524]],[[137.06461,35.73918],[137.06579,35.73841],[137.06807,35.73887],[137.07143,35.73815],[137.08149,35.74278],[137.08613,35.74237],[137.09058,35.74601],[137.09259,35.74937],[137.09293,35.75173],[137.09525,35.75274]]]}}]}