{"type":"FeatureCollection","features":[{"type":"Feature","properties":{"route_id":"351","route_number":351,"name":"国道351号","source":"OpenStreetMap contributors (ODbL)","osm_relations":[8705812,11587543,11587544]},"geometry":{"type":"MultiLineString","coordinates":[[[138.82674,37.29839],[138.8213,37.2986],[138.81725,37.29977],[138.81526,37.30362],[138.81256,37.30286],[138.80542,37.29717],[138.80405,37.29513],[138.79804,37.29707],[138.78678,37.29789],[138.78355,37.29966],[138.78253,37.30145],[138.78742,37.31559],[138.79541,37.31882],[138.80518,37.31929],[138.81181,37.33053],[138.81337,37.33158],[138.81154,37.33467],[138.81204,37.33742],[138.81659,37.34313],[138.82038,37.3443],[138.81299,37.35126],[138.81209,37.35936],[138.80819,37.36237],[138.80297,37.36445],[138.80067,37.37125],[138.79893,37.37269],[138.79965,37.37614],[138.80102,37.37732],[138.80167,37.38038],[138.80341,37.38342],[138.805,37.39028],[138.80762,37.3969],[138.80692,37.3995],[138.80146,37.40091],[138.80273,37.40588],[138.79869,37.41146],[138.79768,37.4145],[138.80914,37.41938],[138.80981,37.42272],[138.81322,37.42586],[138.81459,37.42942],[138.81386,37.43326],[138.81772,37.44032],[138.82187,37.44472],[138.82528,37.44365],[138.83809,37.44454],[138.84634,37.44654],[138.84731,37.44842],[138.85061,37.44759],[138.84347,37.4497],[138.82118,37.45311]],[[138.8554,37.45928],[138.86316,37.45713],[138.87146,37.45761],[138.88001,37.45616],[138.87158,37.45749],[138.86317,37.45703],[138.8554,37.45928],[138.85061,37.44759]],[[139.00587,37.46154],[139.00139,37.46384],[139.00002,37.46601],[138.99669,37.46637],[138.9967,37.46483],[138.9956,37.46412],[138.99448,37.46638],[138.99281,37.4672],[138.98475,37.46403],[138.97924,37.45995],[138.97768,37.46005],[138.9758,37.46178],[138.9737,37.46175],[138.9715,37.45804],[138.96618,37.45396],[138.96222,37.45252],[138.95551,37.45195],[138.94838,37.44897],[138.94022,37.44995],[138.92198,37.45578],[138.9165,37.45497],[138.9119,37.45528],[138.90465,37.45234],[138.89953,37.45456],[138.8945,37.45381],[138.88001,37.45616]],[[138.84735,37.44852],[138.8134,37.45444]]]}}]}