{"type":"FeatureCollection","features":[{"type":"Feature","properties":{"route_id":"10","route_number":10,"name":"国道10号","source":"OpenStreetMap contributors (ODbL)","osm_relations":[2082723,2083659,2083660,2083661,2083667,2083668,2083669,8907021,8907022,8907023,8907152,8907154,8907155,8907156,8907157,8907158,8907159,8907160,8907161,8907162,8907164,8907165,8907243,8907244,8907245,9688053,12247955]},"geometry":{"type":"MultiLineString","coordinates":[[[130.56406,31.59884],[130.56734,31.60295],[130.57036,31.604],[130.57294,31.60617]],[[131.54635,33.38772],[131.54178,33.38483],[131.53911,33.37706],[131.53448,33.37285],[131.5199,33.36863],[131.50587,33.36335],[131.49924,33.36064],[131.49775,33.35883],[131.49743,33.35619],[131.49814,33.35358],[131.49737,33.34876],[131.49453,33.34349],[131.49515,33.32985],[131.49698,33.32775],[131.5004,33.32097],[131.49969,33.31815],[131.50213,33.30799],[131.50236,33.2946],[131.50801,33.27255],[131.51156,33.26783],[131.51792,33.2652],[131.52537,33.26507],[131.53487,33.25841],[131.54335,33.25679],[131.54685,33.25532],[131.55267,33.25724],[131.56032,33.25528],[131.57904,33.2486],[131.61198,33.23227],[131.619,33.23204],[131.61872,33.22412],[131.61888,33.23192],[131.61198,33.23214],[131.57905,33.24845],[131.56042,33.25512],[131.55282,33.25712],[131.54672,33.25521],[131.54319,33.25669],[131.53494,33.25823],[131.52545,33.26489],[131.51536,33.2657],[131.51117,33.26798],[131.50806,33.27213],[131.50226,33.29452],[131.50199,33.30807],[131.49958,33.31815],[131.5003,33.32096],[131.49504,33.32985],[131.49443,33.34351],[131.49726,33.34877],[131.49805,33.35402],[131.49733,33.35624],[131.49761,33.35873],[131.49903,33.36061],[131.50474,33.363],[131.51982,33.36869],[131.52355,33.36927],[131.53456,33.37307],[131.53849,33.37636],[131.54174,33.38496],[131.54815,33.38879],[131.5486,33.39772],[131.54722,33.39873],[131.54424,33.39851],[131.54278,33.40051],[131.54468,33.40353],[131.54918,33.40516],[131.55025,33.40977],[131.54932,33.41157],[131.55002,33.4181],[131.54854,33.4203],[131.54233,33.42244],[131.54132,33.42458],[131.54195,33.42613],[131.54145,33.42708],[131.5328,33.42874],[131.53335,33.43357],[131.52845,33.43833],[131.52234,33.43806],[131.52036,33.43866],[131.51853,33.44207],[131.51813,33.44714],[131.51612,33.44973],[131.51394,33.4502],[131.50782,33.44862],[131.50218,33.45156],[131.49997,33.45564],[131.50086,33.46246],[131.49545,33.47509],[131.48942,33.48049],[131.46744,33.48614],[131.4635,33.48962],[131.46095,33.48971],[131.45899,33.49077],[131.44835,33.49104],[131.44448,33.49003],[131.44217,33.49064],[131.44059,33.49282],[131.43768,33.49442],[131.43644,33.49928],[131.4353,33.50065],[131.43332,33.50221],[131.42618,33.50491],[131.42353,33.50773],[131.41799,33.51659],[131.41271,33.52924],[131.40831,33.53443],[131.39748,33.53468],[131.38773,33.53006],[131.38314,33.52873],[131.37001,33.52817],[131.36548,33.52628],[131.3599,33.52834],[131.35425,33.52795],[131.35245,33.527],[131.35048,33.52403],[131.34874,33.52355],[131.34425,33.52505],[131.3364,33.53028],[131.32811,33.53459],[131.31397,33.53514],[131.30741,33.53642],[131.30396,33.53609],[131.29836,33.53877],[131.29598,33.53876],[131.29967,33.53642],[131.27397,33.551],[131.26665,33.5514],[131.25349,33.55411],[131.2392,33.55275],[131.23069,33.5506],[131.22369,33.5523],[131.20967,33.55253],[131.20125,33.55797],[131.19673,33.55996],[131.17798,33.56275],[131.17403,33.56581],[131.1714,33.5692],[131.16693,33.57171],[131.16502,33.57366],[131.162,33.57787],[131.16155,33.58417],[131.15983,33.58634],[131.13386,33.59793],[131.10956,33.60992],[131.10193,33.61305],[131.09542,33.61428],[131.10209,33.6131],[131.10861,33.61042],[131.13394,33.59802],[131.1599,33.58642],[131.16166,33.58418],[131.16211,33.57791],[131.16562,33.57309],[131.17115,33.56953],[131.17458,33.56544],[131.17912,33.56235],[131.19686,33.55999],[131.20174,33.55781],[131.20775,33.55337],[131.21069,33.55244],[131.22371,33.55239],[131.23092,33.55069],[131.23907,33.55282],[131.2535,33.55418],[131.26694,33.55145],[131.27412,33.55113],[131.29041,33.54123],[131.29592,33.53868]],[[131.68301,32.61149],[131.68217,32.59983],[131.67716,32.59625],[131.67587,32.5904],[131.67725,32.58659],[131.68351,32.57727],[131.68342,32.5684],[131.67706,32.54925],[131.67929,32.53722],[131.67718,32.54925],[131.68348,32.5682],[131.68366,32.57695],[131.68301,32.5789],[131.67738,32.58662],[131.67599,32.59039],[131.67724,32.59621],[131.68222,32.59967],[131.68343,32.60989],[131.68172,32.61483],[131.68379,32.61864],[131.6844,32.62261],[131.6928,32.63399],[131.6877,32.64127],[131.69114,32.6519],[131.69091,32.65305],[131.68816,32.6553],[131.69377,32.66036],[131.69983,32.66373],[131.70258,32.66398],[131.70382,32.66594],[131.70065,32.66966],[131.6992,32.67393],[131.69698,32.67532],[131.69548,32.6803],[131.69656,32.68421],[131.69213,32.68591],[131.69092,32.69049],[131.69485,32.69255],[131.69799,32.69837],[131.69833,32.7],[131.69698,32.7034],[131.70172,32.70999],[131.70056,32.71548],[131.70599,32.71882],[131.70789,32.72148],[131.71043,32.72279],[131.71123,32.72415],[131.71072,32.73044],[131.71305,32.73425],[131.71527,32.73584],[131.71169,32.73645],[131.71019,32.73766],[131.70964,32.7394],[131.71056,32.74222],[131.70993,32.74318],[131.70648,32.74415],[131.70454,32.74659],[131.7015,32.74753],[131.70155,32.74832],[131.70455,32.74988],[131.70159,32.75729],[131.70301,32.75968],[131.7005,32.76075],[131.69983,32.76284],[131.69841,32.76377],[131.69917,32.7659],[131.69741,32.76741],[131.69759,32.77013],[131.69536,32.77092],[131.69471,32.77484],[131.69722,32.77769],[131.7035,32.78063],[131.70451,32.78474],[131.7064,32.78631],[131.70654,32.7885],[131.7109,32.79236],[131.7135,32.79253],[131.71292,32.79545],[131.71522,32.79613],[131.71821,32.80171],[131.71649,32.80374],[131.71694,32.80527],[131.71601,32.80929],[131.7143,32.81217],[131.71531,32.81404],[131.71367,32.81557],[131.71418,32.81757],[131.71647,32.81917],[131.7139,32.82084],[131.71443,32.82236],[131.71351,32.82397],[131.71411,32.82536],[131.71267,32.82687],[131.71607,32.82806],[131.71564,32.83128],[131.71723,32.83331],[131.71604,32.84136],[131.71825,32.84528],[131.72379,32.84681],[131.72719,32.8486],[131.73016,32.84853],[131.73457,32.85172],[131.74322,32.85308],[131.74577,32.85782],[131.74509,32.85963],[131.74623,32.86238],[131.74912,32.86534],[131.74982,32.86906],[131.75075,32.86997],[131.75075,32.8737],[131.75396,32.87789],[131.75958,32.88082],[131.76006,32.88539],[131.76206,32.88638],[131.76709,32.89321],[131.77063,32.89558],[131.77918,32.89552],[131.78196,32.90006],[131.78693,32.89917],[131.79012,32.89974],[131.79088,32.90405],[131.79631,32.90834],[131.79679,32.90996],[131.79606,32.91359],[131.80026,32.91613],[131.8015,32.91807],[131.80196,32.92508],[131.80489,32.92567],[131.81061,32.93272],[131.81242,32.93366],[131.81361,32.93382],[131.81584,32.93255],[131.82354,32.9345],[131.83604,32.94672],[131.83762,32.94929],[131.84337,32.95427],[131.84563,32.95758],[131.83828,32.96254],[131.83829,32.96842],[131.84603,32.97779],[131.84836,32.98169],[131.84781,32.98502],[131.84666,32.98606],[131.83978,32.9861],[131.83621,32.9889],[131.83339,32.98928],[131.83147,32.99044],[131.82735,32.99504],[131.8247,32.99547],[131.82255,32.99474],[131.81988,32.9971],[131.81608,32.99738],[131.81515,32.99884],[131.81292,33.00007],[131.80821,33.00106],[131.80476,33.00039],[131.80269,33.00271],[131.79659,33.0043],[131.78906,33.00175],[131.78406,32.99876],[131.76773,32.99851],[131.76438,32.99676],[131.75985,32.99573],[131.75415,32.99744],[131.75059,33.00023],[131.74849,33.00063],[131.74368,33.00338],[131.73991,33.00755],[131.73832,33.00736],[131.73592,33.00514],[131.73036,33.00536],[131.7277,33.00469],[131.71668,33.00646],[131.71234,33.00848],[131.70902,33.007],[131.70714,33.00978],[131.70126,33.01204],[131.70041,33.01403],[131.70089,33.01736],[131.69449,33.02283],[131.69413,33.02471],[131.6949,33.02767],[131.69377,33.0301],[131.68915,33.03291],[131.69015,33.04109],[131.692,33.04439],[131.69167,33.04687],[131.6889,33.05023],[131.6888,33.05519],[131.67772,33.05615],[131.67404,33.05821],[131.67214,33.06048],[131.66812,33.06124],[131.66107,33.06491],[131.65875,33.06527],[131.6544,33.06876],[131.64407,33.07043],[131.64037,33.07004],[131.63779,33.07323],[131.63989,33.08312],[131.63993,33.08743],[131.64277,33.0906],[131.64733,33.09115],[131.64938,33.09224],[131.65059,33.09433],[131.65138,33.10089],[131.65667,33.1097],[131.65654,33.11193],[131.65385,33.11623],[131.65368,33.12011],[131.6548,33.12433],[131.66012,33.13395],[131.65814,33.14028],[131.65745,33.14946],[131.65492,33.15518],[131.65019,33.16071],[131.63862,33.16619],[131.64146,33.16449]],[[131.63778,33.19718],[131.63933,33.195],[131.63961,33.19266],[131.63626,33.17556],[131.63951,33.16679],[131.64101,33.16488],[131.63951,33.16656],[131.63602,33.17578],[131.63945,33.19222],[131.63925,33.19487],[131.63765,33.19715]],[[130.88788,33.87744],[130.88063,33.87263],[130.88038,33.86983],[130.88221,33.86682],[130.88338,33.86075],[130.89502,33.85335],[130.89926,33.84671],[130.90433,33.84505],[130.90182,33.83858],[130.9127,33.83591],[130.92567,33.82974],[130.93264,33.82389],[130.93632,33.81737],[130.93905,33.81485],[130.9455,33.81116],[130.95496,33.81039],[130.9575,33.80779],[130.96782,33.80125],[130.97905,33.79538],[130.98098,33.79329],[130.98309,33.77758],[130.98256,33.77488],[130.97824,33.76532],[130.98139,33.75415],[130.98,33.74875],[130.98657,33.74073],[130.99024,33.7341],[130.99246,33.72904],[130.99353,33.7197],[130.999,33.71172],[130.99813,33.70521],[130.99601,33.70195],[130.99521,33.69698],[130.99764,33.69079],[130.99606,33.67866],[131.00058,33.67304],[130.99638,33.67606],[130.99594,33.67963]],[[130.88038,33.86983],[130.88046,33.87263],[130.88782,33.87751]],[[131.47095,32.00506],[131.46626,32.0082],[131.47101,32.00522],[131.47038,32.00342],[131.45921,31.99262],[131.45191,31.98798],[131.44247,31.97585],[131.4391,31.97292],[131.43837,31.96828],[131.43445,31.95955],[131.4302,31.95242],[131.42958,31.94071],[131.43013,31.9384],[131.4233,31.91655],[131.40562,31.92022],[131.38003,31.924],[131.3713,31.92996],[131.36652,31.93745],[131.36157,31.94073],[131.35961,31.94153],[131.35329,31.94182],[131.34832,31.94346],[131.34543,31.94327],[131.34825,31.94358],[131.35046,31.94278]],[[131.34543,31.94327],[131.34337,31.94338],[131.33666,31.94646],[131.32995,31.94446],[131.32715,31.94462],[131.31387,31.95171],[131.30492,31.96045],[131.30049,31.96063],[131.2965,31.95946],[131.29082,31.95459],[131.28212,31.95205],[131.27629,31.95149],[131.27335,31.95022],[131.26778,31.95162],[131.26471,31.94804],[131.26067,31.94112],[131.25411,31.94152],[131.25057,31.93869],[131.24937,31.9358],[131.2504,31.92993],[131.24544,31.92808],[131.24314,31.92822],[131.23755,31.9248],[131.23328,31.91751],[131.23127,31.91599],[131.21911,31.91927],[131.21742,31.92108],[131.21395,31.9226],[131.21059,31.92146],[131.20898,31.92176],[131.20723,31.92321],[131.20501,31.92354],[131.19861,31.92904],[131.19414,31.92977],[131.1928,31.92748],[131.18913,31.92505],[131.18791,31.92109],[131.18517,31.91733],[131.18533,31.91554],[131.18229,31.91325],[131.17902,31.90737],[131.17892,31.90055],[131.17998,31.89848],[131.17917,31.89676],[131.18048,31.89531],[131.18071,31.89316],[131.17934,31.89171],[131.18019,31.88778],[131.17962,31.88567],[131.17493,31.88412],[131.17206,31.88224],[131.17199,31.87923],[131.16529,31.86705],[131.15769,31.86225],[131.15032,31.86164],[131.14739,31.85799],[131.13535,31.85359],[131.13262,31.85033],[131.12992,31.84625],[131.12666,31.83222],[131.12946,31.82549],[131.13004,31.81917],[131.12628,31.81273],[131.12611,31.80622],[131.12447,31.80132],[131.11353,31.78377],[131.10828,31.78003],[131.10314,31.77898],[131.10112,31.77783],[131.07805,31.75144],[131.07752,31.74671],[131.06931,31.73728],[131.06798,31.73062],[131.06191,31.7222],[131.06804,31.73052],[131.0694,31.73725],[131.07749,31.74651],[131.07819,31.75147],[131.10122,31.77778],[131.10867,31.7801],[131.11257,31.78289]],[[131.35812,31.94172],[131.36106,31.94113],[131.36578,31.93826],[131.37138,31.93006],[131.37678,31.92571],[131.38044,31.92388],[131.40565,31.92033],[131.42321,31.91668],[131.43002,31.9384],[131.42946,31.94054],[131.43022,31.95283],[131.43477,31.96043],[131.43825,31.96831],[131.4388,31.97285],[131.44286,31.9764]],[[131.4961,32.07465],[131.48877,32.06866],[131.48729,32.06309],[131.47407,32.05322],[131.46947,32.04167],[131.47384,32.05272],[131.48737,32.06305],[131.48912,32.06887],[131.4961,32.07465],[131.50576,32.0774],[131.50812,32.07892],[131.51285,32.08862],[131.52856,32.11478],[131.52797,32.11727],[131.52185,32.12051],[131.52082,32.12206],[131.52142,32.12824],[131.52692,32.13593],[131.52765,32.13824],[131.52476,32.15054],[131.52354,32.15182],[131.51666,32.15457],[131.51378,32.15797],[131.52184,32.17857],[131.52477,32.19518],[131.52979,32.20141],[131.53354,32.20724],[131.53711,32.21514],[131.5394,32.2172],[131.54813,32.23095],[131.54831,32.23946],[131.55155,32.2454],[131.55213,32.25129],[131.55631,32.2583],[131.5579,32.2636],[131.56235,32.26675],[131.56825,32.27886],[131.56998,32.28442],[131.57966,32.29881],[131.58507,32.31036],[131.60267,32.32886],[131.60439,32.33156],[131.60936,32.33465],[131.61309,32.34146],[131.6184,32.34131],[131.62433,32.34405],[131.62439,32.34516],[131.62257,32.34779],[131.62323,32.35209],[131.62116,32.35431],[131.62112,32.35659],[131.62364,32.36476],[131.62707,32.36733],[131.63079,32.37264],[131.62989,32.37581],[131.62758,32.37852],[131.62755,32.38988],[131.62942,32.39704]],[[131.10205,33.61301],[131.09436,33.62209],[131.08873,33.62526],[131.08687,33.62871],[131.07213,33.63743],[131.06944,33.64108],[131.06542,33.65077],[131.06247,33.65336],[131.05842,33.65447],[131.05349,33.65964],[131.05085,33.66518],[131.04102,33.67317],[131.0301,33.67677],[131.02481,33.67956],[131.02207,33.68426],[131.00884,33.69571],[130.99838,33.70752],[130.99882,33.71192],[130.99319,33.72023],[130.99163,33.73096],[130.98646,33.74069],[130.97994,33.74842],[130.98131,33.75415],[130.97816,33.76536],[130.9825,33.7749],[130.98301,33.77764],[130.98138,33.79194],[130.98033,33.79414],[130.96576,33.80237],[130.95486,33.81015],[130.94581,33.81094],[130.94261,33.81233],[130.93705,33.81625],[130.93253,33.82379],[130.92561,33.82962],[130.91375,33.83491],[130.90163,33.83846],[130.90423,33.84494],[130.89918,33.84659],[130.895,33.85326],[130.88338,33.86075]],[[131.60378,33.20726],[131.60321,33.20518],[131.60692,33.20086],[131.61668,33.18536],[131.61649,33.18047],[131.61858,33.17805],[131.61639,33.18048],[131.61652,33.18545],[131.60675,33.20086],[131.6031,33.20517],[131.60368,33.20715],[131.61762,33.22151],[131.61872,33.22412]],[[130.61484,31.69267],[130.61398,31.69643],[130.61474,31.69194],[130.61017,31.68544],[130.60921,31.67942],[130.61098,31.67509],[130.61296,31.66531],[130.61574,31.66068],[130.61918,31.65878],[130.61877,31.65696],[130.6174,31.65605],[130.61455,31.65659],[130.61159,31.65572],[130.60608,31.65003],[130.60305,31.64498],[130.60185,31.63215],[130.59992,31.6297],[130.59386,31.62556],[130.5864,31.62295],[130.5844,31.62008],[130.58198,31.61848],[130.57788,31.61759],[130.5712,31.61401],[130.56771,31.60673],[130.56505,31.60464],[130.5588,31.60209],[130.55266,31.59355]],[[131.06191,31.7222],[131.06114,31.7212],[131.06022,31.71419],[131.05455,31.70993],[131.04777,31.70901],[131.04205,31.70655],[131.03064,31.70553],[130.997,31.69535],[130.99126,31.69565],[130.98391,31.6941],[130.97653,31.69533],[130.97334,31.69364],[130.96816,31.68721],[130.95238,31.68837],[130.9407,31.68361],[130.93488,31.67871],[130.93034,31.67766],[130.92111,31.6712],[130.9166,31.67073],[130.9091,31.66603],[130.90475,31.66471],[130.90315,31.66269],[130.89853,31.66309],[130.89573,31.66091],[130.88635,31.66195],[130.88184,31.6638],[130.88014,31.66606],[130.8701,31.66816],[130.86155,31.67235],[130.84458,31.67268],[130.84118,31.67393],[130.8401,31.67631],[130.84007,31.68147],[130.83877,31.68316],[130.82898,31.68671],[130.82302,31.69329],[130.8226,31.69654],[130.82036,31.70089],[130.81992,31.70746],[130.81701,31.71078],[130.81632,31.71359],[130.81445,31.71487],[130.81509,31.71827],[130.80926,31.72327],[130.80295,31.72255],[130.80014,31.72111],[130.79125,31.72026],[130.78935,31.71799],[130.78928,31.71501],[130.78697,31.71019],[130.78766,31.70707],[130.78665,31.70639],[130.78017,31.70801],[130.77575,31.71073],[130.76376,31.71166],[130.74328,31.72224],[130.7189,31.72941],[130.70578,31.72582],[130.69928,31.7293],[130.69538,31.73014],[130.69308,31.73423],[130.68628,31.73847],[130.67818,31.73752],[130.674,31.73392],[130.66193,31.73638],[130.65435,31.73442],[130.65308,31.73601],[130.65038,31.73718],[130.64805,31.73535],[130.64168,31.73319],[130.63024,31.73201],[130.62536,31.72814],[130.61197,31.70403],[130.61183,31.70062],[130.61177,31.70386],[130.61466,31.70802],[130.62475,31.72749],[130.62911,31.73152],[130.64132,31.73319],[130.64828,31.73562],[130.65282,31.7419],[130.65606,31.74399],[130.65837,31.74856],[130.65979,31.74962],[130.66198,31.74958],[130.66743,31.74589],[130.67013,31.7456]],[[131.64101,33.16488],[131.65013,33.16091],[131.65499,33.15527],[131.65756,33.14949],[131.65835,33.13971],[131.66023,33.13405],[131.65405,33.12168],[131.65384,33.11662],[131.65692,33.11041],[131.65135,33.10056],[131.65105,33.09367],[131.64831,33.09111],[131.64245,33.09019],[131.63969,33.08623]],[[131.29967,33.53642],[131.30505,33.53411],[131.30988,33.5287],[131.31423,33.52649],[131.31767,33.5229],[131.32135,33.52119],[131.32535,33.51559],[131.32606,33.51272],[131.32551,33.50991],[131.31887,33.4993]],[[130.66783,31.74618],[130.67218,31.74554],[130.68257,31.73972],[130.68518,31.73984],[130.6902,31.74197],[130.69428,31.74149],[130.69976,31.73773],[130.70531,31.73556],[130.71315,31.7286],[130.73049,31.72178]],[[130.73312,31.72079],[130.71286,31.72841],[130.70493,31.73569],[130.69971,31.73766],[130.69424,31.7414],[130.69022,31.74189],[130.68522,31.73976],[130.68255,31.73963],[130.67217,31.74542],[130.66688,31.74654]],[[130.67011,31.74553],[130.66746,31.74578],[130.662,31.74948],[130.65962,31.74947],[130.65616,31.74395],[130.65295,31.74188],[130.64944,31.73678]],[[130.61183,31.70062],[130.61398,31.69643]],[[131.62516,32.58238],[131.6326,32.59029],[131.62586,32.58334],[131.62296,32.5771],[131.62295,32.57028],[131.62623,32.56285],[131.63969,32.55015],[131.66007,32.53754],[131.66345,32.5333],[131.665,32.52957]],[[131.67833,32.54205],[131.6793,32.53825],[131.67863,32.53658],[131.67676,32.53493],[131.67123,32.53338],[131.66884,32.53183]],[[131.67929,32.53722],[131.68355,32.52203],[131.68197,32.513],[131.67463,32.50674],[131.66356,32.50138],[131.66228,32.49634],[131.66423,32.4892],[131.66387,32.48705],[131.65793,32.4821],[131.64849,32.46805],[131.64863,32.46214],[131.63976,32.45038],[131.63156,32.44621],[131.62766,32.43972],[131.62811,32.43347],[131.63068,32.4269],[131.63077,32.41314]],[[131.66514,32.52912],[131.66398,32.51279],[131.66182,32.50152],[131.66263,32.50499]],[[131.66297,32.49925],[131.66254,32.4958],[131.66434,32.48919],[131.66393,32.487],[131.65784,32.48186],[131.64861,32.46802],[131.6486,32.46185],[131.63988,32.45037],[131.63169,32.44622],[131.62788,32.44002],[131.62821,32.43351],[131.63032,32.42934]],[[131.63089,32.41255],[131.63103,32.40275],[131.62999,32.39863]],[[131.07508,33.62911],[131.07176,33.6312],[131.06739,33.63215],[131.07508,33.62911],[131.07985,33.6225],[131.08476,33.61975],[131.08834,33.61667],[131.09542,33.61428]],[[130.99904,33.71049],[130.99865,33.70729]],[[131.6326,32.59029],[131.64159,32.59915],[131.66263,32.62279],[131.67063,32.6286],[131.68432,32.63533],[131.68953,32.63942],[131.69423,32.64553],[131.70093,32.65852],[131.70609,32.6641]],[[131.46947,32.04167],[131.46576,32.03508],[131.46411,32.02847],[131.46486,32.01151],[131.46626,32.0082]],[[131.61858,33.17805],[131.62396,33.17328],[131.62606,33.1701],[131.63343,33.1697],[131.63862,33.16619]],[[131.63075,32.42691],[131.63089,32.41317]],[[131.67848,32.54206],[131.67892,32.53974]],[[131.00058,33.67304],[131.0115,33.66402],[131.02999,33.65373],[131.04135,33.64362],[131.04907,33.64096],[131.0551,33.63587],[131.06113,33.63503],[131.06739,33.63215]],[[131.66984,32.53256],[131.66878,32.53169]],[[130.61016,31.67683],[130.61306,31.66531],[130.6159,31.66065],[130.61944,31.65821],[130.61786,31.65609],[130.6145,31.65651],[130.61147,31.65557],[130.60616,31.65001],[130.60315,31.64497],[130.60177,31.63427],[130.60216,31.63191],[130.6003,31.63007]],[[130.95514,33.81011],[130.95478,33.81018]],[[131.63089,32.40391],[131.63078,32.41257]],[[131.46474,32.01562],[131.46485,32.01215]],[[131.31874,33.49927],[131.32446,33.50786]],[[130.90423,33.84494],[130.90428,33.84506]]]}}]}