{"type":"FeatureCollection","features":[{"type":"Feature","properties":{"route_id":"54","route_number":54,"name":"国道54号","source":"OpenStreetMap contributors (ODbL)","osm_relations":[2957976,9426891]},"geometry":{"type":"MultiLineString","coordinates":[[[133.06071,35.45896],[133.05124,35.45851],[133.04388,35.44288],[133.03924,35.4402],[133.03654,35.43734],[133.03293,35.43576],[133.02735,35.43639],[133.02316,35.43504],[133.01373,35.43463],[133.00866,35.43347],[133.00531,35.43145],[132.99994,35.42977],[132.98581,35.43092],[132.98294,35.43],[132.98076,35.42651],[132.97367,35.42335],[132.9687,35.42357],[132.96508,35.42277],[132.95843,35.42398],[132.95417,35.42122],[132.93568,35.41799],[132.93202,35.41578],[132.92222,35.41196],[132.91605,35.41283],[132.90947,35.4117],[132.9027,35.4063],[132.90349,35.40377],[132.90195,35.39681],[132.90703,35.39154],[132.90826,35.38646],[132.90713,35.38163],[132.90855,35.37826],[132.90383,35.37215],[132.90272,35.36752],[132.90001,35.3658],[132.89966,35.36473],[132.90023,35.36304],[132.90456,35.35896],[132.90276,35.35115],[132.90456,35.34621],[132.90552,35.33647],[132.90868,35.33021],[132.9085,35.32673],[132.91198,35.32103],[132.91252,35.31515],[132.91057,35.31342],[132.90395,35.31083],[132.90007,35.30671],[132.88054,35.29375],[132.86961,35.28942],[132.86551,35.28307],[132.85842,35.27998],[132.85629,35.27767],[132.85302,35.27902],[132.85163,35.2788],[132.84795,35.27646],[132.84548,35.27308],[132.83893,35.26923],[132.83711,35.2653],[132.83957,35.26023],[132.83728,35.25725],[132.83129,35.25464],[132.83089,35.25287],[132.83255,35.24717],[132.82836,35.24467],[132.8277,35.24207],[132.82557,35.23967],[132.82307,35.23345],[132.81864,35.23218],[132.81807,35.22789],[132.81934,35.22491],[132.817,35.22276],[132.81591,35.2195],[132.81633,35.21814],[132.81903,35.21683],[132.81959,35.21557],[132.81402,35.20723],[132.81438,35.1992],[132.8166,35.19577],[132.82031,35.19309],[132.82019,35.18945],[132.82231,35.18647],[132.81704,35.17864],[132.8191,35.17534],[132.81906,35.17237],[132.81743,35.17066],[132.81788,35.16831],[132.81452,35.16599],[132.80977,35.16631],[132.8059,35.16439],[132.80528,35.16335],[132.80512,35.15747],[132.80365,35.15624],[132.8013,35.15631],[132.8002,35.15429],[132.79783,35.15406],[132.79592,35.15261],[132.79113,35.153],[132.78908,35.15083],[132.78461,35.15075],[132.78241,35.14587],[132.77913,35.14404],[132.77759,35.1413],[132.77503,35.13986],[132.77563,35.13736],[132.77485,35.13532],[132.77192,35.13376],[132.77051,35.12831],[132.77066,35.12362],[132.77762,35.11845],[132.78391,35.10709],[132.78169,35.09923],[132.78486,35.0911],[132.78627,35.08287],[132.7811,35.07778],[132.77948,35.07046],[132.7725,35.06916],[132.76784,35.06957],[132.76507,35.06586],[132.75768,35.06272],[132.75101,35.05771],[132.74959,35.05338],[132.74611,35.04971],[132.74557,35.04525],[132.7425,35.04391],[132.74076,35.04121],[132.74389,35.0359],[132.74435,35.03009],[132.74047,35.02754],[132.73066,35.0251],[132.72645,35.0232],[132.71968,35.00928],[132.71722,35.00513],[132.71429,35.00213],[132.71426,34.99834],[132.71568,34.99425],[132.72362,34.98697],[132.72445,34.98306],[132.73,34.97731],[132.73394,34.97027],[132.73463,34.95486],[132.73605,34.95225],[132.737,34.94488],[132.74199,34.93853],[132.74834,34.93303],[132.74884,34.93043],[132.75401,34.92424],[132.76013,34.92101],[132.7684,34.91828],[132.77198,34.91799],[132.77449,34.91482],[132.7792,34.91184],[132.77781,34.90708],[132.77593,34.90514],[132.77735,34.90244],[132.77763,34.89843],[132.77695,34.89669],[132.77475,34.89508],[132.77463,34.89262],[132.78129,34.88484],[132.78272,34.88056],[132.78715,34.87388],[132.79209,34.86271],[132.79735,34.85424],[132.80416,34.84846],[132.80363,34.84645],[132.8012,34.8441],[132.80087,34.84262],[132.80164,34.84086],[132.80524,34.83831],[132.80666,34.82662],[132.80864,34.82577],[132.81274,34.82753],[132.81496,34.82731],[132.81581,34.82606],[132.81577,34.82264],[132.82174,34.82123],[132.82531,34.8157],[132.83106,34.81543],[132.8353,34.8137],[132.83721,34.81193],[132.83879,34.80053],[132.83369,34.7926],[132.8287,34.78928],[132.82812,34.78815],[132.83034,34.78466],[132.83749,34.7829],[132.83808,34.78145],[132.83299,34.77862],[132.83146,34.77697],[132.83084,34.77423],[132.82811,34.76997],[132.82217,34.76805],[132.82102,34.76538],[132.81097,34.75507],[132.80324,34.74519],[132.80068,34.74484],[132.79275,34.74129],[132.78716,34.74096],[132.78448,34.74006],[132.78313,34.73585],[132.77714,34.72541],[132.77283,34.72211],[132.76212,34.70705],[132.75839,34.70441],[132.75606,34.70127],[132.75266,34.69518],[132.75296,34.68901],[132.75221,34.68611],[132.74642,34.68059],[132.7447,34.68016],[132.74042,34.68184],[132.72805,34.68028],[132.71914,34.68045],[132.71697,34.6775],[132.7153,34.67106],[132.71277,34.66789],[132.7108,34.66716],[132.70515,34.66744],[132.70255,34.66651],[132.70066,34.66453],[132.69872,34.65997],[132.69684,34.65817],[132.68266,34.65391],[132.66727,34.64499],[132.64462,34.62916],[132.62802,34.6319],[132.62223,34.6306],[132.61035,34.62196],[132.60543,34.61742],[132.5874,34.59472],[132.58622,34.59064],[132.57807,34.57971],[132.57069,34.57604],[132.56672,34.57197],[132.56046,34.56866],[132.55723,34.56602],[132.55406,34.56489],[132.54943,34.56017],[132.5476,34.55958],[132.54323,34.55559],[132.52417,34.54284],[132.5175,34.54091],[132.51516,34.53936],[132.50818,34.52368],[132.50609,34.51439],[132.50655,34.51243],[132.51167,34.50395],[132.51239,34.49676],[132.50656,34.49546],[132.50482,34.49124],[132.50224,34.48794],[132.50131,34.4841],[132.49022,34.47723],[132.47822,34.46581],[132.47781,34.46283],[132.47965,34.46092],[132.47986,34.45965],[132.47412,34.43982],[132.46945,34.43315],[132.47029,34.42765],[132.46573,34.42252],[132.46525,34.41866],[132.4623,34.40937],[132.45862,34.40513],[132.45676,34.39991],[132.45918,34.39916],[132.45408,34.38459],[132.459,34.39922],[132.45667,34.39979]],[[132.45664,34.39993],[132.45904,34.40637],[132.4622,34.40966],[132.46586,34.42321],[132.47004,34.42769],[132.46921,34.43302],[132.4738,34.4394],[132.4773,34.45308],[132.47955,34.45878],[132.47968,34.46058],[132.47761,34.4631],[132.47806,34.4658],[132.49006,34.47731],[132.50099,34.48394],[132.50214,34.48796],[132.50474,34.4913],[132.50635,34.49542],[132.51239,34.49806],[132.51155,34.50398],[132.50598,34.51383],[132.50763,34.5225],[132.50929,34.52623]],[[133.06071,35.45889],[133.05282,35.45894],[133.0511,35.45826],[133.04453,35.44347],[133.04335,35.44239]],[[133.00181,35.4305],[133.00866,35.43355],[133.01372,35.43472],[133.02333,35.43514],[133.02734,35.43649],[133.03161,35.43579],[133.03604,35.43708]],[[132.86599,35.28354],[132.86018,35.28044]],[[132.90179,35.308],[132.88679,35.29772]]]}}]}