{"type":"FeatureCollection","features":[{"type":"Feature","properties":{"route_id":"207","route_number":207,"name":"国道207号","source":"OpenStreetMap contributors (ODbL)","osm_relations":[9364399,10089772,10089773,10089774,10089775]},"geometry":{"type":"MultiLineString","coordinates":[[[130.1977,33.24869],[130.19173,33.24659],[130.18625,33.24335],[130.18317,33.23782],[130.17949,33.22718],[130.17258,33.22255],[130.17063,33.21928],[130.16739,33.21796],[130.15978,33.21726],[130.15689,33.21783],[130.1459,33.20032],[130.14113,33.1969],[130.14003,33.18951],[130.14107,33.18639],[130.13868,33.17667],[130.13055,33.15941],[130.1246,33.15386],[130.12067,33.14296],[130.12308,33.13682],[130.12171,33.1343],[130.12045,33.13364],[130.11162,33.13367],[130.10881,33.13267],[130.10554,33.12872],[130.09187,33.11975],[130.08612,33.11074],[130.08557,33.1039],[130.08883,33.09933],[130.09692,33.09139],[130.112,33.08771],[130.12038,33.08744],[130.12701,33.08812],[130.12071,33.08737],[130.11212,33.08761],[130.09728,33.09112],[130.08817,33.09995],[130.08511,33.10531],[130.08594,33.11055],[130.09038,33.11829],[130.09355,33.12123],[130.10314,33.12728],[130.09862,33.11995],[130.09661,33.11459],[130.09843,33.10609],[130.10651,33.1022],[130.10808,33.10065],[130.10901,33.09684],[130.118,33.09313],[130.11955,33.09029],[130.12701,33.08812],[130.13373,33.08719],[130.13441,33.08524],[130.13727,33.08361],[130.13862,33.08056],[130.14477,33.07688],[130.14477,33.0728],[130.14833,33.07083],[130.14965,33.06748],[130.15282,33.06603],[130.15545,33.06215],[130.15778,33.06094],[130.15808,33.05721],[130.16155,33.0549],[130.16447,33.0545],[130.16622,33.05207],[130.16935,33.05047],[130.1686,33.0451],[130.17151,33.03967],[130.17102,33.036],[130.17492,33.03238],[130.17772,33.02789],[130.17913,33.02202],[130.17878,33.01827],[130.18322,33.01246],[130.18687,33.01054],[130.18777,33.0084],[130.1875,33.00443],[130.19002,33.00052],[130.19219,32.99878],[130.19324,32.99472],[130.19109,32.99175],[130.19115,32.99021],[130.19496,32.98853],[130.20001,32.99119],[130.20327,32.99026],[130.20593,32.98512],[130.20532,32.98254],[130.20877,32.97988],[130.20416,32.96971],[130.20168,32.96694],[130.20205,32.96453],[130.20517,32.96256],[130.20607,32.96025],[130.20358,32.95765],[130.20359,32.95521],[130.20043,32.9507],[130.20151,32.94748],[130.1994,32.94251],[130.19969,32.93445],[130.19722,32.93016],[130.19274,32.92759],[130.1879,32.92644],[130.18488,32.92284],[130.18431,32.91929],[130.18014,32.91497],[130.17844,32.91489],[130.17426,32.91656],[130.16907,32.91624],[130.1646,32.91355],[130.16395,32.91183],[130.16018,32.9082],[130.15494,32.90809],[130.14484,32.9042],[130.13793,32.90395],[130.12927,32.89974],[130.12498,32.89893],[130.12049,32.89267],[130.10921,32.88604],[130.10659,32.8823],[130.10223,32.88042],[130.09857,32.876],[130.09473,32.8744],[130.09216,32.87048],[130.08795,32.86719],[130.08635,32.86233],[130.08461,32.86025],[130.0796,32.85734],[130.07392,32.85267],[130.06523,32.85032]],[[129.99032,32.83027],[129.99752,32.82911],[129.99979,32.83047],[130.00582,32.83693],[130.01913,32.83763],[130.02691,32.84093],[130.03025,32.84141]],[[130.10314,33.12728],[130.10599,33.1292],[130.10855,33.13261],[130.11281,33.1337]],[[130.06524,32.8504],[130.07384,32.85273],[130.07986,32.85763],[130.08465,32.86033],[130.08627,32.86236],[130.08791,32.86729],[130.09106,32.86976],[130.07965,32.8613],[130.07518,32.85502],[130.0675,32.85419],[130.06387,32.85233],[130.0602,32.84875],[130.05656,32.84697],[130.0505,32.84738],[130.04608,32.84914],[130.04036,32.84928],[130.04169,32.84692],[130.04103,32.84543],[130.03668,32.84183],[130.03294,32.84099]],[[129.92474,32.86308],[129.92577,32.86217],[129.92615,32.85871],[129.92766,32.85699],[129.92697,32.8593],[129.92816,32.86278],[129.92926,32.86336],[129.9293,32.86477],[129.92724,32.86455],[129.92568,32.86276],[129.92256,32.86331],[129.91793,32.86702],[129.91532,32.86634],[129.91372,32.86406],[129.91189,32.86636],[129.90862,32.86731],[129.90617,32.87089],[129.90364,32.87188],[129.90383,32.87508],[129.90314,32.876],[129.89805,32.87202],[129.89607,32.86963],[129.89697,32.86836],[129.89335,32.86584],[129.8895,32.86942],[129.88851,32.87419],[129.88521,32.87238],[129.88283,32.87358],[129.88132,32.87609],[129.87989,32.87607],[129.87929,32.87441],[129.882,32.8699],[129.88128,32.86651],[129.88298,32.86352],[129.87472,32.86074],[129.87385,32.85224],[129.87164,32.8497],[129.86962,32.84955],[129.86948,32.84374],[129.87314,32.83866],[129.8712,32.83632],[129.86955,32.83208],[129.85989,32.83197],[129.85415,32.83312],[129.84994,32.83063],[129.84743,32.83068]],[[129.99031,32.83016],[129.98876,32.83111],[129.987,32.83073],[129.97599,32.83664],[129.97262,32.83757],[129.97403,32.84105],[129.97565,32.84262],[129.97297,32.84324],[129.97185,32.84494],[129.96963,32.843],[129.96479,32.84288],[129.96401,32.84469],[129.9643,32.8466],[129.96096,32.8461],[129.95911,32.84453],[129.95554,32.84498],[129.95226,32.84691],[129.95221,32.84804],[129.95689,32.85146],[129.95658,32.8529],[129.95767,32.85435],[129.95613,32.856],[129.95307,32.85645],[129.95263,32.85799],[129.94937,32.86104],[129.94121,32.86167],[129.93269,32.85619],[129.92766,32.85699]],[[130.03031,32.84127],[130.02774,32.84099],[130.01916,32.8375],[130.00585,32.83685],[129.99787,32.82911],[129.99046,32.83013]],[[130.04162,32.84636],[130.04021,32.84933],[130.04364,32.84929]],[[130.15689,33.21783],[130.16555,33.21787],[130.17044,33.21929],[130.17269,33.22277],[130.17936,33.22722],[130.18331,33.23848],[130.18628,33.24353],[130.19232,33.24694],[130.20269,33.24999],[130.20498,33.24994],[130.20947,33.24749],[130.21187,33.24717],[130.21835,33.24738],[130.2359,33.25033],[130.24785,33.24335],[130.25221,33.24243],[130.27114,33.24515],[130.29241,33.24996]],[[130.09112,32.8697],[130.0928,32.87167]]]}}]}