{"type":"FeatureCollection","features":[{"type":"Feature","properties":{"route_id":"218","route_number":218,"name":"国道218号","source":"OpenStreetMap contributors (ODbL)","osm_relations":[9626565,9626740,9627337,10143116,10143117,10143119]},"geometry":{"type":"MultiLineString","coordinates":[[[130.71307,32.80218],[130.71005,32.79801],[130.70217,32.79464],[130.70311,32.7917],[130.69784,32.78343],[130.69654,32.77682],[130.69007,32.76377],[130.68705,32.75295],[130.68854,32.74498],[130.6888,32.73518],[130.68693,32.73261],[130.68043,32.72945],[130.67905,32.72792],[130.67104,32.69211],[130.67069,32.68995],[130.6772,32.68909],[130.68139,32.68452],[130.68906,32.66298],[130.69709,32.65735],[130.69871,32.65489],[130.69942,32.65167],[130.70379,32.65096],[130.70633,32.65149],[130.71127,32.64986],[130.71873,32.64885],[130.73569,32.64407],[130.73743,32.64299],[130.74186,32.64424],[130.74992,32.64326],[130.75856,32.64098],[130.76546,32.64188],[130.77645,32.64163],[130.78378,32.6445],[130.78588,32.6444],[130.79015,32.64288],[130.79586,32.6368],[130.80711,32.63231],[130.80917,32.62837],[130.81142,32.62716],[130.81508,32.62323],[130.83138,32.6216],[130.83818,32.61692],[130.84519,32.61396],[130.8526,32.61568],[130.85723,32.61982],[130.86531,32.62121],[130.869,32.621],[130.87261,32.62194],[130.87644,32.62407],[130.88245,32.62382],[130.88853,32.62846],[130.88832,32.63002],[130.89127,32.63332],[130.89865,32.63265],[130.91001,32.63686],[130.91758,32.64275],[130.92302,32.64283],[130.9275,32.64567],[130.92752,32.64645],[130.92583,32.64662],[130.92485,32.64767],[130.92778,32.65345],[130.92994,32.65368],[130.93316,32.65162],[130.93658,32.65152],[130.94962,32.65396],[130.95571,32.65981],[130.96452,32.66024],[130.96728,32.66189],[130.96762,32.6638],[130.96921,32.66475],[130.97764,32.66645],[130.97942,32.67422],[130.97823,32.68486],[130.97884,32.68824],[130.97984,32.68922],[130.98811,32.68897],[130.99393,32.68989],[131.00249,32.68772],[131.00415,32.68606],[131.01069,32.68648],[131.01206,32.68579],[131.01197,32.68294],[131.01415,32.67981],[131.01833,32.68038],[131.03007,32.67752],[131.04191,32.67956],[131.04368,32.68432],[131.04535,32.68542],[131.05206,32.68484],[131.05419,32.68585],[131.0579,32.68428],[131.0611,32.6863],[131.07419,32.68835],[131.07845,32.68683],[131.08086,32.68787],[131.08392,32.68778],[131.09046,32.69039],[131.09307,32.69329],[131.09856,32.69316],[131.10137,32.69506],[131.10394,32.69468],[131.1063,32.69331],[131.11,32.69458],[131.11549,32.69328],[131.11873,32.69463],[131.12222,32.694],[131.12566,32.68993],[131.12803,32.68965],[131.1293,32.68851],[131.13247,32.68797],[131.13717,32.68561],[131.13798,32.68468],[131.13787,32.68165],[131.14058,32.68226],[131.1417,32.68042],[131.14666,32.68214],[131.14769,32.68385],[131.14944,32.68473],[131.15665,32.68198],[131.15923,32.68242],[131.16193,32.68168],[131.16277,32.68265],[131.16128,32.68443],[131.16167,32.68529],[131.16562,32.6848],[131.16626,32.68677],[131.17501,32.69118],[131.17673,32.69039],[131.17903,32.68736],[131.18584,32.68437],[131.18597,32.68196],[131.18741,32.68059],[131.18904,32.68125],[131.19138,32.6842],[131.19291,32.68464],[131.19499,32.68279],[131.19963,32.68222],[131.20094,32.6806],[131.20371,32.67986],[131.21283,32.68301],[131.21772,32.69096],[131.22727,32.69542],[131.22896,32.69559],[131.23241,32.69403],[131.23438,32.69486],[131.23518,32.69403],[131.23682,32.69449],[131.23786,32.69247],[131.24022,32.69308],[131.24132,32.69172],[131.24113,32.69027],[131.2429,32.68837],[131.2439,32.69291],[131.24568,32.69538],[131.24872,32.69725],[131.25241,32.69686],[131.26008,32.70043],[131.26135,32.7017],[131.26899,32.70267],[131.27162,32.70397],[131.27226,32.70569],[131.27891,32.7087],[131.27985,32.70855],[131.28289,32.70523],[131.28605,32.70435],[131.29191,32.70896],[131.29353,32.70896],[131.29615,32.70757],[131.30106,32.70828],[131.30404,32.71049],[131.30414,32.71477],[131.30601,32.71663],[131.31263,32.71581],[131.31745,32.71428],[131.3209,32.71216],[131.3212,32.7092],[131.32355,32.70835],[131.32475,32.70524],[131.32356,32.70407],[131.32401,32.69945],[131.32196,32.69645],[131.32261,32.69486],[131.32587,32.69281],[131.32653,32.69055],[131.32558,32.68718],[131.32589,32.6845],[131.32768,32.68426],[131.32951,32.68523],[131.33313,32.68473],[131.33733,32.68281],[131.33903,32.68339],[131.34062,32.68291],[131.34343,32.68737],[131.34742,32.68778],[131.34963,32.68627],[131.35001,32.68372],[131.35181,32.68245],[131.35254,32.67966],[131.35193,32.67808],[131.35281,32.67702],[131.36264,32.67628],[131.37013,32.67376],[131.37153,32.67255],[131.37349,32.66835],[131.37704,32.66469],[131.39397,32.65747],[131.39477,32.6558],[131.3939,32.65178],[131.39539,32.64458],[131.39476,32.64151],[131.39888,32.6375],[131.40521,32.63726],[131.40888,32.63499],[131.40997,32.63385],[131.4106,32.63082],[131.41221,32.62913],[131.41638,32.62698],[131.42061,32.62755],[131.42504,32.62709],[131.42738,32.62582],[131.43002,32.62589],[131.43299,32.62358],[131.43992,32.62213],[131.44273,32.62042],[131.44659,32.61938],[131.44918,32.61624],[131.44872,32.61294],[131.45764,32.60908],[131.46142,32.60929],[131.46636,32.61258],[131.47013,32.6123],[131.47198,32.60966],[131.48357,32.60126],[131.487,32.59764],[131.49697,32.59475],[131.49781,32.59322],[131.4978,32.59024],[131.49894,32.58855],[131.50727,32.5866],[131.50793,32.58515],[131.50732,32.58126],[131.51191,32.5792],[131.51361,32.57703],[131.51745,32.56653],[131.51778,32.56365],[131.52043,32.55986],[131.5231,32.55822],[131.52463,32.55864],[131.52707,32.56331],[131.53178,32.56883],[131.5344,32.56899],[131.53604,32.56739],[131.53559,32.56359],[131.53845,32.56003],[131.54635,32.5587],[131.54804,32.56448],[131.54907,32.56539],[131.56422,32.56463],[131.57464,32.56578],[131.57671,32.56513],[131.5853,32.56807],[131.59101,32.56703],[131.59666,32.56984],[131.60497,32.57672],[131.61313,32.57887],[131.61919,32.57901],[131.62251,32.58131],[131.62608,32.5801],[131.63069,32.5831],[131.63784,32.58301],[131.64789,32.5862],[131.65661,32.58433],[131.67351,32.58531],[131.67738,32.58662]],[[130.69986,32.65166],[130.69902,32.65471],[130.69716,32.65743],[130.69071,32.66146],[130.68866,32.66378],[130.6844,32.67773],[130.68088,32.68538],[130.67739,32.68911],[130.67069,32.68995],[130.67069,32.69047],[130.67879,32.72762],[130.68035,32.72952],[130.68701,32.73277],[130.6887,32.73517],[130.68842,32.74496],[130.68692,32.75293],[130.68964,32.76287],[130.69651,32.77701],[130.69784,32.78365],[130.70303,32.79172],[130.70205,32.79469],[130.71006,32.79812],[130.71296,32.80221]],[[131.36264,32.67628],[131.35704,32.6822],[131.35338,32.68797],[131.35117,32.69008],[131.32869,32.70233],[131.32475,32.70524]]]}}]}