{"type":"FeatureCollection","features":[{"type":"Feature","properties":{"route_id":"397","route_number":397,"name":"国道397号","source":"OpenStreetMap contributors (ODbL)","osm_relations":[7901019]},"geometry":{"type":"MultiLineString","coordinates":[[[141.70619,39.09147],[141.70008,39.09296],[141.69206,39.10076],[141.68996,39.10415],[141.6856,39.10643],[141.68082,39.10761],[141.67896,39.11165],[141.67834,39.11704],[141.67504,39.1209],[141.67201,39.121],[141.67069,39.12196],[141.67009,39.12761],[141.66703,39.13009],[141.66501,39.13433],[141.66074,39.13541],[141.6592,39.13784],[141.6573,39.13889],[141.65428,39.14473],[141.64551,39.14798],[141.64198,39.14804],[141.63732,39.14967],[141.63001,39.15439],[141.62139,39.15064],[141.62066,39.14719],[141.61575,39.14522],[141.59826,39.145],[141.5925,39.14356],[141.58702,39.14075],[141.58524,39.13959],[141.58332,39.13654],[141.57838,39.13641],[141.57529,39.13767],[141.57375,39.14171],[141.56558,39.14659],[141.55909,39.14591],[141.55508,39.14427],[141.54915,39.14409],[141.54717,39.14578],[141.54586,39.14871],[141.54287,39.15044],[141.5377,39.14979],[141.5313,39.15325],[141.52753,39.15152],[141.52704,39.15274],[141.52793,39.15475],[141.52712,39.15598],[141.52249,39.15731],[141.51398,39.15801],[141.50969,39.16087],[141.50507,39.161],[141.50032,39.15899],[141.50096,39.15673],[141.50044,39.1552],[141.49791,39.15291],[141.49486,39.14802],[141.49148,39.14499],[141.49024,39.1428],[141.48791,39.1419],[141.48314,39.14323],[141.47612,39.14805],[141.47002,39.14918],[141.46445,39.14695],[141.45964,39.14761],[141.45332,39.15141],[141.44591,39.15899],[141.44292,39.16089],[141.44261,39.16313],[141.44069,39.16339],[141.43733,39.16664],[141.43396,39.16444],[141.43001,39.16589],[141.4291,39.16813],[141.42579,39.16903],[141.42053,39.16799],[141.41542,39.16927],[141.41395,39.17047],[141.41324,39.17284],[141.40697,39.1781],[141.40059,39.17986],[141.39765,39.17991],[141.39235,39.18189],[141.37927,39.17913],[141.37775,39.1767],[141.37963,39.17278],[141.37853,39.17121],[141.3766,39.17147],[141.37377,39.17578],[141.36997,39.17591],[141.36745,39.17438],[141.36633,39.17065],[141.36474,39.16847],[141.3611,39.16785],[141.35343,39.16984],[141.34752,39.17285],[141.34451,39.17243],[141.3414,39.17331],[141.3331,39.17198],[141.32809,39.17336],[141.32433,39.17349],[141.31224,39.17957],[141.30179,39.18025],[141.29195,39.18256],[141.28735,39.17878],[141.28349,39.17697],[141.27646,39.17654],[141.27085,39.17877],[141.26923,39.17853],[141.26405,39.1733],[141.25214,39.17021],[141.25072,39.16798],[141.25044,39.16253],[141.24528,39.16003],[141.24407,39.15773],[141.24094,39.15681],[141.23939,39.15523],[141.23313,39.15419],[141.22588,39.1543],[141.21899,39.14802],[141.21571,39.14728],[141.21065,39.14796],[141.20841,39.14615],[141.20313,39.14463],[141.20153,39.14329],[141.19271,39.14242],[141.18854,39.13752],[141.17779,39.13819],[141.16704,39.13563],[141.15523,39.13568],[141.14454,39.13685],[141.13505,39.13891],[141.12002,39.14448],[141.11586,39.14473],[141.10914,39.14305],[141.09598,39.14208],[141.08271,39.14004],[141.07043,39.13717],[141.06288,39.12983],[141.0563,39.13028],[141.05146,39.12905],[141.04405,39.13064],[141.02725,39.12902],[141.01927,39.12748],[140.98774,39.12594],[140.95422,39.11924],[140.9411,39.12101],[140.9317,39.12655],[140.92922,39.12647],[140.92424,39.12465],[140.91898,39.12581],[140.91418,39.12481],[140.90984,39.12524],[140.90766,39.12429],[140.90244,39.11694],[140.90025,39.11686],[140.89465,39.12011],[140.89187,39.12019],[140.88768,39.11658],[140.88466,39.1164],[140.88377,39.11536],[140.88077,39.11476],[140.87898,39.11193],[140.8758,39.11105],[140.87396,39.10947],[140.87227,39.10515],[140.86374,39.10444],[140.86185,39.10677],[140.85593,39.11005],[140.85559,39.11227],[140.85453,39.11216],[140.85209,39.10978],[140.84505,39.11338],[140.84347,39.1146],[140.8433,39.11805],[140.84106,39.11593],[140.83899,39.11631],[140.83747,39.11488],[140.8344,39.11635],[140.83212,39.11962],[140.83358,39.12156],[140.83096,39.12138],[140.8285,39.12359],[140.8298,39.12674],[140.82686,39.12583],[140.82516,39.12751],[140.82374,39.12637],[140.82276,39.12904],[140.81905,39.12776],[140.81758,39.12869],[140.81757,39.12997],[140.81602,39.12973],[140.81497,39.13116],[140.81224,39.13029],[140.81119,39.13171],[140.80592,39.13328],[140.79841,39.13832],[140.79444,39.13783],[140.7936,39.13686],[140.78904,39.13581],[140.78752,39.13453],[140.78224,39.13338],[140.77966,39.13629],[140.77417,39.13692],[140.77252,39.13983],[140.76918,39.14217],[140.76749,39.14458],[140.76799,39.14897],[140.75861,39.15171],[140.75364,39.15129],[140.75515,39.15207],[140.75513,39.15369],[140.75657,39.15415],[140.75106,39.15482],[140.75455,39.15585],[140.74986,39.15687],[140.74822,39.15621],[140.74957,39.15771],[140.75121,39.1578],[140.74599,39.16148],[140.74889,39.16068],[140.75064,39.16165],[140.74832,39.16194],[140.74959,39.16338],[140.74802,39.16557],[140.74379,39.16566],[140.7428,39.16666],[140.74462,39.16578],[140.74598,39.16631],[140.74453,39.16608],[140.7437,39.16711],[140.73836,39.16819],[140.73203,39.17338],[140.72844,39.17388],[140.72409,39.17277],[140.72141,39.17333],[140.71325,39.17271],[140.70816,39.17496],[140.69858,39.17555],[140.68227,39.17432],[140.67793,39.17237],[140.66939,39.1732],[140.66494,39.17638],[140.65979,39.17738],[140.64916,39.18206],[140.63752,39.18422],[140.62739,39.18857],[140.62231,39.18859],[140.61912,39.19045],[140.61773,39.19352],[140.61072,39.19751],[140.59828,39.2004],[140.59043,39.20006],[140.58189,39.20205],[140.57634,39.20491],[140.57164,39.20591],[140.56908,39.20566],[140.56411,39.20344],[140.55569,39.20354],[140.55219,39.2017],[140.53765,39.20037],[140.53614,39.20121],[140.52855,39.21282],[140.52444,39.21539],[140.516,39.21854]]]}}]}