{"type":"FeatureCollection","features":[{"type":"Feature","properties":{"route_id":"440","route_number":440,"name":"国道440号","source":"OpenStreetMap contributors (ODbL)","osm_relations":[9741201,9743152]},"geometry":{"type":"MultiLineString","coordinates":[[[132.82202,33.70789],[132.81712,33.71479],[132.81629,33.71722],[132.81658,33.72084],[132.81902,33.72505],[132.81791,33.72882],[132.81843,33.73281],[132.8131,33.73618],[132.81135,33.73652],[132.81101,33.73849],[132.81271,33.73892],[132.8137,33.73693],[132.80909,33.73412],[132.80783,33.73475],[132.80805,33.73658],[132.80646,33.73749],[132.80084,33.73612],[132.80058,33.73674],[132.80278,33.73837],[132.80275,33.73933],[132.80103,33.73966],[132.80027,33.74076],[132.79798,33.7388],[132.79252,33.74443],[132.7903,33.75226],[132.78746,33.77292],[132.7867,33.785],[132.78714,33.79387],[132.77731,33.81531],[132.77564,33.82241],[132.78308,33.82656],[132.77527,33.83648],[132.77532,33.84172],[132.76522,33.84102],[132.76475,33.83938]],[[132.78332,33.8266],[132.77583,33.82231],[132.77739,33.81538],[132.78726,33.79389],[132.78681,33.78504],[132.78756,33.77293],[132.79034,33.75257],[132.79264,33.74446],[132.79574,33.74115]],[[132.92551,33.39057],[132.92876,33.39633],[132.92461,33.39957],[132.92453,33.40331],[132.92554,33.40583],[132.92496,33.4092],[132.92644,33.41312],[132.92911,33.41422],[132.9326,33.41721],[132.93249,33.4198],[132.93434,33.42097],[132.93486,33.42346],[132.93694,33.42503],[132.93956,33.43027],[132.94415,33.43135],[132.94784,33.43321],[132.94337,33.43853],[132.94331,33.44116],[132.94595,33.44299],[132.94388,33.44443],[132.94244,33.44806],[132.94024,33.44875],[132.94055,33.45122],[132.93783,33.4588],[132.93796,33.46254],[132.94392,33.48809],[132.94527,33.48965],[132.94786,33.49061],[132.94846,33.49208],[132.95324,33.49376],[132.95572,33.49609],[132.9549,33.49984],[132.9589,33.50325],[132.95941,33.50472],[132.95892,33.51071],[132.96266,33.51418],[132.9641,33.52007],[132.96573,33.52188],[132.96506,33.52376],[132.96603,33.52558],[132.96792,33.52654],[132.96907,33.52835],[132.97119,33.52909],[132.97021,33.53097],[132.97296,33.53042],[132.97629,33.53138],[132.97793,33.53012],[132.98058,33.5298],[132.98597,33.53049],[132.98738,33.52856],[132.99069,33.52732],[132.99368,33.5292],[132.99515,33.53134],[132.9969,33.53135],[132.99951,33.53275],[132.99816,33.53628],[132.99964,33.53749],[133.00245,33.53664],[133.00318,33.53821],[132.9995,33.54503],[132.99962,33.55101],[133.00296,33.5583],[133.00644,33.55961],[133.0084,33.55861],[133.00795,33.55714],[133.00634,33.55678],[133.00685,33.55933],[133.00397,33.56526],[133.00297,33.5714],[132.99741,33.57235],[132.99458,33.57476],[132.99473,33.5778],[132.99257,33.5806],[132.99206,33.58545],[132.99073,33.58823],[132.99274,33.5938],[132.99046,33.59943],[132.98562,33.60134],[132.98326,33.60387],[132.98301,33.6057],[132.98175,33.60725],[132.98293,33.61082],[132.98123,33.61351],[132.97708,33.61221],[132.97374,33.61461],[132.96879,33.61474],[132.96707,33.61616],[132.96719,33.61944],[132.96584,33.6209],[132.96363,33.61939],[132.96144,33.62104],[132.9603,33.62099],[132.95908,33.61709],[132.95773,33.61535],[132.94724,33.61718],[132.94166,33.61676],[132.94036,33.61941],[132.9384,33.62026],[132.93539,33.61793],[132.92841,33.61907],[132.92588,33.61809],[132.92193,33.61798],[132.91966,33.61954],[132.919,33.62396],[132.91708,33.6271],[132.91396,33.62882],[132.9133,33.63148],[132.91091,33.63216],[132.90969,33.63518],[132.91265,33.63605],[132.91286,33.63767],[132.9092,33.64077],[132.90808,33.64438],[132.90317,33.65006],[132.8998,33.65981],[132.89706,33.66539],[132.8949,33.66783],[132.89468,33.6698],[132.8938,33.67103],[132.89105,33.67229],[132.88932,33.67573],[132.88509,33.67956],[132.88083,33.68524],[132.88105,33.68812],[132.87753,33.69725],[132.8721,33.69857],[132.8427,33.70164],[132.83462,33.70462],[132.82508,33.70514],[132.82208,33.7078]],[[132.87753,33.69725],[132.87579,33.69908],[132.87773,33.70126],[132.87634,33.70386],[132.86712,33.70599],[132.86274,33.70841],[132.85914,33.70754],[132.85488,33.7046],[132.85214,33.70347],[132.85032,33.70363],[132.84951,33.70265],[132.84678,33.70419],[132.84319,33.7033],[132.84057,33.70522],[132.84392,33.70477],[132.8358,33.70709],[132.835,33.70862],[132.83309,33.70913],[132.83272,33.71029],[132.82859,33.71359],[132.82825,33.71445],[132.8292,33.7165],[132.83049,33.71711],[132.831,33.7185],[132.82954,33.72093],[132.81902,33.72505]],[[132.76462,33.83945],[132.76515,33.84115],[132.77544,33.84178],[132.77543,33.83638],[132.78308,33.82656]],[[132.8353,33.70444],[132.83832,33.70325]],[[132.83151,33.70472],[132.82482,33.70523]],[[132.77577,33.82245],[132.77583,33.82231]]]}}]}