{"type":"FeatureCollection","features":[{"type":"Feature","properties":{"route_id":"21","route_number":21,"name":"国道21号","source":"OpenStreetMap contributors (ODbL)","osm_relations":[905615,2180163,2180164,2180165,9039883]},"geometry":{"type":"MultiLineString","coordinates":[[[136.93844,35.40282],[136.93861,35.40776],[136.93844,35.40282],[136.92906,35.40308],[136.92375,35.40198],[136.9188,35.40287],[136.91636,35.40435],[136.90915,35.4048],[136.89763,35.40296],[136.88285,35.4026],[136.87336,35.39964],[136.8667,35.39948],[136.85985,35.39785],[136.84798,35.39688],[136.84231,35.39334],[136.82783,35.38996],[136.81799,35.39176],[136.81253,35.39037],[136.80322,35.39062],[136.79241,35.38817],[136.76631,35.38781],[136.74414,35.38878],[136.74066,35.38984],[136.73141,35.39538],[136.72901,35.39579],[136.72114,35.39472],[136.69316,35.38809],[136.65147,35.37349],[136.64393,35.37156],[136.64179,35.37196],[136.63531,35.37725],[136.63309,35.37819],[136.60005,35.37852],[136.59069,35.37738],[136.58912,35.37587],[136.58699,35.37076],[136.58377,35.36876],[136.55665,35.36719],[136.58382,35.36888],[136.5869,35.3708],[136.58899,35.3759],[136.59036,35.37731],[136.60003,35.37861],[136.63313,35.37829],[136.63539,35.37732],[136.64185,35.37204],[136.64405,35.37167],[136.65144,35.37357],[136.69309,35.3882],[136.72116,35.39486],[136.72919,35.39596],[136.73141,35.39556],[136.74074,35.38996],[136.74415,35.3889],[136.76635,35.3879],[136.79242,35.38825],[136.80318,35.3907],[136.81245,35.39047],[136.81826,35.39191],[136.82819,35.39017],[136.84226,35.39344],[136.84797,35.39697],[136.86001,35.39795],[136.86608,35.39951],[136.87337,35.39971],[136.88263,35.40265],[136.89789,35.40303],[136.90927,35.40487],[136.91644,35.40441],[136.91898,35.40289],[136.92399,35.40205],[136.92869,35.40316],[136.93849,35.40289]],[[136.27755,35.31662],[136.28294,35.32523],[136.29281,35.3311],[136.29643,35.33758],[136.29639,35.33943]],[[136.29625,35.3396],[136.29638,35.33704],[136.29334,35.33191]],[[136.4492,35.37121],[136.44939,35.37],[136.45019,35.36975],[136.45563,35.37236],[136.46019,35.373],[136.46528,35.36964],[136.46925,35.36866],[136.4734,35.36653],[136.48062,35.36609],[136.49002,35.36771],[136.49962,35.37282],[136.50204,35.37274],[136.50711,35.37078],[136.5004,35.36984],[136.49123,35.36611],[136.4772,35.36388],[136.46463,35.36044],[136.458,35.36062],[136.4487,35.35671],[136.44253,35.35031],[136.4279,35.34815],[136.42262,35.34904],[136.41861,35.34696],[136.41096,35.34558],[136.38738,35.33355],[136.37676,35.33294],[136.3609,35.33611],[136.35828,35.33597],[136.34134,35.32465],[136.33457,35.32182],[136.3287,35.32186],[136.3167,35.32533],[136.29971,35.32672]],[[136.29657,35.33946],[136.29987,35.33517],[136.29935,35.32863],[136.29991,35.32699]],[[137.07867,35.43215],[137.07527,35.43501],[137.07123,35.43634],[137.07448,35.43559],[137.07937,35.4317],[137.08269,35.43046],[137.1046,35.43034],[137.08403,35.43032]],[[137.1046,35.43034],[137.11603,35.42855],[137.12374,35.42638],[137.14642,35.42893],[137.13456,35.43235],[137.11941,35.43543],[137.09393,35.43921],[137.07529,35.43807],[137.07145,35.43721],[137.07123,35.43634],[137.05929,35.43418],[137.05204,35.43539],[137.04242,35.43392],[137.03759,35.44329],[137.03146,35.44771],[137.02348,35.44921],[137.01278,35.45008],[136.99523,35.44542],[136.98433,35.44652],[136.99522,35.44535],[137.01263,35.44997],[137.02346,35.44911],[137.03162,35.44759],[137.03747,35.44331],[137.04233,35.43381],[137.05205,35.4353],[137.05859,35.434],[137.07126,35.43625]],[[137.22334,35.36687],[137.22061,35.36781],[137.21411,35.36639],[137.20294,35.3682],[137.19297,35.36771],[137.19185,35.37083],[137.19286,35.37418],[137.19482,35.37637],[137.19301,35.37706],[137.19105,35.37568],[137.19023,35.37681],[137.19175,35.37995],[137.19496,35.37923],[137.19575,35.38016],[137.1904,35.38495],[137.19033,35.3873],[137.18818,35.39099],[137.18832,35.39427],[137.18743,35.39672],[137.1879,35.40759],[137.19401,35.41008],[137.19389,35.41172],[137.18941,35.41125],[137.18518,35.40963],[137.17998,35.41027],[137.1733,35.41429],[137.16863,35.41571],[137.16046,35.42519],[137.15142,35.42828],[137.14641,35.42899],[137.13057,35.42688],[137.12146,35.4268]],[[136.55665,35.36719],[136.53363,35.3655],[136.52015,35.37021],[136.51157,35.37143],[136.50711,35.37078]],[[136.98433,35.44652],[136.98092,35.44029],[136.97288,35.43433],[136.96829,35.42754],[136.96538,35.42573],[136.94461,35.41746],[136.9392,35.41288],[136.93861,35.40776]],[[137.22333,35.36677],[137.22049,35.36773],[137.21298,35.36635],[137.2025,35.36815],[137.19316,35.36728],[137.1917,35.37024],[137.19286,35.37418]],[[137.14713,35.42896],[137.14642,35.42893]]]}}]}