{"type":"FeatureCollection","features":[{"type":"Feature","properties":{"route_id":"345","route_number":345,"name":"国道345号","source":"OpenStreetMap contributors (ODbL)","osm_relations":[9145802,11135725,11135726,11135727]},"geometry":{"type":"MultiLineString","coordinates":[[[139.0563,37.91805],[139.06566,37.92618],[139.06951,37.93149],[139.0729,37.93327],[139.07203,37.93759],[139.08464,37.94187],[139.08987,37.94487],[139.102,37.94687],[139.10713,37.94596],[139.12167,37.94824],[139.12266,37.94282],[139.12612,37.93824],[139.13174,37.93485],[139.13485,37.93537],[139.13165,37.93472],[139.12605,37.93819],[139.12257,37.9427],[139.12167,37.94824]],[[139.20937,37.96516],[139.21273,37.95987],[139.21352,37.95716],[139.23139,37.96374],[139.21354,37.95706],[139.20937,37.96516],[139.20448,37.96396],[139.18962,37.95728],[139.17877,37.95338],[139.17086,37.95234],[139.1654,37.95017],[139.15889,37.95053],[139.15614,37.94502],[139.15449,37.94336],[139.13485,37.93537]],[[139.50061,38.46638],[139.5018,38.46879],[139.5037,38.47042],[139.50092,38.4675],[139.49631,38.45505],[139.48484,38.44447],[139.4846,38.44208],[139.48219,38.43952],[139.48271,38.43381],[139.48109,38.4304],[139.4724,38.42287],[139.47124,38.42005],[139.46846,38.41804],[139.4691,38.41594],[139.467,38.41328],[139.46747,38.41025],[139.46396,38.40563],[139.46267,38.40079],[139.4595,38.39821],[139.4562,38.38998],[139.45634,38.38855],[139.45811,38.38653],[139.45799,38.38429],[139.46013,38.38294],[139.4606,38.38116],[139.45926,38.37681],[139.455,38.37031],[139.45527,38.36867],[139.45134,38.36079],[139.45041,38.35664],[139.45182,38.35219],[139.45158,38.35031],[139.45278,38.34808],[139.45182,38.33939],[139.45299,38.33641],[139.45156,38.33213],[139.45151,38.32567],[139.4492,38.31911],[139.44885,38.31494],[139.45136,38.3093],[139.45068,38.30759],[139.44952,38.2874],[139.44818,38.2837],[139.44981,38.28036],[139.44961,38.27591],[139.44676,38.26831],[139.44723,38.26238],[139.44489,38.25675],[139.44553,38.25454],[139.44297,38.24636],[139.44555,38.24465],[139.45179,38.24397],[139.45409,38.24279],[139.45581,38.24073],[139.45881,38.23985],[139.4569,38.23469],[139.45682,38.23102],[139.46524,38.2247],[139.4564,38.2185],[139.4519,38.21728],[139.45125,38.21414],[139.45164,38.20998],[139.44777,38.20387],[139.4501,38.19471],[139.44963,38.18873],[139.44634,38.18518],[139.44138,38.17314],[139.4334,38.16817],[139.42714,38.15879],[139.42642,38.15294],[139.42346,38.14629],[139.42168,38.14579],[139.41261,38.14838],[139.405,38.14517],[139.39554,38.13162],[139.37849,38.1118],[139.37673,38.10537],[139.37384,38.10155],[139.36426,38.09346],[139.36044,38.09115],[139.35772,38.08606],[139.34911,38.07771],[139.34679,38.07444],[139.33248,38.06144],[139.31895,38.0511],[139.30815,38.04022],[139.30498,38.03939],[139.28871,38.02847],[139.28749,38.02651],[139.28632,38.02075],[139.28122,38.01563],[139.2802,38.01347],[139.271,38.00669],[139.25973,38.00059],[139.24448,37.99029],[139.24421,37.98914],[139.2454,37.98615],[139.25313,37.97142],[139.24408,37.98963],[139.25639,37.9985]],[[139.5037,38.47042],[139.50482,38.47221],[139.50453,38.47516],[139.50833,38.47861],[139.50826,38.48207],[139.51231,38.48501],[139.51164,38.48804],[139.51775,38.49185],[139.52192,38.49079],[139.5216,38.49989],[139.52254,38.5038],[139.53329,38.51825],[139.53596,38.5201],[139.53988,38.52537],[139.54222,38.53088],[139.54509,38.53329],[139.54942,38.53896],[139.55092,38.54258],[139.55005,38.54769],[139.55157,38.55425],[139.55771,38.55227],[139.56166,38.54892],[139.57827,38.54748],[139.5839,38.54829],[139.58887,38.54739],[139.59318,38.54417],[139.59745,38.54439],[139.5987,38.54262],[139.60104,38.54222],[139.6013,38.53964],[139.60717,38.53695],[139.61087,38.53803],[139.61531,38.5365],[139.6319,38.53625],[139.63457,38.53256],[139.63635,38.53221],[139.63689,38.53098],[139.63559,38.53039],[139.63734,38.52854],[139.63937,38.52959],[139.64236,38.52776],[139.64128,38.52646],[139.64139,38.52388],[139.64523,38.52162],[139.6458,38.52004],[139.64782,38.5193],[139.65305,38.51913],[139.65393,38.51971],[139.65562,38.51757],[139.65712,38.51866],[139.66147,38.51783],[139.66289,38.51679],[139.66853,38.51667],[139.67295,38.5149],[139.68236,38.51955],[139.6865,38.52598],[139.68518,38.52791],[139.68821,38.53639],[139.68783,38.5386],[139.68918,38.54119],[139.68836,38.54729],[139.68919,38.55205],[139.68822,38.55467],[139.689,38.55796],[139.68694,38.56262],[139.68727,38.56586],[139.69342,38.56653],[139.69722,38.56918],[139.69806,38.57269],[139.69988,38.57432],[139.69848,38.57727],[139.69957,38.57809],[139.7014,38.57793],[139.70067,38.58056],[139.70286,38.58128],[139.70478,38.58361],[139.70208,38.58926],[139.70343,38.5901],[139.70474,38.59256],[139.71353,38.59675],[139.7173,38.59761],[139.71961,38.59942],[139.71982,38.60082],[139.71762,38.60443],[139.71823,38.61269],[139.71561,38.61873],[139.7167,38.62337],[139.72037,38.62752],[139.73201,38.63531],[139.73622,38.64073],[139.7403,38.64959],[139.74008,38.65637],[139.74283,38.66327],[139.74309,38.66723],[139.74542,38.67107],[139.74461,38.67572],[139.74698,38.67855],[139.74859,38.68277],[139.75015,38.69347],[139.76404,38.69772],[139.77482,38.69569],[139.77808,38.69869],[139.78299,38.69946],[139.78994,38.70228],[139.79156,38.70389],[139.79195,38.7062],[139.79396,38.70898],[139.80365,38.71225],[139.80575,38.70666],[139.80821,38.70475],[139.81658,38.70406],[139.82866,38.70586],[139.83191,38.70518],[139.83548,38.70303],[139.844,38.70922],[139.84646,38.71304],[139.84776,38.72461],[139.84517,38.73236],[139.84511,38.73637],[139.85794,38.73698],[139.86966,38.73606],[139.87507,38.73807],[139.88547,38.75821],[139.90411,38.76162],[139.90706,38.76329],[139.90803,38.7651],[139.90994,38.77545],[139.91986,38.77596],[139.92578,38.77754],[139.92841,38.77915],[139.93631,38.78089],[139.9493,38.78176],[139.96203,38.78374],[139.96108,38.79728],[139.9636,38.79949],[139.96603,38.7987],[139.9719,38.79864],[139.97423,38.8027],[139.97825,38.81318],[139.98134,38.81756],[139.97725,38.82027],[139.9754,38.82542],[139.97059,38.83356],[139.96477,38.83825],[139.95597,38.84084],[139.95432,38.84209],[139.94621,38.85572],[139.94622,38.86421],[139.94513,38.86803],[139.94328,38.87081],[139.93744,38.87637],[139.93326,38.88482],[139.93352,38.89103],[139.93925,38.89897],[139.93835,38.90314],[139.93832,38.9157],[139.93548,38.9288],[139.93187,38.95229],[139.93354,38.96124],[139.93647,38.96424],[139.93775,38.9712],[139.93208,38.98254],[139.92809,38.98477],[139.92595,38.98927],[139.92152,38.99272],[139.92135,38.99661],[139.91879,39.00145],[139.91833,39.00488],[139.91634,39.00678],[139.91627,39.00868],[139.90044,39.00981],[139.90282,39.02305],[139.90667,39.03145],[139.90653,39.03364],[139.90507,39.03528],[139.90085,39.03744],[139.89955,39.04079],[139.89316,39.04602],[139.89176,39.04998],[139.88925,39.05283],[139.88477,39.05403],[139.87934,39.05318],[139.87775,39.0543],[139.87658,39.05701],[139.87425,39.05776],[139.87586,39.06422],[139.87792,39.06775],[139.878,39.06993],[139.87637,39.07267],[139.87131,39.07155],[139.86911,39.07308],[139.86936,39.07429],[139.87313,39.07778],[139.8736,39.08651],[139.87772,39.09033],[139.87984,39.09616],[139.87891,39.09911],[139.87963,39.10085]],[[139.24624,37.9691],[139.24718,37.96942],[139.23139,37.96374]],[[139.25313,37.97142],[139.24718,37.96942]],[[139.84526,38.73637],[139.84531,38.73181]]]}}]}