{"type":"FeatureCollection","features":[{"type":"Feature","properties":{"route_id":"421","route_number":421,"name":"国道421号","source":"OpenStreetMap contributors (ODbL)","osm_relations":[8319621]},"geometry":{"type":"MultiLineString","coordinates":[[[136.66223,35.06555],[136.66272,35.06624],[136.66267,35.06457],[136.66399,35.06273],[136.66934,35.05896],[136.66079,35.0657]],[[136.13122,35.1184],[136.13479,35.11734],[136.13997,35.11272],[136.15051,35.10885],[136.15311,35.10871],[136.1642,35.10389],[136.17874,35.10792],[136.18518,35.1068],[136.19257,35.10875],[136.19659,35.1078],[136.20556,35.10796],[136.20889,35.10683],[136.21919,35.10081],[136.24729,35.089],[136.28391,35.08045],[136.29763,35.07957],[136.30251,35.07678],[136.31096,35.07398],[136.31934,35.07909],[136.32529,35.07901],[136.33202,35.07718],[136.33418,35.07423],[136.33848,35.07264],[136.34172,35.07252],[136.34328,35.07122],[136.34529,35.07233],[136.34891,35.07238],[136.35029,35.0735],[136.35183,35.07639],[136.35151,35.07808],[136.3478,35.08161],[136.35158,35.08364],[136.35668,35.08489],[136.35699,35.08634],[136.35523,35.0883],[136.36027,35.0916],[136.36417,35.09868],[136.36867,35.10151],[136.36904,35.10328],[136.37073,35.1046],[136.37318,35.10435],[136.37335,35.10092],[136.37573,35.09518],[136.37813,35.09281],[136.38341,35.09065],[136.38891,35.09234],[136.39159,35.0949],[136.39434,35.09557],[136.39587,35.09704],[136.40298,35.09792],[136.40822,35.10052],[136.41584,35.09824],[136.45296,35.09961],[136.4639,35.09664],[136.46896,35.0985],[136.47236,35.10153],[136.47661,35.10269],[136.48121,35.10047],[136.48676,35.10156],[136.49004,35.10721],[136.49716,35.1095],[136.50394,35.1106],[136.51276,35.11028],[136.51823,35.10884],[136.52265,35.10904],[136.53118,35.10759],[136.53494,35.10791],[136.5368,35.10934]],[[136.54844,35.10179],[136.54617,35.10881],[136.54434,35.11133],[136.54589,35.10912],[136.54832,35.10175],[136.55247,35.10298],[136.55751,35.10575],[136.56073,35.10616],[136.56365,35.10499],[136.56917,35.10717],[136.57518,35.10635],[136.58195,35.10374],[136.59413,35.08956],[136.60522,35.08049],[136.60811,35.07573],[136.6119,35.07588],[136.62228,35.07178],[136.62523,35.06835],[136.63066,35.06545],[136.64758,35.06784],[136.66434,35.06519]],[[136.54434,35.11133],[136.53693,35.10947]],[[136.66485,35.06511],[136.64791,35.06777],[136.63553,35.06615]],[[136.66934,35.05896],[136.67259,35.05847],[136.6802,35.05934],[136.68451,35.05823]],[[136.34529,35.07233],[136.33976,35.07268]]]}}]}