{"type":"FeatureCollection","features":[{"type":"Feature","properties":{"route_id":"337","route_number":337,"name":"国道337号","source":"OpenStreetMap contributors (ODbL)","osm_relations":[6604292,6604372]},"geometry":{"type":"MultiLineString","coordinates":[[[141.72284,42.90994],[141.72063,42.90811],[141.72284,42.90994],[141.72656,42.91074],[141.72766,42.9158],[141.72644,42.91823],[141.7216,42.92228],[141.72217,42.94059],[141.7203,42.94159],[141.71932,42.9438],[141.71682,42.9457],[141.71487,42.94895],[141.71548,42.95074],[141.67113,42.96708],[141.69889,43.008],[141.65011,43.02603],[141.65161,43.02924],[141.65156,43.03179],[141.63587,43.04841],[141.65852,43.05988],[141.62238,43.09825],[141.59935,43.10163],[141.58594,43.11591],[141.5699,43.13069],[141.56744,43.13657],[141.56107,43.17924],[141.55931,43.1825],[141.55571,43.18495],[141.54924,43.186],[141.42835,43.17639],[141.4104,43.16858],[141.40593,43.16779],[141.39974,43.16902],[141.37912,43.1807],[141.37497,43.18187],[141.3318,43.17883],[141.32862,43.17962],[141.32248,43.18379],[141.31193,43.18564],[141.3084,43.18422],[141.29346,43.16919],[141.28047,43.15949],[141.27654,43.15877],[141.2498,43.16037],[141.23096,43.14683],[141.22852,43.1458],[141.18126,43.14398],[141.17943,43.1423],[141.1773,43.13494]],[[141.72063,42.90811],[141.70994,42.86221],[141.70868,42.85968],[141.70636,42.85819],[141.69389,42.85722],[141.68869,42.85291],[141.67987,42.8483],[141.6776,42.8439],[141.66658,42.84666],[141.66219,42.84019],[141.65986,42.83838],[141.65878,42.83518],[141.65268,42.82637],[141.6511,42.82773],[141.64345,42.82263]],[[141.17732,43.13511],[141.17929,43.14232],[141.1812,43.14406],[141.22846,43.1459],[141.23076,43.14686],[141.24978,43.16049],[141.27649,43.15889],[141.27978,43.15935],[141.29334,43.16926],[141.30833,43.18432],[141.31192,43.18576],[141.32263,43.18386],[141.32882,43.17973],[141.3315,43.17902],[141.37499,43.18196],[141.38017,43.18033],[141.39923,43.16938],[141.40517,43.16799],[141.4103,43.16876],[141.42821,43.17648],[141.55076,43.18611],[141.55679,43.18452],[141.56095,43.18018],[141.56428,43.16192],[141.56755,43.13667],[141.56892,43.13242],[141.57157,43.12904],[141.58965,43.11207]],[[141.68764,42.79697],[141.67929,42.80403],[141.68016,42.81444],[141.6894,42.82816],[141.6928,42.83905],[141.69452,42.84226],[141.71373,42.86523],[141.72422,42.89932],[141.72433,42.90309],[141.72345,42.90602],[141.71632,42.91475],[141.71527,42.91781],[141.71591,42.92436],[141.71489,42.92905],[141.71496,42.93772],[141.71359,42.94716],[141.71451,42.95036],[141.71859,42.95572],[141.71481,42.95065],[141.7137,42.94718],[141.71512,42.93771],[141.71502,42.92929],[141.71608,42.92435],[141.7154,42.9178],[141.71722,42.91369],[141.72321,42.90681],[141.72445,42.90312],[141.72443,42.89971],[141.71399,42.86545],[141.69403,42.8414],[141.68953,42.82812],[141.68013,42.81383],[141.67943,42.80401],[141.68744,42.79733]],[[141.71859,42.95572],[141.71948,42.9585],[141.718,42.96548],[141.72028,42.98787],[141.71727,42.99806],[141.71393,43.00121],[141.70831,43.01605],[141.70516,43.01848],[141.65483,43.03592],[141.65093,43.0382],[141.6369,43.05301],[141.63904,43.04996]],[[141.59935,43.10163],[141.60074,43.09826],[141.60101,43.09202],[141.60272,43.08868],[141.6369,43.05301],[141.64036,43.05063]]]}}]}