{"type":"FeatureCollection","features":[{"type":"Feature","properties":{"route_id":"317","route_number":317,"name":"国道317号","source":"OpenStreetMap contributors (ODbL)","osm_relations":[9841706,9842064,10716750,10716751,10716752,10716753,10716754]},"geometry":{"type":"MultiLineString","coordinates":[[[133.21458,34.41133],[133.21534,34.41176],[133.21864,34.41023],[133.21893,34.41332],[133.21801,34.41334],[133.21814,34.41116],[133.21527,34.40785],[133.2126,34.40689],[133.2121,34.40343],[133.20858,34.39935],[133.20588,34.39949],[133.20125,34.39697],[133.19586,34.39534],[133.19784,34.39084],[133.19835,34.38755],[133.19417,34.37849],[133.18941,34.37464],[133.1849,34.37282],[133.17621,34.37277],[133.17362,34.3742],[133.16495,34.3575],[133.17043,34.35558],[133.17663,34.34357],[133.17875,34.34141],[133.18188,34.34042],[133.18416,34.3387],[133.18448,34.337],[133.18294,34.33535],[133.17697,34.33332],[133.17236,34.32856],[133.17142,34.32657],[133.16756,34.32385],[133.16633,34.31941],[133.15951,34.31714],[133.15556,34.31382],[133.15263,34.31383],[133.15139,34.31307],[133.15281,34.30979],[133.15219,34.3067],[133.15647,34.29932],[133.14865,34.29854],[133.14924,34.29731],[133.1473,34.29355],[133.14546,34.28694],[133.13792,34.28301],[133.13503,34.28273],[133.13223,34.28037],[133.12901,34.28053],[133.12242,34.27932],[133.12064,34.27729],[133.11628,34.27581],[133.11385,34.27391],[133.11251,34.27162],[133.11303,34.26957],[133.11112,34.26794],[133.10722,34.26609],[133.10051,34.26482],[133.09465,34.25921],[133.08742,34.2581],[133.08405,34.25671],[133.07797,34.25764],[133.07233,34.26018],[133.06975,34.26224],[133.06738,34.26638],[133.06837,34.26958],[133.06825,34.27333],[133.06943,34.27665],[133.07298,34.27887],[133.07468,34.28111],[133.07293,34.28173],[133.04432,34.2659],[133.04251,34.26569],[133.04254,34.2634],[133.04504,34.26055],[133.05074,34.25783],[133.05366,34.25458],[133.05402,34.24718],[133.05153,34.24243],[133.05124,34.23641],[133.0523,34.2313],[133.05203,34.22823],[133.05436,34.22481],[133.0565,34.22339],[133.05745,34.22175],[133.05676,34.22072],[133.05817,34.22057],[133.05404,34.21703],[133.05299,34.21758],[133.05334,34.21629],[133.06536,34.22116],[133.06826,34.22082],[133.06729,34.21553],[133.06912,34.21302],[133.07137,34.21153],[133.07143,34.21018],[133.07318,34.20857],[133.07546,34.20433],[133.07724,34.19798],[133.08027,34.19463],[133.08316,34.19434],[133.08399,34.19568],[133.08966,34.19952],[133.09067,34.20148],[133.09546,34.20451],[133.09863,34.20439],[133.10642,34.20074],[133.1037,34.19937],[133.08948,34.18253],[133.07191,34.17311],[133.06799,34.16878],[133.06391,34.16631],[133.06385,34.16524],[133.06683,34.16361],[133.06714,34.16261],[133.06645,34.15927],[133.06345,34.15579],[133.05735,34.15187],[133.05522,34.14962],[133.05158,34.14894],[133.04394,34.14562],[133.04035,34.14078],[133.04095,34.13897],[133.04379,34.13634],[133.04318,34.13478],[133.02301,34.12677],[133.02061,34.12852],[133.01741,34.1263],[133.00643,34.1259],[132.99301,34.12352],[132.97236,34.11585],[132.96695,34.1062],[132.96774,34.10114],[132.97189,34.09833],[132.97361,34.09584],[132.98045,34.09124],[132.98459,34.08968],[132.99106,34.08337],[132.99161,34.08136],[132.99104,34.07322],[132.99779,34.0676],[132.99923,34.06556],[132.98183,34.04969],[132.9786,34.04431],[132.97001,34.03343],[132.96029,34.02758],[132.95207,34.0276],[132.94809,34.02646],[132.94258,34.02156],[132.93802,34.01241],[132.9376,34.00981],[132.93872,34.00501],[132.93793,34.00228],[132.93467,33.99779],[132.9312,33.99593],[132.9314,33.9941],[132.92848,33.99416],[132.92387,33.99657],[132.9217,33.99619],[132.9201,33.99449],[132.91541,33.99369],[132.91052,33.98815],[132.90821,33.98697],[132.90867,33.9841],[132.90487,33.98001],[132.90493,33.97802],[132.9026,33.97343],[132.90231,33.9707],[132.91023,33.9584],[132.90881,33.95653],[132.91144,33.95595],[132.91152,33.9544],[132.90012,33.93189],[132.89503,33.92939],[132.88945,33.92394],[132.88645,33.9229],[132.88509,33.91752],[132.88285,33.91676],[132.88294,33.91482],[132.88049,33.91458],[132.87821,33.91144],[132.87599,33.9108],[132.87594,33.90836],[132.87395,33.90641],[132.8756,33.90546],[132.87558,33.90469],[132.87112,33.903],[132.87078,33.90068],[132.86973,33.89999],[132.87103,33.90032],[132.87283,33.90286],[132.87594,33.90374],[132.87633,33.90479],[132.8756,33.90546]],[[132.84778,33.89593],[132.85252,33.89739],[132.85131,33.89767],[132.85146,33.89978],[132.84871,33.89803],[132.84862,33.89634],[132.84467,33.89643],[132.84212,33.89307],[132.84067,33.89308],[132.83937,33.89222],[132.83906,33.89093],[132.83773,33.8911],[132.83558,33.88966],[132.8366,33.88752],[132.83464,33.88548],[132.83663,33.88495],[132.83522,33.88301],[132.83683,33.88253],[132.83755,33.88094],[132.83564,33.87864],[132.83615,33.87671],[132.83483,33.87515],[132.83225,33.87435],[132.83265,33.87307],[132.83084,33.87274],[132.82987,33.87055],[132.8277,33.86906],[132.82632,33.86673],[132.82097,33.86338],[132.81796,33.8631],[132.81389,33.85975],[132.81044,33.85573],[132.80889,33.85161],[132.80642,33.85036],[132.80321,33.85038],[132.80185,33.8491],[132.79989,33.84897],[132.79843,33.84705],[132.79677,33.84677],[132.79713,33.84558],[132.78572,33.84046],[132.78561,33.84134],[132.77544,33.84178]],[[132.99152,34.08235],[132.98463,34.08954],[132.98039,34.09116],[132.97513,34.09509]],[[133.21728,34.41066],[133.21478,34.41131]],[[133.21805,34.41237],[133.21808,34.41361],[133.21902,34.41354],[133.21895,34.41282]],[[132.83094,33.86952],[132.83189,33.8694],[132.83162,33.8716],[132.8338,33.87267],[132.83361,33.87383],[132.83573,33.87328],[132.838,33.876],[132.83958,33.87563],[132.83916,33.8767],[132.84103,33.8771],[132.8389,33.87854]],[[132.86973,33.89999],[132.86303,33.89873],[132.85967,33.89696],[132.85714,33.89696],[132.85619,33.89828],[132.85252,33.89739]],[[132.83057,33.8719],[132.83108,33.86962],[132.82989,33.86863],[132.82824,33.86937]],[[132.99785,34.06748],[132.99146,34.0728]]]}}]}