{"type":"FeatureCollection","features":[{"type":"Feature","properties":{"route_id":"411","route_number":411,"name":"国道411号","source":"OpenStreetMap contributors (ODbL)","osm_relations":[8855535,14196131,14196133]},"geometry":{"type":"MultiLineString","coordinates":[[[139.28429,35.71513],[139.28407,35.71618],[139.28524,35.71819],[139.28429,35.71513],[139.2896,35.71406],[139.29024,35.7097],[139.30836,35.70468],[139.32653,35.69666],[139.34716,35.6855]],[[139.28524,35.71819],[139.28936,35.72901],[139.29023,35.73729],[139.29065,35.74357],[139.2899,35.74776],[139.29047,35.74958],[139.28876,35.75431],[139.29302,35.75881],[139.29409,35.76358],[139.29358,35.76525],[139.29477,35.76681],[139.29424,35.76925],[139.29211,35.77121],[139.2872,35.77191],[139.26561,35.78228],[139.26098,35.78297],[139.25857,35.78238],[139.25242,35.78269],[139.24855,35.78396],[139.24965,35.78565],[139.24878,35.78434]],[[138.56744,35.66169],[138.57871,35.65978],[138.57924,35.66106],[138.58901,35.65905],[138.60251,35.65768],[138.60923,35.65476],[138.63946,35.65006],[138.64455,35.65059],[138.6571,35.65731],[138.6583,35.65587],[138.66363,35.65907],[138.67711,35.65992],[138.6791,35.66294],[138.68565,35.66202],[138.69499,35.665],[138.70575,35.66413],[138.70908,35.66442],[138.71423,35.6662],[138.71674,35.67537],[138.71861,35.67815],[138.71988,35.68243],[138.72493,35.68755],[138.72894,35.68952],[138.73807,35.70224],[138.739,35.70623],[138.73838,35.71512],[138.73957,35.71731],[138.74697,35.72071],[138.75245,35.72217],[138.75757,35.72624],[138.7687,35.7283],[138.77069,35.73034],[138.77295,35.73121],[138.77675,35.73105],[138.78579,35.73358],[138.79139,35.73253],[138.79589,35.73398],[138.79409,35.73451],[138.79704,35.73505],[138.79977,35.7379],[138.80192,35.73864],[138.80269,35.74023],[138.80109,35.74009],[138.80538,35.74167],[138.80763,35.74396],[138.80861,35.74327],[138.80742,35.74153],[138.80861,35.74136],[138.80948,35.74372],[138.8082,35.74608],[138.80898,35.74782],[138.8064,35.74906],[138.80791,35.75215],[138.80881,35.75181],[138.80871,35.75016],[138.80992,35.75018],[138.81072,35.7532],[138.80774,35.75435],[138.8084,35.75844],[138.80542,35.75834],[138.80564,35.76004],[138.80715,35.76153],[138.8068,35.76285],[138.80476,35.76306],[138.80333,35.76421],[138.80404,35.76557],[138.80567,35.76595],[138.80589,35.767],[138.80353,35.76811],[138.8034,35.76976],[138.80621,35.76897],[138.80506,35.76898],[138.80376,35.77171],[138.80413,35.77274],[138.80548,35.7717],[138.80445,35.77151],[138.80445,35.77414],[138.80141,35.77836],[138.80142,35.78084],[138.80219,35.78202],[138.80102,35.78301],[138.79942,35.78797],[138.8007,35.78918],[138.80177,35.78905],[138.80216,35.79048],[138.80269,35.78987],[138.80421,35.79087],[138.80515,35.7927],[138.80449,35.79399],[138.80657,35.79478],[138.80656,35.79409],[138.80918,35.79545],[138.81122,35.79787],[138.81273,35.79759],[138.82038,35.80061],[138.82906,35.80653],[138.83567,35.80528],[138.83705,35.80606],[138.84043,35.80598],[138.84492,35.80428],[138.84606,35.80574],[138.84857,35.80561],[138.85159,35.80373],[138.85205,35.80249],[138.85349,35.80363],[138.85391,35.80672],[138.85449,35.80519],[138.85899,35.80709],[138.86321,35.80642],[138.86459,35.80496],[138.86582,35.79567],[138.86748,35.7949],[138.87156,35.79607],[138.8721,35.79797],[138.87528,35.79917],[138.87758,35.79879],[138.88374,35.79506],[138.8892,35.79539],[138.89518,35.79797],[138.90163,35.79423],[138.91024,35.79544],[138.91462,35.79414],[138.91704,35.79179],[138.92301,35.7908],[138.92804,35.78795],[138.93254,35.78901],[138.93533,35.78807],[138.93686,35.7895],[138.93957,35.78853],[138.94188,35.78903],[138.94449,35.78848],[138.94809,35.78585],[138.95197,35.78703],[138.95368,35.78624],[138.95569,35.78768],[138.95793,35.78527],[138.95945,35.78565],[138.95926,35.78816],[138.96102,35.78831],[138.96275,35.78734],[138.96459,35.78821],[138.9658,35.78609],[138.96986,35.78508],[138.97146,35.7834],[138.97651,35.78443],[138.97766,35.78196],[138.98101,35.77903],[138.98348,35.77915],[138.98574,35.78095],[138.98708,35.78096],[138.99057,35.77768],[138.99137,35.77594],[138.9937,35.77589],[138.99519,35.77706],[138.99855,35.77787],[139.00196,35.77466],[139.00286,35.77562],[139.00279,35.77733],[139.00451,35.77864],[139.00966,35.77921],[139.01521,35.77762],[139.01609,35.77833],[139.01615,35.78003],[139.01776,35.78092],[139.02081,35.78167],[139.02504,35.78113],[139.03367,35.78487],[139.03415,35.78568],[139.03504,35.78243],[139.03953,35.7843],[139.044,35.78351],[139.04461,35.78409],[139.04423,35.78533],[139.04254,35.78668],[139.04546,35.78791],[139.04245,35.78992],[139.04696,35.79425],[139.05034,35.79364],[139.05729,35.79431],[139.05833,35.79307],[139.05967,35.79421],[139.06545,35.79488],[139.07298,35.79372],[139.07429,35.7957],[139.07772,35.7978],[139.08173,35.79942],[139.08429,35.79888],[139.08548,35.80177],[139.08919,35.80076],[139.0913,35.80145],[139.09219,35.80375],[139.09717,35.80826],[139.10183,35.80749],[139.10356,35.80361],[139.10578,35.80215],[139.10969,35.8043],[139.11564,35.81183],[139.11717,35.81265],[139.12335,35.81201],[139.13079,35.81574],[139.13358,35.81339],[139.13534,35.81479],[139.13923,35.81586],[139.14271,35.81589],[139.14655,35.8145],[139.14913,35.81577],[139.15363,35.81586],[139.15461,35.81551],[139.15571,35.81209],[139.15917,35.80956],[139.16114,35.80956],[139.16213,35.81234],[139.16429,35.81344],[139.16831,35.81073],[139.17098,35.80617],[139.17438,35.80789],[139.17669,35.80737],[139.17734,35.80624],[139.17652,35.80218],[139.1775,35.80092],[139.18428,35.80147],[139.18594,35.80456],[139.18816,35.80589],[139.19494,35.8043],[139.2125,35.80684],[139.22406,35.7963],[139.22592,35.79541],[139.22779,35.79291],[139.22908,35.78879],[139.23347,35.78324],[139.23591,35.78374],[139.23675,35.78696],[139.24088,35.78941],[139.24817,35.79064],[139.25503,35.78992],[139.25427,35.7875],[139.24965,35.78565]],[[138.58272,35.65654],[138.61354,35.65231],[138.58271,35.65648]]]}}]}