{"type":"FeatureCollection","features":[{"type":"Feature","properties":{"route_id":"257","route_number":257,"name":"国道257号","source":"OpenStreetMap contributors (ODbL)","osm_relations":[3521034,10279135,10279136,10279138,10279139]},"geometry":{"type":"MultiLineString","coordinates":[[[137.48337,35.47777],[137.48478,35.4794],[137.48854,35.49054],[137.4896,35.49167],[137.48278,35.49363],[137.47985,35.49621],[137.47874,35.49924],[137.47929,35.50212],[137.47746,35.50546],[137.47531,35.50743],[137.474,35.51041],[137.47639,35.51436],[137.47607,35.51982],[137.47406,35.52245],[137.47138,35.52353],[137.46694,35.527],[137.46057,35.53051],[137.45651,35.53098],[137.45411,35.53344],[137.45065,35.53472],[137.44815,35.53809],[137.44842,35.54367],[137.44677,35.54675],[137.44921,35.55922],[137.45135,35.56167],[137.45878,35.57774],[137.45845,35.58283],[137.46187,35.58701],[137.46261,35.59062],[137.46151,35.59582],[137.46439,35.59979],[137.46375,35.60584],[137.46296,35.6073],[137.45982,35.60901],[137.45921,35.61426],[137.46288,35.61991],[137.45855,35.62745],[137.44676,35.63453],[137.44545,35.63653],[137.44529,35.63897],[137.43652,35.64883],[137.43404,35.65555],[137.43123,35.65968],[137.42613,35.66441],[137.42467,35.66682],[137.41854,35.67133],[137.41575,35.67606],[137.41222,35.67793],[137.41138,35.68163],[137.40651,35.68344],[137.39835,35.68501],[137.39257,35.68939],[137.38691,35.69076],[137.38112,35.69386],[137.3808,35.69934],[137.37724,35.70363],[137.37645,35.70758],[137.36148,35.71984],[137.35728,35.72181],[137.35499,35.7243],[137.35082,35.72637],[137.3392,35.74315],[137.33096,35.74562],[137.32784,35.7522],[137.32755,35.7564],[137.32222,35.76065],[137.32199,35.76406],[137.32063,35.76409],[137.31902,35.76228],[137.31457,35.76164],[137.30377,35.7575],[137.2996,35.75841],[137.28379,35.76801],[137.27601,35.77088],[137.2702,35.77083],[137.25971,35.76929],[137.25882,35.77105],[137.2529,35.77645],[137.25422,35.77956],[137.25371,35.78169],[137.2563,35.79056],[137.25782,35.7932],[137.25724,35.79821],[137.25082,35.80278],[137.24701,35.80754],[137.2401,35.82337],[137.23461,35.82828],[137.23203,35.83462],[137.23151,35.8404],[137.22509,35.84661],[137.22276,35.85194],[137.2239,35.85721],[137.22306,35.85985],[137.22367,35.86077],[137.21817,35.86086],[137.21684,35.86357],[137.21147,35.86525],[137.20411,35.87184],[137.20286,35.87521],[137.20293,35.87972],[137.20234,35.88021],[137.20162,35.87982],[137.20217,35.87854],[137.20097,35.87691],[137.20074,35.87376],[137.19856,35.87127],[137.19641,35.87037],[137.19611,35.86888],[137.18385,35.86635],[137.18,35.86649],[137.17629,35.86982],[137.17637,35.87802],[137.17428,35.88157],[137.17511,35.88376],[137.17365,35.88827],[137.16806,35.88884],[137.16682,35.89096],[137.1639,35.89251],[137.15645,35.89333],[137.15496,35.89527],[137.1516,35.89693],[137.15006,35.89899],[137.15012,35.90235],[137.14871,35.90584],[137.14594,35.90837],[137.14346,35.91221],[137.13803,35.91561],[137.13426,35.91613],[137.13262,35.91948],[137.13019,35.92135],[137.13118,35.92463],[137.13299,35.91878]],[[137.48354,35.47786],[137.47123,35.4704],[137.46753,35.46895],[137.46178,35.46453],[137.44072,35.4592],[137.43446,35.45488],[137.43083,35.45475],[137.42831,35.45333],[137.42508,35.45293],[137.42012,35.44949],[137.41292,35.44679],[137.4146,35.4436],[137.41905,35.43981],[137.42081,35.43636],[137.4279,35.43074],[137.42975,35.43059],[137.43036,35.43344],[137.43207,35.43354],[137.43227,35.43251],[137.43075,35.4297],[137.43589,35.42354],[137.43572,35.4219],[137.43106,35.41536],[137.42983,35.41207],[137.43024,35.41077],[137.43354,35.40831],[137.43403,35.40589],[137.43238,35.40351],[137.43607,35.38966],[137.43252,35.38488],[137.43162,35.37978],[137.43265,35.37531],[137.43112,35.36666],[137.43822,35.36375],[137.44145,35.36414],[137.44516,35.36306],[137.4464,35.36147],[137.44662,35.35915],[137.44928,35.35588],[137.45285,35.3576],[137.45695,35.35656],[137.45849,35.34872],[137.45878,35.33647],[137.46266,35.33357],[137.46604,35.32879],[137.47365,35.32214],[137.47647,35.31821],[137.47888,35.31818],[137.48159,35.31376],[137.488,35.31125],[137.48933,35.30905],[137.48939,35.30738],[137.48832,35.30618],[137.48864,35.30145],[137.48535,35.29645],[137.48596,35.29094],[137.48312,35.28766],[137.4791,35.28776],[137.47425,35.28585],[137.47265,35.28064],[137.47352,35.27654],[137.47561,35.27514],[137.47667,35.27233],[137.47915,35.27152],[137.48177,35.26936],[137.48538,35.26852],[137.48707,35.26701],[137.48713,35.26438],[137.48956,35.26112],[137.48882,35.25901],[137.48536,35.25594],[137.48623,35.25233],[137.48411,35.24939],[137.48935,35.24422],[137.49275,35.24303],[137.49234,35.24049],[137.49318,35.23752],[137.49679,35.23623],[137.50145,35.23203],[137.50569,35.23192],[137.50832,35.23031],[137.51027,35.23181],[137.51152,35.23179],[137.51635,35.22658],[137.51507,35.2245],[137.51662,35.22346],[137.51609,35.22147],[137.51078,35.2202],[137.50793,35.21764],[137.50906,35.21497],[137.50846,35.21057],[137.51235,35.20884],[137.51502,35.20581],[137.51734,35.20467],[137.51856,35.20253],[137.51818,35.20028],[137.51949,35.19925],[137.51754,35.19688],[137.5177,35.18702],[137.51374,35.17834],[137.51409,35.17471],[137.51586,35.1735],[137.52547,35.17505],[137.52836,35.17478],[137.53444,35.17347],[137.53918,35.16982],[137.53639,35.15399],[137.54562,35.14426],[137.55523,35.13901],[137.55653,35.13535],[137.56146,35.13038],[137.55911,35.12567],[137.55583,35.1219],[137.55344,35.12176],[137.55341,35.12065],[137.55116,35.1191],[137.55137,35.11739],[137.55255,35.11706],[137.55233,35.11561],[137.5531,35.11492],[137.5521,35.11385],[137.55323,35.11328],[137.55216,35.11254],[137.55368,35.11315],[137.55353,35.11413],[137.55483,35.11437],[137.55538,35.11561],[137.5577,35.11327],[137.55977,35.11323],[137.55759,35.11252],[137.56383,35.11166],[137.56652,35.11014],[137.56851,35.11],[137.56975,35.10783],[137.57311,35.10659],[137.57442,35.10483],[137.5787,35.10467],[137.57748,35.10371],[137.57743,35.1016],[137.57661,35.10327],[137.57571,35.10333],[137.5742,35.09895],[137.5707,35.09782],[137.56899,35.09594],[137.56952,35.09426],[137.57281,35.09044],[137.57269,35.08916],[137.57054,35.08669],[137.57048,35.08481],[137.56931,35.08518],[137.56853,35.08287],[137.56602,35.08112],[137.56137,35.08115],[137.55863,35.07943],[137.55736,35.0772],[137.55839,35.07508],[137.5577,35.07031],[137.55407,35.06785],[137.55253,35.0656],[137.5493,35.06378],[137.5418,35.06473],[137.53726,35.06395],[137.53793,35.06127],[137.53613,35.0588],[137.53857,35.05746],[137.53982,35.05306],[137.53444,35.05214],[137.53172,35.04309],[137.52841,35.04225],[137.52812,35.03781],[137.52543,35.03577],[137.52476,35.03358],[137.52102,35.03131],[137.52141,35.02895],[137.52416,35.02631],[137.51912,35.02385],[137.51722,35.02147],[137.51997,35.01277],[137.52439,35.00767],[137.52361,35.00261],[137.52517,34.99901],[137.52469,34.99827],[137.51899,34.99771],[137.51911,34.99356],[137.52444,34.98849],[137.5269,34.98397],[137.52797,34.98378],[137.5289,34.98476],[137.52782,34.98693],[137.52894,34.98767],[137.52869,34.98944],[137.52983,34.99108],[137.53129,34.99139],[137.53406,34.99046],[137.53498,34.98713],[137.53417,34.98371],[137.53534,34.98201],[137.5417,34.98151],[137.543,34.98103],[137.54425,34.97873],[137.54621,34.97925],[137.54954,34.97868],[137.55159,34.97724],[137.55013,34.97518],[137.55043,34.9727],[137.55352,34.96896],[137.55455,34.96596],[137.55337,34.96402],[137.55015,34.9623],[137.55011,34.95669],[137.5455,34.94761],[137.54815,34.93889],[137.5517,34.93091],[137.5522,34.9282],[137.55138,34.92533],[137.55511,34.9245],[137.56064,34.92455],[137.56556,34.9286],[137.57345,34.93338],[137.57681,34.9341],[137.57857,34.92871],[137.58247,34.92935],[137.58347,34.92793],[137.58275,34.92625],[137.58729,34.92672],[137.58858,34.92586],[137.58882,34.92386],[137.59173,34.92368],[137.59309,34.9224],[137.59633,34.92393],[137.59755,34.92378],[137.60634,34.91224],[137.60485,34.90856],[137.60464,34.90618],[137.60548,34.90518],[137.61268,34.9025],[137.627,34.89469],[137.63205,34.89424],[137.63987,34.8967],[137.64628,34.89703],[137.64777,34.8963],[137.65009,34.89253],[137.65392,34.88928],[137.65576,34.88578],[137.655,34.88213],[137.65545,34.88038],[137.65251,34.87812],[137.65451,34.87552],[137.65266,34.87431],[137.65185,34.87253],[137.65365,34.86814],[137.65482,34.86739],[137.6591,34.86736],[137.65901,34.86435],[137.66022,34.86246],[137.66215,34.86142],[137.66301,34.85985],[137.66877,34.85793],[137.67172,34.85406],[137.66977,34.84773],[137.67153,34.84428],[137.67173,34.84033],[137.67454,34.83728],[137.67532,34.82562],[137.67444,34.82282],[137.6754,34.81692]],[[137.72842,34.70523],[137.72757,34.70803],[137.72874,34.70347],[137.72594,34.69774],[137.72105,34.69598],[137.71237,34.68808],[137.6989,34.6886],[137.67495,34.68782],[137.67198,34.68675],[137.6677,34.68292],[137.6634,34.68065]],[[137.72757,34.70803],[137.72453,34.70818],[137.72151,34.70948],[137.7219,34.71134],[137.72075,34.71654],[137.71827,34.71954],[137.72028,34.72836],[137.72378,34.73525],[137.72422,34.74793],[137.7206,34.76276],[137.71032,34.77995],[137.72978,34.78011],[137.72752,34.75009]],[[136.99372,36.02872],[137.00407,36.0295],[137.00904,36.0282],[137.01244,36.02443],[137.01832,36.0239],[137.02084,36.02206],[137.02116,36.0195],[137.02344,36.01719],[137.02489,36.01367],[137.029,36.01311],[137.03049,36.01114],[137.03376,36.00923],[137.03848,36.00927],[137.04112,36.00699],[137.04334,36.00741],[137.04285,36.00694],[137.04613,36.0067],[137.04814,36.00729],[137.05322,36.00642],[137.05428,36.00701],[137.05752,36.00226],[137.05835,36.00219],[137.05892,35.99995],[137.06105,35.99932],[137.06169,35.9949],[137.06835,35.98802],[137.07019,35.98709],[137.08019,35.9865],[137.08197,35.98577],[137.08436,35.98291],[137.08396,35.97878],[137.08545,35.97651],[137.08546,35.97444],[137.08335,35.96874],[137.08361,35.96484],[137.08569,35.96058],[137.08453,35.95675],[137.08579,35.95174],[137.08336,35.94471],[137.08948,35.94253],[137.0933,35.94298],[137.0967,35.94657],[137.10477,35.94911],[137.10805,35.94935],[137.11402,35.95474],[137.11622,35.9556],[137.12738,35.95635],[137.13422,35.95474],[137.13442,35.95342],[137.13209,35.94974],[137.13396,35.94679],[137.13341,35.94487],[137.13481,35.94376],[137.13607,35.94083],[137.13375,35.93745],[137.13172,35.93206],[137.13197,35.92671],[137.13118,35.92463]],[[137.72742,34.75009],[137.72965,34.78002],[137.71034,34.77987]],[[137.71032,34.77995],[137.69696,34.80207],[137.69208,34.80527],[137.68842,34.8063],[137.68557,34.8098],[137.68408,34.8171]],[[137.66325,34.68065],[137.6647,34.68143]],[[137.72105,34.69598],[137.72553,34.69752],[137.727,34.69989]],[[137.41292,35.44679],[137.41936,35.44923],[137.42503,35.45299],[137.42827,35.45342],[137.43085,35.45485],[137.43426,35.45488],[137.44051,35.45922],[137.46193,35.46468],[137.46734,35.46895],[137.471,35.47038],[137.48339,35.47787]],[[137.05838,36.00424],[137.05636,36.00476],[137.05444,36.00671],[137.05211,36.00587],[137.0447,36.00667],[137.02639,36.01048],[137.02519,36.01162],[137.02447,36.01492]],[[137.02386,36.01598],[137.02215,36.01727],[137.02116,36.0195]],[[137.02087,36.02086],[137.01965,36.02235]],[[137.01718,36.02398],[137.01841,36.0234]],[[137.00424,36.02923],[136.99773,36.0292]],[[137.13481,35.94376],[137.1363,35.95248],[137.13422,35.95474]]]}}]}