{"type":"FeatureCollection","features":[{"type":"Feature","properties":{"route_id":"260","route_number":260,"name":"国道260号","source":"OpenStreetMap contributors (ODbL)","osm_relations":[8253539,8255454,10110998,10111103,10281351,10281352,10281353]},"geometry":{"type":"MultiLineString","coordinates":[[[136.81879,34.30744],[136.81853,34.30799],[136.81933,34.3084],[136.82511,34.31041],[136.82524,34.31319],[136.82671,34.31477],[136.82862,34.31926],[136.82809,34.32301],[136.82237,34.32846],[136.83111,34.32945],[136.83869,34.33207],[136.84334,34.32944],[136.84686,34.3257],[136.84977,34.32101],[136.85291,34.31996],[136.8602,34.31375],[136.86336,34.31311],[136.87176,34.30798],[136.87607,34.30292],[136.87532,34.29996],[136.87562,34.29744],[136.88042,34.29445],[136.88249,34.29146],[136.88366,34.28703],[136.8796,34.27898],[136.87386,34.27428],[136.87028,34.27396],[136.86904,34.27312],[136.86826,34.27115],[136.86837,34.26647],[136.86677,34.26431],[136.85987,34.26282],[136.85646,34.26418],[136.85115,34.26417],[136.84507,34.2617],[136.83649,34.25998],[136.83218,34.2605],[136.82637,34.26288],[136.81723,34.26401],[136.80866,34.26815],[136.79604,34.26903],[136.78929,34.27076],[136.78529,34.27036],[136.77875,34.2735],[136.77574,34.27382],[136.76982,34.27724],[136.76841,34.29248],[136.76627,34.29569],[136.76325,34.29589],[136.76071,34.29453],[136.75557,34.29589],[136.75067,34.29505],[136.74775,34.29593],[136.74493,34.29851],[136.74173,34.29966],[136.7395,34.30204],[136.72528,34.3066],[136.7236,34.30682],[136.71579,34.3043],[136.70034,34.2944],[136.69226,34.2965],[136.69093,34.29998],[136.68924,34.30144],[136.69036,34.30593],[136.69708,34.30744],[136.70612,34.31149],[136.71402,34.31339],[136.71518,34.31499],[136.71746,34.32598],[136.71955,34.32792],[136.72103,34.33136],[136.728,34.33259],[136.73017,34.33396],[136.72557,34.33764],[136.72706,34.34327],[136.72612,34.34382],[136.72297,34.34489],[136.71546,34.34542],[136.71378,34.34711],[136.70967,34.34898],[136.69854,34.34961],[136.69231,34.34854],[136.68763,34.34651],[136.68384,34.34676],[136.6813,34.34504],[136.68105,34.34388],[136.67932,34.34318],[136.67569,34.34417],[136.66889,34.34423],[136.66506,34.34586],[136.6621,34.3458],[136.6579,34.34215],[136.65217,34.346],[136.64366,34.34616],[136.64137,34.3439],[136.64127,34.34194],[136.63983,34.34042],[136.62948,34.33537],[136.62919,34.33104],[136.62974,34.33022],[136.63595,34.32738],[136.6415,34.32649],[136.64591,34.32422],[136.64608,34.32221],[136.64977,34.32228],[136.65074,34.32061],[136.64929,34.31954],[136.64938,34.31784],[136.64542,34.31686],[136.64495,34.31541],[136.642,34.31275],[136.63897,34.31318],[136.63716,34.31243],[136.63586,34.30633],[136.63868,34.29885],[136.63799,34.29746],[136.63521,34.29601],[136.62839,34.29501],[136.6192,34.29623],[136.61603,34.29589],[136.61415,34.29834],[136.60549,34.30119],[136.60249,34.29831],[136.60201,34.2955],[136.60081,34.29444],[136.59099,34.29797],[136.57896,34.29429],[136.57582,34.29251],[136.57375,34.29244],[136.57014,34.28895],[136.56887,34.28912],[136.56821,34.29078],[136.55537,34.28494],[136.54987,34.28479],[136.5467,34.28282],[136.55036,34.28342],[136.55264,34.28177],[136.55402,34.28141],[136.55474,34.28201],[136.55561,34.28118],[136.55893,34.28636]],[[136.34783,34.21836],[136.35446,34.21406],[136.35515,34.21219],[136.353,34.20978],[136.35352,34.20919],[136.35711,34.20946],[136.36396,34.21169],[136.36552,34.21394],[136.37685,34.21741],[136.37603,34.21858],[136.37746,34.2193],[136.38289,34.21808],[136.38396,34.21866],[136.38586,34.21732],[136.38695,34.21792],[136.3866,34.21914],[136.38743,34.21984],[136.39205,34.2217],[136.39313,34.21921],[136.39457,34.21973],[136.39559,34.21919],[136.39658,34.22016],[136.39588,34.22147],[136.39635,34.2229],[136.39415,34.22498],[136.39438,34.22682],[136.39357,34.22853],[136.39588,34.23052],[136.40015,34.2367],[136.3984,34.24086],[136.39909,34.24311],[136.40166,34.24526],[136.40402,34.25008],[136.40595,34.25102],[136.42957,34.2529],[136.43144,34.25109],[136.43454,34.25025],[136.43743,34.25104],[136.44195,34.24834],[136.45125,34.25092],[136.45491,34.25671],[136.45683,34.25836],[136.45928,34.25829],[136.46322,34.25656],[136.46866,34.25721],[136.4717,34.25616],[136.4755,34.25845],[136.4807,34.2587],[136.48232,34.2614],[136.48849,34.26317],[136.48835,34.26766],[136.49187,34.27406],[136.49261,34.27702],[136.49743,34.27928],[136.50107,34.2794],[136.50417,34.27828],[136.50585,34.27917],[136.51105,34.27948],[136.5116,34.28026],[136.51108,34.28412],[136.51418,34.28634],[136.51921,34.28752],[136.51856,34.29129],[136.5196,34.29213],[136.52314,34.29314],[136.52498,34.29201],[136.53112,34.29256],[136.53481,34.29055],[136.53479,34.28895],[136.53569,34.28877],[136.53598,34.28741],[136.53726,34.28651],[136.5363,34.28552],[136.53872,34.28544],[136.54037,34.28409],[136.5467,34.28282]]]}}]}