{"type":"FeatureCollection","features":[{"type":"Feature","properties":{"route_id":"487","route_number":487,"name":"国道487号","source":"OpenStreetMap contributors (ODbL)","osm_relations":[1633454,5525014]},"geometry":{"type":"MultiLineString","coordinates":[[[132.42894,34.24515],[132.43419,34.23768],[132.43479,34.23539],[132.43643,34.23411],[132.43622,34.2307],[132.43829,34.22587],[132.44421,34.22264],[132.44205,34.21839],[132.44242,34.21498],[132.44131,34.20785],[132.43912,34.20281],[132.43952,34.2006],[132.44164,34.19843],[132.44325,34.19521],[132.44447,34.18985],[132.44642,34.18849],[132.4476,34.18456],[132.44883,34.18403],[132.45283,34.18501],[132.45725,34.17793],[132.45742,34.17591],[132.46688,34.17164],[132.46775,34.16991],[132.4701,34.16947],[132.47194,34.17077],[132.47474,34.17112],[132.47723,34.17005],[132.47706,34.16889],[132.4803,34.16933],[132.48385,34.16774],[132.48411,34.16396],[132.48625,34.16097],[132.48808,34.16022],[132.4891,34.15401],[132.4881,34.15355],[132.48827,34.15442],[132.49557,34.1558],[132.4961,34.1566],[132.49527,34.15691],[132.4934,34.15558],[132.49314,34.15394],[132.49511,34.15202],[132.49584,34.14805],[132.49673,34.1473],[132.5045,34.14761],[132.50651,34.14657],[132.50979,34.14718],[132.5075,34.14911],[132.50177,34.1488],[132.49891,34.14761]],[[132.46735,34.38088],[132.46462,34.37399],[132.46485,34.36908],[132.46304,34.35408]],[[132.46292,34.35407],[132.46466,34.3682],[132.4645,34.37414],[132.46721,34.38093]],[[132.44183,34.24548],[132.44475,34.24571],[132.4484,34.24766],[132.44988,34.24693],[132.45073,34.24735],[132.44955,34.24952],[132.45056,34.25525],[132.45021,34.25718],[132.45121,34.26039],[132.45264,34.26099],[132.45565,34.26039],[132.45893,34.25438],[132.46222,34.25093],[132.46517,34.24915],[132.46841,34.25043],[132.47477,34.25019],[132.47864,34.24794],[132.48339,34.2478],[132.48525,34.24909],[132.4901,34.24841],[132.49142,34.24897],[132.49571,34.25438],[132.49628,34.25781],[132.4957,34.26155],[132.49831,34.26585],[132.4977,34.2682],[132.49311,34.27383],[132.49075,34.27432],[132.4906,34.27634],[132.48939,34.2774],[132.48022,34.28207],[132.48049,34.28312],[132.47927,34.28394],[132.47768,34.28337],[132.47731,34.28438]],[[132.56517,34.24347],[132.56313,34.24151],[132.56507,34.24355]],[[132.50979,34.14718],[132.52068,34.15551],[132.52278,34.15969],[132.5257,34.16169],[132.52775,34.16446],[132.53231,34.16543],[132.5343,34.16231],[132.53988,34.16427],[132.54058,34.16843],[132.5421,34.17018],[132.5404,34.17162],[132.54099,34.17318],[132.54811,34.17703],[132.55085,34.18004],[132.5496,34.18396],[132.55043,34.18602],[132.54786,34.18648],[132.54708,34.18935],[132.54217,34.1871],[132.53926,34.18789],[132.53617,34.18723],[132.53371,34.18892],[132.53312,34.19035],[132.53356,34.19242],[132.53645,34.1942],[132.53691,34.19489],[132.53631,34.19536],[132.53899,34.19489],[132.53831,34.1954],[132.53924,34.19638]],[[132.54085,34.19954],[132.54131,34.20244],[132.54416,34.2053],[132.5433,34.20739],[132.5444,34.2105],[132.54334,34.20719],[132.54491,34.20335],[132.5434,34.19843],[132.54112,34.19775],[132.53548,34.19852],[132.52882,34.19351],[132.52434,34.19353],[132.52151,34.19147],[132.51957,34.19104],[132.51961,34.19302],[132.52074,34.19432],[132.52301,34.19531],[132.5269,34.19926],[132.52982,34.19795],[132.53747,34.1998],[132.53805,34.19896],[132.53683,34.19536]],[[132.54473,34.21163],[132.546,34.21144],[132.5472,34.21243],[132.54723,34.21604],[132.54879,34.21887],[132.55268,34.22128],[132.55482,34.22386],[132.55457,34.2255],[132.56006,34.23119],[132.56155,34.23674],[132.55994,34.23824],[132.56313,34.24151]],[[132.54511,34.21435],[132.54347,34.20726],[132.54427,34.20602]]]}}]}