{"type":"FeatureCollection","features":[{"type":"Feature","properties":{"route_id":"383","route_number":383,"name":"国道383号","source":"OpenStreetMap contributors (ODbL)","osm_relations":[9525476,16139882]},"geometry":{"type":"MultiLineString","coordinates":[[[129.85917,33.26332],[129.85657,33.26959],[129.85184,33.27279],[129.84236,33.28172],[129.83703,33.28518],[129.83059,33.29391],[129.82911,33.29451],[129.81798,33.29471],[129.81612,33.29588],[129.81558,33.29767],[129.81628,33.30061],[129.81212,33.30841],[129.81067,33.31734],[129.807,33.32103],[129.80785,33.3259],[129.8071,33.32691],[129.80272,33.32988],[129.80179,33.33166],[129.7925,33.33544],[129.78926,33.34031],[129.78997,33.34202],[129.7879,33.3435],[129.78763,33.34511],[129.78593,33.34623],[129.78232,33.34578],[129.7807,33.34795],[129.77997,33.35104],[129.77732,33.35034],[129.77488,33.35117],[129.7721,33.35403],[129.77014,33.35465],[129.7685,33.35437],[129.76703,33.35186],[129.76388,33.35319],[129.76052,33.36007],[129.75341,33.36545],[129.74971,33.36628],[129.74385,33.36607],[129.73876,33.3632],[129.73914,33.36128],[129.73793,33.35829],[129.73295,33.35656],[129.73219,33.35506],[129.72599,33.34967],[129.72027,33.34693],[129.71259,33.34608],[129.70979,33.34305],[129.70474,33.34252],[129.70324,33.34325],[129.70262,33.34608],[129.6979,33.35034],[129.68916,33.35086],[129.68547,33.34711],[129.67962,33.34744],[129.67621,33.35115],[129.67496,33.35563],[129.67339,33.35671],[129.67219,33.35939],[129.66795,33.36229],[129.66722,33.36514],[129.6581,33.36713],[129.65293,33.36633],[129.64274,33.36251],[129.64086,33.36116],[129.63856,33.35669],[129.63321,33.35387],[129.62963,33.35635],[129.62864,33.35618],[129.62753,33.35414],[129.6261,33.35411],[129.62339,33.35631],[129.62292,33.36023],[129.619,33.36247],[129.61596,33.36178],[129.61177,33.35933],[129.6114,33.3568],[129.60994,33.35464],[129.60325,33.35432],[129.60115,33.35338],[129.59649,33.35601],[129.58791,33.35917],[129.58707,33.36117],[129.58186,33.36461],[129.57781,33.36177],[129.57661,33.35942],[129.57725,33.35755],[129.57644,33.35607],[129.56807,33.3576],[129.5639,33.35597],[129.56102,33.35745],[129.5599,33.35941],[129.56,33.36214],[129.55642,33.36505],[129.55086,33.36609],[129.55096,33.3633],[129.54808,33.36134],[129.55241,33.36082],[129.55051,33.35724],[129.55158,33.35485],[129.54553,33.35109],[129.54171,33.35025],[129.54007,33.34912],[129.53963,33.3477],[129.5407,33.34292],[129.53972,33.34132],[129.53991,33.33977],[129.53812,33.33786],[129.53812,33.33473],[129.5364,33.33329],[129.52639,33.33044],[129.52354,33.33037],[129.52321,33.32903],[129.52231,33.32866],[129.51602,33.33169],[129.51371,33.33031],[129.51609,33.32573],[129.51559,33.32363],[129.52185,33.31921],[129.52322,33.31411],[129.52757,33.31152],[129.52804,33.30963],[129.52468,33.30656],[129.5218,33.3064],[129.51728,33.30792],[129.51321,33.30632],[129.51144,33.30445],[129.50915,33.30461],[129.5058,33.30764],[129.50354,33.30619],[129.49812,33.30686],[129.49574,33.30341],[129.49115,33.30334],[129.48791,33.30043],[129.48741,33.29788],[129.48524,33.29608],[129.48405,33.29347],[129.47821,33.29444],[129.48001,33.29205],[129.4758,33.288],[129.46958,33.28787],[129.46621,33.28523],[129.45928,33.28361],[129.45249,33.27381],[129.4559,33.26892],[129.45556,33.26452],[129.45512,33.2614],[129.45286,33.26079],[129.45124,33.25856],[129.45026,33.25481],[129.45057,33.24977],[129.44997,33.24775],[129.44365,33.24101],[129.43914,33.23921],[129.43457,33.23527],[129.43506,33.23306],[129.43114,33.22818],[129.43029,33.22511],[129.42709,33.22152],[129.42718,33.21355],[129.42433,33.20884],[129.4178,33.20304],[129.41171,33.20202],[129.4109,33.20011],[129.40744,33.19758]],[[129.55158,33.35485],[129.56102,33.35745]],[[129.83121,33.29317],[129.83721,33.28514],[129.84241,33.28179],[129.852,33.27276],[129.85678,33.26949],[129.85929,33.26336]]]}}]}