{"type":"FeatureCollection","features":[{"type":"Feature","properties":{"route_id":"33","route_number":33,"name":"国道33号","source":"OpenStreetMap contributors (ODbL)","osm_relations":[149017,2123361,8075851,9066541]},"geometry":{"type":"MultiLineString","coordinates":[[[133.53223,33.55804],[133.51625,33.55721],[133.5025,33.55528],[133.49965,33.55583],[133.49774,33.55527],[133.4985,33.55281],[133.49144,33.55224],[133.48695,33.55482],[133.46726,33.55975],[133.46207,33.55653],[133.45682,33.55052],[133.44735,33.54601],[133.43225,33.54348],[133.42334,33.53972],[133.41984,33.53981],[133.41145,33.54396],[133.40878,33.54436],[133.40069,33.54283],[133.39089,33.53958],[133.38671,33.53912],[133.3839,33.53752],[133.37173,33.53397],[133.36591,33.53298],[133.36252,33.53355],[133.35807,33.53152],[133.35356,33.53162],[133.34902,33.52799],[133.34474,33.52595],[133.33303,33.52339],[133.32536,33.51996],[133.32602,33.51302],[133.32474,33.50906],[133.32502,33.5061],[133.32398,33.50478],[133.31634,33.50396],[133.30587,33.50081],[133.29905,33.5002],[133.29442,33.50153],[133.29126,33.50664],[133.28834,33.50867],[133.27502,33.5109],[133.26846,33.51301],[133.26473,33.51307],[133.26277,33.52057],[133.26006,33.52268],[133.25932,33.52626],[133.25641,33.52935],[133.25481,33.53014],[133.24768,33.5304],[133.24341,33.53169],[133.24301,33.5381],[133.23875,33.54203],[133.22867,33.54523],[133.22586,33.54805],[133.2234,33.54876],[133.22062,33.54844],[133.21805,33.54977],[133.21117,33.56318],[133.20442,33.56807],[133.2008,33.5726],[133.19767,33.5741],[133.19448,33.57346],[133.19031,33.5742],[133.18682,33.57697],[133.18493,33.57735],[133.17915,33.57677],[133.17809,33.57749],[133.1752,33.57733],[133.17297,33.57651],[133.17205,33.57463],[133.16922,33.57509],[133.163,33.57328],[133.15742,33.56813],[133.1527,33.56762],[133.15062,33.56526],[133.15251,33.56196],[133.1526,33.559],[133.14936,33.55443],[133.14521,33.55475],[133.1408,33.55389],[133.13902,33.55742],[133.1375,33.55865],[133.13397,33.55972],[133.1324,33.55924],[133.13272,33.55527],[133.13057,33.5501],[133.1306,33.54688],[133.12653,33.54462],[133.1263,33.54356],[133.12725,33.54248],[133.12655,33.54062],[133.12067,33.54158],[133.11759,33.54578],[133.11443,33.5482],[133.11161,33.54679],[133.10874,33.5437],[133.10377,33.54474],[133.10237,33.54674],[133.09957,33.54818],[133.09781,33.5479],[133.09682,33.54616],[133.0911,33.54218],[133.08554,33.54172],[133.08364,33.53833],[133.08135,33.53774],[133.08005,33.53801],[133.0794,33.53945],[133.07615,33.54167],[133.05787,33.54625],[133.05386,33.54579],[133.04763,33.54238],[133.04481,33.54171],[133.0359,33.54151],[133.02787,33.53759],[133.02031,33.54296],[133.00879,33.54389],[133.00637,33.54791],[133.00547,33.55222],[133.00455,33.55298],[133.00697,33.55864],[133.00397,33.56526],[133.00311,33.5712],[132.99655,33.5727],[132.99458,33.57476],[132.99473,33.5778],[132.99257,33.5806],[132.99206,33.58545],[132.99073,33.58823],[132.99274,33.5938],[132.99046,33.59943],[132.98562,33.60134],[132.98326,33.60387],[132.98301,33.6057],[132.98175,33.60725],[132.98293,33.61082],[132.98123,33.61351],[132.97708,33.61221],[132.97374,33.61461],[132.96879,33.61474],[132.96707,33.61616],[132.96719,33.61944],[132.96584,33.6209],[132.96363,33.61939],[132.96144,33.62104],[132.9603,33.62099],[132.95908,33.61709],[132.95773,33.61535],[132.94724,33.61718],[132.94166,33.61676],[132.94036,33.61941],[132.9384,33.62026],[132.93555,33.61794],[132.92863,33.61907],[132.92566,33.61805],[132.92147,33.6181],[132.9195,33.61979],[132.919,33.62396],[132.91708,33.6271],[132.91396,33.62882],[132.9133,33.63148],[132.91098,33.63201],[132.90969,33.63518],[132.91265,33.63605],[132.91286,33.63767],[132.9092,33.64077],[132.90808,33.64438],[132.90317,33.65006],[132.8998,33.65981],[132.89706,33.66539],[132.8949,33.66783],[132.89468,33.6698],[132.8938,33.67103],[132.89105,33.67229],[132.88932,33.67573],[132.88509,33.67956],[132.88083,33.68524],[132.88105,33.68812],[132.87753,33.69725],[132.8721,33.69857],[132.8427,33.70164],[132.83491,33.70455],[132.82589,33.70495],[132.82299,33.70655],[132.81637,33.71673],[132.81627,33.71986],[132.81902,33.72505],[132.81791,33.72882],[132.81843,33.73281],[132.8131,33.73618],[132.81135,33.73652],[132.81101,33.73849],[132.81271,33.73892],[132.8137,33.73693],[132.80909,33.73412],[132.80783,33.73475],[132.80805,33.73658],[132.80646,33.73749],[132.80084,33.73612],[132.80058,33.73674],[132.80278,33.73837],[132.80275,33.73933],[132.80103,33.73966],[132.80027,33.74076],[132.79798,33.7388],[132.79252,33.74443],[132.7903,33.75226],[132.78746,33.77292],[132.7867,33.785],[132.78714,33.79387],[132.77731,33.81531],[132.77564,33.82241],[132.78308,33.82656],[132.77527,33.83648],[132.77532,33.84172],[132.76522,33.84102],[132.76475,33.83938]],[[132.76462,33.83945],[132.76515,33.84115],[132.77544,33.84178],[132.77543,33.83638],[132.78332,33.8266],[132.77583,33.82231],[132.77739,33.81538],[132.78726,33.79389],[132.78681,33.78504],[132.78756,33.77293],[132.79034,33.75257],[132.79264,33.74446],[132.79574,33.74115]],[[133.48484,33.55543],[133.49109,33.55239],[133.49847,33.55297]],[[132.8353,33.70444],[132.83832,33.70325]],[[132.83151,33.70472],[132.82482,33.70523]],[[133.49787,33.55292],[133.49754,33.55525],[133.49896,33.55587],[133.50265,33.55539],[133.51622,33.55734],[133.53221,33.55819]],[[132.77769,33.80249],[132.76483,33.80241],[132.7549,33.80625],[132.74244,33.80682],[132.73894,33.80768]],[[132.76579,33.80237],[132.77688,33.8026]],[[132.74708,33.80682],[132.75166,33.80683]],[[133.46061,33.55503],[133.46156,33.55603]]]}}]}