{"type":"FeatureCollection","features":[{"type":"Feature","properties":{"route_id":"152","route_number":152,"name":"国道152号","source":"OpenStreetMap contributors (ODbL)","osm_relations":[53798,9136411,9136412,9136413,9136414,9136415,9136416,9136417,9136418,9136419,9136420,9136421,13988070]},"geometry":{"type":"MultiLineString","coordinates":[[[138.29312,36.37202],[138.29378,36.37023],[138.29635,36.36935],[138.29578,36.36673],[138.287,36.35545],[138.28362,36.35318],[138.27578,36.33952],[138.27477,36.33826],[138.27324,36.33822],[138.27,36.33006],[138.26946,36.3194],[138.26823,36.31716],[138.25287,36.3106],[138.25092,36.30861],[138.24933,36.30524],[138.24954,36.30125],[138.2562,36.28981],[138.25982,36.26219],[138.26131,36.25743],[138.2605,36.2543],[138.26321,36.25065],[138.26137,36.24675],[138.2549,36.24137],[138.25313,36.23872],[138.25382,36.23631],[138.25314,36.23114],[138.25153,36.22713],[138.25062,36.21825],[138.24649,36.21305],[138.2473,36.21005],[138.24486,36.20625],[138.24292,36.19859],[138.24282,36.1969],[138.24472,36.19159],[138.2441,36.17859],[138.24052,36.17072],[138.23917,36.16194],[138.23991,36.16],[138.23958,36.15295],[138.23693,36.14857],[138.23653,36.1436],[138.23508,36.14152],[138.23143,36.13822],[138.22712,36.13591],[138.23042,36.12478],[138.22942,36.11837],[138.23128,36.11515],[138.23387,36.11639],[138.23272,36.11543],[138.23279,36.11452],[138.23553,36.11356],[138.2341,36.11161],[138.23292,36.11186],[138.2344,36.11009],[138.23246,36.10577],[138.22926,36.1034],[138.22864,36.10139],[138.22609,36.10053],[138.22385,36.0971],[138.22393,36.09396],[138.22244,36.09113],[138.22344,36.08779],[138.22312,36.08574],[138.22264,36.08639],[138.22226,36.08589],[138.22321,36.08429],[138.22244,36.08292],[138.22184,36.08379],[138.22205,36.08172],[138.22103,36.08232],[138.22386,36.0704],[138.2223,36.06408],[138.22345,36.06198],[138.22454,36.05172],[138.22551,36.04899],[138.22692,36.0484],[138.22711,36.04655],[138.22498,36.04285],[138.22508,36.03928],[138.2238,36.03743],[138.22413,36.0343],[138.22824,36.0318],[138.22738,36.0304],[138.22496,36.03065],[138.21771,36.02728],[138.2171,36.02554],[138.2141,36.02382],[138.19025,36.01708],[138.18212,36.01159],[138.17641,36.00467],[138.1639,35.99852],[138.16131,35.99815],[138.15199,36.00002],[138.13549,35.99698],[138.13295,35.99435],[138.13838,35.99144],[138.13754,35.98983],[138.14021,35.98498],[138.14577,35.98129],[138.14262,35.98043],[138.13971,35.98166],[138.1368,35.98108],[138.13924,35.98119],[138.13937,35.97985],[138.14079,35.9797],[138.141,35.97793],[138.13843,35.97416],[138.14048,35.97445],[138.14109,35.97149],[138.1431,35.97196],[138.14298,35.97088],[138.14081,35.96962],[138.13936,35.97042],[138.13988,35.97184],[138.13895,35.9723],[138.13757,35.97137],[138.13683,35.96959],[138.1346,35.97226],[138.13461,35.97332],[138.1323,35.97456],[138.13157,35.97595],[138.12942,35.97642],[138.12877,35.97535],[138.12531,35.97366],[138.12351,35.96973],[138.1166,35.96428],[138.11492,35.96157],[138.11342,35.96094],[138.11107,35.95605],[138.10861,35.95367],[138.10716,35.9485],[138.10493,35.94683],[138.10416,35.94357],[138.10191,35.94169],[138.09937,35.93578],[138.09772,35.93429],[138.09859,35.93256],[138.09773,35.93035],[138.09846,35.92622],[138.09383,35.91601],[138.09463,35.91049],[138.09825,35.90574],[138.1004,35.89578],[138.0987,35.89334],[138.09722,35.88866],[138.09624,35.88063],[138.09406,35.87735],[138.09414,35.87371],[138.09238,35.87071],[138.09159,35.86656],[138.08971,35.86246],[138.08657,35.86053],[138.08391,35.85683],[138.07842,35.85541],[138.07546,35.84836],[138.07309,35.84566],[138.07361,35.84309],[138.06897,35.83786],[138.06457,35.83551],[138.06071,35.83609],[138.05681,35.83185],[138.06328,35.82479],[138.07033,35.82023],[138.07981,35.81717],[138.08331,35.81187],[138.08368,35.80778],[138.08287,35.80476],[138.08478,35.80157],[138.08531,35.79858],[138.08476,35.79393],[138.08374,35.7921],[138.08696,35.78735],[138.08573,35.78359],[138.08619,35.78221],[138.08427,35.7791],[138.08063,35.77695],[138.07989,35.77444],[138.07451,35.76944],[138.07392,35.76788],[138.0749,35.76627],[138.0741,35.76216],[138.07461,35.7595],[138.07692,35.75318],[138.07908,35.75115],[138.08223,35.74068],[138.08143,35.73926],[138.077,35.73628],[138.07542,35.7301],[138.06956,35.72121],[138.06954,35.71972],[138.06706,35.71556],[138.06757,35.71105],[138.06684,35.70858],[138.06655,35.71175],[138.06455,35.7137],[138.06562,35.7108],[138.06488,35.7096],[138.06477,35.71126],[138.06439,35.71007],[138.06444,35.70709],[138.06539,35.70606],[138.06425,35.70473],[138.06638,35.70249],[138.06644,35.70051],[138.06718,35.6998],[138.06545,35.69913],[138.06681,35.69862],[138.06675,35.69679],[138.06579,35.69518],[138.06385,35.69463],[138.06292,35.6921],[138.06394,35.68962],[138.06267,35.68336],[138.06307,35.67853],[138.06499,35.6775],[138.06548,35.6762],[138.0644,35.6731],[138.06522,35.66899],[138.06485,35.6668],[138.06353,35.66601],[138.06395,35.66316],[138.06322,35.66034],[138.06079,35.6575],[138.06226,35.65614],[138.06146,35.65343],[138.05941,35.65194],[138.05793,35.64813],[138.05841,35.64362],[138.05753,35.63995],[138.05894,35.63711],[138.05656,35.63205],[138.05672,35.62735],[138.05889,35.62455],[138.05744,35.62069],[138.05822,35.61925],[138.04971,35.60805],[138.05082,35.59981],[138.04809,35.59687],[138.04738,35.58911],[138.04151,35.58539],[138.03615,35.57911],[138.03368,35.57912],[138.03515,35.57436],[138.03497,35.5707],[138.03702,35.56866],[138.03736,35.56587],[138.04116,35.55731],[138.03832,35.55294],[138.03409,35.55105],[138.03067,35.54578],[138.03034,35.54122],[138.02847,35.53972],[138.02747,35.54005],[138.02903,35.53586],[138.02801,35.5342],[138.0286,35.53224],[138.0262,35.53063],[138.02555,35.52889],[138.02625,35.52765],[138.02469,35.52674],[138.02512,35.5255],[138.02275,35.52417],[138.02091,35.51526],[138.01797,35.5127],[138.01878,35.51002],[138.01609,35.50782]],[[138.26086,36.24639],[138.2619,36.24751]],[[137.72769,34.70804],[137.72874,34.71807],[137.73544,34.73633],[137.74065,34.74399],[137.74808,34.7485],[137.75915,34.77288],[137.76123,34.77907],[137.76292,34.79859],[137.76461,34.80291],[137.77002,34.80788],[137.79075,34.81834],[137.79703,34.82004],[137.79002,34.81809],[137.76996,34.80796],[137.76674,34.80564],[137.7643,34.80258],[137.76275,34.79817],[137.76113,34.77904],[137.75906,34.77291],[137.74798,34.74853],[137.74045,34.74393],[137.73518,34.73605],[137.72884,34.71873],[137.72757,34.70803],[137.7443,34.70802],[137.75214,34.70992],[137.76002,34.71328],[137.76494,34.72085],[137.78608,34.7279]],[[138.01595,35.50726],[138.01665,35.50674],[138.01613,35.50581],[138.01696,35.50505],[138.0175,35.50142],[138.01611,35.5008],[138.01382,35.49481],[138.01398,35.48946],[138.01601,35.48782],[138.01408,35.48837],[138.01562,35.48699],[138.01409,35.48668],[138.017,35.48596],[138.01504,35.48569],[138.01661,35.48543],[138.01472,35.48496],[138.01776,35.48424],[138.01673,35.48471],[138.01512,35.48396],[138.01396,35.48102],[138.00987,35.48083],[138.00816,35.47879],[138.00816,35.4775],[138.0063,35.47577],[138.00627,35.47456],[138.00346,35.47275],[138.00291,35.46929],[138.00037,35.46737],[138.00033,35.4635],[137.9976,35.45669],[137.99786,35.45476],[137.99667,35.45318],[137.99611,35.44851],[137.99367,35.44433],[137.99229,35.44436],[137.99112,35.44225],[137.99164,35.43922],[137.98995,35.43591],[137.98811,35.43422],[137.98887,35.43274],[137.98733,35.43124],[137.98734,35.42933],[137.98357,35.42631],[137.98343,35.42423],[137.98139,35.42278],[137.97981,35.41878],[137.97648,35.41774],[137.97543,35.4166],[137.97604,35.41213],[137.97254,35.40126],[137.9711,35.40002],[137.97199,35.39747],[137.96876,35.39468],[137.96898,35.39337],[137.97092,35.39197],[137.96988,35.3882],[137.97094,35.38615],[137.96835,35.38397],[137.96407,35.37265],[137.96414,35.37038],[137.96046,35.36649],[137.96057,35.36424],[137.95877,35.36056],[137.95951,35.35859],[137.95611,35.35185],[137.95586,35.34915],[137.95192,35.34486],[137.95232,35.34268],[137.95388,35.34076],[137.94869,35.33407],[137.94287,35.32977],[137.9354,35.32783],[137.93335,35.32396],[137.9279,35.32018],[137.92672,35.31684],[137.92784,35.3119],[137.92458,35.30488],[137.92421,35.29719],[137.92165,35.29611],[137.91885,35.29262],[137.91706,35.28699],[137.91717,35.28405],[137.91523,35.2801]],[[137.82368,34.85724],[137.81579,34.84663],[137.8119,34.83052],[137.81006,34.82675],[137.80516,34.82252],[137.79694,34.81991]],[[137.91571,35.27235],[137.91442,35.27125],[137.91515,35.27063],[137.91423,35.27003],[137.9146,35.2688],[137.91356,35.2673],[137.91381,35.26398],[137.91435,35.26467],[137.915,35.26205],[137.91337,35.26116],[137.91307,35.25904],[137.91089,35.25694]],[[137.91862,35.29214],[137.91724,35.28676],[137.91783,35.28325],[137.91672,35.28207],[137.91748,35.28119],[137.916,35.27968],[137.91732,35.27796],[137.91499,35.27486],[137.91569,35.27268]],[[137.95148,35.3261],[137.95129,35.32601]],[[137.81747,34.84926],[137.81532,34.84589],[137.81184,34.83063],[137.81021,34.82722],[137.80458,34.82234],[137.79703,34.82004],[137.79795,34.82162],[137.79885,34.83558],[137.79756,34.83925],[137.79793,34.84291],[137.79926,34.84456],[137.80712,34.84966],[137.80512,34.85316],[137.80751,34.85814],[137.8123,34.86159],[137.81446,34.86109],[137.81603,34.8647],[137.81693,34.87013],[137.82079,34.87341],[137.82225,34.87658],[137.8221,34.88032],[137.81595,34.88638],[137.81554,34.89103],[137.8127,34.9],[137.81396,34.90125],[137.81962,34.90138],[137.82094,34.90279],[137.82154,34.90646],[137.81704,34.91082],[137.81557,34.91156],[137.81288,34.91115],[137.81149,34.91286],[137.81622,34.92556],[137.81409,34.93909],[137.81851,34.94161],[137.82163,34.9388],[137.82666,34.93682],[137.82848,34.93761],[137.83184,34.94151],[137.82765,34.94728],[137.8267,34.94988],[137.82687,34.95295],[137.82998,34.96311],[137.82736,34.9683],[137.82453,34.96939],[137.82604,34.9701],[137.82809,34.97793],[137.82659,34.98343],[137.82421,34.98782],[137.82463,34.99381],[137.82786,34.99759],[137.83261,35.00053],[137.83478,35.00317],[137.83493,35.01082],[137.8369,35.0205],[137.84457,35.02752],[137.85009,35.03691],[137.85188,35.04453],[137.8546,35.04684],[137.8542,35.05049],[137.85059,35.05726],[137.84456,35.0617],[137.8384,35.07115],[137.84052,35.07367],[137.84097,35.07564],[137.84706,35.07363],[137.84929,35.07466],[137.85252,35.07478],[137.85358,35.07704],[137.85623,35.07835],[137.85644,35.08221],[137.85077,35.08317],[137.85025,35.08489],[137.84726,35.0864],[137.84665,35.08852],[137.84731,35.08973],[137.8511,35.0924],[137.84884,35.09734],[137.8492,35.10106],[137.84716,35.1046],[137.84912,35.10621],[137.84938,35.10795],[137.85179,35.10868],[137.85201,35.11007],[137.85364,35.11147],[137.85352,35.11233],[137.85124,35.11371],[137.8541,35.11462],[137.85663,35.12618],[137.85904,35.13015],[137.86125,35.13098],[137.86242,35.13263],[137.86121,35.13764],[137.86184,35.14394],[137.86083,35.1461],[137.86282,35.14879],[137.86354,35.15297],[137.86662,35.15411],[137.86685,35.15607],[137.86931,35.15845],[137.86908,35.16265],[137.87083,35.16802],[137.87102,35.17266],[137.86963,35.17383],[137.87187,35.17597],[137.87055,35.17913],[137.87311,35.18251],[137.87357,35.18812],[137.87697,35.19063],[137.87776,35.19324],[137.88265,35.19788],[137.8824,35.19909],[137.88464,35.20324],[137.88864,35.20459],[137.89126,35.2083],[137.8911,35.20993],[137.89294,35.21191],[137.8924,35.21442],[137.89468,35.21877],[137.89412,35.22033],[137.89501,35.22331],[137.89597,35.22466],[137.89726,35.22489],[137.89709,35.22639],[137.89878,35.22697],[137.899,35.22855],[137.89765,35.23227],[137.9008,35.23599],[137.89794,35.23363],[137.89756,35.2319]],[[137.9008,35.23599],[137.90322,35.23743],[137.90581,35.23771],[137.9112,35.23514],[137.91379,35.23492],[137.91643,35.2359],[137.91799,35.23815]],[[137.737,34.70818],[137.73576,34.70819]],[[138.24929,36.30504],[138.24988,36.30632]],[[137.89141,35.21028],[137.8902,35.20666]]]}}]}