{"type":"FeatureCollection","features":[{"type":"Feature","properties":{"route_id":"374","route_number":374,"name":"国道374号","source":"OpenStreetMap contributors (ODbL)","osm_relations":[10036652]},"geometry":{"type":"MultiLineString","coordinates":[[[134.16675,34.74046],[134.16647,34.74549],[134.16735,34.74941],[134.17216,34.75238],[134.16929,34.75768],[134.16873,34.76297],[134.17535,34.77466],[134.17434,34.77672],[134.16678,34.78359],[134.16662,34.79265],[134.16066,34.79618],[134.15502,34.79633],[134.14911,34.79357],[134.14534,34.79393],[134.14394,34.79682],[134.14164,34.80877],[134.13826,34.81857],[134.13614,34.82118],[134.12991,34.83425],[134.12539,34.83951],[134.12292,34.84493],[134.11928,34.84947],[134.11614,34.85005],[134.10624,34.84559],[134.10048,34.84646],[134.1002,34.84813],[134.11085,34.86208],[134.11116,34.86586],[134.10666,34.87332],[134.10427,34.88212],[134.10233,34.88333],[134.09659,34.88385],[134.09449,34.88563],[134.09455,34.88772],[134.09926,34.89275],[134.09762,34.89839],[134.09526,34.89942],[134.09184,34.89864],[134.08726,34.89441],[134.08427,34.89482],[134.08324,34.89678],[134.08416,34.90469],[134.09104,34.9136],[134.09484,34.92013],[134.10232,34.92345],[134.10664,34.92629],[134.11175,34.92731],[134.11505,34.92943],[134.12138,34.93121],[134.12417,34.94013],[134.12641,34.94162],[134.13332,34.9422],[134.13593,34.94433],[134.13596,34.95298],[134.1307,34.95632],[134.12922,34.95868],[134.12977,34.96003],[134.13332,34.96227],[134.13449,34.9685],[134.13118,34.97357],[134.12964,34.97472],[134.12523,34.9758],[134.12413,34.97765],[134.12677,34.98159],[134.13015,34.98944],[134.13268,34.99116],[134.13793,34.99243],[134.14079,34.99466],[134.14251,34.9993],[134.14232,35.00199],[134.14694,35.00595],[134.14712,35.01202],[134.14867,35.01421],[134.15033,35.01508],[134.14121,35.0204],[134.14014,35.02352],[134.13145,35.02824],[134.12251,35.03587],[134.11738,35.03668],[134.11026,35.03956],[134.09965,35.03925],[134.0935,35.04166],[134.07687,35.04321],[134.07342,35.04433],[134.06534,35.04322],[134.05727,35.05634],[134.05502,35.05757],[134.04943,35.05803],[134.04547,35.06105]]]}}]}