{"type":"FeatureCollection","features":[{"type":"Feature","properties":{"route_id":"316","route_number":316,"name":"国道316号","source":"OpenStreetMap contributors (ODbL)","osm_relations":[9878286]},"geometry":{"type":"MultiLineString","coordinates":[[[131.18212,34.36881],[131.18155,34.36472],[131.17686,34.36151],[131.17693,34.34802],[131.17549,34.34479],[131.17542,34.34181],[131.17306,34.33924],[131.17425,34.33525],[131.17325,34.33225],[131.17405,34.33022],[131.17366,34.32604],[131.1789,34.32459],[131.18221,34.32107],[131.18498,34.32012],[131.19114,34.31229],[131.20018,34.30967],[131.20134,34.30834],[131.20091,34.30484],[131.1976,34.29831],[131.19408,34.29561],[131.19399,34.27819],[131.19244,34.27273],[131.19284,34.26575],[131.19379,34.26335],[131.19368,34.26027],[131.19788,34.25519],[131.19994,34.25385],[131.20513,34.25253],[131.20651,34.25081],[131.21043,34.21925],[131.20994,34.21593],[131.20821,34.21332],[131.20875,34.20947],[131.2102,34.20725],[131.20974,34.20561],[131.2109,34.20226],[131.20988,34.1997],[131.21148,34.19747],[131.20935,34.19206],[131.2102,34.19021],[131.212,34.17699],[131.2092,34.17356],[131.20923,34.16657],[131.21021,34.16441],[131.20977,34.16325],[131.19628,34.15762],[131.19499,34.15634],[131.19913,34.14307],[131.19697,34.136],[131.19857,34.13241],[131.19476,34.12991],[131.19033,34.12506],[131.18544,34.12145],[131.18318,34.11814],[131.18115,34.10456],[131.17909,34.09984],[131.18061,34.09534],[131.17617,34.09158],[131.1755,34.08883],[131.17273,34.08406],[131.17337,34.07953],[131.17497,34.07654],[131.17485,34.07362],[131.17709,34.06807],[131.17211,34.05538],[131.17196,34.05192],[131.17041,34.04944],[131.17078,34.04681],[131.17259,34.04359]]]}}]}