{"type":"FeatureCollection","features":[{"type":"Feature","properties":{"route_id":"239","route_number":239,"name":"国道239号","source":"OpenStreetMap contributors (ODbL)","osm_relations":[6612481]},"geometry":{"type":"MultiLineString","coordinates":[[[143.37137,44.32599],[143.38251,44.32156],[143.36483,44.32941],[143.34232,44.33099],[143.33948,44.33244],[143.33859,44.3343],[143.33896,44.3445],[143.33488,44.35139],[143.33493,44.36535],[143.33357,44.36699],[143.32513,44.37154],[143.31787,44.37724],[143.31427,44.37781],[143.3096,44.37533],[143.30297,44.37774],[143.29221,44.39169],[143.28994,44.39359],[143.23226,44.42175],[143.22774,44.42473],[143.22528,44.42952],[143.2199,44.4341],[143.21241,44.43632],[143.17223,44.4568],[143.14963,44.4643],[143.1435,44.46809],[143.12684,44.47016],[143.1223,44.47359],[143.11138,44.46748],[143.10969,44.46553],[143.08048,44.4473],[143.0748,44.44472],[143.0699,44.44143],[143.06021,44.43934],[143.04951,44.43943],[143.04434,44.44094],[143.03777,44.43613],[143.03344,44.43429],[143.03033,44.42981],[143.03014,44.42665],[143.02454,44.41834],[143.0226,44.40901],[143.01779,44.40558],[143.01903,44.40281],[143.01846,44.39855],[143.0143,44.39681],[143.01026,44.39385],[142.99639,44.38795],[142.98735,44.38553],[142.98527,44.3832],[142.98005,44.38046],[142.97108,44.37278],[142.96728,44.35963],[142.9666,44.35572],[142.96688,44.35055],[142.96347,44.34293],[142.95283,44.3304],[142.94886,44.32965],[142.94222,44.32996],[142.93541,44.33202],[142.92234,44.33381],[142.90805,44.3382],[142.90479,44.34027],[142.89863,44.3407],[142.88395,44.33752],[142.87013,44.33606],[142.86609,44.33481],[142.85753,44.33508],[142.85055,44.33695],[142.84289,44.34246],[142.8392,44.34297],[142.82992,44.34207],[142.81327,44.33601],[142.81173,44.33233],[142.80986,44.32085],[142.80454,44.31552],[142.79811,44.31178],[142.79557,44.31179],[142.77362,44.31857],[142.75972,44.31965],[142.74124,44.31623],[142.71318,44.31731],[142.70219,44.31246]],[[143.53078,44.23322],[143.53613,44.23063],[143.5584,44.22695],[143.59258,44.21603],[143.60097,44.21545],[143.60405,44.21245],[143.60871,44.21087],[143.60021,44.1971],[143.65805,44.17804],[143.66419,44.17134],[143.66717,44.16665],[143.67684,44.16043],[143.68739,44.15608],[143.69394,44.14578],[143.70971,44.13955],[143.71317,44.136],[143.71714,44.1338],[143.7208,44.12561],[143.72064,44.12078],[143.72266,44.1156],[143.72192,44.11194],[143.72895,44.10133],[143.72975,44.09736],[143.73293,44.09364],[143.73477,44.09362],[143.73858,44.0954],[143.74295,44.09476],[143.74669,44.09175],[143.75305,44.09255],[143.76737,44.09077],[143.77457,44.09212],[143.78174,44.09651],[143.78768,44.09681],[143.79056,44.09575],[143.79611,44.09606],[143.80008,44.09487],[143.8065,44.09447],[143.81343,44.09786],[143.82069,44.09898],[143.82878,44.10318],[143.83737,44.10631],[143.8404,44.10664],[143.84825,44.10483],[143.8566,44.10024],[143.86706,44.10011],[143.87593,44.09795],[143.8806,44.09872],[143.88579,44.09831],[143.8911,44.09376],[143.91574,44.0812],[143.92185,44.08096],[143.92686,44.07914],[143.94067,44.07953],[143.94326,44.08028],[143.95404,44.08863],[143.95869,44.09487],[143.96782,44.10281],[143.99145,44.10269],[143.99874,44.10654],[144.0355,44.11601],[144.03974,44.1214],[144.04132,44.12215],[144.05063,44.12194],[144.06881,44.1158],[144.0775,44.11686],[144.08752,44.12348],[144.09418,44.12422],[144.10052,44.12233],[144.12,44.10957],[144.12689,44.10896],[144.1298,44.107],[144.13033,44.1058],[144.1296,44.10222],[144.12551,44.09504],[144.11527,44.09158],[144.11082,44.08771],[144.11235,44.08078],[144.11114,44.07556],[144.10867,44.07138],[144.10761,44.06783],[144.10503,44.06424],[144.1045,44.05208],[144.1034,44.04956],[144.09931,44.04541],[144.09755,44.03484],[144.09566,44.02895],[144.0981,44.02097],[144.09925,44.01963],[144.10737,44.01648],[144.11317,44.01197],[144.11623,44.01147],[144.13242,44.01054],[144.1447,44.01107],[144.15567,44.01261],[144.16638,44.01091],[144.16795,44.01007],[144.16981,44.00727],[144.1709,44.00283],[144.1741,44.00019],[144.17601,43.99966],[144.18116,44.00161],[144.18945,44.0075],[144.19806,44.00726],[144.20695,44.00809],[144.21275,44.00745],[144.21434,44.00823],[144.21665,44.01221],[144.21841,44.01332],[144.22084,44.01329],[144.22402,44.01195],[144.23147,44.01319]],[[141.66803,43.93765],[141.66437,43.93454],[141.66944,43.93893],[141.66163,43.9417],[141.65395,43.94554],[141.64625,43.95101],[141.64415,43.95512],[141.64414,43.95818],[141.6429,43.96106],[141.64322,43.96279],[141.64594,43.9664],[141.6469,43.97125],[141.64636,43.97912],[141.64844,43.98538],[141.65083,43.98973],[141.65235,43.99662],[141.65728,44.00116],[141.65946,44.00539],[141.66155,44.01266],[141.65957,44.00536],[141.65637,44.00006]],[[141.66155,44.01266],[141.66288,44.02184],[141.66651,44.02487],[141.66837,44.03089],[141.6674,44.03389],[141.66263,44.04046],[141.66345,44.05217],[141.66296,44.07374],[141.66025,44.09754],[141.66057,44.10173],[141.6564,44.12236],[141.65677,44.12501],[141.65393,44.14064],[141.65492,44.14398],[141.65439,44.15068],[141.65877,44.15763],[141.65958,44.16307],[141.65829,44.1745],[141.65882,44.18278],[141.6578,44.19605],[141.65808,44.2043],[141.65639,44.21108],[141.65503,44.22189],[141.65577,44.22499],[141.65527,44.22703],[141.65655,44.23005],[141.65644,44.23395],[141.65827,44.24186],[141.65634,44.25531],[141.65717,44.2589],[141.65498,44.26794],[141.65728,44.27251],[141.65757,44.27491],[141.66224,44.27604],[141.69943,44.2701],[141.70937,44.26782],[141.71266,44.265],[141.71574,44.26406],[141.72393,44.26443],[141.73657,44.2625],[141.74372,44.26221],[141.74812,44.25722],[141.75602,44.25525],[141.76235,44.25479],[141.76691,44.25185],[141.77284,44.2499],[141.77381,44.2483],[141.77254,44.24283],[141.77827,44.23942],[141.7822,44.23455],[141.78491,44.23363],[141.78778,44.23138],[141.79652,44.22764],[141.8008,44.23072],[141.80606,44.23126],[141.80802,44.23036],[141.81037,44.22772],[141.81523,44.22682],[141.817,44.22567],[141.81736,44.22277],[141.81967,44.22091],[141.82135,44.2211],[141.82414,44.2239],[141.83011,44.22246],[141.83085,44.22335],[141.82986,44.22594],[141.83413,44.22691],[141.83989,44.22552],[141.8444,44.22007],[141.84733,44.21809],[141.85314,44.21862],[141.85357,44.21961],[141.85236,44.22114],[141.85459,44.22255],[141.86062,44.22166],[141.86657,44.21915],[141.87043,44.22074],[141.87444,44.22115],[141.87527,44.2239],[141.87465,44.22585],[141.87574,44.22717],[141.87779,44.22707],[141.8793,44.22509],[141.88518,44.22246],[141.88723,44.2206],[141.88769,44.21952],[141.8869,44.21731],[141.88869,44.21486],[141.8948,44.21376],[141.89567,44.21154],[141.89418,44.20848],[141.89594,44.20587],[141.89734,44.20599],[141.89895,44.20774],[141.90189,44.20878],[141.90893,44.20715],[141.91109,44.2094],[141.9128,44.2098],[141.91472,44.20869],[141.91476,44.20493],[141.91542,44.20424],[141.92078,44.20593],[141.9239,44.2048],[141.9265,44.20654],[141.93158,44.20372],[141.93255,44.20119],[141.93139,44.19976],[141.93134,44.19809],[141.92647,44.19551],[141.92646,44.19219],[141.93666,44.18718],[141.93948,44.18504],[141.95485,44.1851],[141.96477,44.18686],[141.96961,44.18567],[141.97056,44.18273],[141.97209,44.18198],[141.9822,44.18241],[141.98719,44.18126],[141.99139,44.18223],[141.99443,44.18571],[142.00195,44.18909],[142.00471,44.19114],[142.0085,44.19579],[142.01107,44.2005],[142.0169,44.20626],[142.02812,44.20631],[142.03416,44.20156],[142.0386,44.20122],[142.03894,44.20022],[142.03754,44.19856],[142.03803,44.19772],[142.03955,44.19773],[142.04119,44.1996]],[[142.69456,44.30908],[142.68708,44.30666],[142.68068,44.30135],[142.66864,44.29857],[142.66267,44.2984],[142.65877,44.29951],[142.65652,44.30179],[142.65119,44.30376],[142.64441,44.3017],[142.63007,44.30511],[142.61679,44.30476],[142.6087,44.3068],[142.56949,44.31232],[142.56391,44.31234],[142.55206,44.31755],[142.53871,44.32073],[142.53601,44.32294],[142.53481,44.32689],[142.52908,44.32939],[142.5216,44.32991],[142.50652,44.33258],[142.48365,44.32891],[142.48038,44.32909],[142.47604,44.33238],[142.47474,44.34713],[142.47333,44.35072],[142.47322,44.35634],[142.4572,44.35638],[142.45697,44.31465],[142.43581,44.30505],[142.41785,44.29079],[142.41566,44.28754],[142.39477,44.26887],[142.39493,44.19476],[142.38922,44.18612],[142.39232,44.17586],[142.38403,44.17469],[142.37776,44.17888],[142.36865,44.18002],[142.35067,44.18067],[142.34602,44.18263],[142.34298,44.1862],[142.34028,44.18673],[142.3326,44.1856],[142.32511,44.18267],[142.31139,44.18187],[142.30138,44.18272],[142.29611,44.1806],[142.27556,44.17878],[142.27147,44.16937],[142.26559,44.17039],[142.26105,44.16954],[142.25219,44.17157],[142.24611,44.17473],[142.24053,44.18068],[142.22762,44.19858],[142.22608,44.19911],[142.22097,44.19834],[142.21796,44.1988],[142.21018,44.20281],[142.20744,44.20543],[142.19855,44.20935],[142.19628,44.21217],[142.19089,44.21453],[142.18508,44.21512],[142.17004,44.21371],[142.16441,44.21474],[142.15823,44.21782],[142.14221,44.21625],[142.13833,44.21185],[142.12911,44.2136],[142.12361,44.21381],[142.11745,44.20944],[142.11492,44.20915],[142.1047,44.21046],[142.10197,44.21178],[142.09922,44.21541],[142.08721,44.21623],[142.08311,44.21761],[142.07617,44.21191],[142.07158,44.21173],[142.06959,44.21075],[142.06807,44.20893],[142.06748,44.20616],[142.06358,44.2048],[142.05935,44.20062],[142.05789,44.20052],[142.05504,44.20236],[142.0513,44.20085],[142.04683,44.20136]],[[143.38251,44.32156],[143.40979,44.30728],[143.42202,44.29358],[143.43539,44.29003],[143.44667,44.28032],[143.45125,44.27431],[143.4572,44.27036],[143.46468,44.26315],[143.47522,44.25605],[143.49719,44.24479],[143.50055,44.24432],[143.50684,44.24513],[143.50977,44.24455],[143.52992,44.23369]],[[143.47637,44.25945],[143.47656,44.25926]],[[143.52986,44.23364],[143.51596,44.24122]]]}}]}