{"type":"FeatureCollection","features":[{"type":"Feature","properties":{"route_id":"445","route_number":445,"name":"国道445号","source":"OpenStreetMap contributors (ODbL)","osm_relations":[9604034,9604227,9604654]},"geometry":{"type":"MultiLineString","coordinates":[[[130.73788,32.21626],[130.74957,32.21094],[130.75484,32.21334],[130.77183,32.21608],[130.77151,32.22235],[130.77468,32.22251],[130.77993,32.22446],[130.78235,32.22826],[130.78943,32.23532],[130.79434,32.2362],[130.79645,32.23433],[130.79958,32.23531],[130.80412,32.23865],[130.80603,32.24016],[130.80741,32.24372],[130.80955,32.2447],[130.80919,32.24725],[130.813,32.25581],[130.81615,32.25609],[130.82235,32.2622],[130.83519,32.26864],[130.84112,32.27499],[130.84367,32.27654],[130.84314,32.28087],[130.84681,32.28723],[130.84483,32.29043],[130.84195,32.29188],[130.84483,32.29344],[130.84616,32.29519],[130.84658,32.29989],[130.8458,32.30172],[130.84436,32.30246],[130.84667,32.30307],[130.84713,32.30397],[130.84775,32.31201],[130.84719,32.31407],[130.83972,32.32206],[130.84197,32.32662],[130.83997,32.33106],[130.84208,32.33268],[130.84375,32.33594],[130.84382,32.34012],[130.84587,32.34111],[130.84758,32.34099],[130.85013,32.34455],[130.84861,32.34731],[130.84696,32.34796],[130.84625,32.34916],[130.84666,32.35347],[130.84953,32.35739],[130.84412,32.36204],[130.83833,32.36339],[130.83566,32.36561],[130.83646,32.36884],[130.83602,32.37034],[130.8389,32.37254],[130.83922,32.37487],[130.83801,32.37651],[130.83796,32.37882],[130.83481,32.38329],[130.83489,32.38806],[130.82987,32.39054],[130.82721,32.39367],[130.82569,32.40397],[130.83019,32.41012],[130.83277,32.4109],[130.83987,32.4105],[130.84039,32.41172],[130.84224,32.41224],[130.84354,32.41364],[130.84595,32.41781],[130.84746,32.41831],[130.84785,32.41768],[130.85083,32.4176],[130.85513,32.42092],[130.85487,32.42337],[130.85673,32.42469],[130.8586,32.43016],[130.86088,32.43269],[130.86016,32.43458],[130.85689,32.43712],[130.85726,32.44122],[130.8562,32.44156],[130.85488,32.44637],[130.85664,32.4491],[130.85862,32.4501],[130.85704,32.45232],[130.85752,32.45569],[130.86125,32.45744],[130.86272,32.45958],[130.86605,32.46114],[130.86783,32.4634],[130.87202,32.46525],[130.87527,32.46898],[130.87553,32.47211],[130.87791,32.47385],[130.87896,32.47564],[130.87826,32.47666],[130.87963,32.47812],[130.8821,32.47924],[130.88717,32.4781],[130.8889,32.48005],[130.88895,32.48313],[130.89296,32.48362],[130.8949,32.48545],[130.89814,32.48565],[130.89877,32.48759],[130.90092,32.48858],[130.90052,32.48948],[130.90166,32.49075],[130.90394,32.49009],[130.90405,32.48893],[130.90536,32.48903],[130.90707,32.4912],[130.90711,32.49256],[130.90632,32.49286],[130.90683,32.49598],[130.9103,32.49781],[130.91234,32.4972],[130.91211,32.498],[130.91581,32.49906],[130.91524,32.50152],[130.91592,32.50393],[130.92206,32.5092],[130.92402,32.50965],[130.92712,32.51199],[130.93376,32.51256],[130.93839,32.51451],[130.93907,32.51588],[130.94322,32.51586],[130.94649,32.5195],[130.94522,32.52205],[130.94375,32.5228],[130.94301,32.52504],[130.94343,32.5267],[130.94506,32.52731],[130.94623,32.52886],[130.94536,32.53029],[130.94751,32.53218],[130.94495,32.53063],[130.94464,32.52924],[130.9431,32.52799],[130.94138,32.52957],[130.94096,32.53043],[130.94188,32.53246],[130.94014,32.53366],[130.93956,32.53552],[130.94082,32.5384],[130.94033,32.53949],[130.94178,32.54103],[130.94204,32.54423],[130.93864,32.54862],[130.93442,32.55018],[130.93409,32.55362],[130.92247,32.55557],[130.91364,32.56333],[130.91317,32.56497],[130.90953,32.56706],[130.90953,32.56941],[130.90559,32.57336],[130.90337,32.57384],[130.90203,32.57514],[130.90039,32.57558],[130.90024,32.57395],[130.89824,32.57412],[130.8959,32.57234],[130.89452,32.57302],[130.89389,32.5719],[130.89131,32.57305],[130.89129,32.57364],[130.89331,32.57342],[130.89439,32.57639],[130.89727,32.57584],[130.89776,32.5775],[130.89722,32.57634],[130.89547,32.57651],[130.89394,32.57823],[130.89238,32.57589],[130.89005,32.57827],[130.89005,32.5774],[130.88786,32.57633],[130.88876,32.57697],[130.88732,32.57668],[130.88574,32.57865],[130.88444,32.57884],[130.88739,32.57789],[130.88811,32.57895],[130.88693,32.57885],[130.88691,32.58078],[130.88447,32.58227],[130.88663,32.58429],[130.88426,32.58656],[130.88058,32.58793],[130.88165,32.58914],[130.88512,32.59017],[130.88396,32.59152],[130.88528,32.59266],[130.88474,32.59177],[130.88619,32.59165],[130.88764,32.59029],[130.88691,32.59462],[130.89043,32.59976],[130.88748,32.60162],[130.88676,32.60418],[130.88412,32.60579],[130.88398,32.60785],[130.88216,32.60898],[130.88242,32.61057],[130.87534,32.61789],[130.87339,32.62238],[130.87644,32.62407],[130.88103,32.62352],[130.88295,32.62409],[130.88853,32.62846],[130.88832,32.63002],[130.89145,32.63341],[130.89686,32.6324],[130.89913,32.63281],[130.91001,32.63686],[130.91758,32.64275],[130.92277,32.64274],[130.92676,32.64491],[130.92752,32.64645],[130.92583,32.64662],[130.92488,32.64792],[130.92778,32.65345],[130.92994,32.65368],[130.93316,32.65162],[130.93658,32.65152],[130.94962,32.65396],[130.95571,32.65981],[130.96452,32.66024],[130.96728,32.66189],[130.96762,32.6638],[130.96921,32.66475],[130.97764,32.66645],[130.97942,32.67422],[130.97824,32.6841],[130.97876,32.68794],[130.97965,32.68917],[130.98385,32.68914],[130.98124,32.69047],[130.98133,32.69254],[130.97862,32.69801],[130.97879,32.70017],[130.97731,32.70182],[130.9779,32.70684],[130.97476,32.70815],[130.97223,32.71336],[130.966,32.71777],[130.96518,32.72192],[130.95945,32.72571],[130.95593,32.72722],[130.95437,32.72704],[130.95203,32.72957],[130.94555,32.73241],[130.94365,32.73473],[130.93643,32.73436],[130.93359,32.73529],[130.9287,32.73425],[130.9222,32.73542],[130.92005,32.73403],[130.91104,32.73508],[130.90394,32.73798],[130.90114,32.73681],[130.89834,32.73756],[130.893,32.73535],[130.88397,32.72859],[130.87842,32.72758],[130.87731,32.72622],[130.87752,32.72471],[130.87355,32.7227],[130.87255,32.72285],[130.86937,32.72617],[130.86753,32.72632],[130.86543,32.72381],[130.86195,32.72312],[130.85845,32.719],[130.85719,32.71601],[130.85211,32.71371],[130.85127,32.71213],[130.85224,32.71095],[130.84953,32.71121],[130.84822,32.71245],[130.84709,32.71011],[130.84109,32.70998],[130.83857,32.70846],[130.836,32.71014],[130.83385,32.70881],[130.83083,32.70528],[130.8248,32.70432],[130.82402,32.70342],[130.82407,32.70072],[130.82202,32.69984],[130.81789,32.70294],[130.81657,32.70508],[130.81082,32.7023],[130.80771,32.706],[130.80316,32.70873],[130.80564,32.71156],[130.80219,32.71608],[130.7871,32.72175],[130.77271,32.73319],[130.7681,32.7339],[130.75859,32.73318],[130.75037,32.73544],[130.74956,32.73715],[130.74135,32.74452],[130.73864,32.75179],[130.74156,32.74436],[130.74964,32.73718],[130.75047,32.73551],[130.7588,32.73323],[130.76908,32.734],[130.77283,32.73323],[130.78733,32.72172],[130.80175,32.71658],[130.80589,32.71142],[130.80316,32.70873]],[[130.73864,32.75179],[130.71725,32.77649],[130.71503,32.78039],[130.71395,32.78894],[130.71093,32.78776],[130.70997,32.79247],[130.70691,32.79694]],[[130.80589,32.71142],[130.80564,32.71156]]]}}]}