{"type":"FeatureCollection","features":[{"type":"Feature","properties":{"route_id":"203","route_number":203,"name":"国道203号","source":"OpenStreetMap contributors (ODbL)","osm_relations":[9361958,9561517,9561518,9561615]},"geometry":{"type":"MultiLineString","coordinates":[[[130.29385,33.27422],[130.26772,33.27145],[130.25651,33.26673],[130.22748,33.26192],[130.20298,33.29238],[130.20065,33.29358],[130.16906,33.29059],[130.16323,33.28616],[130.16042,33.28271],[130.15336,33.28246],[130.14553,33.28359],[130.14182,33.2832],[130.11976,33.28922],[130.11631,33.29075],[130.11865,33.29223],[130.11819,33.29286]],[[130.12102,33.2914],[130.11575,33.29386],[130.10041,33.29844],[130.09183,33.30291],[130.08465,33.30501],[130.07729,33.31056],[130.0703,33.31105],[130.06001,33.3171],[130.04957,33.31826],[130.03774,33.32354],[130.03538,33.32631],[130.03488,33.33186],[130.03376,33.3345],[130.02981,33.33878],[130.02706,33.33942],[130.02662,33.34255],[130.02733,33.34354],[130.02127,33.34784],[130.01672,33.34799],[130.01407,33.35048],[130.00992,33.35274],[130.00449,33.35376],[130.0035,33.35667],[130.00577,33.36016],[130.00533,33.36372],[129.99137,33.37807],[129.98799,33.37993],[129.98343,33.38518],[129.98307,33.38938],[129.97707,33.3989],[129.97271,33.40377],[129.97466,33.40642],[129.98214,33.41235],[129.98608,33.4179],[129.9872,33.4244],[129.98618,33.42605],[129.98365,33.42716],[129.98264,33.42847]],[[130.13523,33.28787],[130.13236,33.28879],[130.13492,33.28789],[130.14117,33.28812],[130.15311,33.28617],[130.15726,33.28645],[130.16218,33.28796]],[[130.1203,33.29152],[130.11573,33.29382],[130.10039,33.2984],[130.09097,33.30321],[130.0846,33.30495],[130.07757,33.31038],[130.07329,33.31082]],[[130.07117,33.31138],[130.06804,33.3121]],[[129.98273,33.42861],[129.98356,33.42737],[129.98646,33.42592],[129.98731,33.42441],[129.98622,33.41796],[129.9822,33.41226],[129.9747,33.40633],[129.97277,33.40369]],[[130.12133,33.2913],[130.11865,33.29223],[130.13236,33.28879]],[[130.07085,33.31107],[130.06874,33.31174]],[[130.1177,33.2918],[130.11693,33.2932],[130.1146,33.29412]],[[130.22734,33.2621],[130.25665,33.26684],[130.26775,33.27154],[130.2938,33.27441]],[[130.11866,33.29211],[130.11631,33.29075]]]}}]}