{"type":"FeatureCollection","features":[{"type":"Feature","properties":{"route_id":"409","route_number":409,"name":"国道409号","source":"OpenStreetMap contributors (ODbL)","osm_relations":[33003]},"geometry":{"type":"MultiLineString","coordinates":[[[139.92816,35.42893],[139.92733,35.42857],[139.92125,35.43386],[139.91067,35.43959],[139.79835,35.51572],[139.78889,35.51953],[139.75887,35.53741],[139.73485,35.53711],[139.75852,35.53785],[139.78786,35.52062],[139.79976,35.51517],[139.91073,35.43967],[139.92038,35.43542],[139.93536,35.42226],[139.95903,35.41136],[139.96272,35.40801],[139.96623,35.40305],[139.96929,35.39303],[139.97096,35.38989],[139.97095,35.38828]],[[139.94674,35.41686],[139.95719,35.41213],[139.96309,35.407],[139.96676,35.40096],[139.97085,35.38831],[139.97397,35.38764],[139.98998,35.38844],[140.00136,35.3863],[140.00504,35.38468],[140.00678,35.38823],[140.02062,35.38386],[140.02752,35.38412],[140.03729,35.38663],[140.04331,35.38613],[140.04797,35.3889],[140.05111,35.38944],[140.06162,35.38679],[140.06836,35.38873],[140.07244,35.38585],[140.07372,35.38665],[140.07605,35.38584],[140.07965,35.38789],[140.08064,35.39106],[140.08226,35.39212],[140.09353,35.39069],[140.09493,35.39307],[140.09891,35.39015],[140.10275,35.39017],[140.10489,35.38894],[140.11129,35.38907],[140.11529,35.39033],[140.117,35.39238],[140.12539,35.3964],[140.12843,35.39592],[140.13669,35.39713],[140.13863,35.39934],[140.14621,35.39852],[140.14754,35.39768],[140.15508,35.39932],[140.16067,35.39895],[140.16758,35.40071],[140.16852,35.40122],[140.16925,35.40345],[140.17596,35.40661],[140.18235,35.40549],[140.18729,35.4021],[140.18829,35.39809],[140.19224,35.39607],[140.19504,35.39718],[140.19996,35.39681],[140.20593,35.40048],[140.21555,35.39845],[140.21982,35.39533],[140.22994,35.40064],[140.23406,35.40147],[140.24087,35.40727],[140.24282,35.41005],[140.24732,35.41306],[140.25109,35.41438],[140.25296,35.41612],[140.25732,35.41797],[140.26358,35.41803],[140.26461,35.41904],[140.26515,35.42296],[140.26709,35.42424],[140.28029,35.42522],[140.2874,35.42445],[140.28644,35.43594],[140.29675,35.4487],[140.30083,35.46619],[140.30356,35.47415],[140.31021,35.47687],[140.31197,35.47873],[140.31982,35.50961],[140.33287,35.532],[140.34065,35.53911],[140.34344,35.54511],[140.34999,35.55034],[140.33013,35.57261],[140.3245,35.57552],[140.32423,35.57746],[140.32601,35.58145],[140.3216,35.58791],[140.31992,35.58845],[140.32029,35.59084],[140.3194,35.59229],[140.32152,35.61222],[140.31921,35.61805],[140.319,35.62047],[140.32272,35.62419],[140.32139,35.62831],[140.32098,35.63702],[140.31823,35.64941],[140.31975,35.65752],[140.31954,35.6681],[140.31758,35.6722],[140.31724,35.67616],[140.31081,35.68645],[140.30755,35.69673],[140.30885,35.70009],[140.31451,35.70435],[140.31469,35.70686],[140.31685,35.71196],[140.31556,35.71501],[140.31574,35.71728],[140.31292,35.72154],[140.31236,35.72432],[140.31605,35.72663],[140.31616,35.72855],[140.31506,35.73031],[140.31595,35.73811],[140.31551,35.74105],[140.31705,35.74306],[140.3082,35.75058],[140.31362,35.74571]],[[139.7079,35.53426],[139.71362,35.5343],[139.71821,35.53289],[139.72716,35.5362],[139.72629,35.53536],[139.72301,35.53494],[139.71754,35.5328],[139.71353,35.5342],[139.70541,35.53476],[139.69817,35.53817],[139.69359,35.54307],[139.6847,35.54671],[139.67986,35.55297],[139.67298,35.55454],[139.67215,35.55752],[139.66731,35.5638],[139.65925,35.57284],[139.65547,35.57543],[139.65,35.58283]],[[139.68089,35.5515],[139.68489,35.54665],[139.69342,35.54326],[139.69726,35.53962]],[[140.30465,35.76065],[140.30316,35.75482],[140.30373,35.75405]],[[139.72716,35.5362],[139.72836,35.53689],[139.73485,35.53711]],[[140.32528,35.57482],[140.32802,35.57421],[140.33022,35.57271],[140.34999,35.55034]],[[140.31163,35.47814],[140.31011,35.47671],[140.30483,35.4751],[140.30351,35.47385],[140.30089,35.46607],[140.29689,35.44877],[140.28652,35.43589],[140.2874,35.42445]],[[139.93536,35.42226],[139.93452,35.42322]],[[140.30374,35.75402],[140.3082,35.75058]],[[139.64821,35.584],[139.64248,35.58651],[139.63577,35.59243],[139.63228,35.59725],[139.62942,35.5995],[139.62236,35.60067],[139.61018,35.60628]]]}}]}