{"type":"FeatureCollection","features":[{"type":"Feature","properties":{"route_id":"272","route_number":272,"name":"国道272号","source":"OpenStreetMap contributors (ODbL)","osm_relations":[6651341,10378347,10378348,10378349,10378350,10378351]},"geometry":{"type":"MultiLineString","coordinates":[[[144.38592,42.97993],[144.38592,42.97993]],[[144.38441,42.9845],[144.39095,42.98575],[144.39546,42.98917],[144.40004,42.99744],[144.3998,42.99912],[144.39795,43.00146],[144.40176,43.00599],[144.40969,43.01103],[144.423,42.99998],[144.4339,42.99682],[144.43908,42.99632],[144.43404,42.99668],[144.42369,42.99951],[144.40966,43.01093],[144.40187,43.00592],[144.39812,43.00147],[144.39991,42.99921],[144.40019,42.99743],[144.3956,42.98916],[144.39081,42.98559],[144.38441,42.9845],[144.38596,42.98015]],[[145.13629,43.65138],[145.13172,43.64681],[145.12764,43.64573],[145.12217,43.64265],[145.11683,43.63659],[145.09746,43.62316],[145.09349,43.61735],[145.08707,43.61453],[145.0849,43.6103],[145.07654,43.60941],[145.06651,43.60307],[145.0562,43.59844],[145.04991,43.5927],[145.04431,43.5906],[145.03881,43.58641],[145.03525,43.58495],[145.03155,43.58477],[145.02443,43.58204],[145.0141,43.57326],[145.01299,43.5705],[145.00923,43.56535],[145.00124,43.5599],[145.00004,43.5535],[144.99892,43.55176],[144.97278,43.53451],[144.96977,43.53377],[144.96134,43.53559],[144.95859,43.53549],[144.943,43.52885],[144.9469,43.51965],[144.9512,43.4938],[144.93842,43.45802],[144.86768,43.41096],[144.86704,43.40937],[144.86683,43.3851],[144.86482,43.38154],[144.81982,43.35264],[144.7705,43.31944],[144.76423,43.31677],[144.75174,43.31381],[144.76667,43.31768]],[[144.38564,42.98007],[144.3857,42.98055]],[[144.84481,43.36883],[144.86419,43.38123],[144.86636,43.3835]],[[144.79829,43.33806],[144.81201,43.34712]],[[144.75174,43.31381],[144.74037,43.31105],[144.73949,43.30978],[144.74013,43.30408],[144.73903,43.30206],[144.73354,43.29746],[144.72456,43.29674],[144.71902,43.29302],[144.71559,43.2889],[144.71596,43.28435],[144.72098,43.27712],[144.7218,43.27247],[144.72541,43.2695],[144.72631,43.2675],[144.72587,43.26301],[144.7238,43.26036],[144.72293,43.25702],[144.72332,43.24776],[144.72046,43.24273],[144.71923,43.23809],[144.7066,43.23107],[144.70094,43.22644],[144.69016,43.22487],[144.68576,43.22296],[144.68319,43.21882],[144.67893,43.21602],[144.6763,43.20965],[144.66578,43.20178],[144.66374,43.19829],[144.65992,43.19586],[144.65867,43.1921],[144.66039,43.1863],[144.66415,43.18273],[144.66647,43.17791],[144.66073,43.17058],[144.65763,43.16446],[144.65585,43.15204],[144.65324,43.14944],[144.64958,43.14323],[144.65026,43.13594],[144.64705,43.13066],[144.64435,43.12244],[144.63381,43.11362],[144.63332,43.10945],[144.62896,43.10548],[144.62603,43.10076],[144.62612,43.09668],[144.61895,43.08742],[144.61418,43.08549],[144.6119,43.08269],[144.60006,43.07658],[144.59872,43.07155],[144.59175,43.06864],[144.59051,43.06522],[144.57645,43.05283],[144.57388,43.04542],[144.56921,43.04164],[144.56715,43.03743],[144.55802,43.03151],[144.55603,43.02859],[144.54765,43.02741],[144.54386,43.02294],[144.53876,43.02074],[144.53195,43.02107],[144.52282,43.01896],[144.51422,43.01098],[144.50256,43.00438],[144.5014,43.00263],[144.50143,43.00039],[144.49431,42.99767],[144.4871,42.99648],[144.47937,42.99757],[144.47433,42.99421],[144.46546,42.99507],[144.45982,42.99349],[144.45785,42.99058],[144.45625,42.98983],[144.45472,42.99024],[144.44907,42.9948],[144.43908,42.99632]],[[144.51047,43.00836],[144.5071,43.00981],[144.50226,43.00921],[144.50068,43.00766],[144.50118,43.00462],[144.50217,43.00385]],[[144.62047,43.08934],[144.62611,43.09689],[144.62578,43.10036],[144.62852,43.10502],[144.63332,43.10963],[144.6336,43.11348],[144.64394,43.12194],[144.64697,43.13069],[144.64939,43.13401]],[[144.51146,43.00907],[144.50293,43.00453],[144.50135,43.00202]],[[144.54306,43.02251],[144.54166,43.02258],[144.54033,43.02433],[144.5322,43.02756],[144.53129,43.02685],[144.53072,43.0231],[144.52413,43.02021],[144.52363,43.01929]]]}}]}