{"type":"FeatureCollection","features":[{"type":"Feature","properties":{"route_id":"408","route_number":408,"name":"国道408号","source":"OpenStreetMap contributors (ODbL)","osm_relations":[7418329,13660961]},"geometry":{"type":"MultiLineString","coordinates":[[[140.0672,36.19067],[140.07167,36.18056],[140.07101,36.17001],[140.07649,36.16014],[140.07958,36.14277],[140.0825,36.13835],[140.07958,36.13566],[140.07369,36.12185],[140.07327,36.1177],[140.07444,36.11223],[140.0773,36.10837],[140.09817,36.09412],[140.10931,36.07855],[140.09714,36.07291],[140.10242,36.06144],[140.10158,36.0526],[140.10191,36.03998],[140.10314,36.03608],[140.10573,36.0334],[140.13042,36.01577],[140.13269,36.01244],[140.13868,35.99831],[140.14599,35.99092],[140.15343,35.98757],[140.16094,35.9823],[140.16964,35.98184],[140.17547,35.97701],[140.18553,35.97324],[140.18806,35.97119],[140.1886,35.96869],[140.19049,35.9666],[140.19662,35.96661],[140.2005,35.9653],[140.20318,35.96296],[140.20621,35.96199],[140.20981,35.95847],[140.21624,35.95823],[140.21856,35.95477],[140.22726,35.94917],[140.23017,35.9488],[140.24316,35.95217],[140.24578,35.95179],[140.24688,35.95105],[140.24959,35.94584],[140.25114,35.94472],[140.25368,35.94435],[140.25655,35.94121],[140.2598,35.93951],[140.26162,35.93748],[140.26282,35.93413],[140.26968,35.92841],[140.27651,35.92623],[140.28176,35.92328],[140.28975,35.9228],[140.29026,35.92132],[140.28971,35.91556],[140.28351,35.90355],[140.28016,35.88946],[140.2812,35.88809],[140.29434,35.88208],[140.29599,35.87915],[140.28643,35.86611],[140.28494,35.86277],[140.29912,35.85673],[140.29854,35.85326],[140.29602,35.84925],[140.29668,35.84535],[140.29912,35.84259],[140.30383,35.8393],[140.30503,35.83498],[140.30121,35.82664],[140.30106,35.8247],[140.30223,35.82112],[140.30452,35.81919],[140.3075,35.81426],[140.31299,35.81],[140.31163,35.80418],[140.31314,35.79962],[140.3126,35.79551],[140.31886,35.79424],[140.32348,35.79168],[140.32705,35.79119],[140.33128,35.78775]],[[140.31314,35.79962],[140.31272,35.79556],[140.31911,35.79425],[140.32351,35.79177],[140.3273,35.7912],[140.33137,35.7878]],[[139.98865,36.18789],[139.98404,36.20169],[139.98639,36.22119],[139.98236,36.25734],[139.98382,36.26324],[139.97821,36.27642],[139.97103,36.28577],[139.97079,36.29438],[139.96763,36.30091],[139.96658,36.30498],[139.96662,36.30858],[139.97159,36.33733],[139.9687,36.34698],[139.969,36.35474],[139.96591,36.36232],[139.96909,36.35489],[139.96881,36.34695],[139.97168,36.3376],[139.96676,36.30876],[139.9668,36.30413],[139.97091,36.29437],[139.9706,36.28809],[139.9713,36.28537],[139.97824,36.27661],[139.98394,36.26323],[139.98246,36.25754],[139.98651,36.22111],[139.98423,36.20105],[139.98686,36.19509],[139.98865,36.18789],[139.99609,36.18669],[140.00069,36.18739],[139.99588,36.18673]],[[140.14511,35.99161],[140.13827,35.99878],[140.13258,36.01241],[140.13032,36.01572],[140.10516,36.03371],[140.10234,36.0374],[140.10146,36.05258],[140.1023,36.06143],[140.09703,36.073],[140.10914,36.07859],[140.09799,36.09416],[140.07748,36.1081],[140.07432,36.11221],[140.07316,36.11772],[140.07358,36.12186],[140.07961,36.13594],[140.08231,36.13836],[140.07947,36.14276],[140.0764,36.16007],[140.07088,36.17004],[140.07154,36.18052],[140.06709,36.19067],[140.05848,36.19055],[140.04801,36.18721],[140.03287,36.18569],[140.02935,36.18603],[140.01624,36.19047],[140.00637,36.1875],[140.00069,36.18739]],[[139.96251,36.43895],[139.96532,36.41717],[139.97099,36.4004],[139.96942,36.39758],[139.97095,36.40034],[139.96512,36.41778],[139.96286,36.43326],[139.96199,36.45019],[139.96307,36.45783],[139.96765,36.47498],[139.97027,36.4819],[139.96933,36.48831],[139.96997,36.49198],[139.96818,36.49725],[139.9656,36.52378],[139.96538,36.5299],[139.96656,36.53662],[139.96612,36.53905],[139.96886,36.54485],[139.96894,36.54805],[139.97136,36.55014],[139.97262,36.55311],[139.97292,36.56137],[139.97504,36.56555],[139.97668,36.57371],[139.97489,36.57696],[139.97497,36.5839],[139.97745,36.5858],[139.97925,36.58984],[139.97853,36.59237],[139.97611,36.59468],[139.97512,36.60099],[139.97692,36.60319],[139.97748,36.60701],[139.97514,36.61042]],[[139.9742,36.4358],[139.97394,36.44041],[139.97475,36.44535],[139.98058,36.4619],[139.98275,36.46467],[139.98894,36.46894],[139.98999,36.47117],[139.99164,36.49177],[139.9889,36.50031],[139.98371,36.52532],[139.98432,36.52771],[139.98763,36.53266]],[[139.98795,36.53268],[139.98432,36.52739],[139.98383,36.52502],[139.98893,36.50069],[139.99175,36.49177],[139.99007,36.47096],[139.98903,36.46888],[139.98236,36.46421],[139.98045,36.46133],[139.97473,36.44481],[139.97421,36.43863],[139.9749,36.43102],[139.97117,36.4221],[139.97163,36.41964],[139.97329,36.41745],[139.97916,36.41463],[139.97391,36.41686],[139.97131,36.42012],[139.97121,36.42303],[139.97386,36.42886]],[[139.96591,36.36232],[139.96381,36.37233],[139.96429,36.38546],[139.96552,36.39042],[139.96942,36.39758]],[[139.98374,36.58702],[139.98514,36.5934],[139.98344,36.60886],[139.98232,36.61258],[139.98351,36.60916],[139.98527,36.59295],[139.98353,36.58593],[139.98449,36.57481],[139.98263,36.56321]],[[140.07171,36.17917],[140.07161,36.17917]],[[139.9837,36.58303],[139.98459,36.57426],[139.98273,36.5632]],[[139.98354,36.567],[139.98351,36.56685]],[[140.08231,36.13836],[140.08242,36.13843]],[[140.03491,36.18586],[140.02986,36.18582],[140.02421,36.18803]],[[139.98313,36.56686],[139.98315,36.56698]]]}}]}