{"type":"FeatureCollection","features":[{"type":"Feature","properties":{"route_id":"459","route_number":459,"name":"国道459号","source":"OpenStreetMap contributors (ODbL)","osm_relations":[7240653,12588060]},"geometry":{"type":"MultiLineString","coordinates":[[[139.07204,37.90029],[139.07092,37.8984],[139.0712,37.89684],[139.08134,37.88126]],[[139.10787,37.85657],[139.11499,37.85876],[139.12178,37.85803],[139.13936,37.85091],[139.14276,37.84685],[139.1445,37.84263],[139.1416,37.8484],[139.13879,37.85118],[139.12104,37.8582],[139.11502,37.85868],[139.10507,37.85616],[139.09426,37.85924],[139.09181,37.86184],[139.08102,37.88154]],[[140.33414,37.65568],[140.33361,37.65614],[140.33285,37.6554],[140.33432,37.65446],[140.33484,37.65612],[140.33279,37.65481],[140.32783,37.65594],[140.32601,37.65527],[140.32565,37.65408],[140.32636,37.65308],[140.3305,37.65216],[140.33058,37.65094],[140.32952,37.65019],[140.32376,37.6508],[140.32282,37.65158],[140.32259,37.65368],[140.32104,37.65434],[140.31803,37.6529],[140.31266,37.65244],[140.3081,37.6498],[140.30558,37.64945],[140.30286,37.65078],[140.29857,37.6576],[140.29585,37.65909],[140.2925,37.65931],[140.25002,37.65058],[140.24845,37.65115],[140.24755,37.6525],[140.24873,37.65553],[140.24817,37.65708],[140.24626,37.65796],[140.24273,37.65789],[140.24024,37.65608],[140.2389,37.6523],[140.2385,37.6467],[140.23533,37.64484],[140.22672,37.64346],[140.22158,37.64144],[140.21852,37.63818],[140.21763,37.6345],[140.20517,37.62125],[140.19378,37.61955],[140.18783,37.6202],[140.18317,37.62178],[140.17272,37.6219],[140.16867,37.62348],[140.16103,37.62205],[140.15121,37.62151],[140.14654,37.61985],[140.14472,37.61489],[140.13817,37.61125],[140.13705,37.60658],[140.13173,37.60765],[140.12608,37.6055],[140.12179,37.60766],[140.11796,37.61152],[140.11717,37.61707],[140.11359,37.6207],[140.11325,37.62235],[140.10477,37.62661],[140.10325,37.63622],[140.09837,37.64065],[140.0996,37.64278],[140.09928,37.64553],[140.10191,37.64709],[140.10143,37.6499],[140.09447,37.65333],[140.09215,37.6562],[140.08699,37.65819],[140.08522,37.65973],[140.08187,37.66018],[140.07536,37.65823],[140.07252,37.65872],[140.07008,37.65545],[140.0664,37.65616],[140.06693,37.65459],[140.06468,37.65225],[140.06421,37.64972],[140.06217,37.6483],[140.05561,37.64698],[140.0462,37.64138],[140.04427,37.63928],[140.04306,37.63966],[140.04273,37.64123],[140.03866,37.64347],[140.03676,37.64231],[140.03541,37.64292],[140.03349,37.6412],[140.02969,37.63995],[140.02957,37.6411],[140.03526,37.64573],[140.03753,37.64976],[140.04193,37.66128],[140.04141,37.66302],[140.04357,37.66227],[140.04547,37.66378],[140.04109,37.66505],[140.04181,37.6675],[140.04131,37.66836],[140.0373,37.66907],[140.03235,37.66739],[140.03121,37.66483],[140.02623,37.66112],[140.02314,37.66035],[140.01815,37.66114],[140.00963,37.65815],[140.00873,37.65903],[140.01072,37.66228],[140.01215,37.66321],[140.01197,37.6641],[140.0095,37.66388],[140.00775,37.66223],[140.00395,37.66237],[140.00137,37.66],[139.99831,37.66151],[139.99519,37.66195],[139.99131,37.66098],[139.98945,37.66385],[139.99187,37.66426],[139.99574,37.66795],[139.99452,37.66899],[139.98892,37.66946],[139.98167,37.66767],[139.97587,37.66856],[139.97257,37.66817],[139.96355,37.66424],[139.96095,37.66213],[139.94843,37.66068],[139.94479,37.65643],[139.94252,37.65537],[139.93422,37.65502],[139.92863,37.65741],[139.91984,37.65892],[139.91276,37.65796],[139.905,37.65803],[139.8855,37.6553],[139.87308,37.65476],[139.87196,37.6573],[139.87168,37.66561],[139.86671,37.6649],[139.84584,37.66662],[139.83989,37.66846],[139.84015,37.6694],[139.83667,37.6691],[139.83526,37.6702],[139.83086,37.66974],[139.82897,37.66813],[139.82662,37.66744],[139.81559,37.67079],[139.81173,37.66807],[139.80833,37.66731],[139.80923,37.66847],[139.80718,37.66799],[139.80477,37.67212],[139.8064,37.67221],[139.80536,37.67305],[139.80578,37.67428],[139.80469,37.67603],[139.80437,37.67477],[139.8036,37.67525],[139.80345,37.67441],[139.80037,37.67684],[139.79786,37.67561],[139.79608,37.67788],[139.79212,37.67904],[139.79013,37.67589],[139.78617,37.67548],[139.78242,37.67375],[139.78438,37.67073],[139.77894,37.66618],[139.77879,37.66502],[139.77436,37.65994],[139.77522,37.65205],[139.77342,37.64869],[139.76044,37.65449],[139.75915,37.65711],[139.75715,37.65771],[139.75466,37.66145],[139.75251,37.6637],[139.75088,37.664],[139.74902,37.66634],[139.74711,37.66623],[139.74419,37.66751],[139.74245,37.66969],[139.73524,37.66957],[139.73028,37.67158],[139.72697,37.67526],[139.7243,37.67666],[139.72382,37.67799],[139.72181,37.67855],[139.7218,37.68122],[139.71971,37.68694],[139.71715,37.68792],[139.71658,37.69005],[139.71445,37.69216],[139.71542,37.69336],[139.71192,37.69439],[139.70997,37.69379],[139.71079,37.69497],[139.70962,37.6951],[139.70542,37.69264],[139.70318,37.68875],[139.70078,37.68714],[139.70079,37.68571],[139.69956,37.68452],[139.69694,37.68351],[139.6927,37.68431],[139.69139,37.68309],[139.68951,37.6829],[139.68954,37.68203],[139.68813,37.68187],[139.6867,37.67985],[139.68622,37.68101],[139.68551,37.68026],[139.68418,37.6839],[139.68239,37.68175],[139.68169,37.68323],[139.67856,37.68315],[139.67588,37.68569],[139.67523,37.6852],[139.67508,37.68599],[139.6724,37.68683],[139.67042,37.68563],[139.66561,37.68521],[139.65875,37.6823],[139.65007,37.67674],[139.64794,37.67419],[139.64348,37.6736],[139.64052,37.67457],[139.63669,37.67425],[139.63629,37.67484],[139.63733,37.67592],[139.6366,37.67643],[139.63556,37.67513],[139.63349,37.67495],[139.63478,37.67334],[139.63391,37.67264],[139.62373,37.67372],[139.61622,37.67221],[139.61469,37.6706],[139.61532,37.66701],[139.61472,37.66544],[139.61018,37.66752],[139.60884,37.66691],[139.60418,37.66764],[139.59326,37.6644],[139.59115,37.66522],[139.59055,37.6683],[139.58907,37.66967],[139.57561,37.67236],[139.57296,37.67619],[139.57552,37.68037],[139.57855,37.68325],[139.57522,37.68511],[139.5757,37.68736],[139.58029,37.69215],[139.57696,37.69419],[139.57436,37.69424],[139.569,37.69613],[139.56895,37.69963],[139.57003,37.70146],[139.57017,37.70466],[139.56943,37.70707],[139.56779,37.70851],[139.56053,37.71029],[139.55465,37.70861],[139.54784,37.70867],[139.53857,37.70531],[139.53039,37.70669],[139.52347,37.71164],[139.52598,37.71648],[139.5216,37.71797],[139.51915,37.71764],[139.51316,37.72052],[139.51022,37.72096],[139.50704,37.7203],[139.5018,37.72216],[139.4911,37.72412],[139.48415,37.72308],[139.47909,37.72079],[139.47319,37.71168],[139.46774,37.7077],[139.46689,37.70527],[139.46706,37.70323],[139.47023,37.70164],[139.47428,37.70154],[139.47727,37.70021],[139.48334,37.70185],[139.48746,37.69956],[139.48727,37.69864],[139.48315,37.69714],[139.48342,37.69324],[139.48106,37.68858],[139.47541,37.68535],[139.46798,37.68374],[139.46487,37.6842],[139.45692,37.67629],[139.4529,37.67913],[139.44378,37.68073],[139.43867,37.68093],[139.42828,37.67975],[139.42525,37.68079],[139.40062,37.69492],[139.3964,37.69633],[139.38524,37.69763],[139.38321,37.69851],[139.38048,37.70329],[139.38071,37.70986],[139.38215,37.71266],[139.37827,37.71793],[139.37075,37.71587],[139.36197,37.7166],[139.34727,37.72601],[139.34425,37.72906],[139.33961,37.73064],[139.33445,37.73129],[139.33073,37.73258],[139.32743,37.7349],[139.32429,37.73493],[139.31902,37.73975],[139.31467,37.73945],[139.30987,37.7405],[139.30302,37.73704],[139.29293,37.73904],[139.28595,37.73826],[139.27937,37.7389],[139.2529,37.74872],[139.24377,37.76064],[139.22537,37.77486],[139.2252,37.7781],[139.22965,37.78727],[139.22918,37.79125],[139.2299,37.79683],[139.22848,37.7992],[139.22339,37.80321],[139.22121,37.80995],[139.21553,37.81575],[139.21452,37.82345],[139.212,37.82704],[139.20521,37.83214],[139.19866,37.83438],[139.18802,37.83565],[139.17901,37.83791],[139.16863,37.83688],[139.16151,37.84005],[139.14772,37.84069],[139.1445,37.84263]],[[140.42305,37.58023],[140.42577,37.58228],[140.42523,37.58394],[140.42814,37.58114],[140.42955,37.5821],[140.43731,37.58391],[140.44301,37.58451],[140.44711,37.5863],[140.44794,37.58523],[140.45135,37.58454],[140.4564,37.58183],[140.45822,37.57953],[140.45766,37.57771],[140.45824,37.57686],[140.46722,37.57507],[140.46914,37.57231],[140.47121,37.57256],[140.47627,37.57022],[140.48346,37.57246],[140.49082,37.56942],[140.49319,37.56915],[140.49522,37.56676],[140.49929,37.56723],[140.50152,37.56611],[140.50622,37.56822],[140.50894,37.56845],[140.50779,37.56081],[140.51247,37.55969],[140.51371,37.55806],[140.51734,37.55693],[140.51867,37.55552],[140.52719,37.55154],[140.52808,37.54894],[140.53555,37.54327],[140.53617,37.53771],[140.54559,37.5315],[140.54958,37.53197],[140.55236,37.53424],[140.56106,37.53564],[140.56594,37.53913],[140.57472,37.54017],[140.58121,37.53785],[140.58943,37.53716],[140.59088,37.53549],[140.58932,37.53264],[140.5915,37.53051],[140.59556,37.52836],[140.59978,37.5297],[140.60147,37.53239],[140.60722,37.53372],[140.61051,37.53058],[140.6131,37.53261],[140.61742,37.53398],[140.61825,37.53579],[140.62387,37.53925],[140.62396,37.54142],[140.62703,37.54436],[140.63348,37.54732],[140.63993,37.54844],[140.64264,37.55131],[140.64346,37.5542],[140.64828,37.55687],[140.65229,37.55823],[140.65645,37.55828],[140.6593,37.55994],[140.66555,37.55943],[140.66799,37.56034],[140.6696,37.55965],[140.67094,37.56032],[140.67416,37.56002],[140.67941,37.56356],[140.68635,37.56209],[140.69174,37.56478],[140.69353,37.56835],[140.69498,37.56837],[140.69672,37.56752],[140.69751,37.5661],[140.70118,37.56506],[140.70349,37.56249],[140.71482,37.55703],[140.71794,37.55465],[140.72811,37.55224],[140.72909,37.55292],[140.73233,37.55224],[140.73577,37.55334],[140.73905,37.55533],[140.73986,37.55779],[140.74092,37.55853],[140.74703,37.55986],[140.75568,37.5581],[140.75951,37.55869],[140.76616,37.5613],[140.77569,37.55646],[140.78223,37.55479],[140.78651,37.55748],[140.78964,37.56147],[140.79301,37.56181],[140.796,37.56536],[140.80052,37.56724],[140.80595,37.56293],[140.81258,37.56289],[140.81721,37.56063],[140.82892,37.56057],[140.83241,37.55731],[140.83388,37.55353],[140.83765,37.55352],[140.84068,37.5516],[140.84327,37.54658],[140.8434,37.5443],[140.84478,37.54307],[140.84837,37.54275],[140.85567,37.54398],[140.86582,37.5398],[140.86674,37.53834],[140.86721,37.53472],[140.87155,37.52966],[140.8805,37.52574],[140.88704,37.52419],[140.88984,37.52234],[140.89096,37.52024],[140.89145,37.51387],[140.89341,37.51098],[140.89684,37.50887],[140.90156,37.50782],[140.90619,37.50975],[140.90839,37.50888],[140.91043,37.50632],[140.91461,37.50403],[140.91816,37.50886],[140.92291,37.50686],[140.92915,37.50857],[140.93202,37.50831],[140.93396,37.50698],[140.93917,37.50629],[140.95,37.50007],[140.95368,37.49895],[140.9571,37.49922],[140.97761,37.49591],[141.00171,37.49545]],[[140.42762,37.58214],[140.4287,37.58149],[140.42738,37.58144],[140.42554,37.58373],[140.42754,37.58239],[140.43255,37.58243],[140.43746,37.58405],[140.4434,37.58474],[140.44716,37.58705],[140.44711,37.5863]],[[140.33432,37.65446],[140.33653,37.65371],[140.33727,37.65076],[140.34075,37.64928],[140.34217,37.6457],[140.34276,37.64003],[140.34588,37.63824],[140.34618,37.63481],[140.34826,37.63402],[140.34902,37.63182],[140.35122,37.63019],[140.35083,37.62691],[140.35271,37.62501],[140.35768,37.62378],[140.36002,37.62221],[140.36033,37.61871],[140.35789,37.61254],[140.35938,37.6087],[140.35652,37.60497],[140.35632,37.60318],[140.36126,37.60129],[140.3623,37.59928],[140.36246,37.59658],[140.36545,37.59556],[140.36735,37.59607],[140.36727,37.60004],[140.37247,37.60046],[140.37076,37.60272],[140.37119,37.60334],[140.37914,37.59897],[140.38189,37.5982],[140.38406,37.6],[140.38986,37.60125],[140.39423,37.60121],[140.39745,37.60032],[140.40186,37.59631],[140.40703,37.59537],[140.40931,37.59133],[140.41115,37.59029],[140.41288,37.58728],[140.41828,37.58689],[140.42119,37.58836],[140.42214,37.5859],[140.42554,37.58373]],[[139.07129,37.89642],[139.07079,37.89831],[139.07174,37.90007]],[[139.08846,37.86835],[139.09292,37.86046],[139.09801,37.85796]],[[140.42523,37.58394],[140.42492,37.5842]],[[140.42164,37.58696],[140.42113,37.58835]],[[139.80477,37.67212],[139.80345,37.67441]],[[140.53778,37.53678],[140.54014,37.53728],[140.53988,37.53529]]]}}]}