{"type":"FeatureCollection","features":[{"type":"Feature","properties":{"route_id":"394","route_number":394,"name":"国道394号","source":"OpenStreetMap contributors (ODbL)","osm_relations":[9301437]},"geometry":{"type":"MultiLineString","coordinates":[[[141.20569,40.74287],[141.20559,40.74038],[141.20773,40.73727],[141.21076,40.73855],[141.2192,40.73823],[141.22119,40.74023],[141.21771,40.74644],[141.21673,40.75159],[141.2132,40.75482],[141.2136,40.75719],[141.21217,40.76199],[141.21224,40.76645],[141.20842,40.77246],[141.20861,40.77394],[141.21615,40.77577],[141.21795,40.77913],[141.22272,40.77987],[141.23174,40.78479],[141.24498,40.7862],[141.24738,40.78706],[141.2495,40.79041],[141.25181,40.79216],[141.25375,40.79699],[141.2534,40.80097],[141.25957,40.80441],[141.25998,40.80739],[141.26266,40.80858],[141.26443,40.81328],[141.26976,40.8207],[141.27265,40.82778],[141.27223,40.8301],[141.28076,40.83003],[141.28388,40.83175],[141.28698,40.83175],[141.30495,40.84063],[141.30743,40.84042],[141.309,40.83918],[141.31084,40.84467],[141.316,40.84819],[141.32841,40.85273],[141.32821,40.85375],[141.33145,40.8561],[141.34309,40.86015],[141.35682,40.8695],[141.35855,40.86967],[141.36144,40.87225],[141.36647,40.87412],[141.36778,40.87599],[141.36941,40.88401],[141.36877,40.89426],[141.37,40.90079],[141.36861,40.90541],[141.37466,40.90927],[141.37303,40.91323],[141.37803,40.91986],[141.37918,40.92589],[141.37859,40.92707],[141.3746,40.92968],[141.37571,40.94391],[141.37513,40.94708],[141.37074,40.95385],[141.37069,40.95667],[141.37443,40.96364],[141.37535,40.97031],[141.37121,40.97871],[141.3709,40.98597],[141.3696,40.98942],[141.36795,40.99063],[141.36744,40.9951],[141.37015,41.00321],[141.37371,41.00589],[141.3774,41.01058],[141.37478,41.01508],[141.37585,41.02354],[141.38074,41.03313],[141.38102,41.03744],[141.38337,41.0401],[141.38398,41.04727],[141.38568,41.05367],[141.38507,41.05966],[141.38674,41.0635],[141.38521,41.07184],[141.38641,41.0875],[141.39216,41.09538],[141.38838,41.1025],[141.39187,41.11466],[141.39093,41.12238],[141.38724,41.13665],[141.38828,41.14112],[141.38616,41.14569],[141.3884,41.14604],[141.38702,41.15146],[141.3874,41.16387],[141.38567,41.1652],[141.38513,41.16705],[141.37629,41.16885],[141.37439,41.17069],[141.37607,41.17784],[141.3777,41.18076],[141.37746,41.18294],[141.37962,41.19011],[141.37654,41.19492],[141.37918,41.20215],[141.38112,41.20526],[141.38231,41.21027],[141.38205,41.21298],[141.3848,41.22386],[141.38514,41.23607],[141.38498,41.24256],[141.38262,41.24678],[141.37718,41.25156],[141.37731,41.25483],[141.37635,41.25655],[141.36651,41.26174],[141.36386,41.26461],[141.35614,41.26616],[141.35232,41.26471],[141.34459,41.26425],[141.33932,41.26871],[141.33134,41.27171],[141.3293,41.27124],[141.32569,41.26876],[141.32347,41.26612],[141.31905,41.26403],[141.31461,41.26405],[141.30792,41.26014],[141.30618,41.26017],[141.30245,41.26123],[141.29836,41.26351],[141.29812,41.26438],[141.29617,41.26462],[141.2942,41.2661],[141.2854,41.26867],[141.27582,41.2693],[141.2675,41.27099],[141.26635,41.27242],[141.26325,41.27387],[141.25854,41.28207],[141.25594,41.28238],[141.25105,41.28142],[141.24523,41.28221],[141.23316,41.2876],[141.23051,41.2926],[141.22059,41.2932]],[[141.38529,41.05126],[141.38402,41.05058],[141.38362,41.04907],[141.38435,41.04853]],[[140.67715,40.60931],[140.67818,40.61096],[140.68352,40.61418],[140.68811,40.62013],[140.69232,40.62243],[140.69803,40.62333],[140.70864,40.62784],[140.71423,40.63477],[140.72224,40.63668],[140.72421,40.63793],[140.73071,40.63899],[140.73233,40.64025],[140.73893,40.64162],[140.73986,40.64259],[140.74272,40.64237],[140.74815,40.64464],[140.74895,40.64579],[140.75051,40.64607],[140.7544,40.64884],[140.7645,40.65031],[140.76541,40.65274],[140.7678,40.65285],[140.76979,40.65395],[140.77026,40.65364],[140.76693,40.65169],[140.77043,40.65199],[140.77329,40.65121],[140.77657,40.64894],[140.77956,40.649],[140.78477,40.64598],[140.78923,40.645],[140.79112,40.64378],[140.80031,40.64393],[140.81098,40.642],[140.82069,40.64636],[140.82194,40.64769],[140.82437,40.64773],[140.82698,40.65193],[140.82646,40.65542],[140.82756,40.65601],[140.82828,40.65554],[140.8286,40.65306],[140.83052,40.65196],[140.83278,40.65218],[140.83609,40.65457],[140.83963,40.65133],[140.84382,40.65163],[140.84489,40.65035],[140.84741,40.64956],[140.84983,40.65051],[140.8494,40.64945],[140.85085,40.64969],[140.85259,40.64876],[140.8539,40.64651],[140.85574,40.6461],[140.85761,40.64676],[140.86223,40.63992],[140.86784,40.63695],[140.87002,40.63631],[140.87234,40.63682],[140.87662,40.63475],[140.88084,40.63527],[140.89231,40.6306],[140.89766,40.62985],[140.90556,40.63218],[140.90535,40.63135],[140.90712,40.63182],[140.90762,40.63098],[140.91094,40.63172],[140.91392,40.63038],[140.91777,40.6299],[140.91797,40.63052],[140.91979,40.62964],[140.91998,40.6302],[140.92925,40.63112],[140.92826,40.63345],[140.93229,40.63987],[140.93813,40.6415],[140.94307,40.6448],[140.9472,40.65273],[140.9549,40.65399],[140.95558,40.65766],[140.95905,40.65745],[140.95651,40.65845],[140.95658,40.65917],[140.96059,40.659],[140.9625,40.65793],[140.96054,40.66209],[140.95745,40.66559],[140.96004,40.67184],[140.96191,40.67423],[140.96263,40.67756],[140.96421,40.67896],[140.96723,40.67953],[140.96622,40.68351],[140.97248,40.68716],[140.97621,40.68491],[140.97934,40.68605],[140.98643,40.68619],[140.98812,40.68422],[140.99416,40.68034],[140.99909,40.6741],[141.00174,40.67279],[141.00432,40.67451],[141.004,40.67543],[141.00596,40.67629],[141.01171,40.67571],[141.01591,40.67618],[141.01491,40.67926],[141.01553,40.68077],[141.01895,40.67832],[141.01966,40.67688],[141.02305,40.67614],[141.02564,40.67743],[141.02537,40.67606],[141.02871,40.67804],[141.03491,40.67943],[141.04632,40.67724],[141.0543,40.6786],[141.05966,40.68073],[141.06674,40.68124],[141.07168,40.68253],[141.0754,40.68669],[141.08066,40.68968],[141.08351,40.68965],[141.08966,40.6921],[141.09643,40.69169],[141.10072,40.69288],[141.10941,40.69285],[141.12148,40.68758],[141.13341,40.6875],[141.1425,40.68989],[141.14576,40.69186],[141.14901,40.69539],[141.15167,40.69623],[141.15168,40.69747],[141.15327,40.69777],[141.15304,40.69849],[141.15965,40.69992],[141.1565,40.70307],[141.15711,40.70646],[141.16256,40.70907],[141.1679,40.71292],[141.17926,40.71744],[141.18961,40.71878],[141.19602,40.72224],[141.20352,40.72454],[141.20648,40.72748],[141.20898,40.73266],[141.20894,40.73504],[141.20773,40.73727]],[[141.20914,40.73376],[141.20904,40.73285]]]}}]}