{"type":"FeatureCollection","features":[{"type":"Feature","properties":{"route_id":"182","route_number":182,"name":"国道182号","source":"OpenStreetMap contributors (ODbL)","osm_relations":[8386008]},"geometry":{"type":"MultiLineString","coordinates":[[[133.34507,34.57312],[133.34777,34.56062],[133.35167,34.55809],[133.3683,34.53859],[133.37082,34.53111],[133.37804,34.52316],[133.38404,34.52152],[133.38804,34.51826],[133.39098,34.51172],[133.39752,34.50638],[133.40044,34.48982],[133.39736,34.50647],[133.39116,34.51132],[133.38777,34.51839],[133.384,34.52146],[133.37795,34.52308],[133.37077,34.53104],[133.3682,34.53854],[133.35161,34.55803],[133.34774,34.56049],[133.34496,34.57368],[133.34323,34.57623],[133.34272,34.58079],[133.34025,34.58493],[133.33893,34.58609],[133.33379,34.58725],[133.33114,34.59012],[133.32909,34.59504],[133.32602,34.59671],[133.32577,34.59868],[133.3242,34.59764],[133.32522,34.59955],[133.32377,34.59968],[133.32308,34.60148],[133.32227,34.60429],[133.32319,34.60617],[133.32131,34.60637],[133.31821,34.60929],[133.31813,34.6112],[133.31549,34.61468],[133.31677,34.61891],[133.31544,34.62132],[133.31547,34.62349],[133.31764,34.6253],[133.31806,34.62751],[133.3124,34.63057],[133.31093,34.63578],[133.30914,34.63718],[133.30447,34.64392],[133.30548,34.64935],[133.30446,34.65145],[133.30523,34.65417],[133.30688,34.6561],[133.30675,34.66199],[133.30277,34.66411],[133.30203,34.66646],[133.29913,34.67001],[133.29985,34.67775],[133.29254,34.68571],[133.29259,34.68807],[133.28956,34.69642],[133.28987,34.69795],[133.29261,34.6999],[133.30057,34.70872],[133.30108,34.71018],[133.29932,34.71312],[133.30084,34.71561],[133.3006,34.71728],[133.29729,34.71923],[133.29762,34.72117],[133.29678,34.72235],[133.29749,34.72527],[133.29452,34.72879],[133.29148,34.72871],[133.28913,34.73061],[133.28266,34.73321],[133.27728,34.73967],[133.27495,34.74657],[133.27595,34.75058],[133.27524,34.7529],[133.27716,34.75667],[133.28161,34.76044],[133.28009,34.76203],[133.28004,34.76359],[133.28225,34.76783],[133.2824,34.76993],[133.28086,34.77365],[133.27364,34.77686],[133.27228,34.77817],[133.26854,34.78548],[133.26905,34.79094],[133.26822,34.79497],[133.26881,34.79805],[133.26778,34.79827],[133.26722,34.79689],[133.26801,34.79674],[133.26817,34.80184],[133.27214,34.80424],[133.27226,34.80557],[133.2744,34.80723],[133.27613,34.81007],[133.27853,34.81674],[133.28098,34.81797],[133.28269,34.82137],[133.28544,34.82354],[133.2854,34.82586],[133.28948,34.83649],[133.28947,34.83948],[133.29503,34.84359],[133.29906,34.84274],[133.30207,34.84539],[133.30213,34.84856],[133.29897,34.85401],[133.30172,34.8567],[133.30272,34.85895],[133.29955,34.86017],[133.30105,34.86425],[133.29788,34.8666],[133.29415,34.87366],[133.29411,34.87622],[133.29319,34.8776],[133.28895,34.87744],[133.28572,34.88087],[133.28356,34.88145],[133.28217,34.88349],[133.27495,34.88676],[133.27626,34.88772],[133.27773,34.89748],[133.2794,34.90058],[133.28049,34.90171],[133.28493,34.90329],[133.28922,34.90839],[133.29192,34.9092],[133.29492,34.90783],[133.30118,34.90714],[133.30941,34.91124],[133.31316,34.91144],[133.31739,34.91387],[133.3203,34.9177],[133.32782,34.92438],[133.33252,34.93153],[133.33011,34.94081],[133.33112,34.94505],[133.33388,34.94857],[133.33251,34.95522],[133.33289,34.9587],[133.33675,34.9629],[133.35572,34.96882],[133.36413,34.96651],[133.37262,34.97837],[133.37926,34.9816],[133.38515,34.98588],[133.38791,34.98986],[133.394,34.99084],[133.39455,34.99385],[133.40104,35.00337],[133.40638,35.00789],[133.41156,35.00973],[133.41651,35.01531],[133.42063,35.01832],[133.42577,35.01807],[133.43376,35.0125]]]}}]}