{"type":"FeatureCollection","features":[{"type":"Feature","properties":{"route_id":"258","route_number":258,"name":"国道258号","source":"OpenStreetMap contributors (ODbL)","osm_relations":[8319600]},"geometry":{"type":"MultiLineString","coordinates":[[[136.62352,35.37847],[136.62428,35.36202],[136.62381,35.35598],[136.62033,35.33011],[136.61465,35.29902],[136.61253,35.2954],[136.60635,35.29092],[136.59963,35.28035],[136.60268,35.24673],[136.60186,35.24329],[136.59765,35.23543],[136.59624,35.22493],[136.60081,35.21601],[136.61281,35.20859],[136.6187,35.20036],[136.62042,35.1925],[136.62597,35.18576],[136.6251,35.17969],[136.62559,35.17623],[136.63607,35.14982],[136.64397,35.14453],[136.64749,35.13987],[136.64846,35.12709],[136.65411,35.11268],[136.66616,35.1],[136.67154,35.09162],[136.67228,35.08867],[136.67194,35.08602],[136.66749,35.07925],[136.6628,35.0683],[136.66232,35.06636],[136.66291,35.06406],[136.67369,35.05562],[136.67669,35.05019],[136.67816,35.04888],[136.69505,35.04375]],[[136.69519,35.0436],[136.67811,35.04882],[136.67645,35.05037],[136.67361,35.05557],[136.66424,35.06238],[136.66255,35.06452],[136.66248,35.06782],[136.66745,35.07942],[136.67165,35.08554],[136.67207,35.0896],[136.66607,35.1],[136.65403,35.11262],[136.64836,35.12705],[136.64762,35.13887],[136.6468,35.14097]],[[136.62364,35.37847],[136.62438,35.36203],[136.62391,35.35597],[136.62034,35.32968],[136.61473,35.299],[136.61262,35.29536],[136.60634,35.29077],[136.59976,35.28052],[136.60264,35.24622]],[[136.62597,35.18576],[136.62461,35.18788]]]}}]}