{"type":"FeatureCollection","features":[{"type":"Feature","properties":{"route_id":"385","route_number":385,"name":"国道385号","source":"OpenStreetMap contributors (ODbL)","osm_relations":[9364402,9364403,9507746,16487155,16487156,16487157]},"geometry":{"type":"MultiLineString","coordinates":[[[130.4182,33.56862],[130.4287,33.5593],[130.41813,33.56853],[130.42294,33.57186],[130.42152,33.5735],[130.42182,33.57494],[130.42012,33.57684],[130.4198,33.57878],[130.42276,33.58081],[130.42179,33.58235],[130.42253,33.59197],[130.42487,33.59386]],[[130.4287,33.5593],[130.42848,33.54756],[130.42738,33.53829],[130.42252,33.51833],[130.42148,33.50954],[130.419,33.5038],[130.42008,33.49795],[130.41683,33.48935],[130.4156,33.47688],[130.41662,33.47433],[130.41997,33.46998],[130.42824,33.46342],[130.4287,33.46132],[130.42782,33.45778],[130.43031,33.45178],[130.42878,33.4481],[130.43154,33.44536],[130.42952,33.44207],[130.42738,33.44164],[130.4286,33.43925],[130.42846,33.4378],[130.42659,33.43762],[130.42737,33.43895],[130.42558,33.44037],[130.42646,33.43882],[130.42444,33.43715],[130.42455,33.43566],[130.42211,33.43395],[130.42035,33.43466],[130.42095,33.43218],[130.41982,33.4314],[130.42048,33.4288],[130.41973,33.42602],[130.42066,33.42441],[130.42028,33.42179],[130.42114,33.42024],[130.42376,33.41892],[130.42382,33.41798],[130.42258,33.41755],[130.41689,33.41988],[130.41613,33.41922],[130.41662,33.41571],[130.41572,33.41429],[130.4138,33.41378],[130.41057,33.41477],[130.40855,33.41348],[130.40806,33.41222],[130.40972,33.40911],[130.40954,33.40539],[130.40725,33.40213],[130.39654,33.39168],[130.39569,33.38978],[130.39589,33.38249],[130.39688,33.38145],[130.39686,33.38019],[130.39783,33.38049],[130.39744,33.38468],[130.39824,33.38608],[130.39924,33.38613],[130.40094,33.3825],[130.40482,33.3809],[130.40477,33.37783],[130.40581,33.37637],[130.40453,33.37574],[130.4039,33.37753],[130.40239,33.37789],[130.40202,33.37632],[130.39965,33.37371],[130.39956,33.36449],[130.40174,33.36164],[130.40225,33.359],[130.40013,33.35518],[130.39486,33.34019],[130.39087,33.31846],[130.39313,33.31382],[130.40098,33.28659],[130.40388,33.28027],[130.40338,33.27496],[130.4064,33.24642],[130.40771,33.2444],[130.41061,33.24222],[130.41154,33.23967],[130.41078,33.23141],[130.40676,33.21988],[130.40673,33.21092],[130.40013,33.21037],[130.3992,33.20287],[130.40065,33.19202]],[[130.40485,33.18031],[130.4046,33.17688],[130.40432,33.18994],[130.40258,33.19814],[130.40659,33.20852],[130.40673,33.21092]],[[130.39193,33.31615],[130.3854,33.31459],[130.38419,33.31163],[130.37588,33.31035],[130.3782,33.30273],[130.38126,33.2998],[130.38511,33.2894],[130.38522,33.28717],[130.39282,33.28007],[130.39316,33.27851],[130.39414,33.27865],[130.3934,33.27271],[130.39582,33.26501],[130.39544,33.26224],[130.40442,33.26332]],[[130.39834,33.38614],[130.3986,33.38791],[130.4002,33.38617],[130.40201,33.38675],[130.40264,33.38538],[130.40311,33.38764],[130.40524,33.38768],[130.40596,33.38668],[130.40795,33.38642],[130.40947,33.38754],[130.40865,33.38816],[130.40973,33.38939],[130.40927,33.39027],[130.41003,33.39031],[130.41184,33.39296],[130.41082,33.39432],[130.41091,33.39598],[130.40844,33.39834],[130.40887,33.39978],[130.40798,33.39941],[130.40866,33.40207],[130.41045,33.40178],[130.4109,33.40264],[130.4085,33.40368]],[[130.42165,33.51049],[130.41907,33.50358],[130.42008,33.49795]]]}}]}