{"type":"FeatureCollection","features":[{"type":"Feature","properties":{"route_id":"6","route_number":6,"name":"国道6号","source":"OpenStreetMap contributors (ODbL)","osm_relations":[1485271,1485275,1521225,2068956,2068957,2068958,2068959,2068960,2068961,2068962,2955260,7265386,8885170,8885171,8885172,8885173,8885174,8885175,8885176,8885370,8885371]},"geometry":{"type":"MultiLineString","coordinates":[[[139.90475,35.77585],[139.90264,35.77489],[139.90704,35.77693],[139.90863,35.77893],[139.91093,35.79775],[139.91731,35.80734],[139.92115,35.81012],[139.92677,35.81744],[139.93468,35.82449],[139.93873,35.8311],[139.94022,35.83542],[139.94047,35.83929],[139.95659,35.8493],[139.96517,35.85833],[139.96872,35.86489],[139.97854,35.87325],[139.96897,35.865],[139.96676,35.86131]],[[139.77454,35.68405],[139.77298,35.68862],[139.77788,35.69043],[139.78513,35.69549],[139.78928,35.70185],[139.79377,35.70565],[139.80173,35.71512],[139.80576,35.71288],[139.81342,35.71807],[139.82712,35.7305],[139.83526,35.73662],[139.82609,35.72778]],[[139.77445,35.68406],[139.77461,35.68458]],[[140.68089,36.62425],[140.6753,36.61777],[140.68276,36.62686],[140.68669,36.63499],[140.68754,36.64316],[140.69326,36.64931],[140.69545,36.65376],[140.70237,36.65695],[140.70565,36.65664],[140.70878,36.65885],[140.70936,36.66249],[140.71204,36.66858],[140.71065,36.67296],[140.71171,36.68471],[140.71313,36.69232],[140.71509,36.69568],[140.71917,36.71637],[140.71874,36.72737],[140.72044,36.73272],[140.72403,36.73565],[140.72495,36.74035],[140.73056,36.75121],[140.73314,36.7535],[140.73647,36.75871],[140.74013,36.77593],[140.74376,36.77938],[140.74924,36.78784],[140.74847,36.7901],[140.75293,36.79468],[140.75628,36.79691],[140.76728,36.81839],[140.77532,36.82678],[140.78433,36.83921],[140.7859,36.84279],[140.78989,36.85471],[140.78817,36.86486],[140.78874,36.87074],[140.78825,36.88091],[140.78745,36.88397],[140.78472,36.88842],[140.79136,36.90138],[140.80719,36.91854],[140.81139,36.91899],[140.8178,36.91653],[140.82771,36.91886],[140.8359,36.9176],[140.83817,36.91859],[140.84229,36.92289],[140.84664,36.92586],[140.85663,36.93962],[140.86839,36.95088],[140.87753,36.95715],[140.88065,36.96258],[140.88961,36.97355],[140.89312,36.98239],[140.89923,36.98686],[140.90195,36.99036],[140.90181,36.99305],[140.89758,36.99822],[140.89833,37.00614],[140.89375,37.01863],[140.89429,37.02255],[140.8977,37.02776],[140.90065,37.02982],[140.90964,37.03178],[140.91771,37.03736],[140.92793,37.0388],[140.93585,37.04376],[140.94365,37.05242],[140.94357,37.05437],[140.93985,37.06419],[140.94146,37.06411],[140.94299,37.06514],[140.95889,37.07817],[140.9763,37.09414],[140.98779,37.10354],[140.99032,37.10678],[140.9971,37.10902],[140.99864,37.11113],[140.998,37.11511],[140.99421,37.1183],[140.99305,37.12029],[140.99327,37.12259],[140.99621,37.12639],[140.99677,37.12899],[140.99544,37.13482],[140.99197,37.13824],[140.99087,37.14045],[140.98952,37.14895],[140.99058,37.15151],[140.99478,37.15527],[140.99547,37.15755],[140.99261,37.18175],[140.99905,37.19076],[140.99958,37.19259],[140.99895,37.19476],[140.99263,37.20323],[140.99246,37.20486],[140.99358,37.21046],[140.99509,37.21358],[141.0011,37.21849],[141.00287,37.22473],[140.99866,37.23416],[140.99865,37.23747],[141.00039,37.24248],[140.99712,37.24748],[140.9984,37.25153],[140.99796,37.26008],[140.9931,37.27221],[140.99418,37.27739],[140.99112,37.28755],[140.99412,37.29411],[140.99409,37.30331],[140.99494,37.30588],[141.00033,37.31002],[141.00077,37.31502],[141.0025,37.31758],[141.00568,37.32008],[141.01199,37.32239],[141.01408,37.32405],[141.01763,37.33228],[141.01447,37.33686],[141.01187,37.34649],[141.00896,37.36703],[141.00825,37.38791],[141.00672,37.39254],[141.00261,37.39702],[141.00144,37.40011],[140.99768,37.40546],[140.99695,37.40816],[140.99921,37.41596],[141.01016,37.43261],[141.01126,37.43596],[141.00853,37.44543],[141.01053,37.45874],[141.00713,37.47987],[141.00547,37.48428],[141.00527,37.48853],[141.00212,37.4941],[141.00044,37.49988],[140.99714,37.50533],[140.99811,37.50998],[140.99788,37.52229],[141.00255,37.52786],[141.00219,37.53358],[141.00607,37.53775],[141.00767,37.54155],[141.00629,37.54728],[141.00593,37.55298],[141.00197,37.56168],[141.00426,37.56962],[141.00981,37.57764],[141.00888,37.58477],[141.00523,37.59019],[141.00327,37.59464],[141.00344,37.59822],[141.00689,37.6061],[141.00702,37.60808],[141.00058,37.61811],[140.99186,37.62501],[140.98479,37.63416],[140.98326,37.64164],[140.98532,37.64819],[140.98736,37.66487],[140.98427,37.67],[140.98373,37.67505],[140.98084,37.67964],[140.98052,37.68569],[140.97608,37.6905],[140.97273,37.70059],[140.95828,37.71748],[140.95335,37.72591],[140.95432,37.75239],[140.9447,37.76574],[140.94317,37.77302],[140.93976,37.77818],[140.94402,37.78833],[140.9432,37.81469],[140.93621,37.84326],[140.93355,37.84685],[140.9246,37.85168],[140.91986,37.85601],[140.92076,37.86408],[140.91932,37.86831],[140.91876,37.87506],[140.91536,37.8799],[140.91276,37.88776],[140.90353,37.89535],[140.90073,37.90005],[140.90061,37.90524],[140.904,37.91145],[140.90438,37.9137],[140.89435,37.93499],[140.89366,37.94694],[140.88959,37.95294],[140.87751,37.96509],[140.87398,37.97239],[140.8696,37.9851],[140.86585,37.99135],[140.8649,38.0005],[140.86055,38.01548],[140.85026,38.02656],[140.84746,38.03443],[140.8481,38.04263],[140.85326,38.05112],[140.85568,38.06117],[140.87252,38.07534],[140.87498,38.07913],[140.87508,38.08222],[140.87003,38.10107],[140.87153,38.10292],[140.87615,38.11387],[140.87305,38.12477],[140.875,38.13037],[140.88943,38.16119],[140.89308,38.2155],[140.89553,38.21959],[140.90853,38.23287],[140.91947,38.24132],[140.92835,38.25126],[140.93561,38.2567],[140.93775,38.26014],[140.93843,38.26861]],[[140.94299,37.06514],[140.94036,37.06259],[140.94366,37.05438],[140.94359,37.05193],[140.93591,37.0437],[140.92766,37.03858],[140.91814,37.03742],[140.90961,37.03167],[140.89991,37.0294],[140.89515,37.02396],[140.89382,37.01883],[140.89845,37.00616],[140.8977,36.99824],[140.90188,36.99314],[140.90224,36.99086],[140.89962,36.98709],[140.89301,36.98206],[140.88972,36.97351],[140.88084,36.96266],[140.87769,36.95717],[140.86847,36.95085],[140.85702,36.93989],[140.84675,36.92581],[140.84236,36.92284],[140.83762,36.9181],[140.83449,36.91746],[140.82755,36.91877],[140.81812,36.91644],[140.8107,36.91901],[140.8061,36.9178],[140.79257,36.90289],[140.78728,36.89306]],[[139.83369,35.73528],[139.83189,35.7336]],[[139.87368,35.76832],[139.8772,35.76845]],[[139.83526,35.73662],[139.84198,35.74256],[139.855,35.75778],[139.87388,35.76836],[139.88445,35.76808],[139.88832,35.76866],[139.89927,35.7734],[139.89482,35.77138]],[[139.99787,35.8774],[140.02721,35.87731],[140.04002,35.87966],[140.0522,35.88618],[140.06355,35.90201],[140.06954,35.90728],[140.07541,35.91015],[140.09643,35.91745],[140.10241,35.92103],[140.09667,35.91736],[140.07551,35.91009],[140.06961,35.90721],[140.06365,35.90198],[140.05238,35.88621],[140.03987,35.8795],[140.02721,35.87723],[139.99336,35.87725],[139.9815,35.87511],[139.98716,35.87619]],[[140.13443,35.93775],[140.13666,35.94393],[140.13734,35.95024],[140.13665,35.94329],[140.13331,35.93546],[140.13104,35.93437],[140.12302,35.93289],[140.10241,35.92103]],[[140.12851,36.01736],[140.13238,36.0244],[140.13452,36.03277],[140.15189,36.0411],[140.15439,36.0432]],[[140.93857,38.26859],[140.9379,38.26042],[140.93574,38.25662],[140.92858,38.25126],[140.91914,38.24085],[140.90847,38.23261],[140.89555,38.21943],[140.89344,38.21604],[140.89257,38.21199],[140.88951,38.16112],[140.87337,38.12534],[140.87329,38.12324],[140.87633,38.11433],[140.8702,38.10064]],[[139.89637,35.77201],[139.895,35.77138],[139.8993,35.77334],[139.89637,35.77201]],[[140.48169,36.34082],[140.48823,36.33259],[140.48143,36.34085],[140.46237,36.32761],[140.44542,36.31016],[140.43746,36.30682],[140.43086,36.30146],[140.43772,36.30685],[140.44591,36.3104],[140.46269,36.32773],[140.48751,36.34486],[140.50117,36.35817],[140.50257,36.36079],[140.5029,36.36344],[140.50034,36.37522],[140.50202,36.38857],[140.50464,36.39544],[140.50194,36.38876],[140.50022,36.37514],[140.50272,36.36412],[140.50226,36.36028],[140.50066,36.35772],[140.48832,36.34567],[140.48143,36.34085]],[[140.57548,36.3747],[140.56652,36.36493],[140.55312,36.35277],[140.54487,36.34086],[140.54249,36.34052],[140.54491,36.33953],[140.54509,36.33879],[140.54301,36.33834],[140.53664,36.33407],[140.53087,36.33183],[140.52496,36.33075],[140.50036,36.33259],[140.49436,36.33176],[140.48839,36.3296]],[[140.57559,36.37462],[140.56663,36.36487],[140.55322,36.35271],[140.54406,36.33934],[140.54503,36.33884],[140.54258,36.34035],[140.54339,36.33939],[140.54159,36.33742],[140.54605,36.34227]],[[140.572,36.37063],[140.57398,36.37324],[140.57417,36.37515],[140.57873,36.37306],[140.57545,36.37394],[140.57242,36.37092]],[[140.8868,38.08619],[140.88974,38.10524],[140.88937,38.11009],[140.88668,38.12146],[140.88789,38.13445],[140.88931,38.13903],[140.89661,38.15418],[140.90146,38.15953],[140.92421,38.17445],[140.9372,38.18866],[140.94076,38.19464],[140.94563,38.21009],[140.95347,38.2291],[140.95373,38.23196],[140.9518,38.24026],[140.95423,38.24706],[140.95748,38.25116],[140.97929,38.27132],[140.98895,38.27649],[140.99216,38.28003]],[[140.21367,36.12335],[140.21042,36.11925],[140.19912,36.1103],[140.19303,36.10141],[140.18451,36.09602],[140.17732,36.08641],[140.17666,36.08256],[140.17942,36.06971],[140.17872,36.06177],[140.17559,36.05549],[140.1786,36.06178],[140.1793,36.06972],[140.17648,36.08311],[140.17737,36.08671],[140.18467,36.09632],[140.19328,36.10178],[140.19942,36.11077],[140.2099,36.11893],[140.21688,36.12628],[140.22943,36.1332],[140.23532,36.13966],[140.23707,36.14265],[140.23958,36.15241],[140.24453,36.15871],[140.25044,36.16988],[140.25413,36.17214],[140.24975,36.16876]],[[139.895,35.77138],[139.88726,35.76838],[139.87391,35.76828],[139.85516,35.75773],[139.84174,35.74218],[139.83161,35.73386]],[[139.8774,35.76838],[139.87379,35.76822]],[[140.48823,36.33259],[140.48692,36.33173],[140.48863,36.33012],[140.49514,36.33204],[140.50108,36.33271],[140.51882,36.33083],[140.52495,36.33086],[140.53425,36.3331],[140.54159,36.33742]],[[140.54037,36.46371],[140.5374,36.45967],[140.53167,36.45558],[140.52911,36.45242],[140.52485,36.43855],[140.52317,36.43015],[140.51029,36.40988],[140.50587,36.39829],[140.51047,36.40994],[140.52311,36.42973],[140.52509,36.43903],[140.52984,36.45335],[140.53751,36.45959],[140.54384,36.46949],[140.55866,36.48017],[140.56548,36.48853],[140.56987,36.49717],[140.57827,36.50498],[140.59408,36.51301],[140.60926,36.51268],[140.61248,36.51398],[140.61635,36.51963],[140.6177,36.52872],[140.6226,36.54162],[140.624,36.55305],[140.63654,36.56267],[140.63503,36.57199],[140.63575,36.577],[140.64724,36.5904],[140.65135,36.59678],[140.65415,36.60328],[140.65927,36.60597],[140.66165,36.60958],[140.67193,36.61447],[140.6753,36.61777]],[[140.25413,36.17214],[140.26448,36.17586],[140.27209,36.1828],[140.29895,36.19505],[140.31833,36.21858],[140.3202,36.22347],[140.32283,36.22727],[140.33363,36.23587],[140.35768,36.23901],[140.36638,36.24288],[140.3984,36.27299],[140.41475,36.28188],[140.41664,36.28441],[140.42115,36.29597],[140.43086,36.30146]],[[140.49,36.33034],[140.48791,36.32854],[140.48887,36.32901],[140.48684,36.33182],[140.48809,36.33258]],[[140.48831,36.32969],[140.49141,36.33099]],[[140.54529,36.34101],[140.54142,36.33714]],[[140.94486,38.20764],[140.93912,38.20844],[140.92843,38.20765],[140.92219,38.20927],[140.91606,38.21249],[140.90692,38.21343],[140.90196,38.21255],[140.89553,38.20956],[140.85142,38.20661],[140.84741,38.20748],[140.84303,38.21058],[140.84015,38.21161],[140.83344,38.21174],[140.81961,38.21492],[140.80945,38.21566]],[[140.66141,36.58618],[140.66337,36.58606],[140.66455,36.59126],[140.67137,36.5986],[140.67357,36.60413],[140.67723,36.60929],[140.6778,36.61291],[140.67621,36.61872]],[[140.13734,35.95024],[140.13879,35.95387],[140.13943,35.96105],[140.13931,35.98351],[140.14013,35.98667],[140.14884,35.99448],[140.15325,35.99963],[140.15689,36.01425],[140.16081,36.02453],[140.16204,36.03573],[140.16664,36.04571],[140.17559,36.05549]],[[140.99229,38.28002],[140.98904,38.27643],[140.97939,38.27128],[140.95757,38.2511],[140.95414,38.24668],[140.95193,38.23976],[140.95379,38.23241],[140.95366,38.22927],[140.94554,38.20946],[140.94105,38.19502],[140.93764,38.18901],[140.92431,38.17438],[140.90158,38.15948],[140.89652,38.15376],[140.88914,38.13833],[140.88797,38.13407],[140.88682,38.12147],[140.88949,38.11015],[140.88987,38.1052],[140.88695,38.08619]],[[140.94483,38.20758],[140.93914,38.20834],[140.9284,38.20756],[140.92226,38.20914],[140.91602,38.21241],[140.90799,38.21332],[140.90236,38.21257],[140.89553,38.20956]],[[140.85331,38.20663],[140.87619,38.20854]],[[140.80944,38.21575],[140.81351,38.21561]],[[139.8018,35.7151],[139.79384,35.70561],[139.78944,35.70186],[139.78524,35.69546],[139.78079,35.69203],[139.77583,35.68954]],[[140.13368,36.03122],[140.13238,36.0244]],[[140.68948,36.64558],[140.69359,36.64996]],[[139.97854,35.87325],[139.9815,35.87511]],[[140.54258,36.34035],[140.5407,36.34098],[140.5397,36.34008],[140.54065,36.34106],[140.54249,36.34052]],[[140.13794,35.95179],[140.13753,35.95538],[140.13569,35.95817]],[[140.99732,37.24864],[140.99743,37.24678],[141.00047,37.24293],[140.99873,37.23721],[140.99893,37.2332]],[[139.89927,35.7734],[139.90264,35.77489]],[[140.58033,36.50618],[140.57046,36.49771],[140.56559,36.48849],[140.56269,36.4848]],[[140.50464,36.39544],[140.50587,36.39829]],[[139.90003,35.77371],[139.8993,35.77334]],[[140.42521,36.29863],[140.42161,36.29629],[140.41966,36.29287]]]}}]}