{"type":"FeatureCollection","features":[{"type":"Feature","properties":{"route_id":"30","route_number":30,"name":"国道30号","source":"OpenStreetMap contributors (ODbL)","osm_relations":[59477]},"geometry":{"type":"MultiLineString","coordinates":[[[133.92636,34.65638],[133.92618,34.65232],[133.9253,34.65024],[133.92504,34.63912],[133.90449,34.61709],[133.90336,34.60705],[133.88584,34.58514],[133.88231,34.55277],[133.89585,34.53687],[133.89621,34.53502],[133.89441,34.53027],[133.89856,34.52537],[133.90274,34.5233],[133.91056,34.52119],[133.92117,34.52125],[133.92503,34.52029],[133.92906,34.52095],[133.93589,34.51784],[133.93677,34.50531],[133.93918,34.49809],[133.9382,34.49766],[133.93872,34.49819],[133.93982,34.49727],[133.94152,34.49297],[133.95416,34.49376],[133.95642,34.49101],[133.97085,34.453],[133.98394,34.43297],[134.03449,34.37837],[134.04833,34.37121],[134.05003,34.36951],[134.05282,34.36374],[134.05408,34.35633],[134.05568,34.35286],[134.05446,34.35139]],[[134.047,34.33725],[134.04901,34.35176],[134.05404,34.3513],[134.04942,34.35185]],[[134.04916,34.3517],[134.04714,34.33723]],[[134.05468,34.35143],[134.05404,34.3513]],[[133.9345,34.51878],[133.92887,34.52089],[133.92536,34.5202],[133.92093,34.5212],[133.91064,34.5211],[133.90281,34.5232],[133.8985,34.52532],[133.89431,34.53025],[133.89612,34.53504],[133.89589,34.53663],[133.88269,34.55194],[133.88195,34.5537],[133.88576,34.58517],[133.90329,34.60709],[133.90445,34.61727],[133.92488,34.63907],[133.92521,34.65024],[133.92618,34.65638]],[[133.94104,34.49368],[133.94188,34.49318]],[[133.94078,34.49418],[133.94152,34.49297]],[[133.93859,34.49971],[133.93925,34.49784],[133.93812,34.49765],[133.93871,34.49827],[133.93982,34.49727]]]}}]}