{"type":"FeatureCollection","features":[{"type":"Feature","properties":{"route_id":"170","route_number":170,"name":"国道170号","source":"OpenStreetMap contributors (ODbL)","osm_relations":[8810155,9314940,9314941,9314942,9314943]},"geometry":{"type":"MultiLineString","coordinates":[[[135.50027,34.42864],[135.49889,34.42955],[135.50648,34.42961],[135.51266,34.42609],[135.51854,34.42403],[135.5226,34.42477],[135.5253,34.42694],[135.52984,34.42747],[135.53051,34.43041],[135.53322,34.43163],[135.53525,34.4364],[135.53781,34.4361],[135.53937,34.43456],[135.54296,34.43599],[135.547,34.43963],[135.54842,34.44203],[135.56047,34.45107],[135.56728,34.45281],[135.57218,34.45095],[135.57402,34.45302],[135.57622,34.45607],[135.57826,34.46475],[135.57947,34.46672],[135.57855,34.47197],[135.58015,34.47468],[135.58715,34.47987],[135.58831,34.4863],[135.59151,34.49246],[135.59837,34.50276],[135.60408,34.50548],[135.60952,34.51815],[135.61042,34.52339],[135.60875,34.54759],[135.607,34.55104],[135.6075,34.55354],[135.60902,34.55514],[135.60496,34.56093],[135.605,34.5652]],[[135.49889,34.42955],[135.4912,34.43259],[135.48959,34.42904],[135.48938,34.42444],[135.48714,34.4205],[135.48621,34.41686],[135.48464,34.41527],[135.48249,34.4151],[135.48128,34.41302],[135.47823,34.41081],[135.47524,34.41204],[135.47536,34.41416]],[[135.55649,34.44822],[135.54423,34.43278],[135.53573,34.43117],[135.5345,34.42973],[135.53365,34.42649],[135.53117,34.42523],[135.52511,34.42642],[135.52087,34.42519],[135.50926,34.42845],[135.49754,34.42836],[135.49058,34.42569],[135.48277,34.42414],[135.47752,34.41602],[135.47358,34.41303],[135.46828,34.41251],[135.46352,34.41436],[135.45072,34.4118],[135.44748,34.41239],[135.44258,34.4148],[135.44125,34.42193],[135.44004,34.42315],[135.43534,34.42337],[135.42934,34.42197],[135.42112,34.42148],[135.41492,34.41957],[135.40683,34.41414],[135.39576,34.41165],[135.38651,34.40634],[135.37622,34.40263],[135.3633,34.40048],[135.35301,34.40239],[135.34864,34.40421],[135.3524,34.40249],[135.35891,34.40123]],[[135.63186,34.80314],[135.6307,34.80055],[135.62835,34.7986],[135.62668,34.79475],[135.62817,34.79869],[135.63123,34.80207],[135.63202,34.80434],[135.63186,34.80314]],[[135.63262,34.81072],[135.63262,34.81131],[135.63202,34.80434]],[[135.63257,34.81759],[135.63249,34.81958],[135.63262,34.81131]],[[135.33503,34.41467],[135.34023,34.40838],[135.34615,34.40541],[135.34477,34.4015],[135.35132,34.399],[135.35568,34.3993],[135.36234,34.39802],[135.36902,34.39801],[135.37601,34.39529],[135.38457,34.39956],[135.38576,34.3981],[135.39138,34.39894],[135.3954,34.39842],[135.40314,34.40166],[135.40973,34.40326],[135.4111,34.40456],[135.42346,34.40817],[135.42804,34.40786],[135.43424,34.41217],[135.44171,34.41127],[135.44626,34.41304],[135.4425,34.4151],[135.44135,34.42196],[135.44005,34.42323],[135.43526,34.42347],[135.42935,34.42206],[135.4206,34.42149],[135.41489,34.41967],[135.40655,34.41417],[135.39549,34.41163],[135.38396,34.40531],[135.37608,34.40268],[135.36869,34.40134]],[[135.44626,34.41304],[135.45105,34.41189],[135.46343,34.41445],[135.4683,34.4126],[135.47258,34.41282],[135.47691,34.41547],[135.48124,34.42261],[135.48324,34.42449],[135.49049,34.42575],[135.49848,34.42857],[135.51189,34.42795]],[[135.47524,34.41204],[135.4668,34.41073],[135.46375,34.4119],[135.46115,34.41066],[135.45979,34.41126],[135.45833,34.41],[135.45686,34.41099],[135.45465,34.4104],[135.45288,34.41064],[135.45097,34.41205],[135.44934,34.41187]],[[135.60902,34.55514],[135.61281,34.559],[135.6148,34.56791],[135.61511,34.57474],[135.61912,34.5856],[135.62091,34.58247],[135.62768,34.58014],[135.63047,34.58262],[135.63195,34.6062],[135.64,34.65916],[135.64114,34.67765],[135.64429,34.69032],[135.64483,34.70863],[135.64274,34.71157],[135.64154,34.71882],[135.6425,34.72467],[135.64189,34.73518],[135.64413,34.7389],[135.63726,34.73981],[135.63736,34.74547],[135.63521,34.75521],[135.63139,34.76557],[135.62991,34.76555],[135.62924,34.76278],[135.63286,34.75283],[135.63107,34.72738],[135.63822,34.71478],[135.63935,34.70322],[135.63646,34.68462],[135.63722,34.69046]],[[135.61664,34.7784],[135.62302,34.77401],[135.63058,34.77245],[135.63136,34.77137],[135.63097,34.7682],[135.6319,34.7801],[135.62704,34.78389],[135.6227,34.78559],[135.62668,34.79475]],[[135.62991,34.76555],[135.63122,34.77083],[135.63072,34.77221],[135.62257,34.77411],[135.61646,34.77823],[135.6227,34.78559]],[[135.63573,34.67774],[135.6364,34.68362],[135.63427,34.66671],[135.63476,34.65554],[135.6361,34.65081],[135.63291,34.62852],[135.62942,34.61551],[135.61683,34.59929],[135.61352,34.59376],[135.60751,34.58698],[135.60533,34.56574],[135.60115,34.56146],[135.5986,34.55625],[135.59891,34.55346],[135.60459,34.54328],[135.60513,34.52363],[135.60463,34.51423],[135.60022,34.50771],[135.58982,34.50001],[135.57738,34.48074],[135.57638,34.47804],[135.57519,34.4688],[135.57523,34.46261],[135.57421,34.46072],[135.57217,34.45936],[135.56528,34.45719],[135.55508,34.44678],[135.54417,34.43283],[135.53614,34.43145],[135.53459,34.43017],[135.53424,34.42829]],[[135.6263,34.84981],[135.63,34.842],[135.63249,34.81958]],[[135.55806,34.45002],[135.56525,34.45725],[135.572,34.45938],[135.57451,34.46124],[135.57615,34.4774],[135.5773,34.48076],[135.58954,34.49979],[135.59226,34.50247],[135.60014,34.50775],[135.60465,34.51454],[135.6045,34.54327],[135.59891,34.5532],[135.59848,34.55619],[135.60135,34.56189],[135.60526,34.56576],[135.60737,34.58684],[135.61331,34.59361],[135.61677,34.59932],[135.62895,34.61461],[135.63175,34.62465]],[[135.61808,34.59588],[135.61463,34.59573]],[[135.53336,34.42619],[135.53155,34.42533]],[[135.63097,34.7682],[135.62933,34.76308],[135.63094,34.75834]],[[135.63116,34.7704],[135.63152,34.77235]],[[135.63726,34.73987],[135.64413,34.7389]],[[135.34864,34.40421],[135.34615,34.40541]],[[135.55719,34.44899],[135.55841,34.44982]],[[135.63646,34.68462],[135.6364,34.68362]]]}}]}