{"type":"FeatureCollection","features":[{"type":"Feature","properties":{"route_id":"505","route_number":505,"name":"国道505号","source":"OpenStreetMap contributors (ODbL)","osm_relations":[10548190]},"geometry":{"type":"MultiLineString","coordinates":[[[127.89157,26.67778],[127.89275,26.67983],[127.89468,26.6806],[127.89663,26.68322],[127.90093,26.68612],[127.90233,26.68793],[127.90171,26.6939],[127.90358,26.69645],[127.91358,26.69891],[127.91592,26.70028],[127.92572,26.70135],[127.93275,26.699],[127.93698,26.69659],[127.94128,26.69717],[127.94405,26.69614],[127.95259,26.69554],[127.95574,26.6931],[127.9631,26.69046],[127.96676,26.68592],[127.97076,26.68309],[127.97294,26.68222],[127.97597,26.68248],[127.97927,26.678],[127.97835,26.66848],[127.97933,26.66678],[127.98004,26.66218],[127.98438,26.65764],[127.98089,26.65286],[127.98349,26.64818],[127.98662,26.64686],[127.99088,26.64657],[128.00035,26.64168],[128.00375,26.63745],[128.00231,26.63468],[128.0026,26.63335],[128.0068,26.63038],[128.00877,26.63013],[128.01314,26.63178],[128.02316,26.62813],[128.02453,26.62578]]]}}]}