{"type":"FeatureCollection","features":[{"type":"Feature","properties":{"route_id":"173","route_number":173,"name":"国道173号","source":"OpenStreetMap contributors (ODbL)","osm_relations":[8814743]},"geometry":{"type":"MultiLineString","coordinates":[[[135.42634,34.8374],[135.42305,34.84442],[135.4169,34.85298],[135.4156,34.86088],[135.41511,34.86579],[135.41706,34.86932],[135.41851,34.87434],[135.41995,34.87578],[135.42058,34.87883],[135.41926,34.88092],[135.41529,34.88348],[135.40902,34.88935],[135.40742,34.89429],[135.40775,34.89786],[135.4075,34.89439],[135.40899,34.88955],[135.41536,34.88352],[135.41925,34.88103],[135.42069,34.87881],[135.42006,34.87584],[135.41865,34.87446],[135.41517,34.86544],[135.4169,34.85324],[135.423,34.8447],[135.42634,34.8374],[135.42445,34.83228],[135.42396,34.82605]],[[135.40775,34.89786],[135.40922,34.90132],[135.40712,34.90506],[135.40982,34.90849],[135.4101,34.91182],[135.41153,34.91416],[135.41102,34.91884],[135.40836,34.92388],[135.41074,34.93286],[135.40878,34.93719],[135.41099,34.94175],[135.41107,34.95009],[135.40395,34.95442],[135.40065,34.95819],[135.39769,34.96339],[135.39923,34.97229],[135.39574,34.97685],[135.38609,34.98487],[135.38217,34.99248],[135.38027,34.99405],[135.3785,34.99762],[135.37403,35.00083],[135.37482,35.00198],[135.37828,35.0017],[135.37907,35.00297],[135.37554,35.00738],[135.37503,35.01571],[135.37269,35.01885],[135.37494,35.02173],[135.37298,35.02675],[135.36709,35.02949],[135.35769,35.03896],[135.35313,35.0414],[135.34841,35.04559],[135.34656,35.05032],[135.3486,35.05161],[135.35014,35.05119],[135.35265,35.0483],[135.35369,35.04526],[135.35493,35.04508],[135.35558,35.04595],[135.35292,35.0538],[135.34997,35.0551],[135.34893,35.05688],[135.34647,35.05847],[135.34297,35.06775],[135.33911,35.0706],[135.33269,35.07321],[135.33067,35.07839],[135.32268,35.08086],[135.31934,35.08407],[135.31844,35.08707],[135.31509,35.09125],[135.31556,35.0967],[135.31895,35.10669],[135.3255,35.11174],[135.33442,35.11473],[135.33641,35.11713],[135.33631,35.12448],[135.33391,35.12933],[135.33373,35.13124],[135.33194,35.13375],[135.33343,35.13879],[135.3406,35.14345],[135.35296,35.14408],[135.3545,35.14477],[135.35524,35.15235],[135.3531,35.15912],[135.35278,35.16322],[135.35618,35.16619],[135.35956,35.16443],[135.36107,35.16508],[135.36146,35.16615],[135.35981,35.17167],[135.36194,35.17451],[135.36804,35.17816],[135.36886,35.18085],[135.36785,35.18322],[135.36535,35.18593],[135.3648,35.18856],[135.36128,35.19238],[135.36201,35.19464],[135.36125,35.19769],[135.35911,35.1994],[135.3571,35.20297],[135.35284,35.20525],[135.35015,35.21096],[135.34088,35.22158],[135.33776,35.22242],[135.3362,35.22545],[135.33612,35.22803],[135.33312,35.23236],[135.32874,35.23642],[135.32363,35.23784],[135.32071,35.23779],[135.31124,35.24393],[135.30676,35.24265],[135.30173,35.23904],[135.30074,35.24016],[135.29714,35.24072],[135.29379,35.24489],[135.28724,35.24421],[135.27621,35.25022],[135.27602,35.25153],[135.27724,35.25403],[135.27618,35.25866],[135.27283,35.26161],[135.2701,35.26962],[135.26448,35.27501],[135.26489,35.2775],[135.26768,35.27866],[135.26986,35.28091],[135.2697,35.28278],[135.26798,35.28548],[135.26503,35.28844],[135.26857,35.29334]]]}}]}