{"type":"FeatureCollection","features":[{"type":"Feature","properties":{"route_id":"395","route_number":395,"name":"国道395号","source":"OpenStreetMap contributors (ODbL)","osm_relations":[9231531]},"geometry":{"type":"MultiLineString","coordinates":[[[141.31062,40.31416],[141.31768,40.31213],[141.31997,40.30955],[141.32189,40.30927],[141.32666,40.311],[141.33142,40.31511],[141.33869,40.31675],[141.33911,40.31846],[141.3414,40.32049],[141.34657,40.32034],[141.34853,40.31864],[141.35362,40.31766],[141.36162,40.32038],[141.36994,40.31867],[141.37673,40.32004],[141.38486,40.32291],[141.38997,40.32384],[141.39117,40.32883],[141.39482,40.33367],[141.40358,40.33701],[141.41437,40.33819],[141.41535,40.33945],[141.422,40.34329],[141.43237,40.34337],[141.43632,40.33954],[141.4408,40.33901],[141.44306,40.33673],[141.44166,40.33633],[141.44256,40.33392],[141.44216,40.33119],[141.44775,40.33344],[141.45205,40.33378],[141.45565,40.33233],[141.45662,40.33341],[141.46362,40.33244],[141.46895,40.32715],[141.47617,40.3237],[141.47782,40.31972],[141.48103,40.31761],[141.48746,40.31667],[141.49004,40.31732],[141.49191,40.31949],[141.49639,40.31848],[141.50054,40.32005],[141.5031,40.31966],[141.50679,40.32161],[141.51067,40.32115],[141.51121,40.32042],[141.51045,40.31672],[141.51762,40.30745],[141.51776,40.30521],[141.52264,40.29664],[141.52342,40.29389],[141.52864,40.29195],[141.53087,40.28957],[141.53589,40.28655],[141.53867,40.28632],[141.54431,40.28774],[141.54769,40.28481],[141.55028,40.28453],[141.55935,40.28007],[141.57355,40.2793],[141.57966,40.2755],[141.58301,40.2744],[141.5885,40.27601],[141.59317,40.27586],[141.60064,40.27097],[141.60756,40.26987],[141.61047,40.27057],[141.61538,40.27512],[141.62096,40.27882],[141.62849,40.27932],[141.63155,40.27608],[141.63608,40.27405],[141.63985,40.27534],[141.64779,40.27491],[141.65654,40.27585],[141.66185,40.27769],[141.66915,40.27666],[141.67279,40.2775],[141.67568,40.27689],[141.67748,40.27844],[141.68492,40.27878],[141.69436,40.2752],[141.69833,40.27538],[141.70306,40.2736],[141.70532,40.26981],[141.70494,40.26184],[141.71672,40.2554],[141.71718,40.25382],[141.71866,40.25263],[141.71863,40.25097],[141.72217,40.24856],[141.72188,40.24661],[141.72246,40.24601],[141.72871,40.24434],[141.7326,40.24546],[141.7435,40.25097],[141.75126,40.25117],[141.75404,40.25292],[141.75626,40.25276],[141.76254,40.24521],[141.76362,40.24176],[141.77134,40.23965],[141.77213,40.23654],[141.77529,40.2336],[141.77785,40.22822],[141.78294,40.22344],[141.78303,40.22124],[141.78527,40.21777],[141.78874,40.21288],[141.79311,40.20882],[141.79486,40.20464],[141.7935,40.20299],[141.78954,40.19926],[141.78582,40.19764],[141.78219,40.19718]]]}}]}