{"type":"FeatureCollection","features":[{"type":"Feature","properties":{"route_id":"35","route_number":35,"name":"国道35号","source":"OpenStreetMap contributors (ODbL)","osm_relations":[2829437,9069825,9069826,9069827,9069828]},"geometry":{"type":"MultiLineString","coordinates":[[[130.01096,33.19013],[129.99294,33.184],[129.98729,33.1861],[129.9873,33.18918],[129.98368,33.19045],[129.97839,33.19572],[129.9724,33.19682],[129.96887,33.19569],[129.96537,33.19227],[129.95883,33.19248],[129.95122,33.19097],[129.94261,33.19115],[129.92987,33.18795],[129.92481,33.1885],[129.918,33.19221],[129.91121,33.19179],[129.90802,33.19085],[129.905,33.18869],[129.90096,33.18827],[129.89542,33.18597],[129.89161,33.18309],[129.8825,33.18004],[129.8626,33.18912],[129.86103,33.18924],[129.85522,33.1863],[129.85157,33.17685],[129.84585,33.17395],[129.84015,33.16591],[129.83374,33.16424],[129.83294,33.16149],[129.83077,33.1585],[129.83059,33.15465],[129.82697,33.14584],[129.82335,33.14446],[129.81904,33.14503],[129.81123,33.14411],[129.80554,33.14496],[129.79668,33.14107],[129.78791,33.14261],[129.77934,33.15175],[129.76446,33.15835],[129.75997,33.15885],[129.75535,33.15636],[129.75363,33.15621],[129.75005,33.1606],[129.74662,33.16195],[129.73789,33.15876],[129.73398,33.15888],[129.72541,33.16601],[129.72405,33.16897],[129.71687,33.17761],[129.7159,33.18012]],[[129.72922,33.1623],[129.7253,33.16593],[129.72397,33.16889],[129.71674,33.17756],[129.71576,33.18011]],[[129.78505,33.1454],[129.78605,33.14425]]]}}]}