{"type":"FeatureCollection","features":[{"type":"Feature","properties":{"route_id":"104","route_number":104,"name":"国道104号","source":"OpenStreetMap contributors (ODbL)","osm_relations":[3066227]},"geometry":{"type":"MultiLineString","coordinates":[[[141.46599,40.52781],[141.46745,40.51868],[141.47258,40.51431],[141.47855,40.50712],[141.47239,40.5083],[141.46481,40.50751],[141.46227,40.50669],[141.46088,40.50486],[141.45022,40.49936],[141.44347,40.49697],[141.4394,40.49671],[141.43107,40.48744],[141.42658,40.48582],[141.42737,40.48012],[141.42455,40.47726],[141.42071,40.4778],[141.41309,40.476],[141.40898,40.47631],[141.3869,40.46691],[141.38232,40.46713],[141.37601,40.46622],[141.3632,40.45978],[141.35945,40.46052],[141.34656,40.45771],[141.3437,40.45317],[141.34337,40.4472],[141.3362,40.44694],[141.33673,40.44502],[141.33415,40.44318],[141.32496,40.43117],[141.30838,40.42349],[141.30717,40.42197],[141.30614,40.41752],[141.30129,40.41421],[141.29957,40.41433],[141.29707,40.41644],[141.29097,40.4165],[141.28491,40.41329],[141.27736,40.41069],[141.27424,40.40754],[141.26335,40.40021],[141.26257,40.39505],[141.26376,40.39048],[141.26309,40.3887],[141.25563,40.38666],[141.25181,40.38318],[141.24542,40.38044],[141.23995,40.37327],[141.23957,40.37082],[141.24072,40.36952],[141.23978,40.37118],[141.24009,40.37356]],[[141.24025,40.36949],[141.2287,40.36466],[141.21288,40.36203],[141.2059,40.35815],[141.19791,40.35661],[141.19179,40.35669],[141.18788,40.35813],[141.18441,40.35769],[141.18017,40.35345],[141.17436,40.3495],[141.16589,40.3461],[141.16055,40.34544],[141.15192,40.34087],[141.14694,40.34027],[141.14451,40.33895],[141.14254,40.33571],[141.14499,40.33071],[141.14342,40.32847],[141.14401,40.32641],[141.14245,40.32391],[141.13181,40.31579],[141.12349,40.31195],[141.11852,40.30853],[141.11341,40.30676],[141.10658,40.30809],[141.09992,40.30657],[141.09731,40.3042],[141.09244,40.30308],[141.08619,40.29971],[141.07998,40.29575],[141.07774,40.29344],[141.06661,40.28996],[141.06429,40.29137],[141.05695,40.2924],[141.05152,40.29194],[141.04669,40.29053],[141.01466,40.29597],[141.00986,40.29773],[141.00566,40.30096],[141.00199,40.3062],[141.00181,40.30889],[140.99762,40.31038],[140.996,40.31418],[140.99578,40.31261],[140.99401,40.31211],[140.99166,40.31326],[140.98971,40.31549],[140.98977,40.31639],[140.98776,40.31635],[140.99,40.31697],[140.99038,40.31569],[140.99149,40.31521],[140.99036,40.31721],[140.9867,40.31874],[140.99084,40.31782],[140.98816,40.3199],[140.98577,40.32045],[140.9822,40.31989],[140.97025,40.32286],[140.9615,40.32252],[140.95734,40.32359],[140.9511,40.32318],[140.94427,40.32535],[140.9372,40.3312],[140.92826,40.33522],[140.92521,40.34275],[140.92617,40.34883],[140.92403,40.3547],[140.9168,40.35663],[140.91548,40.3608],[140.913,40.35977],[140.91154,40.36255],[140.90704,40.36434],[140.91011,40.37226],[140.90942,40.37337],[140.89869,40.3775],[140.89324,40.37557],[140.88959,40.37579],[140.88463,40.37407],[140.88026,40.37463],[140.8782,40.37204],[140.87564,40.3721],[140.8739,40.37059],[140.86771,40.36911],[140.86276,40.36588],[140.85473,40.36303],[140.84907,40.35982],[140.84382,40.34976],[140.83982,40.34677],[140.83627,40.34532],[140.82749,40.33684],[140.82782,40.3314],[140.83096,40.3217],[140.83001,40.31814],[140.83065,40.31471],[140.83477,40.31221],[140.83953,40.30684],[140.84011,40.30114],[140.83738,40.29794],[140.83743,40.29693],[140.82535,40.29374],[140.81829,40.29288],[140.80417,40.28518],[140.79981,40.27954],[140.79991,40.2772],[140.79908,40.27597],[140.79484,40.27511],[140.78367,40.26995],[140.77808,40.26858],[140.76575,40.26184],[140.76328,40.25935],[140.75673,40.24922],[140.75346,40.24767],[140.74533,40.24686],[140.74191,40.24521],[140.73101,40.22871],[140.72074,40.22352],[140.71739,40.22395],[140.71305,40.22745],[140.70019,40.23333],[140.69178,40.23317],[140.68653,40.23227],[140.68251,40.23064],[140.6804,40.22876],[140.6774,40.22405],[140.67449,40.22231],[140.65384,40.22204],[140.64602,40.21865],[140.63997,40.21842],[140.63443,40.21685],[140.62947,40.21685],[140.62149,40.21537],[140.61102,40.21924],[140.59857,40.22781],[140.58928,40.232],[140.58634,40.23412],[140.58133,40.24435],[140.58097,40.25164],[140.57874,40.254],[140.5704,40.25531],[140.56383,40.25399],[140.56031,40.25431],[140.54436,40.26436],[140.53485,40.26649],[140.52596,40.27007],[140.51569,40.27192],[140.50694,40.27539]],[[140.51641,40.27175],[140.52606,40.27013],[140.53491,40.26656],[140.54436,40.26436]],[[141.45973,40.50445],[141.45027,40.49928],[141.44493,40.49744]],[[140.55733,40.25598],[140.56213,40.25406],[140.57006,40.25539],[140.5786,40.25418],[140.58119,40.25132],[140.58124,40.24471]]]}}]}