{"type":"FeatureCollection","features":[{"type":"Feature","properties":{"route_id":"365","route_number":365,"name":"国道365号","source":"OpenStreetMap contributors (ODbL)","osm_relations":[8330502,10116125,10116656,15508264]},"geometry":{"type":"MultiLineString","coordinates":[[[136.16579,35.87657],[136.15995,35.87335],[136.1565,35.87286],[136.15988,35.8732],[136.16579,35.87657],[136.17114,35.86398],[136.18,35.85009],[136.19317,35.8361],[136.19919,35.82692],[136.20042,35.82123],[136.19954,35.81809],[136.19652,35.81279],[136.19359,35.80082],[136.19713,35.79368],[136.20612,35.78938],[136.20726,35.78775],[136.2068,35.78651],[136.20319,35.78446],[136.19864,35.78365],[136.1965,35.77907],[136.19779,35.77646],[136.20196,35.77249],[136.20175,35.76705],[136.20321,35.76089],[136.20108,35.75451],[136.20147,35.75038],[136.19356,35.74577],[136.18704,35.74675],[136.18397,35.74543],[136.17593,35.74428],[136.17536,35.74334],[136.17302,35.74267],[136.17159,35.73939],[136.16846,35.73668],[136.15917,35.73312],[136.15412,35.72939],[136.15463,35.72743],[136.15324,35.72549],[136.15348,35.71895],[136.15548,35.71156],[136.15643,35.71079],[136.15612,35.70919],[136.15682,35.70787],[136.15715,35.71035],[136.15637,35.71175],[136.15805,35.70996],[136.15761,35.70744],[136.15894,35.70538],[136.15997,35.70468],[136.16138,35.70548],[136.16121,35.7044],[136.16206,35.70374],[136.15968,35.70328],[136.15999,35.70214],[136.16166,35.70151],[136.1603,35.70068],[136.15824,35.69624],[136.15878,35.69063],[136.15683,35.68461],[136.15637,35.67996],[136.15723,35.66768],[136.15907,35.66456],[136.16127,35.65083],[136.16548,35.64134],[136.16497,35.63267],[136.16616,35.6253],[136.16928,35.61896],[136.17407,35.61445],[136.17876,35.60343],[136.18516,35.59448],[136.18746,35.58629],[136.19079,35.58095],[136.19437,35.56898],[136.19555,35.55822],[136.20617,35.54203],[136.20842,35.53231],[136.21248,35.52941],[136.21545,35.52129],[136.21467,35.51345],[136.21161,35.51092],[136.21523,35.50284],[136.22525,35.50572],[136.22691,35.50255],[136.22974,35.50333],[136.23252,35.49845],[136.23991,35.48084],[136.24286,35.47833],[136.24479,35.4706],[136.24848,35.47084],[136.25039,35.46695],[136.25758,35.46381],[136.26091,35.45902],[136.2618,35.4547],[136.26414,35.45112],[136.26983,35.44888],[136.28158,35.44591],[136.28438,35.442],[136.29858,35.43403],[136.30094,35.43123],[136.31121,35.42684],[136.32295,35.41231],[136.3364,35.40554],[136.33874,35.40141],[136.34273,35.39897],[136.3882,35.37265],[136.40037,35.36954],[136.40302,35.36989],[136.41433,35.37683],[136.41976,35.37766],[136.42435,35.37645],[136.42876,35.37876],[136.43408,35.38033],[136.43616,35.38019],[136.44167,35.37718],[136.44563,35.37184],[136.45701,35.37061],[136.46198,35.36771],[136.46776,35.3618],[136.46895,35.35922],[136.4743,35.35612],[136.47611,35.35301],[136.48176,35.34919],[136.48282,35.3455],[136.48476,35.34232],[136.49645,35.33804],[136.49485,35.33443],[136.49531,35.33271],[136.4944,35.3261],[136.4863,35.31933],[136.48093,35.30832],[136.47927,35.30104],[136.47824,35.29921],[136.47325,35.29465],[136.47067,35.2794],[136.47105,35.26918],[136.46871,35.26328],[136.46922,35.25938],[136.47141,35.25733],[136.47183,35.25587],[136.46962,35.25233],[136.46689,35.24062],[136.46318,35.23629],[136.45876,35.22725],[136.4587,35.2171],[136.45415,35.20694],[136.45689,35.20445],[136.46026,35.20302],[136.46354,35.1996],[136.46362,35.19849],[136.46175,35.19565],[136.4629,35.19042],[136.47555,35.18292],[136.48101,35.17436],[136.48948,35.16944],[136.49805,35.16747],[136.50241,35.16239],[136.50895,35.15921],[136.51324,35.14284],[136.51902,35.13875],[136.52908,35.12438],[136.53176,35.12247],[136.53634,35.12089],[136.54595,35.10928],[136.54752,35.10365],[136.55012,35.09883],[136.55487,35.09507],[136.56066,35.08853],[136.56563,35.07877],[136.5786,35.06793],[136.56623,35.07843],[136.5606,35.08896],[136.55504,35.0952],[136.55181,35.09741]],[[136.1565,35.87286],[136.15055,35.87277],[136.14793,35.8738],[136.14578,35.87663],[136.1454,35.87966],[136.14338,35.88209],[136.14426,35.88767],[136.14414,35.89349],[136.14681,35.90129],[136.14676,35.90792],[136.12999,35.92075],[136.12656,35.92028],[136.12128,35.92259],[136.11273,35.92185],[136.10998,35.92457],[136.1043,35.92603],[136.09821,35.92982],[136.09241,35.93573],[136.08917,35.94032],[136.08545,35.9413],[136.08296,35.94038],[136.07945,35.94156],[136.06906,35.94264],[136.06362,35.93937],[136.06126,35.93991],[136.0584,35.94441],[136.0589,35.94843],[136.06033,35.95058],[136.05895,35.95639],[136.05895,35.96141],[136.04768,35.96106],[136.03985,35.96215],[136.02829,35.95687],[136.02414,35.95652],[136.02093,35.9576],[136.01521,35.95656],[136.0077,35.95815],[136.00369,35.95719],[135.99951,35.95756],[135.9961,35.95947],[135.99457,35.96223],[135.99351,35.96256],[135.99225,35.962],[135.99159,35.95997],[135.99215,35.95909],[135.9933,35.95911],[135.99371,35.96025],[135.9923,35.9607],[135.98191,35.95546],[135.9762,35.95764],[135.97121,35.96234],[135.96827,35.96706],[135.96857,35.96834],[135.96224,35.97542],[135.95874,35.98218],[135.95941,35.98381],[135.96313,35.98665],[135.96255,35.98841],[135.96312,35.98979],[135.9657,35.99192],[135.96449,35.99546],[135.96491,35.99717],[135.96775,35.99861],[135.96905,36.00021],[135.97229,36.00097],[135.97463,36.00383],[135.97987,36.00513],[135.9822,36.00842],[135.98504,36.00837],[135.98909,36.01201],[135.99102,36.01247],[135.9919,36.0142],[135.99823,36.0188],[135.99846,36.021],[136.0024,36.02623],[136.00991,36.03171],[136.01222,36.03435],[136.01145,36.04183],[136.01211,36.04646],[136.01656,36.04896],[136.01859,36.05243],[136.02037,36.06138],[136.02,36.06522],[136.02153,36.06785],[136.0217,36.07089],[136.0249,36.07071],[136.02639,36.07258],[136.02508,36.07497],[136.02703,36.08025],[136.0285,36.08155],[136.03084,36.0864],[136.03139,36.09133],[136.03028,36.09516],[136.03263,36.09688],[136.03731,36.10346],[136.0417,36.10493],[136.04329,36.10659],[136.04862,36.10938],[136.04954,36.11713],[136.05435,36.12003],[136.05598,36.12348],[136.05807,36.12547],[136.07004,36.12913],[136.07646,36.13233],[136.07855,36.13434],[136.07952,36.13738],[136.08719,36.14296],[136.0935,36.14584],[136.09842,36.14619],[136.10106,36.14868],[136.10723,36.15153],[136.1111,36.15514],[136.10919,36.15664],[136.12211,36.16917],[136.13684,36.18792],[136.14332,36.20367],[136.13772,36.18913],[136.12624,36.17398]],[[136.5786,35.06793],[136.58037,35.06705],[136.57999,35.06573],[136.58231,35.06108],[136.58279,35.05821],[136.57879,35.04907],[136.56827,35.03699],[136.57772,35.01946],[136.58234,35.00808],[136.58292,35.00488],[136.58587,35.0001],[136.58813,34.99879],[136.59193,34.9945],[136.5978,34.9914],[136.61572,34.97944],[136.61885,34.97642],[136.61917,34.97566],[136.61837,34.97473],[136.61924,34.97381],[136.62509,34.97248]],[[136.33916,36.30074],[136.33918,36.30403],[136.33616,36.30723],[136.32687,36.30446],[136.32248,36.30467],[136.32062,36.30579],[136.32049,36.30708],[136.3195,36.30701],[136.31267,36.303],[136.3044,36.30488],[136.29685,36.30305],[136.29406,36.3015],[136.28675,36.30347],[136.27796,36.2979],[136.27304,36.29136],[136.27057,36.29013],[136.26424,36.28893],[136.25263,36.28987],[136.24727,36.28727],[136.24727,36.2864],[136.25071,36.28256],[136.24624,36.27787],[136.24619,36.27642],[136.24068,36.27674],[136.23968,36.27413],[136.23514,36.27187],[136.23438,36.26975],[136.23208,36.26928],[136.23179,36.26746],[136.23019,36.26674],[136.23035,36.26546],[136.22932,36.26371],[136.22694,36.2628],[136.22442,36.26061],[136.22066,36.2602],[136.21183,36.25404],[136.21116,36.2519],[136.21158,36.24784],[136.20303,36.23885],[136.20226,36.23569],[136.19839,36.2314],[136.19515,36.23098],[136.19251,36.2289],[136.18835,36.22957],[136.17548,36.22829],[136.16337,36.22449],[136.15787,36.22151],[136.1597,36.21534],[136.16004,36.21273],[136.15936,36.21161],[136.15221,36.2075],[136.14476,36.20607],[136.14332,36.20367]],[[136.47379,35.35644],[136.47143,35.35777]],[[136.55012,35.09883],[136.54434,35.11133]]]}}]}