{"type":"FeatureCollection","features":[{"type":"Feature","properties":{"route_id":"432","route_number":432,"name":"国道432号","source":"OpenStreetMap contributors (ODbL)","osm_relations":[1351886,9225566,9225567,9225568,9936142,9936402,9939259,13777400,18112126]},"geometry":{"type":"MultiLineString","coordinates":[[[133.00671,34.85099],[133.00896,34.84958],[133.01527,34.84888],[133.02244,34.8506],[133.02647,34.84495],[133.02244,34.8506],[133.01493,34.84877],[133.00887,34.8495],[133.00662,34.85092],[133.00973,34.85311],[133.01024,34.85504],[133.0065,34.86275],[133.0072,34.86613],[133.00377,34.86868],[133.00454,34.87502],[133.00343,34.87651],[133.00032,34.87798],[132.99854,34.88237],[132.99892,34.88393],[133.00276,34.88681],[133.00534,34.89086],[133.01891,34.90287],[133.0189,34.90439],[133.01645,34.90802],[133.01206,34.91098],[133.00859,34.91003],[133.00512,34.91183],[132.99963,34.9121],[132.99599,34.91503],[132.99247,34.91565],[132.99184,34.91676],[132.99318,34.91907],[132.98626,34.92612],[132.98515,34.92864],[132.97769,34.93723],[132.97649,34.94035],[132.97694,34.9413],[132.98126,34.9437],[132.98095,34.94606],[132.98367,34.9483],[132.98421,34.95081],[132.98843,34.951],[132.99068,34.95024],[132.99193,34.95122],[132.98924,34.95476],[132.99014,34.95714],[132.98931,34.96363],[132.98452,34.97081],[132.9805,34.97479],[132.98057,34.97667],[132.98157,34.97811],[132.98557,34.97994],[132.98888,34.9888],[132.98994,35.0041],[132.98976,35.00684],[132.9882,35.01063],[132.9895,35.01624],[132.98806,35.01878],[132.99062,35.02601],[132.99221,35.02746],[132.99237,35.0287],[132.99046,35.03041],[132.98928,35.03304],[132.98526,35.03496],[132.96278,35.03796],[132.95344,35.03633],[132.94884,35.03263],[132.9396,35.03077],[132.93729,35.03156],[132.93398,35.03013],[132.93165,35.03247],[132.91647,35.03543],[132.91296,35.03429],[132.90965,35.0373],[132.90656,35.03803],[132.90338,35.04488],[132.90299,35.0469],[132.90595,35.05246],[132.90484,35.05481],[132.90864,35.06092],[132.90754,35.06597],[132.90248,35.07107],[132.9006,35.07541],[132.90056,35.07764],[132.90709,35.0869],[132.90928,35.08833],[132.90835,35.09197],[132.90918,35.09195],[132.91024,35.08989],[132.91184,35.09017],[132.91589,35.09432],[132.91636,35.09592],[132.9183,35.09585],[132.92319,35.09775],[132.92578,35.10056],[132.92755,35.10137],[132.92859,35.10346],[132.93127,35.10385],[132.93249,35.10717],[132.93605,35.10934],[132.93911,35.11367],[132.94236,35.11534],[132.94272,35.11919],[132.9449,35.12112],[132.94616,35.12402],[132.94602,35.12661],[132.94363,35.12789],[132.94373,35.13267],[132.94667,35.13634],[132.94794,35.14197],[132.95316,35.14628],[132.95452,35.14923],[132.96412,35.15446],[132.96732,35.15968],[132.96714,35.16229],[132.97027,35.16906],[132.97052,35.17198],[132.97624,35.1738],[132.98033,35.18069],[132.98292,35.18251],[132.98339,35.1882],[132.98927,35.19221],[132.99073,35.19542],[132.99425,35.1966],[132.99936,35.19419],[133.00228,35.19394],[133.00543,35.19534],[133.00996,35.19505],[133.01104,35.19584],[133.02041,35.19448],[133.02199,35.19665],[133.02504,35.19707],[133.02847,35.19478],[133.03395,35.19616],[133.04791,35.2032],[133.05527,35.20839],[133.06344,35.21242],[133.06572,35.2148],[133.06902,35.21569],[133.07323,35.21881],[133.07939,35.22159],[133.08297,35.22541],[133.08511,35.22616],[133.08689,35.22804],[133.1011,35.2311],[133.10851,35.22946],[133.11835,35.23189],[133.1213,35.2319],[133.1256,35.23408],[133.12802,35.23816],[133.13411,35.23895],[133.13856,35.2427],[133.13875,35.24702],[133.14066,35.25019],[133.14284,35.25743],[133.14139,35.261],[133.14123,35.26433],[133.13616,35.26844],[133.13922,35.26931],[133.13984,35.27122],[133.14208,35.2708],[133.14107,35.27208],[133.13887,35.2724],[133.13759,35.27424],[133.13473,35.27577],[133.13588,35.27713],[133.13925,35.27826],[133.13864,35.28],[133.13937,35.28118],[133.14508,35.28099],[133.14684,35.28286],[133.14625,35.28401],[133.14711,35.28579],[133.14829,35.28663],[133.15243,35.28598],[133.15197,35.28747],[133.1536,35.29264],[133.15178,35.2938],[133.15009,35.2982],[133.14927,35.30344],[133.15043,35.30486],[133.1506,35.30744],[133.15686,35.31057],[133.16138,35.31513],[133.16506,35.31507],[133.16651,35.31586],[133.16711,35.32578],[133.17514,35.3327],[133.17502,35.334],[133.16471,35.34632],[133.16301,35.35217],[133.16346,35.35347],[133.16602,35.35509],[133.16592,35.35718],[133.17395,35.36077],[133.17414,35.36523],[133.17155,35.36471],[133.16465,35.36762],[133.1573,35.36912],[133.15015,35.37397],[133.14952,35.37311],[133.15351,35.37017],[133.15101,35.36758],[133.15462,35.36647],[133.15468,35.36557],[133.14923,35.36582],[133.14749,35.36666],[133.14772,35.37037],[133.14693,35.37113],[133.13988,35.37258],[133.13203,35.37302],[133.1319,35.37493],[133.13102,35.37589],[133.13274,35.37625],[133.13193,35.3777],[133.13442,35.37951],[133.13261,35.38049],[133.1345,35.38066],[133.13206,35.37888],[133.12649,35.37898],[133.12411,35.37988],[133.12384,35.38284],[133.11914,35.38776],[133.11946,35.39266],[133.11665,35.39448],[133.10774,35.39678],[133.10187,35.40184],[133.10034,35.40625],[133.09663,35.41195],[133.0954,35.41869],[133.09245,35.42104],[133.09282,35.42288],[133.09134,35.42886],[133.08609,35.43219],[133.08436,35.44045],[133.08164,35.44158],[133.07842,35.44423],[133.06536,35.44752],[133.06128,35.45124],[133.06071,35.45896]],[[132.90799,34.34155],[132.90267,34.35153],[132.89228,34.36401],[132.89087,34.36403],[132.88557,34.36884],[132.8843,34.37145],[132.88421,34.37376],[132.88507,34.37433],[132.88545,34.37625],[132.88985,34.37944],[132.89163,34.38429],[132.89177,34.3906],[132.8903,34.39266],[132.89237,34.39487],[132.89315,34.39798],[132.89319,34.40574],[132.89578,34.40927],[132.89484,34.41513],[132.89743,34.41919],[132.89628,34.42254],[132.88831,34.42681],[132.88518,34.43131],[132.87863,34.4328],[132.87324,34.43703],[132.86377,34.4381],[132.86048,34.44005],[132.85971,34.44241],[132.85726,34.44407],[132.8567,34.448],[132.85493,34.44977],[132.85411,34.45227],[132.85028,34.45469],[132.85159,34.45889],[132.85405,34.46046],[132.85593,34.46325],[132.8557,34.46505],[132.85979,34.46706],[132.86148,34.46951],[132.86348,34.47024],[132.86366,34.471],[132.86206,34.4727],[132.86433,34.47542],[132.88161,34.47394],[132.88835,34.47022],[132.88948,34.47244],[132.8943,34.47735],[132.89709,34.47897],[132.89727,34.48062],[132.89999,34.48265],[132.89987,34.48707],[132.89658,34.48895],[132.89721,34.49119],[132.89243,34.49247],[132.89154,34.49692],[132.89221,34.49799],[132.89395,34.49808],[132.89359,34.49991],[132.88846,34.50391],[132.88849,34.50576],[132.89195,34.50644],[132.89496,34.50566],[132.89755,34.50752],[132.90269,34.50609],[132.91437,34.50666],[132.91793,34.50873],[132.92085,34.51337],[132.9206,34.5168],[132.92167,34.52442],[132.9246,34.52662],[132.92288,34.52943],[132.92294,34.53294],[132.91992,34.53499],[132.91951,34.5361],[132.92205,34.53828],[132.92648,34.53984],[132.93051,34.53944],[132.94895,34.54277],[132.95015,34.54707],[132.94891,34.55828],[132.95003,34.56167],[132.95388,34.5629],[132.95697,34.56713],[132.95699,34.5704],[132.95872,34.57217],[132.9582,34.57665],[132.95892,34.57755],[132.96597,34.57745],[132.96826,34.58102],[132.96993,34.58185],[132.98235,34.57556],[132.98787,34.57766],[132.99004,34.57635],[132.99175,34.57653],[132.99428,34.57944],[132.99783,34.57979],[132.99928,34.58086],[133.00159,34.58425],[133.00242,34.5886],[133.00487,34.58908],[133.00864,34.58833],[133.01194,34.59009],[133.01824,34.58728],[133.01912,34.58496],[133.0254,34.58662],[133.03033,34.5849],[133.04354,34.58503],[133.05238,34.58728],[133.05648,34.58719],[133.06642,34.5893],[133.0726,34.58863],[133.07992,34.59128],[133.08291,34.59462],[133.08672,34.60504],[133.09109,34.61134],[133.09453,34.6194],[133.09877,34.6253],[133.10018,34.62865],[133.10274,34.631],[133.10576,34.63152],[133.10882,34.63342],[133.11222,34.63774],[133.12114,34.65238],[133.12088,34.65623],[133.12451,34.65802],[133.12878,34.66788],[133.1279,34.67115],[133.12821,34.67338],[133.12536,34.67667],[133.12535,34.67906],[133.1233,34.67999],[133.12413,34.68133],[133.1212,34.68794],[133.1228,34.69424],[133.11847,34.69474],[133.11556,34.69787],[133.11545,34.70255],[133.10809,34.70571],[133.11163,34.71358],[133.11359,34.72038],[133.11534,34.72248],[133.11669,34.72596],[133.11655,34.73094],[133.11498,34.73289],[133.11822,34.73497],[133.11549,34.74454],[133.11658,34.74634],[133.1161,34.74827],[133.1135,34.75082],[133.11533,34.75283],[133.11608,34.75574],[133.11377,34.75643],[133.11344,34.7582],[133.11156,34.75916],[133.11053,34.76264],[133.11133,34.76433],[133.11103,34.76569],[133.10678,34.76921],[133.10428,34.77028],[133.09962,34.76952],[133.09695,34.77167],[133.09402,34.77208],[133.09363,34.77366],[133.09237,34.7744],[133.08948,34.7735],[133.08925,34.77759],[133.08762,34.77968],[133.08778,34.78165],[133.08339,34.78158],[133.08004,34.78506],[133.07734,34.78411],[133.06965,34.78485],[133.06625,34.78339],[133.06254,34.78388],[133.06365,34.78879],[133.06322,34.79088],[133.0599,34.79309],[133.05545,34.80133],[133.05153,34.80428],[133.05083,34.80831],[133.04905,34.812],[133.04645,34.81483],[133.04444,34.81533],[133.04237,34.81888],[133.03949,34.82098],[133.03987,34.82566],[133.03774,34.83601],[133.03307,34.84268],[133.02741,34.8439],[133.02647,34.84495]],[[132.88282,34.47334],[132.88306,34.47327]]]}}]}