{"type":"FeatureCollection","features":[{"type":"Feature","properties":{"route_id":"357","route_number":357,"name":"国道357号","source":"OpenStreetMap contributors (ODbL)","osm_relations":[5347303]},"geometry":{"type":"MultiLineString","coordinates":[[[140.12407,35.55022],[140.12617,35.55834],[140.12938,35.56439],[140.12975,35.56815],[140.12716,35.57873],[140.1223,35.59036],[140.11718,35.59811],[140.10307,35.61371],[140.08065,35.63553],[140.06377,35.64761],[140.05353,35.64963],[140.04623,35.65242],[140.03587,35.65805],[140.02297,35.66141],[140.00563,35.67213],[140.00022,35.67977],[139.99221,35.68388],[139.95964,35.69235],[139.95423,35.69097],[139.93708,35.68037],[139.9243,35.66932],[139.91577,35.66036],[139.88811,35.63788],[139.88459,35.63714],[139.88141,35.63751],[139.85666,35.64618],[139.83779,35.64736],[139.81782,35.64541],[139.8021,35.64038],[139.7744,35.6256],[139.75723,35.61235],[139.75581,35.60925],[139.75563,35.58546],[139.76039,35.57008],[139.76234,35.56789],[139.78088,35.55789],[139.79157,35.54309]],[[139.74069,35.49073],[139.77018,35.50376],[139.78684,35.51327],[139.79145,35.51938],[139.79506,35.5329],[139.7939,35.5384],[139.78017,35.55768],[139.77638,35.56034],[139.76159,35.56777],[139.75951,35.5699],[139.75495,35.58537],[139.75503,35.60988],[139.75659,35.61284],[139.77244,35.62487],[139.78092,35.62984],[139.80068,35.64046],[139.81655,35.64584],[139.83722,35.64783],[139.8568,35.6467],[139.88131,35.6382],[139.88766,35.63853],[139.91506,35.66083],[139.92415,35.67002],[139.93701,35.68111],[139.95336,35.69127],[139.95711,35.69258],[139.96226,35.69252],[139.99194,35.68439],[140.00047,35.68018],[140.0058,35.6728],[140.01887,35.66488],[140.0369,35.65808],[140.04962,35.65165],[140.06396,35.64821],[140.08171,35.63502],[140.1023,35.6147],[140.11564,35.60016],[140.12237,35.5905],[140.12726,35.57877],[140.12984,35.56805],[140.12946,35.5643],[140.12614,35.55802],[140.1242,35.55012]],[[139.68325,35.46521],[139.68046,35.46378],[139.66752,35.44402],[139.66749,35.44005],[139.67152,35.42857],[139.67049,35.41823],[139.66923,35.4158],[139.66429,35.41282],[139.66084,35.41242],[139.65797,35.41352],[139.65372,35.417],[139.64819,35.41851],[139.63354,35.41465],[139.62659,35.41032],[139.61665,35.39578],[139.61644,35.39349],[139.6173,35.39065],[139.6229,35.38476],[139.63073,35.3811],[139.63999,35.37885],[139.64291,35.37618],[139.64472,35.34515],[139.64466,35.33862],[139.64365,35.33574],[139.64457,35.33898],[139.64463,35.34517],[139.64222,35.37668],[139.63987,35.37864],[139.63017,35.38099],[139.62452,35.38323],[139.62007,35.38654],[139.61616,35.39274],[139.61717,35.39725],[139.62476,35.40849]],[[139.76978,35.50277],[139.74112,35.49008]],[[139.65719,35.41443],[139.66019,35.41278],[139.6634,35.41278],[139.66782,35.41494],[139.66989,35.4172],[139.67143,35.42877],[139.66744,35.44003],[139.66735,35.44356],[139.66878,35.44671],[139.6798,35.46277]],[[139.79391,35.52441],[139.79167,35.51733],[139.78965,35.51437],[139.77817,35.50714],[139.71998,35.48089],[139.69312,35.46981],[139.6828,35.46461],[139.67941,35.46209]],[[139.66925,35.43588],[139.66715,35.44085],[139.66768,35.44496],[139.67765,35.46023],[139.68151,35.46396],[139.69311,35.46993],[139.76941,35.50339]],[[139.7908,35.54448],[139.79381,35.54012],[139.79548,35.53602]],[[139.63725,35.31692],[139.63499,35.32237],[139.6387,35.32682],[139.64383,35.33636]],[[139.6439,35.33633],[139.6388,35.3268],[139.63515,35.32238],[139.63743,35.31691]],[[139.62364,35.40684],[139.62723,35.41104],[139.6314,35.41377],[139.64698,35.41848],[139.65283,35.41746],[139.65684,35.41471]],[[139.65665,35.41457],[139.65112,35.41801]]]}}]}