{"type":"FeatureCollection","features":[{"type":"Feature","properties":{"route_id":"217","route_number":217,"name":"国道217号","source":"OpenStreetMap contributors (ODbL)","osm_relations":[9657346,9657509,9659209,9659267,9659782,9659817,10142636,10142637]},"geometry":{"type":"MultiLineString","coordinates":[[[131.60236,33.23698],[131.60277,33.23908],[131.62035,33.23897],[131.63136,33.2424],[131.64326,33.24216],[131.66084,33.24524],[131.66626,33.24447],[131.66882,33.24264],[131.67705,33.24083],[131.68724,33.24099],[131.70102,33.2388],[131.7095,33.24485],[131.71251,33.24567],[131.71891,33.24402],[131.72844,33.23727],[131.73469,33.2376],[131.74757,33.23527],[131.76056,33.23514],[131.76825,33.23728],[131.77506,33.23583],[131.77912,33.23873],[131.78425,33.23949],[131.79092,33.23998],[131.79845,33.23837],[131.803,33.24117],[131.80762,33.24173],[131.81842,33.24555],[131.82551,33.2463],[131.83128,33.24805],[131.83341,33.24696],[131.84024,33.24803],[131.84722,33.25129],[131.85091,33.25176],[131.85276,33.25451],[131.85612,33.25507],[131.8578,33.25487],[131.85777,33.25378],[131.85897,33.2526],[131.8623,33.2519],[131.86501,33.24907],[131.8736,33.24777],[131.87364,33.24513],[131.87497,33.24463],[131.87361,33.24277],[131.87447,33.23861],[131.87124,33.23571],[131.87084,33.23264],[131.87239,33.22995],[131.87617,33.22767],[131.8771,33.22595],[131.87544,33.22221],[131.87206,33.22082],[131.87199,33.2164],[131.8657,33.21301],[131.86513,33.21143],[131.86357,33.21036],[131.86202,33.20608],[131.85919,33.20332],[131.85938,33.19644],[131.85432,33.19456],[131.8507,33.19195],[131.84907,33.19027],[131.84862,33.18803],[131.84585,33.1889],[131.84261,33.1869],[131.84012,33.18726],[131.83839,33.18464],[131.8352,33.18315],[131.82866,33.17781],[131.82578,33.17669],[131.82537,33.17562],[131.82733,33.17122],[131.82522,33.16919],[131.80765,33.16369],[131.79532,33.16335],[131.78977,33.15589],[131.78296,33.15367],[131.77963,33.15145],[131.77882,33.14386],[131.77692,33.13924],[131.77787,33.13659],[131.78163,33.1345],[131.78301,33.13226],[131.78065,33.12528],[131.78082,33.11771],[131.78149,33.11611],[131.78439,33.11439],[131.7889,33.11434],[131.79244,33.11237],[131.79699,33.11277],[131.80085,33.11191],[131.80242,33.11023],[131.80477,33.1098],[131.80675,33.10739],[131.80872,33.10694],[131.81052,33.1054],[131.81144,33.10272],[131.81476,33.10102],[131.82263,33.08762],[131.82642,33.08417],[131.82899,33.0838],[131.83205,33.08572],[131.83686,33.08544],[131.83993,33.08278],[131.84203,33.07922],[131.8484,33.07663],[131.85418,33.07723],[131.85508,33.07796],[131.86069,33.07707],[131.86313,33.07542],[131.86704,33.07483],[131.87345,33.07762],[131.87522,33.07759],[131.89236,33.07014],[131.90661,33.06947],[131.9126,33.0664],[131.91978,33.06711],[131.92467,33.06573],[131.92861,33.06709],[131.93092,33.06615],[131.93175,33.06483],[131.93352,33.06028],[131.93237,33.05702],[131.93308,33.05396],[131.93003,33.05323],[131.92756,33.05156],[131.92551,33.04696],[131.92157,33.04505],[131.91993,33.04192],[131.92143,33.04012],[131.91999,33.03744],[131.92158,33.0363],[131.92085,33.03497],[131.92204,33.03364],[131.91968,33.02901],[131.9225,33.02672],[131.91839,33.02511],[131.91775,33.02369],[131.91543,33.02292],[131.91489,33.02126],[131.91253,33.02113],[131.90907,33.01682],[131.90517,33.01544],[131.90032,33.00914],[131.89859,33.00796],[131.89832,33.00297],[131.89432,33.0029],[131.8898,33.00091],[131.8907,32.9989],[131.88838,32.99446],[131.88861,32.99097],[131.89215,32.98743],[131.89516,32.9827],[131.89548,32.98041],[131.90097,32.97508],[131.90279,32.97164],[131.90262,32.96859],[131.89918,32.96129],[131.89366,32.95695],[131.88957,32.95546],[131.87188,32.96017],[131.8664,32.95816],[131.86217,32.95521],[131.85596,32.95362],[131.85195,32.95368],[131.84563,32.95758],[131.84811,32.96022],[131.85163,32.96171],[131.86197,32.96087],[131.86534,32.96221],[131.87015,32.96239],[131.87174,32.96332],[131.86921,32.96228],[131.86512,32.96224],[131.86207,32.96096],[131.85796,32.96154]],[[131.66095,33.24522],[131.64327,33.2421],[131.63151,33.24236],[131.62037,33.23889],[131.60284,33.23898],[131.6025,33.23701]],[[131.87174,32.96332],[131.87447,32.96644],[131.87636,32.96723],[131.88391,32.96619],[131.89187,32.96662],[131.89399,32.96569]],[[131.87136,33.2316],[131.87337,33.23077],[131.87292,33.22939],[131.87358,33.2286],[131.87609,33.22898],[131.87663,33.22723]]]}}]}