{"type":"FeatureCollection","features":[{"type":"Feature","properties":{"route_id":"121","route_number":121,"name":"国道121号","source":"OpenStreetMap contributors (ODbL)","osm_relations":[3218025,3218028,3218036,3218039,7429219]},"geometry":{"type":"MultiLineString","coordinates":[[[139.72272,36.84247],[139.72035,36.84242],[139.7198,36.83796],[139.7148,36.82893],[139.71178,36.826],[139.70881,36.82529],[139.70728,36.82409],[139.70698,36.81173],[139.70062,36.80031],[139.70275,36.78409],[139.70658,36.77811],[139.71104,36.77385],[139.7125,36.77707],[139.71184,36.77968],[139.71234,36.78135],[139.70692,36.78734],[139.70556,36.79005],[139.70456,36.79615],[139.7108,36.81193],[139.71587,36.81744],[139.71617,36.82042],[139.71963,36.82773],[139.72068,36.83463],[139.72275,36.83829],[139.7227,36.84245],[139.72958,36.84811],[139.7328,36.84981],[139.73313,36.85076],[139.73074,36.85457],[139.72671,36.85831],[139.71936,36.86079],[139.71983,36.8645],[139.71844,36.86445],[139.71713,36.86268],[139.71668,36.86461],[139.71415,36.86502],[139.7056,36.86996],[139.70499,36.87343],[139.70048,36.87876],[139.7031,36.88205],[139.70309,36.88383],[139.70516,36.88878],[139.70747,36.89105],[139.70789,36.89236],[139.70719,36.89315],[139.70827,36.89431],[139.71095,36.89418],[139.71101,36.89484],[139.71002,36.89608],[139.70711,36.89646],[139.70154,36.89573],[139.70837,36.89795],[139.70362,36.90104],[139.70339,36.90396],[139.70263,36.90443],[139.70087,36.91053],[139.69845,36.91513],[139.692,36.91956],[139.69298,36.92048],[139.69562,36.92041],[139.69613,36.9225],[139.69883,36.92518],[139.69918,36.9274],[139.69748,36.92909],[139.69753,36.93048],[139.69581,36.93257],[139.69701,36.93383],[139.69571,36.93434],[139.69619,36.93487],[139.69461,36.93626],[139.69808,36.94078],[139.69831,36.9424],[139.70002,36.94354],[139.70056,36.94751],[139.69886,36.94951],[139.69496,36.94986],[139.69519,36.95437],[139.69318,36.95691],[139.6937,36.95778],[139.69719,36.95874],[139.69758,36.96224],[139.69609,36.96364],[139.69238,36.96469],[139.68832,36.96331],[139.68655,36.96705],[139.69062,36.97035],[139.68826,36.97258],[139.69168,36.97815],[139.6915,36.9827],[139.69937,36.9868],[139.70867,36.98938],[139.71206,36.99491],[139.71487,36.99737],[139.71904,36.99918],[139.72319,37.0039],[139.72533,37.00938],[139.7298,37.01408],[139.73044,37.01933],[139.72687,37.02376],[139.72823,37.0286],[139.72334,37.03872],[139.72961,37.04615],[139.73021,37.05055],[139.73643,37.05844],[139.74625,37.06682],[139.74814,37.07456],[139.74618,37.07727],[139.73317,37.08111],[139.73037,37.0832],[139.72495,37.09108],[139.72523,37.09795],[139.72428,37.10006],[139.72393,37.10495],[139.72178,37.10608],[139.72154,37.10931],[139.71493,37.11691],[139.71485,37.11886],[139.71784,37.12722],[139.71785,37.13325],[139.7197,37.13701],[139.72735,37.13954],[139.7294,37.14097],[139.73363,37.14838],[139.73512,37.15445],[139.74453,37.16969],[139.74612,37.17378],[139.75646,37.18553],[139.76439,37.20319],[139.77027,37.2013],[139.78059,37.20138],[139.7901,37.21235],[139.79332,37.21292],[139.79614,37.21527],[139.80728,37.21997],[139.82011,37.22323],[139.82544,37.22265],[139.83071,37.22508],[139.83421,37.22838],[139.83693,37.23355],[139.83896,37.2355],[139.84432,37.2382],[139.84946,37.24428],[139.85403,37.24663],[139.8593,37.25127],[139.86236,37.2517],[139.86722,37.25555],[139.87041,37.26175],[139.87392,37.26228],[139.87826,37.2612],[139.88464,37.26451],[139.88689,37.26697],[139.894,37.269],[139.89524,37.27301],[139.90106,37.28093],[139.90196,37.28412],[139.90482,37.28639],[139.90501,37.28923],[139.90212,37.2922],[139.90029,37.29648],[139.89491,37.30397],[139.89476,37.30843],[139.89559,37.30977],[139.89791,37.31073],[139.89895,37.31438],[139.90096,37.31603],[139.90288,37.31698],[139.90625,37.31584],[139.9079,37.3173],[139.90842,37.32113],[139.91039,37.32504],[139.91056,37.32706],[139.90756,37.33952],[139.90772,37.34642],[139.90896,37.35337],[139.91021,37.3547],[139.91301,37.35549],[139.91354,37.35655],[139.90943,37.35948],[139.9091,37.36107],[139.91103,37.36382],[139.91826,37.3671],[139.9227,37.38064],[139.92734,37.38502],[139.93203,37.38678],[139.93201,37.38964],[139.93481,37.39687],[139.93097,37.4022],[139.91968,37.41003],[139.9184,37.41806],[139.91447,37.4275],[139.92,37.43944],[139.92214,37.46405],[139.92864,37.49842],[139.93246,37.50723],[139.93279,37.50944],[139.93157,37.51337],[139.93314,37.51794],[139.9188,37.51794],[139.91415,37.53879],[139.91865,37.51794],[139.93314,37.51784]],[[139.94532,36.50233],[139.94123,36.50082],[139.92438,36.50039],[139.91182,36.50224],[139.89078,36.50227],[139.88032,36.50441],[139.86958,36.50556],[139.86006,36.50532],[139.84373,36.51607],[139.85982,36.50527],[139.87495,36.50502],[139.89116,36.50217],[139.91184,36.50215],[139.92494,36.5001],[139.94181,36.50047],[139.94868,36.5041],[139.96737,36.50869],[139.96909,36.4934],[139.97176,36.4898],[139.97793,36.48416],[139.98199,36.48589],[139.9968,36.48514],[140.00666,36.48204],[140.00836,36.47888],[140.02003,36.47726],[140.02538,36.47494],[140.04167,36.47533],[140.05025,36.4731],[140.05854,36.47458],[140.06035,36.47402],[140.06566,36.47639],[140.06959,36.47486],[140.07649,36.46983],[140.07992,36.46868],[140.07841,36.46267],[140.08237,36.4622],[140.08606,36.4626],[140.08971,36.46881],[140.09772,36.46731],[140.09768,36.47488],[140.09642,36.47725],[140.09797,36.4906]],[[139.70943,36.69875],[139.70851,36.69836],[139.71028,36.69892],[139.71187,36.69794],[139.71685,36.69056],[139.72003,36.67902],[139.72192,36.67521],[139.72283,36.67516],[139.72243,36.66958],[139.72099,36.66467],[139.72193,36.65227],[139.72394,36.64415],[139.72502,36.64328],[139.72783,36.63674],[139.72908,36.62949],[139.74066,36.60918],[139.74619,36.59305],[139.7534,36.57836],[139.75303,36.57735],[139.75154,36.5771],[139.74781,36.56986],[139.74652,36.56147],[139.75707,36.55929],[139.76142,36.55912],[139.76665,36.55645],[139.77529,36.5556],[139.78182,36.55268],[139.785,36.54994],[139.78926,36.54184],[139.79338,36.53833],[139.79869,36.53085],[139.80727,36.53635],[139.80151,36.53273]],[[140.12323,37.95045],[140.11231,37.95085],[140.11097,37.93571],[140.10829,37.92708],[140.10494,37.92324],[140.09077,37.92286],[140.07251,37.91566],[140.07065,37.91368],[140.05611,37.91526],[140.04866,37.91366],[140.04482,37.91141],[140.04041,37.91095],[140.02745,37.9058],[140.02503,37.90239],[140.01742,37.89648],[140.00582,37.89054],[139.99852,37.89082],[139.99367,37.88729],[139.98983,37.886],[139.98718,37.88275],[139.98402,37.88048],[139.98367,37.87763],[139.98151,37.87356],[139.98384,37.8707],[139.98424,37.86489],[139.98565,37.86159],[139.98858,37.85963],[139.99025,37.85375],[139.99347,37.85183],[139.99686,37.8451],[139.9998,37.84151],[140.00033,37.83866],[140.00155,37.83697],[140.00218,37.8308],[140.00432,37.82582],[140.0018,37.81806],[139.99777,37.81526],[139.99495,37.81143],[139.98995,37.80932],[139.98223,37.80768],[139.94083,37.79027],[139.93796,37.78785],[139.93408,37.78624],[139.92882,37.78147],[139.92426,37.77902],[139.91791,37.771],[139.91391,37.76241],[139.90283,37.756],[139.8965,37.75068],[139.89248,37.74969],[139.88819,37.74685],[139.88536,37.74264],[139.88051,37.73947],[139.87889,37.73436],[139.87377,37.72984],[139.87268,37.72526],[139.86987,37.7203],[139.86755,37.70974],[139.86778,37.70685],[139.87079,37.70386],[139.88673,37.69619],[139.88892,37.69429],[139.89014,37.69175],[139.88783,37.67603],[139.88993,37.66793],[139.88615,37.65749],[139.88852,37.64666],[139.8889,37.63769],[139.89306,37.62612],[139.8919,37.60456],[139.89064,37.59936],[139.89292,37.59402],[139.89289,37.58149],[139.89534,37.57882],[139.90648,37.56163],[139.90699,37.55799],[139.91415,37.53879]],[[139.79869,36.53085],[139.80445,36.52154],[139.80861,36.518],[139.80917,36.51254],[139.81275,36.50514],[139.81572,36.49415],[139.8209,36.49567],[139.82312,36.49775],[139.82717,36.49979],[139.83219,36.50063],[139.83349,36.50405],[139.83745,36.51019],[139.84373,36.51607]],[[139.73227,37.14626],[139.73382,37.14941]],[[139.88881,37.63772],[139.88767,37.63561],[139.88256,37.63108],[139.88103,37.62788],[139.88253,37.61282],[139.88149,37.61045],[139.87725,37.60561],[139.87597,37.60184],[139.87652,37.59624],[139.87832,37.59105],[139.87643,37.59623],[139.87585,37.60135],[139.87717,37.60563],[139.88142,37.6105],[139.88244,37.61282],[139.88096,37.62789],[139.88278,37.63146],[139.88812,37.63626],[139.88895,37.63894]],[[139.87832,37.59105],[139.88068,37.5878],[139.8885,37.58123],[139.89145,37.57763],[139.8932,37.57351],[139.89673,37.55597],[139.89874,37.55357],[139.90422,37.55007],[139.90679,37.54746],[139.90814,37.54444],[139.90849,37.53869],[139.91446,37.53521]],[[139.67946,36.72191],[139.68404,36.72395],[139.68852,36.73286],[139.69045,36.73234],[139.69235,36.73291],[139.69758,36.73762],[139.70141,36.73892],[139.7054,36.74245],[139.70873,36.75122],[139.70947,36.75908],[139.70818,36.7614],[139.71562,36.76419],[139.71476,36.7696],[139.71104,36.77385],[139.71469,36.76955]],[[139.68496,36.7254],[139.68988,36.72318],[139.69311,36.71762],[139.6946,36.71677],[139.69585,36.71407],[139.69884,36.71147],[139.70079,36.70848],[139.70656,36.70447],[139.70759,36.70321],[139.70868,36.69878]],[[139.68691,36.72989],[139.68852,36.73286]],[[139.80727,36.53635],[139.81615,36.52748],[139.82329,36.52365]],[[139.8803,37.58826],[139.88827,37.58156],[139.89153,37.57767],[139.89337,37.57346],[139.89682,37.556],[139.89883,37.55363],[139.90431,37.55015],[139.90686,37.54748],[139.90825,37.54416],[139.90857,37.53873],[139.91457,37.53528]],[[139.71874,37.11214],[139.7193,37.11183]],[[139.69723,36.93987],[139.69812,36.94134]]]}}]}