{"type":"FeatureCollection","features":[{"type":"Feature","properties":{"route_id":"27","route_number":27,"name":"国道27号","source":"OpenStreetMap contributors (ODbL)","osm_relations":[2578409,2578411,9046116,19171077]},"geometry":{"type":"MultiLineString","coordinates":[[[135.42375,35.16509],[135.4245,35.17309],[135.41703,35.18747],[135.41834,35.19226],[135.41809,35.19531],[135.42141,35.19839],[135.42767,35.20076],[135.43289,35.20477],[135.43424,35.20636],[135.43453,35.20844],[135.43122,35.21422],[135.42114,35.22036],[135.41643,35.22686],[135.41373,35.233],[135.41296,35.23554],[135.4135,35.23734],[135.41683,35.23998],[135.41704,35.24497],[135.41939,35.24693],[135.41785,35.24981],[135.41753,35.2525],[135.41236,35.25626],[135.41022,35.25958],[135.40615,35.26182],[135.40061,35.26863],[135.39368,35.27009],[135.38663,35.26679],[135.38041,35.26577],[135.37411,35.26834],[135.36916,35.2674],[135.3671,35.26773],[135.36518,35.26912],[135.36255,35.27286],[135.36106,35.27359],[135.35373,35.27359],[135.33704,35.27704],[135.3348,35.27941],[135.33589,35.28483],[135.33523,35.28796],[135.33206,35.29078],[135.32837,35.29659],[135.32623,35.29789],[135.31959,35.29814],[135.31496,35.29512],[135.30903,35.29295],[135.28819,35.28756],[135.28298,35.28948],[135.27147,35.29166],[135.26681,35.29501],[135.26684,35.29784],[135.26774,35.29969],[135.27436,35.30518],[135.27651,35.30939],[135.28202,35.3129],[135.29359,35.32748],[135.29766,35.32955],[135.3111,35.34175],[135.31174,35.34766],[135.31087,35.35257],[135.31622,35.35907],[135.31928,35.36794],[135.32141,35.37079],[135.32093,35.37364],[135.31886,35.37757],[135.31643,35.37941],[135.31347,35.38341],[135.31349,35.3855],[135.31916,35.39343],[135.32038,35.39993],[135.33287,35.41409],[135.32833,35.42705],[135.32907,35.45075],[135.34317,35.45077],[135.34798,35.45235],[135.35023,35.45629],[135.35353,35.45947],[135.36314,35.46363],[135.36758,35.47653],[135.37729,35.47668],[135.38129,35.47463],[135.38664,35.47386],[135.38767,35.47289],[135.40927,35.47803],[135.41782,35.48102],[135.43731,35.48068],[135.44283,35.4815],[135.45346,35.4854],[135.46828,35.48669],[135.47245,35.48548],[135.47432,35.48226],[135.47647,35.48118],[135.48306,35.48367],[135.49953,35.48276],[135.5164,35.48841],[135.52378,35.48975],[135.53174,35.48938],[135.54119,35.48718],[135.54878,35.48751],[135.5605,35.48481],[135.56354,35.48527],[135.57205,35.48877],[135.58164,35.48938],[135.59363,35.4888],[135.59759,35.48736],[135.60049,35.4835],[135.60496,35.48227],[135.61694,35.48324],[135.62282,35.48268],[135.63043,35.47846],[135.63592,35.47885],[135.64106,35.47766],[135.64473,35.47859],[135.65307,35.47797],[135.65761,35.48089],[135.66612,35.483],[135.67104,35.48176],[135.68851,35.4812],[135.69626,35.48133],[135.70204,35.48376],[135.71404,35.4828],[135.72729,35.48609],[135.72942,35.48573],[135.73431,35.48919],[135.74693,35.49061],[135.75881,35.48825],[135.7879,35.47895],[135.79607,35.47763],[135.79931,35.4752],[135.80853,35.47057],[135.8209,35.46918],[135.82633,35.46932],[135.83523,35.46577],[135.8427,35.46428],[135.86253,35.46276],[135.86628,35.46563],[135.86988,35.47178],[135.87739,35.47911],[135.8827,35.4799],[135.88911,35.47708],[135.89523,35.47891],[135.90049,35.47861],[135.90295,35.48019],[135.90037,35.48842],[135.9007,35.49623],[135.89969,35.502],[135.90015,35.50528],[135.90194,35.50967],[135.90919,35.51964],[135.91157,35.52804],[135.91119,35.53157],[135.90918,35.53654],[135.91112,35.544],[135.91105,35.54707],[135.90979,35.55],[135.91092,35.5544],[135.91082,35.55753],[135.90879,35.56694],[135.90926,35.57562],[135.91042,35.57916],[135.91041,35.58605],[135.91174,35.58835],[135.9181,35.59288],[135.92232,35.59802],[135.92944,35.603],[135.93802,35.60416],[135.95033,35.60768],[135.95804,35.61061],[135.96163,35.61401],[135.97538,35.61266],[135.97862,35.61319],[135.99036,35.61957],[135.99273,35.62219],[135.99411,35.62648],[135.99587,35.62865],[136.00009,35.63147],[136.00482,35.63317],[136.0132,35.63383],[136.05272,35.63352],[136.07453,35.6318],[136.07935,35.63309],[136.08121,35.63625]],[[135.36381,35.46658],[135.36287,35.4632],[135.35263,35.45868]],[[135.38647,35.4739],[135.38151,35.47447],[135.37691,35.47663],[135.36771,35.47646],[135.36727,35.47523]],[[136.08148,35.63643],[136.08091,35.63348],[136.07492,35.63171],[136.05283,35.63342],[136.02301,35.63358],[136.00418,35.63261],[135.99991,35.63109],[135.99633,35.62866],[135.99421,35.62609],[135.99271,35.62197],[135.99026,35.61936],[135.9779,35.61289]],[[135.35,35.45591],[135.34815,35.45235],[135.34436,35.45097],[135.3333,35.45073]],[[135.33738,35.43721],[135.33837,35.43545],[135.33833,35.43263],[135.33547,35.42539],[135.33794,35.43288],[135.33795,35.43539],[135.33649,35.4387],[135.33722,35.44955],[135.33643,35.45063]],[[135.33635,35.45063],[135.33661,35.44701],[135.33664,35.449],[135.33762,35.45029],[135.34279,35.45076]],[[135.34279,35.45068],[135.33766,35.45023],[135.33661,35.44701]],[[135.33315,35.41486],[135.33216,35.42014],[135.33547,35.42539]]]}}]}