{"type":"FeatureCollection","features":[{"type":"Feature","properties":{"route_id":"307","route_number":307,"name":"国道307号","source":"OpenStreetMap contributors (ODbL)","osm_relations":[6097291,10113628,10116040,10116064,10116078,10625788,10625789,10625790,10625791]},"geometry":{"type":"MultiLineString","coordinates":[[[136.26641,35.26707],[136.27238,35.26181],[136.27316,35.25916],[136.27661,35.25385],[136.27731,35.25176],[136.27642,35.2473],[136.27689,35.24585],[136.28342,35.24014],[136.2883,35.2388],[136.29301,35.23626],[136.29571,35.23425],[136.29629,35.23272],[136.29577,35.2298],[136.2924,35.22463],[136.29032,35.2184],[136.28685,35.21665],[136.2822,35.21278],[136.27883,35.20809],[136.27594,35.20568],[136.27625,35.19887],[136.28047,35.19415],[136.28125,35.18815],[136.28075,35.17932],[136.27956,35.17516],[136.27422,35.17014],[136.27266,35.16375],[136.27227,35.15796],[136.2684,35.1527],[136.26478,35.14402],[136.26223,35.1403],[136.26275,35.13815],[136.26212,35.13518],[136.25654,35.12137],[136.25782,35.10804],[136.25169,35.10328],[136.24828,35.09736],[136.24969,35.09196],[136.25035,35.08443],[136.24765,35.0728],[136.24942,35.06824],[136.24942,35.06639],[136.24432,35.05612],[136.23881,35.0529],[136.23876,35.04695],[136.24488,35.03603],[136.2445,35.03124],[136.2433,35.02993],[136.2441,35.03053]],[[136.08753,34.91958],[136.08805,34.92165],[136.09063,34.92309],[136.08772,34.92142],[136.08738,34.9164],[136.07892,34.91183],[136.07492,34.90403],[136.07243,34.90214],[136.07331,34.89802],[136.07292,34.89562],[136.06896,34.89094],[136.06362,34.88786],[136.06032,34.87976],[136.05415,34.8761],[136.05351,34.87491],[136.04317,34.87343],[136.04028,34.86794],[136.03532,34.8663],[136.02791,34.86162],[136.02613,34.85946],[136.02003,34.85624],[136.01466,34.85528],[136.0048,34.8557],[135.99568,34.85484],[135.98988,34.85385],[135.9858,34.8521],[135.981,34.85156],[135.97658,34.85297],[135.97241,34.85654],[135.9711,34.85994],[135.96817,34.86121],[135.96585,34.85985],[135.9652,34.85683],[135.96388,34.85577],[135.96082,34.85542],[135.94931,34.85774],[135.94466,34.85563],[135.94042,34.85665],[135.9375,34.85497],[135.93561,34.85122],[135.93151,34.85053],[135.92586,34.85313],[135.92148,34.85728],[135.91795,34.85666],[135.91489,34.85743],[135.91093,34.86125],[135.9065,34.86015],[135.9034,34.86182],[135.89986,34.85705],[135.89563,34.85621],[135.88997,34.85774],[135.88617,34.85746],[135.87951,34.85952],[135.8774,34.85899],[135.87205,34.8596],[135.86877,34.85803],[135.865,34.85427],[135.85821,34.85064],[135.84801,34.85075],[135.84621,34.84827],[135.84189,34.84487],[135.83758,34.84336],[135.83127,34.8389],[135.82908,34.83833],[135.82456,34.83376],[135.81385,34.83019],[135.81177,34.82862],[135.81064,34.82577],[135.80758,34.82356],[135.80334,34.82245],[135.79476,34.82254],[135.78846,34.81842],[135.77832,34.81427],[135.76341,34.81353],[135.75431,34.81177],[135.74966,34.8061],[135.74554,34.80396],[135.74368,34.80445],[135.73844,34.80838],[135.73485,34.81257],[135.732,34.81362],[135.72131,34.81232],[135.71232,34.8136],[135.70118,34.80878],[135.6892,34.8122],[135.66998,34.81475]],[[136.18524,34.96569],[136.17719,34.97077],[136.17568,34.97234],[136.17694,34.97397],[136.18189,34.97652],[136.18246,34.97848],[136.18976,34.98321],[136.19353,34.98406],[136.1975,34.98658],[136.20067,34.99077],[136.20454,34.99265],[136.20607,34.99709],[136.21445,35.00475],[136.22375,35.00275],[136.22505,35.00508],[136.22906,35.0057],[136.24018,35.01162],[136.23771,35.00251],[136.23801,34.9982],[136.23335,34.99326],[136.22732,34.98936],[136.21579,34.98377],[136.19985,34.97986],[136.19024,34.97562],[136.18697,34.97233],[136.18659,34.96803],[136.18524,34.96569],[136.16765,34.96334],[136.16029,34.95241],[136.15043,34.94668],[136.14857,34.94483],[136.14745,34.93964],[136.14413,34.93846],[136.13453,34.93284],[136.13429,34.9313],[136.13615,34.9294],[136.13689,34.92708],[136.13742,34.92379],[136.13688,34.92276],[136.13082,34.92362],[136.12776,34.92326],[136.12359,34.92535],[136.11806,34.92594],[136.11185,34.92541],[136.10599,34.92374],[136.09063,34.92309]],[[136.2433,35.02993],[136.23998,35.0284],[136.23883,35.02548],[136.23834,35.01581],[136.24018,35.01162]],[[136.18721,34.97264],[136.18935,34.97502]],[[135.81659,34.83118],[135.81531,34.82794],[135.81311,34.82513],[135.81061,34.82389],[135.80758,34.82356]],[[136.23911,35.02297],[136.23868,35.01833]]]}}]}