{"type":"FeatureCollection","features":[{"type":"Feature","properties":{"route_id":"431","route_number":431,"name":"国道431号","source":"OpenStreetMap contributors (ODbL)","osm_relations":[8821723,8821724,8821725]},"geometry":{"type":"MultiLineString","coordinates":[[[133.11672,35.51198],[133.10944,35.50755],[133.10118,35.50873],[133.09237,35.50445],[133.08921,35.49861],[133.08909,35.49327],[133.08303,35.48829],[133.08126,35.48352],[133.0799,35.48211],[133.06885,35.48045],[133.06354,35.48046],[133.06884,35.48037],[133.07825,35.48139],[133.08021,35.48222],[133.08313,35.48824],[133.08919,35.49324],[133.08928,35.49843],[133.09217,35.50409],[133.10003,35.50829],[133.10211,35.50865],[133.10948,35.50748],[133.12176,35.51494],[133.13353,35.51635],[133.13658,35.51766],[133.13938,35.5203],[133.14367,35.52112],[133.1459,35.52324],[133.14836,35.5243],[133.15211,35.53549],[133.15873,35.53944],[133.16124,35.53824],[133.16318,35.53838],[133.16701,35.53528],[133.172,35.53749],[133.18035,35.53807],[133.18498,35.53318],[133.18766,35.53338],[133.19077,35.53516],[133.19609,35.53466],[133.19855,35.5361],[133.19842,35.53738],[133.20013,35.53893],[133.20363,35.54084],[133.20818,35.54204],[133.212,35.54563],[133.21702,35.54862],[133.22432,35.54933],[133.22855,35.5512],[133.23025,35.55016],[133.23265,35.55149],[133.23758,35.55119],[133.24099,35.55265],[133.24281,35.55223],[133.24374,35.55113],[133.2456,35.54641],[133.24595,35.5421],[133.2458,35.5434]],[[132.70203,35.33771],[132.70033,35.34579],[132.69628,35.35428],[132.69367,35.36538],[132.69165,35.36863],[132.69153,35.37395],[132.68922,35.37876],[132.68929,35.38124],[132.68277,35.38523],[132.67603,35.38742],[132.67468,35.39045],[132.6729,35.40034],[132.68321,35.39956],[132.68641,35.3965],[132.69221,35.39719],[132.70306,35.39598],[132.71518,35.39679],[132.73663,35.39465],[132.74128,35.39572],[132.75511,35.39615],[132.75712,35.39708],[132.7592,35.40005],[132.76418,35.40112],[132.76819,35.40324],[132.77278,35.40304],[132.77941,35.40438],[132.79251,35.40842],[132.80687,35.42262],[132.81125,35.42483],[132.81267,35.42747],[132.81611,35.43057],[132.81895,35.4292],[132.82123,35.43025],[132.82844,35.43775],[132.8282,35.43955],[132.83858,35.44417],[132.84727,35.44703],[132.85443,35.45087],[132.85845,35.45142],[132.86185,35.45493],[132.86759,35.45599],[132.87111,35.45879],[132.88714,35.46177],[132.89763,35.46178],[132.90278,35.46089],[132.90696,35.46211],[132.91234,35.46495],[132.92337,35.4672],[132.92529,35.46936],[132.92886,35.47105],[132.9362,35.47243],[132.94189,35.47463],[132.95364,35.47543],[132.96343,35.47984],[132.96936,35.48085],[132.97276,35.48048],[132.97523,35.47898],[132.99081,35.47471],[133.00694,35.47682],[133.01375,35.47608],[133.0234,35.47397],[133.02539,35.47209],[133.03801,35.46485],[133.04381,35.4651],[133.05189,35.4683],[133.05196,35.47027],[133.05873,35.47035],[133.0595,35.48166],[133.06361,35.48336],[133.06354,35.48046]],[[133.04583,35.46586],[133.05179,35.46836],[133.05196,35.47027]],[[133.24546,35.54216],[133.2441,35.54229],[133.24288,35.53878],[133.24357,35.53065],[133.24517,35.52495],[133.24972,35.51526],[133.25586,35.50627],[133.2702,35.49115],[133.28438,35.48186],[133.30433,35.47185],[133.31093,35.46433],[133.327,35.45865],[133.38699,35.44409],[133.39131,35.44083],[133.39775,35.43155],[133.39989,35.42594]],[[133.39979,35.42592],[133.39776,35.43135],[133.39154,35.44036],[133.38636,35.44431],[133.327,35.45858],[133.31124,35.46409],[133.30399,35.472],[133.28432,35.48181],[133.27014,35.4911],[133.25679,35.50503],[133.24946,35.51558],[133.2437,35.52948],[133.24269,35.53792],[133.2441,35.54229]],[[133.15057,35.53008],[133.15198,35.52998],[133.15388,35.53128],[133.15387,35.53534],[133.15675,35.53732],[133.16052,35.53628],[133.16118,35.53286],[133.16278,35.53129],[133.16345,35.53188],[133.16336,35.53386],[133.16701,35.53528]],[[132.77884,35.4012],[132.76541,35.39724],[132.77952,35.40143],[132.78658,35.40487],[132.78938,35.40759],[132.78701,35.40472],[132.77952,35.40143]],[[132.74747,35.39393],[132.75805,35.39535],[132.76541,35.39724]],[[132.74866,35.39586],[132.7487,35.39408],[132.76212,35.39625]]]}}]}