{"type":"FeatureCollection","features":[{"type":"Feature","properties":{"route_id":"133","route_number":133,"name":"国道133号","source":"OpenStreetMap contributors (ODbL)","osm_relations":[3770942]},"geometry":{"type":"MultiLineString","coordinates":[[[139.63187,35.44925],[139.63644,35.45013],[139.63304,35.44972],[139.63228,35.44883]],[[139.64162,35.44742],[139.63939,35.44854],[139.64264,35.44676],[139.64359,35.44801],[139.64475,35.44774]],[[139.63644,35.45013],[139.63939,35.44854]],[[139.64226,35.44705],[139.64268,35.44683]],[[139.63692,35.44979],[139.6364,35.45]]]}}]}