{"type":"FeatureCollection","features":[{"type":"Feature","properties":{"route_id":"226","route_number":226,"name":"国道226号","source":"OpenStreetMap contributors (ODbL)","osm_relations":[9684091,9684360,10143905]},"geometry":{"type":"MultiLineString","coordinates":[[[130.51287,31.46723],[130.51248,31.46155],[130.51479,31.45432],[130.51578,31.44821],[130.51489,31.45434],[130.51263,31.46133],[130.51322,31.46673],[130.51149,31.46799],[130.50837,31.46821],[130.50255,31.47802],[130.50728,31.49855],[130.50921,31.50469],[130.51146,31.50667],[130.51423,31.51455],[130.51757,31.51638],[130.51976,31.52649],[130.53195,31.53746],[130.54083,31.54323],[130.54586,31.55642],[130.54891,31.55832],[130.55011,31.56073],[130.55796,31.56708],[130.56026,31.5752],[130.5624,31.57877],[130.56247,31.58163],[130.55622,31.59177],[130.55266,31.59355]],[[130.56247,31.58163],[130.56252,31.5788],[130.56036,31.57518],[130.55798,31.5669],[130.55033,31.56082],[130.54899,31.55827],[130.54591,31.55627],[130.54109,31.54334],[130.53207,31.53754]],[[130.51578,31.44821],[130.51785,31.44453],[130.51735,31.44184],[130.51807,31.43776],[130.52066,31.43413],[130.52065,31.43147],[130.52379,31.42365],[130.52357,31.41852],[130.52624,31.40891],[130.52737,31.40717],[130.53036,31.40543],[130.5322,31.39884],[130.53796,31.39025],[130.53804,31.38596],[130.54552,31.37687],[130.54866,31.36567],[130.55386,31.35294],[130.55591,31.34556],[130.55852,31.34044],[130.56171,31.32901],[130.563,31.32741],[130.56559,31.32026],[130.57475,31.30972],[130.57988,31.30636],[130.5894,31.30189],[130.59152,31.29954],[130.59499,31.29267],[130.60003,31.2908],[130.6075,31.28952],[130.60961,31.28396],[130.62367,31.27366],[130.62441,31.26915],[130.62871,31.25705],[130.62922,31.25268],[130.63158,31.24984],[130.63327,31.24274],[130.63752,31.2359],[130.64367,31.23002],[130.64427,31.22664],[130.64557,31.22516],[130.64588,31.22411],[130.63994,31.22096],[130.62462,31.21868],[130.61957,31.21593],[130.61801,31.21455],[130.61731,31.21174],[130.61531,31.20869],[130.60675,31.20292],[130.60553,31.19963],[130.60214,31.19841],[130.59984,31.19639],[130.59611,31.19762],[130.59435,31.19706],[130.59152,31.1943],[130.58029,31.19152],[130.54808,31.20424],[130.53842,31.20515],[130.52968,31.20491],[130.52064,31.20177],[130.519,31.20261],[130.50722,31.2176],[130.50356,31.21972],[130.50402,31.22319],[130.50241,31.22514],[130.50223,31.22768],[130.50493,31.23285],[130.5044,31.23632],[130.49987,31.23667],[130.49381,31.24115],[130.48938,31.24245],[130.47823,31.24828],[130.47179,31.24858],[130.46347,31.25104],[130.45939,31.25383],[130.45277,31.25514],[130.44644,31.25881],[130.44472,31.25851],[130.43926,31.25498],[130.43389,31.25569],[130.4234,31.25338],[130.4174,31.25442],[130.41406,31.25681],[130.40753,31.25662],[130.39923,31.25432],[130.3928,31.25654],[130.37768,31.25573],[130.36776,31.25843],[130.36411,31.25809],[130.3603,31.25946],[130.35332,31.25809],[130.33744,31.26274],[130.32179,31.26272],[130.31683,31.26101],[130.31228,31.2638],[130.30862,31.26727],[130.2854,31.27216],[130.27502,31.2695],[130.26975,31.26684],[130.26369,31.26594],[130.25575,31.2655],[130.2517,31.26673],[130.24891,31.26637],[130.24639,31.26802],[130.24575,31.2648],[130.24355,31.26542],[130.24172,31.26442],[130.23846,31.26484],[130.23747,31.26306],[130.23577,31.26287],[130.23492,31.26131],[130.23408,31.2612],[130.23328,31.26285],[130.233,31.26779],[130.22509,31.27352],[130.22509,31.27598],[130.22927,31.27852],[130.2307,31.2833],[130.22933,31.28411],[130.22663,31.28341],[130.22381,31.2843],[130.21822,31.2903],[130.22108,31.29743],[130.22333,31.29717],[130.22204,31.29895],[130.2228,31.30184],[130.22392,31.30335],[130.22575,31.3041],[130.22658,31.30564],[130.22469,31.31024],[130.22496,31.31158],[130.22787,31.31316],[130.22626,31.31401],[130.22219,31.31338],[130.22282,31.31434],[130.22058,31.31598],[130.22113,31.31657],[130.22068,31.3187],[130.21864,31.31871],[130.21967,31.31985],[130.21892,31.32083],[130.21645,31.32064],[130.21542,31.32602],[130.21335,31.32513],[130.21179,31.32578],[130.21151,31.32644],[130.214,31.32706],[130.21265,31.32849],[130.21039,31.32854],[130.20824,31.33102],[130.20888,31.3323],[130.20774,31.33433],[130.20933,31.33424],[130.21061,31.33615],[130.2093,31.33742],[130.20978,31.33827],[130.20884,31.34021],[130.21012,31.34121],[130.21078,31.34335],[130.21245,31.34365],[130.21041,31.34556],[130.21213,31.34708],[130.21197,31.34898],[130.21101,31.34965],[130.20923,31.34905],[130.20871,31.35116],[130.20664,31.35108],[130.20658,31.35244],[130.2054,31.35248],[130.20267,31.3545],[130.20039,31.35885],[130.19877,31.35864],[130.19837,31.35685],[130.19734,31.35638],[130.19708,31.359],[130.19379,31.36065],[130.19281,31.36186],[130.19319,31.36312],[130.1919,31.36368],[130.19145,31.36683],[130.19276,31.36808],[130.19104,31.36869],[130.19077,31.36988],[130.18966,31.36938],[130.18913,31.37052],[130.18754,31.36997],[130.18511,31.36743],[130.18314,31.36699],[130.18081,31.36871],[130.17932,31.36704],[130.17776,31.36664],[130.17643,31.36809],[130.17485,31.36826],[130.17385,31.3722],[130.17421,31.37343],[130.17343,31.37467],[130.17186,31.37512],[130.1724,31.37745],[130.17062,31.37839],[130.16728,31.37843],[130.16668,31.37727],[130.16553,31.37707],[130.16469,31.37904],[130.16237,31.3813],[130.16214,31.38312],[130.15981,31.38502],[130.15645,31.38565],[130.15311,31.39063],[130.15035,31.39224],[130.15054,31.39406],[130.14983,31.39508],[130.15133,31.39625],[130.15063,31.39674],[130.1515,31.39868],[130.14794,31.39954],[130.14848,31.40073],[130.14606,31.40267],[130.14645,31.40419],[130.14586,31.40479],[130.14675,31.40643],[130.14474,31.40909],[130.14524,31.41065],[130.14456,31.41129],[130.14456,31.41046],[130.14335,31.41037],[130.1403,31.4115],[130.13928,31.41122],[130.1387,31.4098],[130.13566,31.41307],[130.1366,31.41408],[130.13537,31.41621],[130.14029,31.41842],[130.14532,31.42567],[130.1478,31.42772],[130.155,31.42968],[130.15825,31.43651],[130.16021,31.43712],[130.16439,31.43551],[130.1659,31.43373],[130.16632,31.43089],[130.1691,31.42607],[130.16895,31.42386],[130.17116,31.41994],[130.17334,31.41889],[130.17776,31.42005],[130.18214,31.41857],[130.18295,31.41466],[130.18495,31.41369],[130.18778,31.40319],[130.18937,31.40008],[130.19008,31.40029],[130.19027,31.40388],[130.19185,31.40641],[130.19559,31.408],[130.20147,31.40711],[130.20352,31.40507],[130.20353,31.40299],[130.20084,31.39939],[130.2012,31.39764],[130.21054,31.39507],[130.21308,31.39336],[130.22357,31.39412],[130.22754,31.39544],[130.22837,31.39674],[130.22792,31.40014],[130.22958,31.40247],[130.23838,31.40549],[130.24299,31.40607],[130.24501,31.40803],[130.25422,31.41277],[130.25491,31.41448],[130.26476,31.41653],[130.27072,31.42222],[130.2738,31.42163],[130.27495,31.41995],[130.27643,31.41956],[130.28271,31.42169],[130.28838,31.42196],[130.29419,31.42691],[130.30219,31.42661],[130.3081,31.42559],[130.30981,31.42403],[130.3102,31.42173],[130.31235,31.42003],[130.31678,31.41729],[130.32102,31.41632]],[[130.15577,31.43047],[130.15546,31.42764],[130.15306,31.43064],[130.14894,31.42938],[130.14827,31.42784],[130.14596,31.42636]]]}}]}