{"type":"FeatureCollection","features":[{"type":"Feature","properties":{"route_id":"418","route_number":418,"name":"国道418号","source":"OpenStreetMap contributors (ODbL)","osm_relations":[3524706,10168345,10172029,10172207,10172811]},"geometry":{"type":"MultiLineString","coordinates":[[[137.02722,35.46749],[137.02764,35.47072],[137.03215,35.47058],[137.03739,35.47324],[137.0408,35.47615],[137.04543,35.47865],[137.04947,35.48292],[137.05898,35.48889],[137.06466,35.49629],[137.06898,35.49765],[137.08015,35.49434],[137.07629,35.48469],[137.07684,35.47892],[137.07964,35.47772],[137.08681,35.48233],[137.09149,35.48135],[137.09728,35.47617],[137.09798,35.47258],[137.10314,35.47445],[137.11066,35.47459],[137.12946,35.47827],[137.13802,35.47693],[137.14238,35.47788],[137.14739,35.47698],[137.15673,35.48098],[137.16027,35.47821],[137.16437,35.47737],[137.16332,35.47569],[137.16372,35.47487],[137.16551,35.47495],[137.16731,35.47392],[137.17068,35.47501],[137.17117,35.4732],[137.16976,35.4728],[137.1707,35.47193],[137.17052,35.47279],[137.17226,35.47407],[137.17394,35.47062],[137.17613,35.47089],[137.17977,35.4731],[137.19198,35.47481],[137.19642,35.47482],[137.1982,35.47334],[137.20065,35.47409],[137.19902,35.47277],[137.19935,35.47218],[137.20375,35.47095],[137.20703,35.47168],[137.21115,35.47517],[137.21444,35.47594],[137.21779,35.47378],[137.21943,35.47372],[137.21816,35.47292],[137.21954,35.47115],[137.22391,35.47205],[137.22798,35.4741],[137.23073,35.47419],[137.2308,35.47332],[137.23435,35.47044],[137.2325,35.46704],[137.23271,35.46432],[137.23353,35.46231],[137.23472,35.46196],[137.23456,35.45973],[137.23693,35.45792],[137.24108,35.46021],[137.24126,35.46103],[137.24246,35.46058],[137.24389,35.46187],[137.24476,35.46414],[137.25066,35.46531],[137.25182,35.4665],[137.25142,35.46483],[137.25376,35.46341],[137.26253,35.46505],[137.26506,35.46224],[137.26579,35.46265]],[[137.28259,35.48219],[137.27959,35.48185],[137.27202,35.48541],[137.26879,35.48603],[137.25954,35.48521],[137.25422,35.48601],[137.24742,35.48567],[137.24502,35.48651],[137.24247,35.48865],[137.23843,35.48747],[137.23581,35.48807],[137.233,35.49004],[137.22694,35.48992],[137.22083,35.48793],[137.21754,35.488],[137.21296,35.48572],[137.20558,35.48498],[137.20308,35.48044],[137.20103,35.47948],[137.19909,35.48004],[137.19657,35.48344],[137.19421,35.48508],[137.19034,35.48615],[137.18058,35.4794],[137.17588,35.47712],[137.17421,35.47766],[137.17439,35.48026],[137.17274,35.48045],[137.17058,35.47848],[137.17068,35.47501]],[[137.48849,35.30396],[137.49064,35.30103],[137.49611,35.29995],[137.50827,35.30163],[137.5173,35.30138],[137.52095,35.30263],[137.52897,35.30358],[137.53934,35.3036],[137.55141,35.30989],[137.55425,35.30865],[137.55861,35.31147],[137.56029,35.31064],[137.56132,35.31176],[137.56374,35.31209],[137.56389,35.31399],[137.56607,35.31408],[137.5713,35.31848],[137.57484,35.31714],[137.57743,35.31902],[137.58066,35.31964],[137.58395,35.32368],[137.59058,35.32824],[137.59053,35.33111],[137.59256,35.33034],[137.59484,35.33177],[137.59621,35.33091],[137.59742,35.33207],[137.60182,35.33157],[137.60404,35.3299],[137.60827,35.32975],[137.60938,35.33291],[137.61128,35.33184],[137.61338,35.33204],[137.61681,35.32946],[137.62002,35.33131],[137.62068,35.3306],[137.61966,35.32701],[137.62434,35.32736],[137.62391,35.32475],[137.62466,35.32306],[137.62834,35.32187],[137.6321,35.31837],[137.63657,35.31625],[137.63889,35.3126],[137.6409,35.31191],[137.64283,35.30631],[137.64707,35.30338],[137.65251,35.3026],[137.65578,35.30022],[137.65888,35.30138],[137.66045,35.30031],[137.66297,35.30139],[137.66325,35.30233],[137.66529,35.30192],[137.67079,35.29698],[137.67318,35.29748],[137.67203,35.2982],[137.6737,35.29908],[137.6782,35.29829],[137.68058,35.29642],[137.68222,35.29369],[137.68393,35.29282],[137.68577,35.2888],[137.69098,35.28763],[137.69763,35.28081],[137.70352,35.2768],[137.70644,35.277],[137.71055,35.27219],[137.71227,35.27128],[137.71324,35.26905],[137.71609,35.26742],[137.71906,35.26752],[137.71872,35.26587],[137.71933,35.26525],[137.72825,35.26267],[137.73392,35.2596],[137.73874,35.26104],[137.74102,35.26087],[137.74529,35.2569],[137.74711,35.25863],[137.75347,35.25894]],[[137.26581,35.46263],[137.26521,35.46151],[137.266,35.45939],[137.27189,35.45253],[137.28504,35.44895],[137.28621,35.45121],[137.28634,35.45407],[137.28777,35.45599],[137.29161,35.4578],[137.29343,35.46051],[137.29551,35.46189],[137.30488,35.46369],[137.30975,35.46657],[137.31787,35.47716],[137.31977,35.47781],[137.31926,35.47497],[137.32227,35.47449],[137.32232,35.47299],[137.32382,35.47181],[137.32235,35.47172],[137.32623,35.4693],[137.32501,35.46689],[137.32055,35.46454],[137.31839,35.46224],[137.31778,35.46044],[137.3188,35.45745],[137.32103,35.45541],[137.33726,35.44769],[137.3395,35.44498],[137.33849,35.44249],[137.34141,35.44081],[137.34031,35.4378],[137.34132,35.4332],[137.34515,35.43261],[137.34936,35.42967],[137.35283,35.42356],[137.35585,35.42275],[137.35874,35.41816],[137.35937,35.41509],[137.35752,35.40947],[137.35817,35.40671],[137.35703,35.40095],[137.35773,35.39875],[137.361,35.39668],[137.36096,35.39414],[137.36296,35.3933],[137.36042,35.38942],[137.36065,35.3881],[137.36507,35.38587],[137.36589,35.38841],[137.3683,35.39098],[137.3713,35.39168],[137.37362,35.38911],[137.37795,35.38613],[137.3804,35.3854],[137.38402,35.37813],[137.38599,35.37771],[137.38754,35.37601],[137.38771,35.37358],[137.38916,35.37087],[137.39534,35.36757],[137.3959,35.36407],[137.39383,35.35914],[137.39671,35.35399],[137.40143,35.35546],[137.40803,35.35552],[137.4109,35.35812],[137.41714,35.35693],[137.4227,35.3623],[137.42567,35.3633],[137.42927,35.36326],[137.4317,35.36619],[137.43822,35.36375],[137.44145,35.36414],[137.44516,35.36306],[137.4464,35.36147],[137.44662,35.35915],[137.44928,35.35588],[137.45285,35.3576],[137.45647,35.35695],[137.45731,35.3559],[137.45839,35.34958],[137.45878,35.33647],[137.46266,35.33357],[137.46604,35.32879],[137.47365,35.32214],[137.47647,35.31821],[137.47908,35.31801],[137.48159,35.31376],[137.48829,35.31099],[137.48942,35.30758],[137.48832,35.30618],[137.48868,35.30157],[137.48765,35.29982]],[[137.82069,35.25663],[137.81546,35.25852],[137.81387,35.25682],[137.81281,35.25882],[137.80835,35.26021],[137.80457,35.25993],[137.80433,35.25833],[137.80263,35.25668],[137.79996,35.25656],[137.79849,35.25763],[137.79855,35.25967],[137.79768,35.2608],[137.79525,35.26036],[137.79462,35.26102],[137.79378,35.26012],[137.79179,35.26138],[137.79032,35.25907],[137.79055,35.25784],[137.78752,35.25629],[137.78558,35.2567],[137.78576,35.25457],[137.78314,35.25566],[137.78019,35.25331],[137.78132,35.25235],[137.7829,35.25307],[137.7845,35.25204],[137.78006,35.24906],[137.78147,35.24731],[137.78112,35.24635],[137.78062,35.2471],[137.77434,35.24773],[137.76908,35.24729],[137.76694,35.24878],[137.76454,35.24922],[137.76437,35.25041],[137.76059,35.25292],[137.76032,35.25412],[137.75846,35.25426],[137.7548,35.25705],[137.75371,35.25883]],[[137.82923,35.25844],[137.82938,35.26041],[137.8271,35.26434],[137.83025,35.26493],[137.83149,35.26723],[137.84283,35.27415],[137.84612,35.27315],[137.84956,35.27342],[137.84974,35.27189],[137.85159,35.27251],[137.85536,35.27568],[137.85541,35.27786],[137.85349,35.28015],[137.85477,35.28373],[137.85858,35.28735],[137.86247,35.28816],[137.86819,35.29205],[137.87158,35.29133],[137.87522,35.29571],[137.87512,35.29735],[137.87746,35.29896],[137.87987,35.29867],[137.88388,35.30072],[137.88806,35.30048],[137.89145,35.30304],[137.89441,35.30366],[137.89505,35.30468],[137.90372,35.30827],[137.90577,35.3099],[137.91033,35.30849],[137.91374,35.31007],[137.91487,35.31174],[137.91729,35.31172],[137.92016,35.31413],[137.92681,35.31609]],[[136.45243,35.81863],[136.45306,35.81936],[136.45231,35.82032],[136.45362,35.81909],[136.4548,35.81973],[136.4569,35.81722],[136.45715,35.81566],[136.45997,35.81427],[136.465,35.80901],[136.47833,35.80166],[136.47922,35.80188],[136.48147,35.79952],[136.486,35.79882],[136.48859,35.79724],[136.49161,35.79736],[136.49707,35.79521],[136.50405,35.79061],[136.50613,35.78815],[136.51347,35.78423],[136.51491,35.78262],[136.51458,35.78192],[136.51288,35.78273],[136.51394,35.78225],[136.51389,35.7813],[136.51633,35.78076],[136.515,35.78075],[136.51724,35.78012],[136.51626,35.78008],[136.51883,35.77912],[136.51901,35.77832],[136.51952,35.77877],[136.52233,35.77653],[136.52195,35.77732],[136.52295,35.77717],[136.5246,35.77476],[136.52477,35.77606],[136.52667,35.77459],[136.52644,35.77543],[136.52701,35.77542],[136.52846,35.7733],[136.53208,35.7719],[136.53193,35.77081],[136.53455,35.77113],[136.53427,35.76943],[136.53576,35.76903],[136.53805,35.76612],[136.53917,35.76711],[136.54047,35.7657],[136.54713,35.76802],[136.54925,35.76783],[136.55247,35.76559],[136.5556,35.7613],[136.56577,35.75736],[136.57278,35.75601],[136.57969,35.75101],[136.58062,35.74648],[136.58406,35.74345],[136.58241,35.7419],[136.58273,35.73956],[136.58046,35.7384],[136.57931,35.73554],[136.57821,35.73514],[136.57973,35.73418],[136.57817,35.73242],[136.57791,35.72977],[136.57825,35.72794],[136.57953,35.72685],[136.57933,35.72453],[136.58035,35.72247],[136.58377,35.71852],[136.5834,35.71703],[136.58435,35.71515],[136.58225,35.71258],[136.58308,35.71189],[136.58265,35.70937],[136.5871,35.70666],[136.58766,35.70385],[136.58971,35.70221],[136.591,35.69897],[136.5939,35.69593],[136.59198,35.69552],[136.59143,35.69338],[136.58955,35.69399],[136.58845,35.69289],[136.58529,35.69213],[136.58455,35.69027],[136.58179,35.691],[136.58196,35.69292],[136.57886,35.69398],[136.57841,35.69527],[136.5761,35.69426],[136.57394,35.69182],[136.57325,35.69358],[136.57185,35.69442],[136.57161,35.69328],[136.56592,35.69119],[136.56546,35.68994],[136.56667,35.68883],[136.56907,35.6884],[136.5685,35.68693],[136.56946,35.68583],[136.56813,35.6849],[136.57027,35.68368],[136.57277,35.68341],[136.5725,35.68186],[136.57115,35.68088],[136.57774,35.66965],[136.57802,35.66853],[136.57729,35.66776],[136.5795,35.66275],[136.57885,35.66248],[136.58283,35.6618],[136.584,35.65848],[136.58981,35.65598],[136.60457,35.64444],[136.6052,35.64316],[136.60481,35.6387],[136.6088,35.63502],[136.61645,35.63326],[136.6167,35.63483],[136.61452,35.6396],[136.61536,35.64136],[136.61906,35.64412],[136.62366,35.64564],[136.63266,35.64165],[136.63391,35.63872],[136.63971,35.63672],[136.64038,35.63482],[136.64419,35.6319],[136.64498,35.62983],[136.64866,35.62726],[136.65486,35.62422],[136.65988,35.62329],[136.66449,35.62121],[136.66545,35.61921],[136.66563,35.61986],[136.66746,35.61913],[136.66778,35.62036],[136.66974,35.62042],[136.67006,35.62223],[136.67109,35.62204],[136.67096,35.61966],[136.67476,35.61645],[136.67809,35.61505],[136.68072,35.61142],[136.68362,35.61073],[136.68857,35.60763],[136.69039,35.60491],[136.69384,35.60407],[136.69637,35.60489],[136.70204,35.60239],[136.71385,35.59925],[136.71958,35.596],[136.72489,35.59508],[136.72686,35.5932],[136.73531,35.59242],[136.7427,35.58934],[136.74741,35.58942],[136.75203,35.58792],[136.75738,35.5873],[136.77143,35.58195],[136.77478,35.57975],[136.7785,35.57543],[136.78659,35.57109],[136.78807,35.56426],[136.79564,35.55773],[136.80217,35.55026],[136.8148,35.54706],[136.82128,35.54287],[136.82696,35.54266],[136.8313,35.54081],[136.83576,35.53422],[136.84186,35.53262],[136.85088,35.52465],[136.85364,35.52128],[136.85887,35.51857],[136.86008,35.51286],[136.86175,35.51072],[136.87142,35.50609],[136.88204,35.5037],[136.88591,35.49944],[136.89208,35.49823],[136.899,35.49309],[136.9041,35.49047],[136.90718,35.48674],[136.90954,35.48598],[136.91263,35.483],[136.92819,35.48165],[136.92816,35.48092],[136.94317,35.48179],[136.94778,35.47979],[136.95104,35.47935],[136.95735,35.48044],[136.96236,35.47879],[136.9689,35.47884],[136.97744,35.47731],[136.98017,35.47404],[136.98426,35.47261],[137.00196,35.47211],[137.01325,35.47053],[137.01848,35.47099],[137.0273,35.46747],[137.02766,35.47037],[137.03118,35.47064],[137.03195,35.46853],[137.03112,35.46905],[137.03282,35.47056],[137.04497,35.47826],[137.04929,35.48274],[137.05859,35.48852],[137.06538,35.49672]],[[137.07028,35.49724],[137.06597,35.49701]],[[137.34044,35.43301],[137.33871,35.43294]],[[137.71099,35.272],[137.71059,35.2695],[137.71295,35.2693]],[[136.50103,35.97004],[136.50473,35.97038],[136.50475,35.96739],[136.50795,35.96519],[136.51842,35.94818],[136.52583,35.94677],[136.5304,35.94682],[136.5408,35.94279],[136.54675,35.94278],[136.54984,35.94092],[136.55326,35.93637],[136.56113,35.93328],[136.55046,35.92644],[136.54664,35.92604],[136.5457,35.925],[136.54518,35.92201],[136.54201,35.92219],[136.53919,35.91725],[136.53621,35.91522],[136.53243,35.91697],[136.53051,35.91595],[136.52695,35.91604],[136.53028,35.91353],[136.52971,35.9118],[136.53203,35.90449],[136.52712,35.90052],[136.52526,35.8964],[136.52213,35.89575],[136.51995,35.89617],[136.51823,35.89831],[136.51801,35.89977],[136.51573,35.90189],[136.51269,35.90144],[136.5072,35.89726],[136.50607,35.88807],[136.50432,35.88438],[136.50486,35.88117],[136.50738,35.87786],[136.50479,35.87494],[136.50215,35.87406],[136.50003,35.87522],[136.49571,35.87482],[136.49056,35.87276],[136.48933,35.87155],[136.48442,35.87183],[136.48188,35.86997],[136.48185,35.86588],[136.48058,35.86496],[136.47958,35.86195],[136.47685,35.86157],[136.47603,35.86021],[136.47129,35.85788],[136.46745,35.85786],[136.46643,35.85591],[136.46346,35.85452],[136.4631,35.85215],[136.45851,35.85082],[136.45244,35.84037],[136.44788,35.83738],[136.44482,35.8368],[136.44428,35.83],[136.44577,35.82912],[136.44493,35.82837],[136.44507,35.82655],[136.44721,35.82314],[136.44945,35.82109],[136.45094,35.82074],[136.45187,35.8184]]]}}]}