{"type":"FeatureCollection","features":[{"type":"Feature","properties":{"route_id":"150","route_number":150,"name":"国道150号","source":"OpenStreetMap contributors (ODbL)","osm_relations":[8843661,9108284,9108285,9108286,9108287,9108288,9108289,9108291,9108292]},"geometry":{"type":"MultiLineString","coordinates":[[[138.4949,35.00291],[138.495,34.99254],[138.49983,34.98646],[138.50518,34.98407],[138.50519,34.97789],[138.50186,34.97537],[138.47724,34.96327],[138.47837,34.9643],[138.47256,34.96122],[138.4632,34.95784],[138.43621,34.94924],[138.40718,34.94157],[138.39987,34.93783],[138.39524,34.93968],[138.3822,34.93335],[138.37429,34.93115],[138.36835,34.93096],[138.3591,34.92781],[138.35468,34.92453],[138.35364,34.91836],[138.34352,34.90817],[138.33446,34.89611],[138.32276,34.88449],[138.31783,34.88086],[138.30252,34.87693],[138.30016,34.87539],[138.2992,34.87272],[138.30106,34.85912],[138.29941,34.85191],[138.30093,34.82991],[138.30227,34.82537],[138.30987,34.81814],[138.31127,34.81486],[138.31056,34.80704],[138.30463,34.80011]],[[138.44629,34.95251],[138.43662,34.94927],[138.40726,34.94154],[138.39975,34.93771],[138.39526,34.93962],[138.38258,34.93338],[138.37438,34.9311],[138.36833,34.93088],[138.35945,34.9279],[138.35547,34.9253],[138.35436,34.92338],[138.35471,34.91956],[138.35182,34.91384],[138.34494,34.9083],[138.33431,34.8958],[138.32373,34.88527],[138.31813,34.8809],[138.30262,34.87686],[138.29983,34.87477],[138.29929,34.87263],[138.30117,34.85912],[138.29952,34.85162],[138.30104,34.82997]],[[138.30763,34.80353],[138.31064,34.80758],[138.31101,34.81581],[138.30955,34.81836],[138.30192,34.82567],[138.30093,34.82991],[138.29176,34.82354],[138.28545,34.82158],[138.25337,34.79359],[138.25291,34.79209],[138.25516,34.77777],[138.25263,34.7747],[138.25011,34.76955],[138.24942,34.76626],[138.24343,34.75709],[138.23844,34.7525],[138.23726,34.74379],[138.2355,34.74115],[138.24698,34.74759]],[[138.47714,34.96335],[138.50444,34.97717],[138.50524,34.97843],[138.50524,34.98246],[138.49942,34.97674],[138.49318,34.97224],[138.48727,34.96849],[138.47837,34.9643]],[[138.18715,34.63137],[138.18273,34.63583],[138.1814,34.64182],[138.17935,34.64657],[138.18114,34.65338],[138.18428,34.65947],[138.18573,34.67039],[138.18822,34.67383],[138.18876,34.67673],[138.18847,34.68527],[138.18731,34.6866],[138.1832,34.6885]],[[138.18706,34.6313],[138.18485,34.633],[138.18242,34.63646]],[[138.10331,34.64294],[138.10958,34.64135],[138.11859,34.63764],[138.13808,34.6328],[138.1442,34.62884],[138.15231,34.62557],[138.16585,34.62345],[138.17461,34.62301],[138.17825,34.62398],[138.17503,34.62295],[138.16645,34.62333],[138.15228,34.62549],[138.14497,34.62835],[138.13806,34.63272],[138.11857,34.63755],[138.10853,34.64159],[138.08537,34.64708],[138.06543,34.65395],[138.03224,34.661],[138.01312,34.66391],[137.99972,34.66792],[137.9884,34.66932],[137.97962,34.67442],[137.9618,34.67769],[137.94612,34.67951],[137.93558,34.67987],[137.92741,34.6787],[137.91056,34.67974],[137.90415,34.6785],[137.88641,34.67769],[137.88282,34.67607],[137.87727,34.67517],[137.86866,34.67504],[137.86056,34.67753],[137.83979,34.67777],[137.83317,34.67716],[137.81021,34.6725],[137.7869,34.67668],[137.78495,34.67752],[137.78094,34.68209],[137.76767,34.69081],[137.76273,34.69241],[137.7584,34.69891],[137.75337,34.70401],[137.74546,34.70825]],[[137.86157,34.66793],[137.85345,34.66975],[137.84601,34.66955],[137.81756,34.66167],[137.80067,34.66271],[137.77814,34.66174],[137.76714,34.66334],[137.75438,34.66641],[137.75351,34.66754],[137.75414,34.67387]],[[138.2355,34.74115],[138.22805,34.73536],[138.22015,34.72578],[138.21911,34.72172],[138.21367,34.7108],[138.21213,34.69817],[138.21084,34.6946],[138.20433,34.68707],[138.20304,34.68315],[138.19814,34.67566],[138.19409,34.6663],[138.19289,34.64581],[138.19462,34.63574],[138.19015,34.63355],[138.1827,34.62833],[138.17825,34.62398]],[[137.75424,34.67394],[137.75392,34.67087]],[[138.47724,34.96327],[138.47329,34.96162]],[[138.30455,34.80015],[138.30532,34.801]]]}}]}