{"type":"FeatureCollection","features":[{"type":"Feature","properties":{"route_id":"400","route_number":400,"name":"国道400号","source":"OpenStreetMap contributors (ODbL)","osm_relations":[5425459]},"geometry":{"type":"MultiLineString","coordinates":[[[140.47318,36.37479],[140.47433,36.37696],[140.46793,36.37948],[140.46872,36.38075],[140.45779,36.38612],[140.45165,36.39234],[140.44457,36.39733],[140.44911,36.40214],[140.45298,36.40342],[140.44944,36.40225],[140.44694,36.39991]],[[140.45781,36.40429],[140.46096,36.40485],[140.46226,36.40588],[140.46133,36.41214],[140.46246,36.40677],[140.46194,36.4053],[140.45298,36.40342]],[[140.46133,36.41214],[140.46114,36.41522],[140.46371,36.4207],[140.46094,36.44247],[140.44909,36.46081],[140.45204,36.46747],[140.44916,36.47955],[140.45017,36.48998],[140.44098,36.5017],[140.44147,36.51051],[140.43503,36.52163],[140.41992,36.53524],[140.41281,36.53902],[140.4098,36.5421],[140.40847,36.54534],[140.40661,36.55826],[140.39975,36.56255],[140.3901,36.56628],[140.38676,36.56833],[140.37389,36.56933],[140.37097,36.57025],[140.36381,36.57736],[140.36255,36.58069],[140.35986,36.58428],[140.35972,36.5864],[140.35477,36.591],[140.35402,36.5966],[140.35151,36.5969],[140.34939,36.59919],[140.34752,36.59991],[140.33796,36.60127],[140.33496,36.60358],[140.32489,36.60275],[140.32121,36.60647],[140.31831,36.60781],[140.31774,36.61006],[140.31567,36.61276],[140.31568,36.61765],[140.31442,36.62033],[140.3099,36.6213],[140.30069,36.62121],[140.29871,36.6219],[140.2945,36.62836],[140.29319,36.63503],[140.28866,36.64396],[140.28641,36.65709],[140.2792,36.65507],[140.27572,36.65526],[140.27112,36.6539],[140.26836,36.65395],[140.26136,36.65556],[140.25349,36.65894],[140.24944,36.65975],[140.24276,36.66427],[140.23038,36.68304],[140.21828,36.69304],[140.21662,36.69978],[140.20864,36.70699],[140.20448,36.71439],[140.19937,36.71686],[140.1951,36.72088],[140.18242,36.73005],[140.17649,36.73269],[140.16776,36.73447],[140.16076,36.73294],[140.15793,36.73349],[140.15534,36.73617],[140.15456,36.7401],[140.15136,36.74723],[140.14762,36.74961],[140.14304,36.7494],[140.13626,36.75062],[140.13625,36.75967],[140.13484,36.76736],[140.13329,36.76821],[140.12701,36.76731],[140.1253,36.7744],[140.11832,36.77851],[140.11691,36.78297],[140.11664,36.78773],[140.11519,36.79114],[140.11644,36.79362],[140.1128,36.79675],[140.09844,36.80263],[140.09441,36.80544],[140.08657,36.81644],[140.0796,36.82384],[140.07882,36.8284],[140.07117,36.83086],[140.06943,36.83524],[140.06175,36.84193],[140.05984,36.84492],[140.05537,36.84641],[140.05337,36.84884],[140.04969,36.85036],[140.04647,36.84941],[140.04154,36.85485],[140.03302,36.86114],[140.02801,36.86682],[140.01269,36.85969],[140.00632,36.86574],[139.98719,36.87399],[139.95818,36.89855],[139.95328,36.90589],[139.94584,36.90968],[139.93425,36.92194],[139.9062,36.94237],[139.90494,36.95116],[139.90356,36.95311],[139.89579,36.95607],[139.89169,36.95193],[139.88902,36.9517],[139.88423,36.9547],[139.8839,36.95592],[139.88146,36.95576],[139.87908,36.95934],[139.87681,36.96507],[139.87287,36.96776],[139.86934,36.96747],[139.86392,36.96403],[139.85399,36.96255],[139.84786,36.9642],[139.8418,36.96253],[139.83877,36.96398],[139.83705,36.96623],[139.83542,36.96644],[139.83424,36.96826],[139.8315,36.96438],[139.82965,36.96527],[139.82423,36.96532],[139.81551,36.97363],[139.80803,36.97721],[139.80166,36.97689],[139.77969,36.98463],[139.77423,36.98982],[139.76839,36.9928],[139.76816,36.9964],[139.7667,36.99433],[139.75766,36.99457],[139.74259,37.00629],[139.73828,37.00746],[139.73581,37.01066],[139.73278,37.01118],[139.73089,37.01005],[139.7278,37.00974],[139.72969,37.01275],[139.73048,37.01918],[139.72691,37.02358],[139.72823,37.0286],[139.72341,37.03893],[139.72961,37.04615],[139.73021,37.05055],[139.73643,37.05844],[139.74625,37.06682],[139.74814,37.07474],[139.74625,37.07724],[139.73377,37.08079],[139.73029,37.08331],[139.72489,37.09121],[139.72523,37.09795],[139.72428,37.10006],[139.724,37.10477],[139.72178,37.10608],[139.72175,37.10897],[139.71874,37.11214],[139.7193,37.11183]],[[140.40661,36.55826],[140.40856,36.54537],[140.40965,36.54251],[140.41294,36.53905],[140.41998,36.53528],[140.43491,36.52195],[140.44157,36.51056],[140.44083,36.50243]],[[139.71874,37.11214],[139.71508,37.11659],[139.7148,37.11849],[139.71784,37.12722],[139.71779,37.13295],[139.71942,37.13666],[139.722,37.13827],[139.72735,37.13954],[139.7294,37.14097],[139.73363,37.14838],[139.73512,37.15445],[139.74453,37.16969],[139.74612,37.17378],[139.75646,37.18553],[139.76439,37.20319],[139.75929,37.20271],[139.7591,37.20776],[139.75251,37.21728],[139.74425,37.224],[139.74047,37.22518],[139.73778,37.22818],[139.73699,37.23097],[139.7381,37.23523],[139.74394,37.23924],[139.74544,37.24109],[139.74492,37.25123],[139.74276,37.25452],[139.74116,37.25547],[139.72926,37.25656],[139.72866,37.25721],[139.72621,37.25706],[139.72347,37.25496],[139.71953,37.25392],[139.71418,37.25858],[139.70549,37.26027],[139.70095,37.26478],[139.6979,37.26605],[139.69537,37.26582],[139.69052,37.26937],[139.68474,37.27615],[139.6837,37.27975],[139.68499,37.28189],[139.68708,37.27963],[139.68617,37.28229],[139.68745,37.28241],[139.6842,37.28465],[139.67849,37.29317],[139.67748,37.29607],[139.67781,37.29873],[139.67553,37.30121],[139.66897,37.30379],[139.66822,37.30581],[139.6618,37.31041],[139.65822,37.31478],[139.65303,37.31754],[139.64021,37.32014],[139.62561,37.32795],[139.61135,37.33364],[139.60616,37.33786],[139.60533,37.34172],[139.60297,37.34367],[139.59805,37.34479],[139.59703,37.34858],[139.59168,37.35224],[139.58929,37.35559],[139.58799,37.35603],[139.58474,37.35466],[139.5817,37.35505],[139.57618,37.35774],[139.5753,37.36244],[139.56962,37.36562],[139.56871,37.36901],[139.56712,37.37141],[139.56039,37.37189],[139.55644,37.37325],[139.55273,37.3749],[139.55211,37.37621],[139.54837,37.37858],[139.54537,37.38474],[139.54822,37.38661],[139.54883,37.39164],[139.54748,37.39415],[139.54807,37.39812],[139.55237,37.39986],[139.55319,37.4009],[139.55056,37.41207],[139.54877,37.41546],[139.5485,37.41991],[139.54495,37.42182],[139.54361,37.42365],[139.5387,37.42598],[139.53975,37.42835],[139.53825,37.43212],[139.53372,37.43327],[139.53243,37.43521],[139.52688,37.4391],[139.52662,37.44333],[139.52538,37.44591],[139.52633,37.44873],[139.52308,37.45242],[139.52418,37.45484],[139.53025,37.45655],[139.53176,37.45793],[139.53184,37.46102],[139.52935,37.46496],[139.53111,37.47544],[139.53298,37.47887],[139.53497,37.4803],[139.54035,37.48101],[139.54544,37.48343],[139.55043,37.48331],[139.55486,37.48157],[139.55969,37.48085],[139.56132,37.48289],[139.56874,37.48511],[139.57253,37.47817],[139.58099,37.47897],[139.58285,37.47728],[139.58739,37.47691],[139.59091,37.47221],[139.59299,37.47129],[139.59456,37.4694],[139.59479,37.468],[139.59355,37.4662],[139.59426,37.46372],[139.60306,37.4612],[139.60409,37.46009],[139.60407,37.45757],[139.60623,37.45698],[139.60768,37.45918],[139.61338,37.46226],[139.61382,37.46349],[139.61947,37.46311],[139.62253,37.46107],[139.62661,37.46178],[139.63623,37.47042],[139.6393,37.4714],[139.64467,37.47511],[139.65275,37.47856],[139.66397,37.48141],[139.66365,37.48227],[139.65963,37.48182],[139.66238,37.48343],[139.662,37.48919],[139.66368,37.49381],[139.66347,37.49473],[139.66264,37.49428],[139.66021,37.49533],[139.66414,37.49733],[139.66383,37.49872],[139.66593,37.49827],[139.66084,37.50125],[139.66108,37.50254],[139.66177,37.50204],[139.65992,37.50593],[139.65884,37.50546],[139.65896,37.50446],[139.65774,37.50554],[139.65832,37.50722],[139.65488,37.51149],[139.65895,37.51238],[139.65885,37.51332],[139.6599,37.51391],[139.65873,37.51793],[139.65935,37.51903],[139.65866,37.51889],[139.66093,37.5214],[139.6624,37.5251],[139.66422,37.52603],[139.66579,37.52879],[139.66512,37.5314],[139.66579,37.53336],[139.66485,37.53454],[139.66702,37.54067],[139.66589,37.54345],[139.66762,37.54574],[139.66648,37.54851],[139.66654,37.55596],[139.6639,37.56464],[139.66305,37.56593],[139.66156,37.56618],[139.66123,37.56763],[139.66229,37.57383],[139.66178,37.57642]],[[139.73227,37.14626],[139.73382,37.14941]],[[140.01269,36.85969],[140.00619,36.8657],[139.98709,36.87395],[139.96512,36.89229]],[[139.84107,36.96292],[139.83837,36.96368],[139.83733,36.96564]],[[139.93916,36.91678],[139.94685,36.90914]]]}}]}