{"type":"FeatureCollection","features":[{"type":"Feature","properties":{"route_id":"24","route_number":24,"name":"国道24号","source":"OpenStreetMap contributors (ODbL)","osm_relations":[2281186,2282035,2282036,2282037,2282038,9043955,9043956,9043960,9043961,19043920]},"geometry":{"type":"MultiLineString","coordinates":[[[135.77847,34.7565],[135.77745,34.76484],[135.77438,34.77183],[135.77735,34.76536],[135.77847,34.7565],[135.77995,34.75252],[135.78872,34.74134],[135.79523,34.73025],[135.79867,34.72743],[135.81032,34.7219],[135.812,34.71954],[135.81165,34.71657],[135.81256,34.71914],[135.81589,34.72158],[135.81307,34.71882],[135.81018,34.71255],[135.80622,34.70756],[135.80651,34.70505],[135.80986,34.69973],[135.81169,34.69354],[135.81179,34.68995],[135.80971,34.68795],[135.8027,34.68762],[135.80068,34.68623],[135.80048,34.67157],[135.79855,34.66606],[135.79866,34.65486],[135.8019,34.6463],[135.8044,34.62799],[135.80383,34.62456],[135.79888,34.61521],[135.7983,34.61276],[135.79726,34.5471],[135.79759,34.52036],[135.79619,34.51687],[135.7938,34.51396],[135.79365,34.50972],[135.7916,34.5097],[135.79155,34.50528],[135.79028,34.50242],[135.78513,34.50253],[135.77679,34.49974],[135.76626,34.49871],[135.75236,34.49577],[135.73495,34.49654],[135.73484,34.49207],[135.73237,34.48504],[135.73276,34.46423]],[[135.7328,34.45671],[135.73324,34.45546],[135.73228,34.45192],[135.72763,34.44148],[135.72705,34.43792],[135.72168,34.43236],[135.71931,34.42847],[135.71969,34.42637],[135.71881,34.42254],[135.71953,34.41947],[135.71785,34.41051],[135.71604,34.40854],[135.71519,34.40267],[135.71561,34.40094],[135.71335,34.39745],[135.71505,34.39163],[135.71467,34.38695],[135.71701,34.37769],[135.71601,34.36279],[135.70928,34.35741],[135.68806,34.3482],[135.68389,34.34476],[135.67436,34.34066],[135.66744,34.33879],[135.66377,34.33495],[135.65856,34.3337],[135.65585,34.33134],[135.63608,34.32463],[135.6269,34.32254],[135.62407,34.31924],[135.61898,34.31896],[135.61058,34.31475],[135.59941,34.31376],[135.59506,34.31518],[135.58554,34.31374],[135.58125,34.31102],[135.56433,34.30321],[135.55545,34.30257],[135.5417,34.3064],[135.53145,34.30367],[135.52456,34.2991],[135.5194,34.29801],[135.50434,34.29735],[135.49799,34.29415],[135.48523,34.29106],[135.47623,34.28756],[135.46195,34.28418],[135.45674,34.28081],[135.44864,34.27945],[135.43484,34.27239],[135.41331,34.26909],[135.39712,34.26832],[135.39203,34.26682],[135.37885,34.26003],[135.36889,34.26255],[135.34179,34.25978],[135.335,34.26307],[135.33194,34.26375],[135.30366,34.25906],[135.28771,34.2634],[135.28105,34.26403],[135.26879,34.26333],[135.26617,34.26191],[135.26042,34.25672],[135.25332,34.255],[135.24735,34.25468],[135.22305,34.25621],[135.22124,34.25505],[135.21978,34.25216],[135.21685,34.23913],[135.2139,34.2331],[135.20945,34.23025],[135.20726,34.22988]],[[135.76431,34.98442],[135.76422,34.98926],[135.76375,34.97328],[135.76182,34.97326],[135.76307,34.97007],[135.75839,34.9483],[135.76152,34.94625],[135.76842,34.94429],[135.76756,34.93671],[135.7685,34.92744],[135.77056,34.92386],[135.78243,34.91594],[135.78386,34.90822],[135.78014,34.90936],[135.7769,34.90914],[135.76396,34.90286],[135.76184,34.87194],[135.7622,34.85075],[135.76283,34.84805],[135.76454,34.84685],[135.78525,34.84699],[135.79194,34.83551],[135.79533,34.82091],[135.80429,34.81178],[135.80522,34.80668],[135.8028,34.79867],[135.8066,34.78506],[135.80574,34.77238],[135.81123,34.76103],[135.81415,34.75296],[135.81946,34.7486],[135.82299,34.74],[135.8214,34.72816],[135.81589,34.72158]],[[135.75977,34.99632],[135.76026,34.99063],[135.75971,34.98924],[135.75966,34.99632]],[[135.77712,34.84642],[135.76478,34.84642],[135.76263,34.84823],[135.76196,34.8518],[135.76229,34.86555],[135.76171,34.87119],[135.76383,34.90278],[135.77646,34.90936],[135.78031,34.90973],[135.78387,34.90855]],[[135.16999,34.22559],[135.16879,34.22846],[135.16949,34.23727],[135.17413,34.23737],[135.17698,34.23826],[135.17419,34.23728],[135.16955,34.23717],[135.16971,34.23209],[135.16891,34.22846],[135.17012,34.2256]],[[135.76079,34.85306],[135.76186,34.84914],[135.7615,34.8454],[135.75422,34.83839],[135.7501,34.8303],[135.75182,34.82452],[135.75132,34.81848],[135.75197,34.81373],[135.75371,34.80921],[135.75698,34.80436]],[[135.79797,34.6075],[135.79855,34.61465],[135.80352,34.62426],[135.80428,34.62821],[135.80175,34.64638],[135.79844,34.65558],[135.79843,34.66605],[135.80047,34.67244],[135.80024,34.68532],[135.80201,34.68749],[135.80952,34.688],[135.81162,34.68978],[135.81154,34.69366],[135.80991,34.69919],[135.80601,34.70664],[135.80691,34.70922],[135.81015,34.71274],[135.81165,34.71657]],[[135.77328,34.7774],[135.77293,34.78161],[135.77129,34.78454],[135.76211,34.79059],[135.76976,34.78595],[135.77203,34.78366],[135.77316,34.78086],[135.77369,34.77398],[135.77328,34.7774]],[[135.75704,34.80438],[135.75873,34.79559],[135.76211,34.79059]],[[135.76095,34.85309],[135.76197,34.84914],[135.76149,34.84515],[135.75456,34.83865],[135.75146,34.83373]],[[135.76156,34.49171],[135.76315,34.4866],[135.76296,34.47686],[135.76141,34.47453],[135.75314,34.4672],[135.74856,34.45871],[135.7431,34.45524],[135.74124,34.45278],[135.74028,34.43109],[135.73474,34.42256],[135.73003,34.41182],[135.72422,34.404],[135.71402,34.39429],[135.71253,34.39123],[135.71163,34.38513],[135.71047,34.3828],[135.70342,34.37704],[135.69685,34.36664],[135.68955,34.3615],[135.67757,34.3494],[135.67291,34.34362],[135.66784,34.34033],[135.65486,34.33469],[135.6463,34.33485],[135.64009,34.33346],[135.63437,34.33338],[135.62586,34.33131],[135.6174,34.32759],[135.61049,34.32618],[135.60151,34.32141],[135.58325,34.31939],[135.56705,34.31526],[135.55915,34.31228],[135.54747,34.31211]],[[135.17689,34.23816],[135.17665,34.24289],[135.17698,34.23826]],[[135.21805,34.24418],[135.21819,34.24519],[135.19619,34.24487],[135.17706,34.24288]],[[135.73258,34.4628],[135.73202,34.45878],[135.7327,34.45691]],[[135.73495,34.49654],[135.75235,34.49585],[135.76625,34.49878],[135.77677,34.49982],[135.78523,34.50271],[135.79032,34.50266]],[[135.78055,34.91733],[135.77499,34.92096]],[[135.75982,34.98924],[135.76422,34.98926]],[[135.79831,34.61006],[135.79748,34.60678],[135.79346,34.60426],[135.79209,34.60233],[135.79157,34.59286],[135.79001,34.585],[135.78312,34.57689],[135.78103,34.57236],[135.77787,34.55218],[135.77801,34.51796],[135.7764,34.51538],[135.76233,34.50076],[135.76124,34.49767],[135.76143,34.49267]],[[135.7614,34.49223],[135.76112,34.49756],[135.76222,34.50083],[135.77737,34.51783],[135.77769,34.55134],[135.78093,34.57238],[135.78303,34.57692],[135.78987,34.58504],[135.79146,34.59288],[135.79206,34.60263],[135.79334,34.60434],[135.79735,34.60685],[135.79815,34.61006]],[[135.20726,34.22997],[135.20944,34.23035],[135.2138,34.23314],[135.21688,34.2397],[135.21966,34.25216],[135.22126,34.25522],[135.22335,34.25638],[135.24776,34.25475],[135.25393,34.25517],[135.2601,34.25669],[135.26638,34.2622],[135.26919,34.26355],[135.28104,34.26414],[135.28776,34.26349],[135.30365,34.25916],[135.33172,34.26384],[135.33427,34.26347],[135.34217,34.25986],[135.36886,34.26264],[135.37827,34.26011],[135.38047,34.26064]],[[135.21775,34.2442],[135.21786,34.24518]],[[135.77369,34.77398],[135.77438,34.77183]],[[135.8066,34.72419],[135.81077,34.72202]],[[135.76799,34.92972],[135.76944,34.92551],[135.77115,34.92346]],[[135.78884,34.74113],[135.78185,34.74928],[135.77944,34.75357]],[[135.79394,34.73192],[135.79208,34.73519]],[[135.81048,34.84248],[135.81079,34.83004],[135.81195,34.82865],[135.8167,34.82626],[135.81797,34.82369],[135.81757,34.82089],[135.81557,34.81774],[135.8125,34.80917],[135.81451,34.8055],[135.81581,34.8009],[135.81486,34.79577],[135.81861,34.78025],[135.8232,34.77289],[135.82516,34.76805],[135.82468,34.76016],[135.82549,34.75651],[135.82732,34.75234],[135.83038,34.74882]]]}}]}