{"type":"FeatureCollection","features":[{"type":"Feature","properties":{"route_id":"403","route_number":403,"name":"国道403号","source":"OpenStreetMap contributors (ODbL)","osm_relations":[1017048]},"geometry":{"type":"MultiLineString","coordinates":[[[139.07204,37.90029],[139.07092,37.8984],[139.07139,37.89646],[139.08288,37.8788],[139.09205,37.86164],[139.09434,37.85972],[139.09646,37.83461],[139.10187,37.80554],[139.10423,37.80006],[139.11095,37.79196],[139.11191,37.78479],[139.11007,37.7808],[139.08767,37.75105],[139.09522,37.74663],[139.09269,37.74416],[139.09133,37.73895],[139.08186,37.73132],[139.08044,37.72642],[139.07337,37.71627],[139.0736,37.70835],[139.06915,37.70529],[139.06685,37.70034],[139.06323,37.6965],[139.05913,37.68462],[139.05902,37.67875],[139.05507,37.67226],[139.05596,37.66915],[139.05374,37.6678],[139.05147,37.66455],[139.04796,37.66309],[139.04639,37.66153],[139.03397,37.66934],[139.03747,37.67192],[139.04675,37.6749],[139.04984,37.67715],[139.06256,37.70569],[139.07154,37.72022],[139.07319,37.73161],[139.08767,37.75105]],[[138.46133,36.99689],[138.4617,37.00039],[138.46085,37.00133],[138.4589,37.00102],[138.458,37.00173],[138.45884,37.00171],[138.45946,37.00325],[138.46309,37.00405],[138.46369,37.00618],[138.46481,37.00484],[138.46643,37.00668],[138.46729,37.00589],[138.46942,37.00756],[138.47029,37.00653],[138.47129,37.00866],[138.47248,37.00667],[138.47455,37.00632],[138.47544,37.00799],[138.47386,37.00776],[138.47404,37.00956],[138.47491,37.00942],[138.47664,37.0121],[138.47843,37.0107],[138.47812,37.01208],[138.48047,37.01274],[138.47877,37.01604],[138.48045,37.0167],[138.48187,37.01631],[138.48247,37.01698],[138.47983,37.01855],[138.48054,37.02028],[138.48208,37.02144],[138.48482,37.02125],[138.48993,37.02263],[138.48886,37.0224],[138.48938,37.02309],[138.48836,37.02457],[138.48865,37.02545],[138.4871,37.0265],[138.48827,37.02901],[138.48729,37.03055],[138.48828,37.033],[138.48734,37.03257],[138.4875,37.035],[138.48684,37.03327],[138.4866,37.0358],[138.48957,37.04009],[138.48753,37.03938],[138.48953,37.04118],[138.48573,37.04191],[138.48276,37.04043],[138.4803,37.043],[138.47665,37.04312],[138.4791,37.04414],[138.48201,37.04376],[138.48171,37.04587],[138.4802,37.04642],[138.48124,37.04751],[138.47983,37.04704],[138.48199,37.04868],[138.48359,37.05174],[138.48382,37.05285],[138.48286,37.05243],[138.48429,37.05615],[138.4874,37.05853],[138.48729,37.06026],[138.48889,37.06077],[138.48913,37.0617],[138.48678,37.06262],[138.48677,37.0636],[138.48532,37.06471],[138.48487,37.0675],[138.47573,37.07205],[138.4739,37.07711],[138.47379,37.07976],[138.47461,37.08077],[138.47366,37.08445],[138.4748,37.0867],[138.47439,37.09085],[138.47251,37.09406],[138.47092,37.0949],[138.46822,37.09842],[138.46761,37.10288],[138.46412,37.10791],[138.45999,37.10974],[138.45579,37.11013],[138.45319,37.11344],[138.4519,37.11754],[138.44843,37.12207],[138.44715,37.12784],[138.44483,37.13192],[138.44856,37.13245],[138.44919,37.13301],[138.44798,37.13282],[138.44776,37.13379],[138.45116,37.13533],[138.4563,37.13561],[138.45852,37.13705],[138.46,37.13607],[138.45996,37.13408],[138.46227,37.13658],[138.46486,37.13684],[138.47081,37.13284],[138.47197,37.12973],[138.47575,37.12593],[138.47812,37.12667],[138.47947,37.12521],[138.48041,37.12608],[138.48232,37.12477],[138.48328,37.12514],[138.4833,37.12632],[138.48406,37.12505],[138.48659,37.12522],[138.48884,37.12433],[138.49051,37.1223],[138.49375,37.12408],[138.495,37.124],[138.4991,37.12278],[138.49995,37.12317],[138.50151,37.12113],[138.50348,37.12152],[138.50533,37.12368],[138.50739,37.1233],[138.50711,37.12021],[138.50855,37.11715],[138.5099,37.11634],[138.51243,37.11807],[138.5157,37.11858],[138.5133,37.12178],[138.51377,37.1227],[138.51716,37.12366],[138.51802,37.12462],[138.51972,37.12331],[138.52109,37.12354],[138.52116,37.12139],[138.52313,37.12094],[138.52495,37.12151],[138.52646,37.11846],[138.52844,37.11778],[138.53155,37.12109],[138.53373,37.12074],[138.53853,37.12465],[138.53765,37.12647],[138.53595,37.12724],[138.53613,37.128],[138.53995,37.1269],[138.54504,37.12919],[138.55263,37.12907],[138.55613,37.12677],[138.56287,37.12488],[138.56555,37.1196],[138.56969,37.116],[138.57214,37.117],[138.57384,37.1166],[138.57636,37.118],[138.57851,37.1177],[138.58134,37.1188],[138.58281,37.12075],[138.58564,37.11958],[138.5864,37.12168],[138.58833,37.12135],[138.58955,37.12239],[138.59521,37.12317],[138.60156,37.12586],[138.60282,37.12755],[138.60743,37.1298],[138.61041,37.13225],[138.6176,37.13363],[138.62458,37.13868],[138.62684,37.13939],[138.63239,37.13992],[138.63607,37.13941],[138.64772,37.13544],[138.65539,37.13573],[138.65517,37.13891],[138.65795,37.14083],[138.65844,37.14305],[138.65479,37.14491],[138.6564,37.14542],[138.65698,37.14917],[138.66139,37.15118],[138.66234,37.15003],[138.66378,37.15059],[138.66837,37.15016],[138.66518,37.15389],[138.66443,37.15704],[138.66581,37.15841],[138.66953,37.15986],[138.66838,37.16192],[138.66828,37.16646],[138.66895,37.16758],[138.66664,37.16936],[138.6669,37.17068],[138.66845,37.17184],[138.66743,37.17519],[138.67117,37.17624],[138.67425,37.17496],[138.67887,37.17596],[138.68147,37.17521],[138.6839,37.18202],[138.68789,37.18707],[138.68739,37.18829],[138.68368,37.18984],[138.68498,37.19317],[138.68781,37.19673],[138.68372,37.20117],[138.68548,37.20351],[138.68915,37.20583],[138.68951,37.20701],[138.69499,37.2092],[138.69979,37.21338],[138.70333,37.21386],[138.7087,37.21113],[138.71136,37.21231],[138.71246,37.21624],[138.71199,37.22342],[138.71314,37.22494],[138.71465,37.22519],[138.71476,37.22668],[138.71807,37.22717],[138.71724,37.22817],[138.714,37.22778],[138.71178,37.22914],[138.71126,37.23217],[138.71185,37.23883],[138.70524,37.24311],[138.70639,37.24888],[138.70331,37.25074],[138.70255,37.25316],[138.70472,37.25478],[138.70114,37.25671],[138.70393,37.25907],[138.70488,37.26111],[138.70488,37.26402],[138.70733,37.26637],[138.70576,37.27732],[138.70449,37.28092],[138.70538,37.28602],[138.70157,37.29346],[138.70479,37.29336],[138.70883,37.28722],[138.72458,37.28819],[138.7293,37.28747],[138.73515,37.28459],[138.73617,37.28507],[138.73656,37.28676],[138.73813,37.28671],[138.73827,37.2853],[138.73978,37.28642],[138.74883,37.28825],[138.75161,37.28976],[138.75111,37.29142],[138.75204,37.29109],[138.75335,37.29186],[138.75475,37.29026],[138.75689,37.29002],[138.7578,37.28804],[138.75943,37.28804],[138.76014,37.28914],[138.76385,37.28682],[138.76566,37.28757],[138.76413,37.28873],[138.76905,37.28791],[138.77272,37.28825],[138.77606,37.28919],[138.78503,37.29866],[138.78315,37.30002],[138.78255,37.30186],[138.78742,37.31559],[138.79541,37.31882],[138.80518,37.31929],[138.81181,37.33053],[138.81337,37.33158],[138.81154,37.33467],[138.81204,37.33742],[138.81659,37.34313],[138.82038,37.3443],[138.81299,37.35126],[138.81209,37.35936],[138.80819,37.36237],[138.80297,37.36445],[138.80067,37.37125],[138.79893,37.37269],[138.79965,37.37614],[138.80102,37.37732],[138.80167,37.38038],[138.80341,37.38342],[138.805,37.39028],[138.80762,37.3969],[138.80692,37.3995],[138.80146,37.40091],[138.80273,37.40588],[138.79869,37.41146],[138.79768,37.4145],[138.80914,37.41938],[138.80981,37.42272],[138.81322,37.42586],[138.81459,37.42942],[138.81386,37.43326],[138.81772,37.44032],[138.82187,37.44472],[138.82528,37.44365],[138.83809,37.44454],[138.84634,37.44654],[138.84731,37.44842],[138.85061,37.44759],[138.84731,37.44842]],[[138.85061,37.44759],[138.85694,37.46278],[138.85747,37.4664],[138.86043,37.47401],[138.84424,37.47841],[138.8352,37.47939],[138.83561,37.48498],[138.83322,37.48887],[138.82969,37.49185],[138.8235,37.48978],[138.8199,37.48993],[138.81199,37.49172],[138.80194,37.49205],[138.80139,37.49329],[138.80058,37.5005],[138.8024,37.50571],[138.80293,37.51145],[138.80803,37.52092],[138.80961,37.53691],[138.81208,37.54113],[138.81409,37.54878],[138.81588,37.55051],[138.81585,37.55291],[138.83918,37.55517],[138.84912,37.55505],[138.84895,37.56283],[138.84199,37.56984],[138.84108,37.57414],[138.83544,37.57717],[138.83456,37.58129],[138.83502,37.58534],[138.83713,37.59024],[138.84666,37.5956],[138.8551,37.60277],[138.86376,37.60652],[138.86771,37.60329],[138.87825,37.59919],[138.88312,37.60263],[138.88623,37.60662],[138.88663,37.60827],[138.88541,37.6139],[138.88812,37.61671],[138.89152,37.61771],[138.89699,37.61665],[138.90023,37.61757],[138.90189,37.62085],[138.90348,37.62208],[138.9086,37.62442],[138.91779,37.62715],[138.92716,37.6269],[138.9412,37.62837],[138.94013,37.63441],[138.94091,37.64367],[138.94174,37.64571],[138.94407,37.64787],[138.95376,37.64127],[138.9441,37.6477],[138.94224,37.64609],[138.94106,37.64366],[138.94027,37.63456],[138.9412,37.62837]],[[138.95376,37.64127],[138.965,37.63821],[138.96996,37.63566],[138.97364,37.63565],[138.97872,37.64008],[138.98854,37.64243],[138.99321,37.64189],[138.9989,37.64236],[139.00917,37.63872],[139.01137,37.63861],[139.03053,37.64697],[139.0381,37.65308],[139.04639,37.66153]],[[138.3502,36.75199],[138.35082,36.75308],[138.35528,36.75442],[138.37091,36.75785],[138.3779,36.75867],[138.38571,36.75829],[138.37791,36.75876],[138.3709,36.75793],[138.35048,36.75307],[138.35118,36.74551],[138.34976,36.74206],[138.34817,36.74047],[138.34772,36.73773],[138.3442,36.73565],[138.34152,36.73002],[138.32383,36.71613],[138.3194,36.70942],[138.31506,36.69255],[138.31551,36.68669],[138.31779,36.67851],[138.31578,36.6709],[138.31544,36.66428],[138.31446,36.66116],[138.31167,36.6585],[138.30819,36.65814],[138.30679,36.65288],[138.30353,36.64886],[138.29999,36.65007],[138.29651,36.64891],[138.28845,36.64226],[138.2851,36.63815],[138.28281,36.63716],[138.27869,36.63616],[138.27332,36.63711]],[[138.25033,36.61328],[138.25021,36.61407],[138.24998,36.6114],[138.24675,36.60914],[138.24146,36.60834],[138.23497,36.60603],[138.22669,36.60554],[138.22484,36.60276],[138.22098,36.60052],[138.21315,36.59374],[138.19976,36.59141],[138.19808,36.58787],[138.20376,36.57741],[138.20258,36.57453],[138.18957,36.56732],[138.18678,36.56536],[138.18574,36.56348],[138.18057,36.56242],[138.17294,36.56417],[138.15663,36.5593],[138.15407,36.55705],[138.14905,36.55524],[138.14783,36.551],[138.14652,36.54942],[138.14426,36.54878],[138.13786,36.5492],[138.13774,36.54621],[138.13018,36.54124],[138.12725,36.54027],[138.12724,36.53889],[138.12261,36.53796],[138.12323,36.53157],[138.1142,36.5312],[138.10675,36.53409],[138.09893,36.53475],[138.0969,36.52814],[138.09514,36.52653],[138.08066,36.51975],[138.07802,36.51949],[138.07693,36.51765],[138.07482,36.51695],[138.07462,36.5145],[138.0782,36.51257],[138.0813,36.51419],[138.08153,36.51356],[138.07956,36.51122],[138.08033,36.5102],[138.08028,36.50749],[138.08503,36.50559],[138.08562,36.50415],[138.08917,36.50326],[138.09231,36.49935],[138.09187,36.49821],[138.08969,36.49712],[138.09107,36.49872],[138.09058,36.49953],[138.08832,36.49857],[138.08686,36.49947],[138.08375,36.49877],[138.08561,36.49774],[138.08613,36.49582],[138.08113,36.49731],[138.08277,36.496],[138.08014,36.49487],[138.07949,36.49214],[138.07694,36.49336],[138.07683,36.49582],[138.07547,36.49565],[138.07595,36.4944],[138.07411,36.49271],[138.0721,36.49423],[138.07175,36.49181],[138.06665,36.49153],[138.06439,36.48644],[138.06714,36.48297],[138.06918,36.48236],[138.0687,36.48058],[138.06814,36.48214],[138.06545,36.48178],[138.0646,36.48262],[138.05896,36.48123],[138.06282,36.48029],[138.0618,36.47883],[138.0602,36.47926],[138.05745,36.47611],[138.05511,36.47196],[138.05498,36.46712],[138.05405,36.46467],[138.04953,36.45971],[138.04845,36.45653],[138.04646,36.45622],[138.03431,36.44673],[138.022,36.44341],[138.01897,36.44153],[138.01358,36.44055],[138.01234,36.43939],[138.00881,36.43892],[138.00889,36.43683],[138.01129,36.43569],[138.01173,36.4342],[138.01404,36.43251],[138.01397,36.42971],[138.01234,36.42662],[138.01234,36.42171],[138.00951,36.42082],[138.00892,36.41691],[138.01164,36.40325],[138.00987,36.39977],[138.0056,36.40004],[138.00412,36.39925],[138.00409,36.3952],[138.00342,36.39404],[138.00412,36.39199],[138.00269,36.39166],[137.99939,36.3941],[137.99545,36.39364],[137.99208,36.39051],[137.98035,36.38443],[137.97881,36.38459],[137.97628,36.3868],[137.97286,36.3873],[137.96989,36.38671],[137.96703,36.38441],[137.96101,36.38285],[137.95834,36.37832],[137.95567,36.37567],[137.94768,36.3708],[137.94695,36.36952],[137.93757,36.36633],[137.93182,36.3658],[137.93088,36.36217],[137.93135,36.35643],[137.92334,36.34881],[137.92195,36.34603],[137.93084,36.32303],[137.93245,36.31552],[137.93661,36.30867],[137.93961,36.30649],[137.94033,36.30487],[137.94161,36.29523],[137.94348,36.29223],[137.94725,36.27964],[137.94739,36.27574],[137.94548,36.27101],[137.94481,36.26585],[137.94781,36.26151],[137.951,36.25348],[137.95267,36.24497],[137.95643,36.23699],[137.95633,36.23164]],[[138.09683,36.52812],[138.09733,36.52995]],[[138.28519,36.63826],[138.27921,36.63625],[138.27334,36.63721],[138.27114,36.63292],[138.26522,36.63154],[138.26117,36.62906],[138.25786,36.62536],[138.25575,36.62088],[138.25132,36.61717],[138.25021,36.61407]],[[138.38571,36.75829],[138.39337,36.75913],[138.39924,36.75776],[138.4027,36.75916],[138.40768,36.76156],[138.40868,36.76445],[138.41423,36.76806],[138.41471,36.77198],[138.41051,36.77352],[138.41814,36.77759],[138.42775,36.77732],[138.42905,36.77824],[138.43127,36.78492],[138.43198,36.79033],[138.43466,36.79342],[138.4352,36.79564],[138.43517,36.79971],[138.43257,36.80316],[138.43349,36.80654],[138.43501,36.80871],[138.43475,36.8128],[138.43392,36.81512],[138.43234,36.81673],[138.43322,36.81725],[138.43667,36.8164],[138.43724,36.81704],[138.43363,36.81948],[138.43334,36.82187],[138.43006,36.82495],[138.42152,36.82703],[138.41324,36.83145],[138.41042,36.83427],[138.40523,36.84457],[138.39882,36.8474],[138.39303,36.84736],[138.38883,36.85169],[138.38281,36.85307],[138.37438,36.8524],[138.3671,36.85287],[138.36932,36.86057],[138.37196,36.86679],[138.37453,36.87051],[138.39272,36.88441],[138.3988,36.89159],[138.39914,36.89362],[138.3971,36.90142],[138.39789,36.90238],[138.40132,36.9035],[138.40205,36.90464],[138.39951,36.90904],[138.39937,36.91542],[138.40031,36.91734],[138.40413,36.92059],[138.4041,36.92269],[138.40631,36.92796],[138.40943,36.93082],[138.42134,36.9347],[138.42316,36.93622],[138.42402,36.93988],[138.4257,36.9416],[138.42772,36.94248],[138.43044,36.9424],[138.43424,36.9441],[138.4383,36.95282],[138.44423,36.95631],[138.44795,36.95758],[138.44859,36.96214],[138.4516,36.96629],[138.45347,36.96718],[138.45044,36.96943],[138.45153,36.97026]],[[139.02878,37.66407],[139.03397,37.66934]],[[139.09725,37.85805],[139.09508,37.85842],[139.09476,37.85697]],[[139.0949,37.85475],[139.09405,37.85907],[139.09181,37.86184],[139.08231,37.87952],[139.07109,37.8968],[139.07083,37.89851],[139.07174,37.90007]],[[137.99306,36.39137],[137.9927,36.39038],[137.99335,36.3898],[137.98967,36.38788],[137.98668,36.38397],[137.98436,36.38429]],[[138.46131,36.99674],[138.46196,36.99508],[138.46107,36.9948],[138.461,36.99371],[138.46414,36.98909],[138.46275,36.98808],[138.46498,36.98575],[138.46513,36.98425],[138.46667,36.98467],[138.46629,36.983],[138.46686,36.98426],[138.46702,36.98336],[138.46774,36.98372],[138.46744,36.98691],[138.46885,36.9894],[138.4683,36.98627],[138.46956,36.98275],[138.47199,36.98187],[138.47195,36.98052],[138.46881,36.97883],[138.46883,36.97791],[138.46037,36.97703],[138.45163,36.97035]],[[139.09414,37.8589],[139.09441,37.85927]],[[138.94407,37.64787],[138.94557,37.64861]]]}}]}