{"type":"FeatureCollection","features":[{"type":"Feature","properties":{"route_id":"449","route_number":449,"name":"国道449号","source":"OpenStreetMap contributors (ODbL)","osm_relations":[13506214,13766030]},"geometry":{"type":"MultiLineString","coordinates":[[[127.89109,26.66268],[127.88956,26.67129],[127.89157,26.67778],[127.88964,26.67103],[127.8913,26.66292],[127.88056,26.65364],[127.88023,26.6524],[127.88143,26.6487],[127.88159,26.63963],[127.88648,26.63152],[127.88731,26.62522],[127.8907,26.62203],[127.89146,26.61903],[127.89512,26.61481],[127.89561,26.60683],[127.90688,26.60273],[127.91294,26.60148],[127.9165,26.60357],[127.91799,26.60723],[127.91969,26.60905],[127.92425,26.60995],[127.92925,26.60829],[127.93464,26.604],[127.93753,26.60387],[127.94053,26.60257],[127.94448,26.60346],[127.94054,26.60266],[127.93754,26.60397],[127.93468,26.60408],[127.92936,26.60833],[127.92464,26.61001],[127.91931,26.60887],[127.91624,26.60342],[127.91306,26.60159],[127.90744,26.60264],[127.89614,26.60648],[127.89532,26.60786],[127.8952,26.61485],[127.89158,26.61899],[127.89079,26.62205],[127.88748,26.62509],[127.88653,26.63163],[127.88167,26.63971],[127.88153,26.64869],[127.88044,26.6535]],[[127.94462,26.60376],[127.94654,26.60567],[127.95236,26.60722],[127.95433,26.60702],[127.96799,26.60037],[127.95352,26.60716],[127.94658,26.60559],[127.9447,26.60369],[127.94967,26.60306],[127.95286,26.60048],[127.95291,26.59783],[127.9548,26.59648],[127.96395,26.59315],[127.96771,26.59405]]]}}]}