{"type":"FeatureCollection","features":[{"type":"Feature","properties":{"route_id":"276","route_number":276,"name":"国道276号","source":"OpenStreetMap contributors (ODbL)","osm_relations":[33018,9427007,10394991]},"geometry":{"type":"MultiLineString","coordinates":[[[141.6118,42.639],[141.60474,42.64966],[141.60384,42.65668],[141.59848,42.66214],[141.5894,42.66842],[141.58707,42.67152],[141.57872,42.67526],[141.57457,42.67535],[141.57047,42.67839],[141.56389,42.68098],[141.5602,42.68434],[141.55416,42.68588],[141.52523,42.70088],[141.52109,42.70169],[141.46357,42.73174],[141.45562,42.73811],[141.45295,42.74121],[141.4509,42.74685],[141.44495,42.74947],[141.43971,42.75662],[141.42876,42.75434],[141.41874,42.74952],[141.41379,42.74844],[141.40941,42.74217],[141.40776,42.74122],[141.40194,42.74212],[141.38425,42.73993],[141.37508,42.73434],[141.37196,42.73545],[141.3642,42.73555],[141.35782,42.73746],[141.34157,42.7332],[141.33326,42.7269],[141.32712,42.71803],[141.32167,42.71607],[141.30879,42.70557],[141.30509,42.70407],[141.29697,42.70361],[141.29158,42.70521],[141.28232,42.71122],[141.27427,42.7133],[141.26349,42.7198],[141.25705,42.72207],[141.24822,42.71752],[141.24165,42.71548],[141.23529,42.71546],[141.23284,42.71463],[141.22696,42.7155],[141.22322,42.71796],[141.21865,42.71648],[141.21401,42.71876],[141.20513,42.71932],[141.19933,42.71744],[141.19868,42.71625],[141.20032,42.71543],[141.20483,42.71754],[141.20679,42.71752],[141.209,42.71488],[141.20875,42.71374],[141.19922,42.71157],[141.19495,42.70901],[141.16288,42.70316],[141.15506,42.70261],[141.14768,42.70537],[141.14069,42.7042],[141.13748,42.70129],[141.13283,42.69876],[141.11545,42.69986],[141.10722,42.69889],[141.10628,42.69811],[141.10655,42.6957],[141.10495,42.6952],[141.10127,42.69778],[141.09448,42.69799],[141.08631,42.70325],[141.08468,42.70601],[141.08153,42.70521],[141.0796,42.70585],[141.07747,42.70736],[141.07763,42.7101],[141.0726,42.71359],[141.06929,42.7142],[141.06892,42.71517],[141.07056,42.7168],[141.06908,42.71994],[141.07253,42.72266],[141.07383,42.72481],[141.06529,42.73156],[141.05955,42.73417],[141.0575,42.73701],[141.04682,42.74046],[141.04048,42.7447],[141.0187,42.75344],[141.01377,42.75764],[141.00229,42.76339],[140.99172,42.76442],[140.98527,42.7678],[140.97763,42.76695],[140.97022,42.76766],[140.96375,42.76629],[140.95495,42.76853],[140.95103,42.77119],[140.94144,42.78159],[140.94247,42.78251],[140.94232,42.78415],[140.93668,42.789]],[[140.9373,42.78869],[140.92825,42.79345],[140.91271,42.79777],[140.90281,42.80277],[140.89157,42.80482],[140.89134,42.80698],[140.88868,42.81067],[140.8894,42.81783],[140.89167,42.82328],[140.89026,42.82814],[140.89314,42.83159],[140.88976,42.84682],[140.891,42.8538],[140.8896,42.85734],[140.8882,42.85854],[140.88406,42.8591],[140.88501,42.87561],[140.88371,42.87749],[140.87959,42.88056],[140.87532,42.88007],[140.87203,42.87792],[140.86965,42.87788],[140.86295,42.88146],[140.86268,42.88548],[140.85841,42.88975],[140.85258,42.88979],[140.84826,42.89419],[140.84064,42.89479],[140.83431,42.89712],[140.82965,42.90054],[140.75285,42.90397],[140.75294,42.91217],[140.74312,42.9198],[140.73034,42.92511],[140.72809,42.92481],[140.72232,42.92195],[140.72035,42.92186],[140.71871,42.92283],[140.71696,42.92701],[140.71464,42.92865],[140.71236,42.93169],[140.70613,42.93539],[140.70468,42.93807],[140.70447,42.94203],[140.70528,42.94505],[140.6979,42.95212],[140.6915,42.9649],[140.68212,42.96927],[140.67876,42.96964],[140.67357,42.97325],[140.66949,42.97792],[140.65927,42.98016],[140.65583,42.98283],[140.65555,42.98469],[140.64528,42.97956],[140.636,42.9773],[140.62913,42.97783],[140.62263,42.98062],[140.62238,42.97902],[140.58921,42.98066],[140.58173,42.97955],[140.55918,42.98438],[140.54047,42.98104],[140.53486,42.98287],[140.52335,42.98228],[140.52027,42.98306],[140.51485,42.9812],[140.50297,42.98082],[140.49291,42.97753],[140.48798,42.97366],[140.47697,42.96956],[140.45621,42.95832],[140.45068,42.95395],[140.425,42.94332],[140.41698,42.94176],[140.41545,42.93535],[140.40983,42.93179],[140.40356,42.92628],[140.40169,42.92375],[140.39955,42.91845],[140.38055,42.9034],[140.37392,42.8883],[140.37303,42.88337],[140.37176,42.88125],[140.36962,42.87926],[140.36445,42.8769],[140.35904,42.87304],[140.34613,42.85685],[140.33747,42.85145],[140.33357,42.84747],[140.32954,42.84502],[140.32634,42.8445],[140.32318,42.83962],[140.31815,42.83784],[140.30898,42.83071],[140.30676,42.82788],[140.30527,42.82477],[140.30521,42.81722],[140.30411,42.81183],[140.30758,42.80103],[140.31039,42.79687],[140.31051,42.79505],[140.30824,42.79106],[140.30863,42.78481],[140.30698,42.78181],[140.30479,42.77323],[140.29692,42.76829],[140.29328,42.75768],[140.26923,42.7561],[140.26488,42.75868],[140.25518,42.76252],[140.25072,42.76629],[140.2466,42.76732],[140.24077,42.77371],[140.23229,42.79156],[140.22459,42.79839],[140.22162,42.8026],[140.21039,42.80686],[140.20589,42.80769],[140.20148,42.81038],[140.19356,42.81698],[140.19107,42.82259],[140.18909,42.82309],[140.18694,42.82219],[140.18299,42.81711],[140.17992,42.80993],[140.16121,42.7909],[140.14866,42.77322],[140.14718,42.77044],[140.14797,42.7688],[140.1506,42.76732],[140.15129,42.76288],[140.14676,42.75537],[140.14254,42.75091],[140.13872,42.74902],[140.13414,42.74973],[140.13318,42.74732],[140.13141,42.74599],[140.12609,42.74701],[140.11822,42.74595],[140.11584,42.74437],[140.11433,42.74056],[140.11055,42.73928],[140.10508,42.73597],[140.10952,42.73915],[140.11218,42.7398]],[[140.94171,42.7849],[140.94279,42.78321],[140.94153,42.78153]],[[140.08638,42.04077],[140.08654,42.03918],[140.09033,42.03666],[140.0865,42.03973],[140.08651,42.04212],[140.0845,42.04655],[140.07791,42.05042],[140.07545,42.05333],[140.07447,42.06414],[140.07244,42.06765],[140.06801,42.07116],[140.06342,42.07182],[140.06288,42.07404],[140.05979,42.07707],[140.0574,42.08258],[140.05457,42.08509],[140.05128,42.09067],[140.04828,42.09203],[140.04473,42.09715],[140.0254,42.11406],[140.02168,42.11673],[140.01763,42.1183],[140.01547,42.12047],[140.00942,42.12144],[140.00525,42.12041],[140.00304,42.12202],[139.99882,42.12274],[139.99238,42.12771],[139.98815,42.12934],[139.98384,42.1285],[139.98152,42.12933],[139.97434,42.12859],[139.97086,42.13069],[139.96469,42.131],[139.95949,42.12942],[139.95042,42.12961],[139.93946,42.13163],[139.93588,42.13132],[139.93372,42.13404],[139.93244,42.13452],[139.92829,42.13301],[139.9227,42.13336],[139.91866,42.13953],[139.91838,42.14321],[139.91446,42.14821],[139.91229,42.15416],[139.90779,42.15946],[139.90451,42.16631],[139.90176,42.16887],[139.90027,42.17155],[139.89713,42.17412],[139.89775,42.17702],[139.89548,42.17939],[139.89627,42.18154],[139.89589,42.18347],[139.89253,42.18396],[139.89169,42.18662],[139.88749,42.18677],[139.88528,42.19036],[139.88245,42.19156],[139.88056,42.1979],[139.88215,42.20421],[139.88081,42.20843],[139.86672,42.21869],[139.86614,42.22089],[139.8775,42.23003],[139.88803,42.23361],[139.8887,42.23476],[139.88822,42.23745],[139.8896,42.24023],[139.88877,42.24369],[139.89044,42.24458],[139.89538,42.24511],[139.89794,42.24739],[139.89847,42.25026],[139.90074,42.25254],[139.9052,42.26283],[139.90743,42.26582],[139.90802,42.26798],[139.90747,42.26959],[139.90908,42.27253],[139.90867,42.27542],[139.90999,42.28129],[139.90799,42.28382],[139.90877,42.28677],[139.90697,42.28978],[139.90711,42.29311],[139.90322,42.29815],[139.90607,42.30199],[139.90495,42.30948],[139.90678,42.31228],[139.90715,42.31966],[139.91013,42.32417],[139.90842,42.32798],[139.91546,42.33521],[139.91675,42.34294],[139.91292,42.34612],[139.90995,42.35061],[139.9066,42.35246],[139.90881,42.3593],[139.90762,42.36116],[139.90743,42.36413],[139.89691,42.36956],[139.89802,42.37899],[139.89288,42.38348],[139.89193,42.38562],[139.88918,42.38827],[139.88744,42.39279],[139.88487,42.39556],[139.88594,42.40291],[139.88085,42.41229],[139.87861,42.41245],[139.87522,42.41492],[139.87048,42.41671],[139.86537,42.41687],[139.86175,42.41796],[139.85957,42.42007],[139.85652,42.4272],[139.85353,42.42908],[139.85192,42.43241],[139.85474,42.44614],[139.85126,42.45358],[139.84912,42.45615],[139.85278,42.46055],[139.85373,42.46398],[139.85326,42.46691],[139.85155,42.46927],[139.852,42.47149],[139.84925,42.47452],[139.84871,42.47823],[139.84684,42.48094],[139.84827,42.48398],[139.84797,42.49051],[139.8494,42.49317],[139.84561,42.49579],[139.84294,42.49901],[139.84338,42.50059],[139.84585,42.50158],[139.84653,42.5042],[139.84644,42.50669],[139.84398,42.51427],[139.84714,42.52556],[139.84728,42.52835],[139.84071,42.53917],[139.84007,42.54236],[139.84088,42.54767],[139.83733,42.55242],[139.83506,42.56104],[139.83652,42.56331],[139.83573,42.56566],[139.83597,42.56857],[139.82878,42.5818],[139.82791,42.58819],[139.8259,42.59044],[139.82557,42.59361],[139.83189,42.59724],[139.83496,42.6005],[139.8368,42.60478],[139.84051,42.62383],[139.85143,42.63503],[139.85315,42.6394],[139.85797,42.64211],[139.86095,42.65177],[139.86523,42.6545],[139.87618,42.66691],[139.8801,42.6695],[139.88369,42.67053],[139.88881,42.67435],[139.89834,42.67941],[139.90848,42.68103],[139.91739,42.68352],[139.9256,42.68789],[139.93426,42.68766],[139.94283,42.68893],[139.95667,42.68775],[139.96113,42.68923],[139.96795,42.6896],[139.97151,42.69063],[139.97466,42.69045],[139.98356,42.6878],[139.99038,42.69151],[139.99377,42.69092],[139.99828,42.68834],[140.00053,42.68599],[140.01138,42.68517],[140.01732,42.68799],[140.02916,42.68726],[140.03856,42.68941],[140.04293,42.69104],[140.04703,42.69428],[140.05945,42.69974],[140.06198,42.70164],[140.06408,42.70564],[140.06577,42.7071],[140.06505,42.71311],[140.07123,42.71839],[140.07511,42.7241],[140.07857,42.72597],[140.08073,42.72977],[140.08569,42.73018],[140.09436,42.7352],[140.09687,42.73564],[140.10036,42.73505],[140.10508,42.73597]],[[140.09033,42.03666],[140.09554,42.03418],[140.09661,42.03015],[140.09956,42.02859],[140.10077,42.02475],[140.1008,42.02077],[140.10334,42.01979],[140.10364,42.01798],[140.10563,42.01684],[140.10807,42.0137],[140.10646,42.01049],[140.10688,42.00941],[140.11012,42.00755],[140.11869,42.00507],[140.12073,42.00314],[140.12511,41.99429],[140.12444,41.99081],[140.12661,41.98284],[140.13069,41.97852],[140.13943,41.97396],[140.13945,41.97271],[140.13738,41.96973],[140.13006,41.96649],[140.12861,41.9648],[140.13466,41.95649],[140.13443,41.95277],[140.13516,41.95056],[140.14365,41.94391],[140.15114,41.9332],[140.15147,41.92061]],[[140.62263,42.98062],[140.61036,42.98564],[140.59331,42.98768],[140.56132,42.99453],[140.54319,42.9999],[140.53963,42.99868],[140.52027,42.98306]],[[141.59927,42.66136],[141.6042,42.65639],[141.60485,42.64984],[141.61192,42.63907]],[[140.60697,42.9861],[140.59327,42.98762],[140.56191,42.99431],[140.54389,42.99977],[140.54097,42.99942],[140.53773,42.99717]],[[141.08747,42.70246],[141.08597,42.7035],[141.08465,42.70596],[141.08131,42.70514],[141.0796,42.70585]]]}}]}