{"type":"FeatureCollection","features":[{"type":"Feature","properties":{"route_id":"313","route_number":313,"name":"国道313号","source":"OpenStreetMap contributors (ODbL)","osm_relations":[7441843,8780413,9962442,9962527,10701361]},"geometry":{"type":"MultiLineString","coordinates":[[[133.41943,34.57269],[133.42864,34.57666],[133.41241,34.56964],[133.40948,34.56715],[133.40526,34.56133],[133.40237,34.55903],[133.39268,34.55743],[133.39318,34.55126],[133.39142,34.54593],[133.38668,34.54359],[133.38514,34.54088],[133.38077,34.53848],[133.37993,34.53754],[133.3799,34.53505],[133.3644,34.52467],[133.36455,34.52147],[133.36538,34.52046],[133.36479,34.51688],[133.3668,34.50896],[133.36882,34.50606],[133.36974,34.50282],[133.37321,34.5014],[133.37577,34.48777]],[[133.37529,34.49039],[133.37471,34.4932]],[[133.62985,34.9544],[133.63705,34.96111],[133.63994,34.96244],[133.64625,34.96359],[133.64756,34.96684],[133.64457,34.96624],[133.6379,34.96212],[133.63307,34.96286],[133.63197,34.96171],[133.63189,34.95757],[133.63051,34.95639],[133.62767,34.95055],[133.62734,34.94781],[133.62584,34.94673],[133.62613,34.94286],[133.62954,34.93996],[133.63216,34.93488],[133.6328,34.93095],[133.62887,34.92706],[133.62435,34.91459],[133.62565,34.91031],[133.62827,34.90735],[133.63924,34.9012],[133.6401,34.89906],[133.63758,34.89339],[133.63785,34.89093],[133.63644,34.88921],[133.63642,34.88655],[133.63756,34.88399],[133.64376,34.88077],[133.64512,34.877],[133.64156,34.87114],[133.63718,34.8684],[133.63839,34.86269],[133.63709,34.8584],[133.63038,34.85497],[133.62889,34.85186],[133.63094,34.84543],[133.6301,34.84376],[133.63409,34.84119],[133.63336,34.83933],[133.63173,34.8382],[133.63213,34.83577],[133.63025,34.83507],[133.63132,34.83197],[133.63088,34.83014],[133.6273,34.83034],[133.62581,34.82959],[133.61994,34.82413],[133.61939,34.82062],[133.61394,34.81654],[133.61662,34.80803],[133.61528,34.7975],[133.61369,34.79314],[133.60868,34.78295],[133.60689,34.78117],[133.60222,34.77993],[133.60097,34.78136],[133.58597,34.77739],[133.58309,34.77769],[133.57546,34.78082],[133.56896,34.77906],[133.56097,34.78153],[133.55556,34.7799],[133.55067,34.78267],[133.53329,34.78108],[133.52759,34.77949],[133.5227,34.77927],[133.50976,34.78294],[133.50717,34.78255],[133.5044,34.78047],[133.50364,34.77718],[133.50462,34.77442],[133.50444,34.77238],[133.50379,34.77118],[133.50078,34.77053],[133.49924,34.76882],[133.49775,34.76513],[133.49798,34.76235],[133.49602,34.76042],[133.49597,34.75692],[133.49428,34.75353],[133.49064,34.75018],[133.49136,34.74363],[133.48875,34.73755],[133.48707,34.7367],[133.48638,34.7346],[133.48736,34.73324],[133.4919,34.73342],[133.4933,34.72999],[133.49619,34.72692],[133.49561,34.72415],[133.49842,34.72294],[133.50038,34.72055],[133.50414,34.71896],[133.50505,34.7178],[133.50401,34.71294],[133.50128,34.7095],[133.50113,34.70726],[133.49874,34.70484],[133.49925,34.70287],[133.49692,34.69896],[133.49602,34.69448],[133.48978,34.69038],[133.48772,34.68205],[133.48472,34.67898],[133.48208,34.67777],[133.48004,34.67432],[133.47969,34.67222],[133.47804,34.67099],[133.47858,34.66746],[133.47753,34.66537],[133.47388,34.66275],[133.4713,34.66269],[133.46718,34.66086],[133.46358,34.65636],[133.45675,34.65345],[133.45111,34.65204],[133.45132,34.64938],[133.44783,34.64788],[133.44609,34.64584],[133.44372,34.64469],[133.44192,34.63787],[133.44051,34.637],[133.4375,34.63713],[133.43442,34.6324],[133.43312,34.6322],[133.43437,34.62531],[133.43713,34.62363],[133.43869,34.61926],[133.44872,34.61627],[133.45053,34.61369],[133.4513,34.61011],[133.46064,34.60296],[133.46332,34.59607],[133.44771,34.59028],[133.46329,34.59615]],[[133.42864,34.57666],[133.44034,34.58127],[133.44245,34.58581],[133.4372,34.58429],[133.42375,34.57804]],[[133.81485,35.49334],[133.81294,35.48987],[133.80724,35.48396],[133.80572,35.47876],[133.81065,35.45499],[133.81027,35.45193],[133.80798,35.44701],[133.81117,35.44611],[133.81279,35.44468],[133.81235,35.43866],[133.81291,35.43729],[133.81483,35.43592],[133.81764,35.4354],[133.81736,35.4363],[133.81578,35.43627],[133.81053,35.43125],[133.81012,35.42997],[133.80805,35.42926],[133.80829,35.42577],[133.80357,35.41353],[133.80066,35.40943],[133.78831,35.39699],[133.7863,35.39664],[133.77951,35.39234],[133.78058,35.38697],[133.77315,35.376],[133.76798,35.37146],[133.76666,35.36935],[133.76295,35.36816],[133.75204,35.36108],[133.7515,35.35676],[133.75004,35.35326],[133.75013,35.34955],[133.7485,35.34452],[133.74912,35.34212],[133.75317,35.33765],[133.75474,35.33459],[133.75501,35.32946],[133.75632,35.32439],[133.75601,35.3183],[133.75273,35.31298],[133.74171,35.3045],[133.73656,35.29808],[133.73603,35.29584],[133.73652,35.29251],[133.73376,35.29007],[133.73892,35.28442],[133.73933,35.28292],[133.73034,35.27067],[133.72719,35.2683],[133.72886,35.26399],[133.73135,35.26126],[133.73255,35.25636],[133.73429,35.2544],[133.73449,35.24852],[133.73755,35.24707],[133.74154,35.24845],[133.747,35.24641],[133.74714,35.24471],[133.74218,35.23675],[133.74165,35.23393],[133.74279,35.23185],[133.74939,35.22833],[133.75057,35.22523],[133.74716,35.21729],[133.74301,35.21088],[133.73851,35.20734],[133.73696,35.20294],[133.73413,35.20004],[133.73466,35.19725],[133.7314,35.19079],[133.72994,35.18569],[133.73099,35.18255],[133.72993,35.17911],[133.72785,35.17674],[133.72821,35.17499],[133.73149,35.17214],[133.73201,35.16819],[133.73136,35.16698],[133.72852,35.16534],[133.72767,35.16241],[133.72796,35.15825],[133.72047,35.15478],[133.71629,35.151],[133.71596,35.14956],[133.71862,35.1452],[133.71612,35.13758],[133.71452,35.13716],[133.71114,35.13303],[133.70648,35.13462],[133.70464,35.13374],[133.70892,35.12983],[133.71004,35.12708],[133.70988,35.12458],[133.7134,35.1224],[133.71273,35.12136],[133.70972,35.12024],[133.70834,35.11854],[133.70783,35.11449],[133.70825,35.11316],[133.71196,35.11097],[133.7158,35.1063],[133.71725,35.10326],[133.71694,35.10156],[133.71403,35.09908],[133.71077,35.09852],[133.70471,35.09936],[133.70359,35.10245],[133.70105,35.10289],[133.69685,35.09784],[133.69774,35.09596],[133.69669,35.09372],[133.69043,35.09234],[133.6891,35.09057],[133.68938,35.08166],[133.69025,35.07834],[133.69831,35.0841],[133.70182,35.08514],[133.70606,35.08512],[133.70748,35.08369],[133.71106,35.08324],[133.71932,35.08373],[133.72447,35.08321],[133.73827,35.07966],[133.74296,35.07995],[133.74288,35.07611],[133.74655,35.07457],[133.75117,35.06756],[133.75408,35.03801],[133.75046,35.02494],[133.75343,35.01647],[133.74451,35.01119],[133.73858,35.01133],[133.73623,35.00965],[133.73539,35.00783],[133.73612,35.00125],[133.73534,34.99963],[133.7312,34.99761],[133.73043,34.99554],[133.72733,34.99373],[133.72393,34.98789],[133.71343,34.98376],[133.70773,34.98296],[133.69397,34.98913],[133.68996,34.9879],[133.68623,34.98474],[133.67873,34.98108],[133.67506,34.97564],[133.66036,34.97469],[133.65896,34.97289],[133.64958,34.96909],[133.64756,34.96684]],[[133.81491,35.49333],[133.813,35.48984],[133.80754,35.48435],[133.80587,35.4803],[133.80606,35.4766],[133.81072,35.45499],[133.81033,35.45192],[133.80734,35.44449],[133.8073,35.43844],[133.80576,35.43682],[133.79772,35.43362],[133.79492,35.43078],[133.79154,35.42247],[133.79358,35.41603],[133.79331,35.41329],[133.78981,35.4063],[133.78487,35.40277],[133.78305,35.40042],[133.78071,35.39638],[133.77951,35.39234],[133.77965,35.39411],[133.78277,35.40012],[133.78483,35.40281],[133.78977,35.40632],[133.79325,35.4133],[133.79345,35.4163],[133.79147,35.42248],[133.79404,35.42944],[133.79767,35.43366],[133.80683,35.43776],[133.80724,35.44449],[133.80934,35.44965]],[[133.80991,35.4508],[133.80859,35.44684]],[[133.80678,35.48351],[133.81461,35.48123],[133.81679,35.4891],[133.81696,35.49863]],[[133.61647,34.80571],[133.61507,34.79636],[133.60877,34.78291],[133.6065,34.7809],[133.60222,34.77993]],[[133.44771,34.59028],[133.44385,34.58872],[133.44245,34.58581]],[[133.37578,34.4879],[133.37588,34.48777]]]}}]}