{"type":"FeatureCollection","features":[{"type":"Feature","properties":{"route_id":"426","route_number":426,"name":"国道426号","source":"OpenStreetMap contributors (ODbL)","osm_relations":[10018733]},"geometry":{"type":"MultiLineString","coordinates":[[[134.82753,35.52638],[134.82379,35.52812],[134.82049,35.52811],[134.8235,35.5281],[134.82753,35.52638],[134.82493,35.52089],[134.82433,35.51627],[134.82794,35.51198],[134.83433,35.50692],[134.83945,35.4994],[134.84092,35.49331],[134.84724,35.48948],[134.85551,35.48814],[134.86159,35.48275],[134.86205,35.48124],[134.86098,35.47838],[134.86163,35.47571],[134.85974,35.47515],[134.86182,35.4705],[134.86214,35.46053],[134.86416,35.45685],[134.86975,35.45146],[134.87152,35.44789],[134.87567,35.44737],[134.88501,35.45133],[134.90395,35.45429],[134.91,35.45423],[134.92073,35.45641],[134.92565,35.4559],[134.92671,35.45734],[134.92423,35.46223],[134.92543,35.46399],[134.93243,35.46404],[134.93542,35.46182],[134.93809,35.46179],[134.94162,35.46391],[134.94407,35.4643],[134.94884,35.47043],[134.95166,35.46588],[134.96163,35.46159],[134.96689,35.46034],[134.97254,35.45712],[134.98024,35.45634],[134.98188,35.45314],[134.99078,35.44868],[134.99703,35.44171],[134.99814,35.43874],[135.00037,35.43712],[135.00041,35.43083],[135.00492,35.42808],[135.00741,35.42368],[135.00764,35.42015],[135.00991,35.41733],[135.01388,35.41708],[135.02686,35.42232],[135.0308,35.42001],[135.03756,35.41791],[135.03909,35.41447],[135.03848,35.4],[135.0422,35.39469],[135.04132,35.38976],[135.04321,35.38599],[135.04279,35.38357],[135.0462,35.38099],[135.04509,35.37923],[135.04596,35.37219],[135.05055,35.36537],[135.05078,35.36178],[135.05392,35.3554],[135.05633,35.35451],[135.05707,35.35262],[135.06244,35.34997],[135.06342,35.34673],[135.06538,35.34588],[135.06634,35.34413],[135.0662,35.34168],[135.06863,35.34071],[135.06869,35.33873],[135.0717,35.33306]],[[134.82049,35.52811],[134.81587,35.52795],[134.81267,35.52645],[134.80893,35.52611],[134.80872,35.52955],[134.80778,35.53153],[134.81009,35.54458],[134.80466,35.5543]]]}}]}