{"type":"FeatureCollection","features":[{"type":"Feature","properties":{"route_id":"480","route_number":480,"name":"国道480号","source":"OpenStreetMap contributors (ODbL)","osm_relations":[8784852,10061970,10061971,10062065,10062137,10062200,10062274,10062292]},"geometry":{"type":"MultiLineString","coordinates":[[[135.42615,34.48352],[135.41963,34.48853],[135.42649,34.48317],[135.43605,34.4817],[135.44341,34.47877],[135.45263,34.47226],[135.46817,34.46472],[135.47408,34.45895],[135.47402,34.45358],[135.47309,34.45157],[135.47403,34.44686],[135.4781,34.44262],[135.47903,34.43813],[135.48371,34.4346],[135.48622,34.42982],[135.48959,34.42705],[135.48938,34.42444],[135.48714,34.4205],[135.48621,34.41686],[135.48464,34.41527],[135.48249,34.4151],[135.48128,34.41302],[135.47823,34.41081],[135.47524,34.41204],[135.47482,34.41053],[135.47143,34.40783],[135.47076,34.40417],[135.4715,34.39928],[135.46971,34.39513],[135.47132,34.3852],[135.46985,34.38186],[135.47002,34.37844],[135.46853,34.37589],[135.46877,34.36702],[135.47346,34.34026],[135.47647,34.33638],[135.48172,34.33308],[135.4809,34.32674],[135.48167,34.32158],[135.47514,34.31611],[135.46669,34.31125],[135.46542,34.3096],[135.46426,34.31014],[135.46376,34.30786],[135.45402,34.29658],[135.44973,34.28827],[135.44723,34.28555],[135.447,34.28403],[135.44813,34.28292],[135.4465,34.27795],[135.44913,34.2796],[135.45674,34.28081],[135.46195,34.28418],[135.47659,34.28768],[135.47713,34.28522],[135.48284,34.28632],[135.48132,34.27846],[135.47946,34.27691],[135.47774,34.27214],[135.48111,34.27112],[135.48146,34.26911],[135.48035,34.26684],[135.48259,34.26541],[135.48286,34.26132],[135.48412,34.26041],[135.48356,34.25932],[135.48622,34.25598],[135.48597,34.2527],[135.48674,34.25014],[135.48782,34.24887],[135.4881,34.2469],[135.4894,34.24624],[135.49148,34.24264],[135.4911,34.24052],[135.49387,34.23233],[135.49288,34.22868],[135.50134,34.22217],[135.5054,34.22094],[135.51337,34.22204],[135.52132,34.21675],[135.52473,34.21583],[135.52711,34.2164],[135.53006,34.21857],[135.53165,34.21651],[135.5338,34.21846],[135.53705,34.21939],[135.53665,34.21875],[135.53788,34.21811],[135.53789,34.21677],[135.53666,34.21707],[135.53652,34.21489],[135.53775,34.21376],[135.54055,34.21406],[135.54157,34.21353],[135.54119,34.2129],[135.54386,34.21262],[135.54212,34.21086],[135.54313,34.21067],[135.54299,34.20961],[135.54364,34.20948],[135.54508,34.21055],[135.54664,34.21017],[135.54643,34.21102],[135.54822,34.2113],[135.54848,34.21248],[135.54999,34.21241],[135.54935,34.2148],[135.55034,34.21717],[135.55396,34.21904],[135.55554,34.21895],[135.55603,34.22008],[135.55831,34.2213],[135.56039,34.22153],[135.56051,34.22074],[135.56243,34.22018],[135.56288,34.2193],[135.56683,34.21902],[135.56723,34.2179],[135.5658,34.21858],[135.56752,34.21839],[135.56697,34.21954],[135.56437,34.21911]],[[135.11451,34.08483],[135.132,34.08198],[135.13801,34.08363],[135.14549,34.08169],[135.1504,34.08177],[135.15966,34.0799],[135.16639,34.07707],[135.17879,34.07557],[135.18253,34.07319],[135.18888,34.07076],[135.19183,34.07139],[135.19585,34.07358],[135.19669,34.07478],[135.20743,34.07733],[135.21749,34.07741],[135.23076,34.07519],[135.23807,34.07324],[135.24406,34.07005],[135.24723,34.07039],[135.24706,34.06974],[135.24877,34.06829],[135.2544,34.0658],[135.25278,34.06378],[135.25743,34.05516],[135.25866,34.05436],[135.2633,34.05379],[135.26525,34.0521],[135.27026,34.05183],[135.27817,34.05463],[135.29536,34.05628],[135.30094,34.0576],[135.30807,34.05678],[135.3091,34.05149],[135.31192,34.04728],[135.3148,34.04826],[135.31411,34.05188],[135.31516,34.05277],[135.31886,34.05326],[135.32575,34.04946],[135.32748,34.05069],[135.33074,34.05543],[135.33352,34.05658],[135.33845,34.05609],[135.3412,34.05441],[135.3407,34.05291],[135.33603,34.04936],[135.33716,34.04696],[135.34328,34.0476],[135.3524,34.0501],[135.35538,34.05202],[135.35574,34.0536],[135.35315,34.05796],[135.35078,34.05966],[135.35072,34.06081],[135.35275,34.0619],[135.35681,34.06088],[135.35887,34.0625],[135.35796,34.06529],[135.35499,34.06929],[135.3578,34.07352],[135.35859,34.07619],[135.35769,34.0822],[135.35569,34.08433],[135.35733,34.08475],[135.35845,34.08608],[135.3621,34.08682],[135.36783,34.09206],[135.36832,34.09025],[135.37007,34.09072],[135.37378,34.09474],[135.37624,34.09497],[135.37872,34.09353],[135.38156,34.09522],[135.38359,34.09541],[135.3849,34.09355],[135.38682,34.09359],[135.38856,34.09256],[135.3915,34.0893],[135.39366,34.0914],[135.39277,34.09367],[135.3938,34.09511],[135.39608,34.09552],[135.39946,34.09774],[135.407,34.09536],[135.41084,34.09299],[135.4145,34.09249],[135.41953,34.09001],[135.42679,34.08852],[135.42752,34.08358],[135.42827,34.08278],[135.43236,34.08431],[135.43204,34.08935],[135.43298,34.09058],[135.43484,34.09108],[135.44042,34.08938],[135.44331,34.08679],[135.44579,34.08595],[135.4472,34.08767],[135.44695,34.09316],[135.44864,34.09506],[135.45502,34.09387],[135.45825,34.09531],[135.46067,34.09772],[135.46625,34.09699],[135.468,34.09754],[135.47087,34.10006],[135.47151,34.10211],[135.47471,34.10305],[135.47652,34.10571],[135.48047,34.10877],[135.48095,34.11021],[135.47959,34.11367],[135.48049,34.1152],[135.48289,34.11622],[135.4862,34.11627],[135.4877,34.11888],[135.49034,34.11951],[135.4946,34.12227],[135.49952,34.11988],[135.50115,34.12244],[135.50405,34.12329],[135.50408,34.12621],[135.50702,34.12738],[135.50801,34.12892],[135.51187,34.12999],[135.51498,34.12989],[135.51642,34.13253],[135.51602,34.13429],[135.51437,34.13596],[135.51565,34.13796],[135.51895,34.13781],[135.52217,34.13867],[135.52374,34.13526],[135.52315,34.13402],[135.5242,34.13191],[135.52519,34.13414],[135.5265,34.13482],[135.53071,34.13509],[135.53323,34.13416],[135.5361,34.13646],[135.53585,34.13851],[135.53658,34.13923],[135.53939,34.13765],[135.53952,34.13634],[135.54282,34.1368],[135.54371,34.13522],[135.54509,34.13479],[135.54566,34.13275],[135.5473,34.13334],[135.55012,34.13194],[135.55463,34.13229],[135.55605,34.13355],[135.55895,34.13193],[135.5599,34.13284],[135.5623,34.13317],[135.56209,34.13452],[135.56511,34.13651],[135.56617,34.13509],[135.57045,34.13433],[135.57025,34.13697],[135.56777,34.13838],[135.56884,34.13998],[135.56838,34.14286],[135.57118,34.14402],[135.57233,34.14707],[135.57372,34.14714],[135.57711,34.15137],[135.57277,34.14975],[135.56944,34.15001],[135.57309,34.15163],[135.57315,34.15476],[135.57523,34.15438],[135.57633,34.1555],[135.5757,34.15643],[135.57786,34.1567],[135.57746,34.16037],[135.57557,34.16141],[135.5787,34.16262],[135.58119,34.16642],[135.58028,34.16884],[135.57794,34.17011],[135.57968,34.1722],[135.57925,34.17376],[135.57269,34.17757],[135.5701,34.18158],[135.57012,34.18283],[135.56864,34.18337],[135.56703,34.18684],[135.56668,34.18835],[135.56749,34.1897],[135.56649,34.19218],[135.56775,34.19521],[135.56749,34.19646],[135.56897,34.19723],[135.56976,34.20128],[135.56678,34.20413],[135.56622,34.20652],[135.56672,34.20852],[135.56934,34.20901],[135.5726,34.21225],[135.57138,34.21438],[135.57107,34.2171],[135.5684,34.21677],[135.56723,34.2179]],[[135.41963,34.48853],[135.41942,34.48868]]]}}]}