{"type":"FeatureCollection","features":[{"type":"Feature","properties":{"route_id":"410","route_number":410,"name":"国道410号","source":"OpenStreetMap contributors (ODbL)","osm_relations":[9889614,9889615,9889616]},"geometry":{"type":"MultiLineString","coordinates":[[[139.86089,34.98531],[139.86231,34.98594],[139.86315,34.99318]],[[139.8735,34.99159],[139.87239,34.98585],[139.86949,34.97812],[139.8634,34.97197],[139.86379,34.96822],[139.86166,34.96729],[139.85785,34.96302],[139.8553,34.96223],[139.85406,34.95943],[139.85176,34.95893],[139.85114,34.9573],[139.84714,34.95453],[139.84403,34.95446],[139.83696,34.95114],[139.83458,34.94869],[139.83765,34.94226],[139.8399,34.94143],[139.84182,34.93846],[139.83659,34.92895],[139.82871,34.92158],[139.82593,34.91618],[139.82646,34.91378],[139.82573,34.91173],[139.82904,34.91092],[139.83213,34.90812],[139.83683,34.90683],[139.84464,34.90302],[139.84733,34.90458],[139.86495,34.90805],[139.86735,34.90744],[139.8686,34.90809],[139.87006,34.90553],[139.87208,34.90414],[139.88706,34.90375],[139.89298,34.9065],[139.89589,34.90564],[139.8986,34.90633],[139.90166,34.90505],[139.90678,34.9056],[139.90817,34.90772],[139.91116,34.90927],[139.9275,34.91312],[139.93184,34.91503],[139.9387,34.92112],[139.93984,34.92466],[139.94172,34.92721],[139.94463,34.929],[139.95052,34.93539],[139.95585,34.93915],[139.95732,34.9415],[139.96021,34.9431],[139.96266,34.94625],[139.963,34.9484],[139.95993,34.95233],[139.95928,34.95941],[139.95755,34.96343],[139.96288,34.97503],[139.9664,34.97888],[139.96732,34.98313],[139.9668,34.98966],[139.96874,34.99633],[139.9704,34.99913],[139.97041,35.00116],[139.96849,35.00202],[139.96969,35.00623],[139.9676,35.00728],[139.96602,35.01279],[139.96293,35.01446],[139.95693,35.01313],[139.95384,35.02201],[139.95489,35.02796],[139.95357,35.03663],[139.95594,35.03935],[139.95717,35.04853],[139.9565,35.0497],[139.95705,35.05566],[139.95629,35.05638],[139.95834,35.0617],[139.96169,35.0666],[139.95879,35.06941],[139.9589,35.07195],[139.96039,35.07373],[139.96629,35.07548],[139.96682,35.07783],[139.96829,35.07829],[139.96676,35.08281],[139.97016,35.0863],[139.97116,35.0899],[139.97319,35.09214],[139.98092,35.09682],[139.98687,35.09544],[139.98923,35.0956],[139.98881,35.09941],[139.99101,35.10464],[139.99213,35.10531],[139.99508,35.10509],[139.99711,35.10699],[140.00076,35.10763],[140.00285,35.10949],[140.00673,35.11121],[140.00787,35.11364],[140.00757,35.1162],[140.01312,35.12115],[140.01609,35.12699],[140.01533,35.13349],[140.01664,35.13601],[140.01591,35.13845],[140.01782,35.14366],[140.01301,35.14684],[140.01408,35.14891],[140.01112,35.14794],[140.00991,35.14871],[140.00993,35.15039],[140.01111,35.15195],[140.00937,35.15431],[140.01008,35.16117],[140.00836,35.16771],[140.00912,35.17407],[140.00725,35.17786],[140.00837,35.18238],[140.00772,35.1881],[140.01151,35.19022],[140.01575,35.19443],[140.02051,35.19675],[140.0204,35.19827],[140.02218,35.20114],[140.02147,35.20448],[140.02246,35.20664],[140.02513,35.20899],[140.02571,35.21121],[140.02454,35.21745],[140.02157,35.22197],[140.02152,35.22421],[140.0289,35.22731],[140.02959,35.22879],[140.0293,35.23287],[140.03379,35.23788],[140.03588,35.24309],[140.03803,35.24531],[140.03971,35.25233],[140.04336,35.25441],[140.04393,35.25673],[140.04536,35.25788],[140.04952,35.25746],[140.05168,35.25958],[140.05586,35.25826],[140.05841,35.2544],[140.05985,35.25541],[140.06219,35.25522],[140.06342,35.25974],[140.06293,35.26099]],[[139.97085,35.38831],[139.97397,35.38764],[139.98998,35.38844],[140.00136,35.3863],[140.00504,35.38468],[140.00678,35.38823]],[[140.0069,35.38818],[140.02062,35.38386],[140.02752,35.38412],[140.03729,35.38663],[140.04331,35.38613],[140.04971,35.38937],[140.05796,35.38773],[140.05141,35.37676],[140.05062,35.36675],[140.05476,35.35468],[140.05472,35.31566],[140.05608,35.31381],[140.06349,35.3094],[140.06338,35.30268],[140.06463,35.29782],[140.06242,35.29201],[140.05914,35.2889],[140.05905,35.28464],[140.05668,35.27579],[140.05244,35.26552],[140.04904,35.2621],[140.04767,35.25948],[140.04536,35.25788]],[[140.06233,35.2553],[140.0606,35.25238],[140.06281,35.25172],[140.06467,35.25243],[140.07145,35.25258],[140.07386,35.25088],[140.06561,35.25463],[140.06374,35.26036],[140.05858,35.26236],[140.05742,35.26731],[140.05914,35.26834],[140.06257,35.26717],[140.06479,35.26832],[140.06533,35.26958],[140.06327,35.27159],[140.06455,35.27357],[140.06724,35.27565],[140.07567,35.27833],[140.0798,35.28221],[140.08087,35.28476],[140.08286,35.28594],[140.08364,35.29137],[140.07924,35.29337],[140.07524,35.29854]],[[139.97006,35.39007],[139.96554,35.40352],[139.96309,35.407],[139.95719,35.41213]],[[139.95723,35.41219],[139.96146,35.40937],[139.96623,35.40305],[139.96929,35.39303],[139.97096,35.38989],[139.97095,35.38828]],[[139.9412,35.38678],[139.94809,35.39134],[139.95386,35.39271],[139.96186,35.39126],[139.9703,35.39109]],[[139.86335,34.97097],[139.86448,34.97363],[139.8691,34.9777],[139.87252,34.98665]],[[139.87363,34.99161],[139.87286,34.98906]],[[140.05659,35.38544],[140.05785,35.38777]]]}}]}