{"type":"FeatureCollection","features":[{"type":"Feature","properties":{"route_id":"346","route_number":346,"name":"国道346号","source":"OpenStreetMap contributors (ODbL)","osm_relations":[9167558,11158917,11158918,11158919,11160816]},"geometry":{"type":"MultiLineString","coordinates":[[[140.8714,38.26622],[140.87575,38.26714],[140.88426,38.26497],[140.89393,38.26447],[140.89807,38.26293],[140.91206,38.26748],[140.92285,38.2695],[140.94082,38.26862],[140.95564,38.27071],[140.95888,38.27184],[140.96473,38.27131],[140.98429,38.2798],[140.98995,38.28154],[140.99385,38.28398],[141.00286,38.28521],[141.00728,38.28759],[141.01658,38.30225],[141.01652,38.30461],[141.0179,38.30744],[141.0278,38.31606],[141.02799,38.31813],[141.02026,38.31672],[141.02123,38.32046],[141.02547,38.32407],[141.02951,38.3238],[141.03642,38.32626],[141.0385,38.33187],[141.03627,38.33918],[141.0376,38.34367],[141.04141,38.34789],[141.04131,38.34981],[141.04345,38.35139],[141.05621,38.3512],[141.06145,38.35467],[141.06242,38.35908],[141.06076,38.36168],[141.05943,38.36791],[141.06093,38.37005],[141.062,38.36967],[141.06586,38.37124],[141.06817,38.37564],[141.06744,38.38887],[141.06811,38.3912],[141.06708,38.39361],[141.06771,38.40006],[141.06799,38.3994]],[[141.10836,38.48148],[141.10347,38.47823],[141.09733,38.47878],[141.09644,38.47337],[141.09493,38.47113],[141.09411,38.46688],[141.08701,38.45993],[141.08656,38.45467],[141.10336,38.46284],[141.10584,38.46513],[141.10836,38.48148],[141.10762,38.48863],[141.10897,38.49076],[141.11395,38.49328],[141.11795,38.49898],[141.11986,38.50035],[141.11924,38.50398],[141.12219,38.51099],[141.12579,38.51419],[141.12876,38.51972],[141.13113,38.52702],[141.13136,38.53049],[141.1366,38.52949],[141.14859,38.53595],[141.14992,38.5374],[141.14993,38.54006],[141.14888,38.54212],[141.14119,38.54598],[141.14143,38.54987],[141.13631,38.55755],[141.13591,38.56398],[141.14,38.56818],[141.13955,38.57116],[141.14097,38.57355],[141.14408,38.57486],[141.14614,38.57809],[141.15318,38.58284],[141.15624,38.58676],[141.16157,38.58837],[141.16817,38.59696],[141.16913,38.59994],[141.17821,38.61404],[141.17907,38.61672],[141.19142,38.62951],[141.19489,38.62927],[141.19541,38.63002],[141.1994,38.62877],[141.20176,38.63087],[141.20268,38.63325],[141.20446,38.63366],[141.2049,38.6381],[141.20829,38.64314],[141.21048,38.64238],[141.21279,38.64637],[141.21715,38.64809],[141.21744,38.6505],[141.21214,38.65658],[141.2149,38.66122],[141.21502,38.66413],[141.21173,38.66938],[141.20966,38.67],[141.20845,38.67155],[141.20739,38.67484],[141.20871,38.67909],[141.2004,38.68567],[141.20499,38.68899],[141.2062,38.69105],[141.20638,38.69338],[141.25058,38.71831],[141.26277,38.7236],[141.27083,38.72382],[141.27506,38.7228],[141.29336,38.73311],[141.29867,38.73772],[141.30898,38.73948],[141.31762,38.74374],[141.32094,38.74986],[141.32667,38.75612],[141.32764,38.75827],[141.32682,38.75987],[141.32985,38.76195],[141.33688,38.77495],[141.33813,38.77602],[141.34433,38.77565],[141.34841,38.77783],[141.35314,38.77766],[141.35844,38.7804],[141.36831,38.78283],[141.37249,38.78264],[141.37659,38.78112],[141.38109,38.78202],[141.38506,38.78101],[141.38898,38.78207],[141.39204,38.78456],[141.40071,38.78486],[141.40787,38.78719],[141.41085,38.78628],[141.41482,38.78658],[141.41914,38.7839],[141.42546,38.78291],[141.42931,38.77841],[141.43891,38.7742],[141.44146,38.7738],[141.44415,38.77446],[141.44711,38.77767],[141.4553,38.77921],[141.4646,38.78314],[141.46928,38.78278],[141.47567,38.78358],[141.4819,38.78603],[141.48909,38.78561],[141.49467,38.7843],[141.50525,38.78946],[141.50449,38.79314],[141.50521,38.79393],[141.50704,38.79305],[141.5137,38.79367],[141.51696,38.79231],[141.51697,38.79148],[141.52366,38.79175],[141.52685,38.7929],[141.52914,38.79491],[141.53231,38.79541],[141.53576,38.79745],[141.54213,38.80328],[141.54579,38.80425],[141.55345,38.80819],[141.55872,38.81368],[141.56479,38.81439],[141.57134,38.81401],[141.57296,38.81473],[141.57301,38.82128],[141.57693,38.82775],[141.57899,38.8377],[141.58133,38.84405],[141.58039,38.8614],[141.57847,38.86991],[141.57585,38.87342],[141.57071,38.8754],[141.56826,38.87722],[141.56739,38.88302],[141.56641,38.88478],[141.55909,38.88827],[141.55395,38.89424],[141.55043,38.90023],[141.54769,38.90897],[141.5476,38.91129],[141.54918,38.91408]],[[141.06771,38.40006],[141.06643,38.40364],[141.06717,38.40626],[141.06376,38.40943],[141.06341,38.41478],[141.05947,38.41885],[141.05899,38.42046],[141.06058,38.42643],[141.06068,38.43071],[141.0658,38.43764],[141.06966,38.43734],[141.07175,38.43969],[141.07563,38.43986],[141.07952,38.442],[141.08107,38.45003],[141.08656,38.45467]],[[141.27108,38.72378],[141.27202,38.7299],[141.27416,38.73178],[141.281,38.73152],[141.28716,38.72958]],[[141.5476,38.91129],[141.54912,38.9141]],[[141.01637,38.30189],[141.008,38.2881],[141.00337,38.2853],[140.9941,38.28398],[140.98984,38.2814],[140.98417,38.27966],[140.9653,38.27136],[140.9586,38.27172],[140.95544,38.27058],[140.941,38.26856],[140.93502,38.26917]],[[140.87605,38.26661],[140.87148,38.26608]],[[141.51071,38.78193],[141.50726,38.78119],[141.50169,38.78137],[141.49467,38.7843]]]}}]}