{"type":"FeatureCollection","features":[{"type":"Feature","properties":{"route_id":"255","route_number":255,"name":"国道255号","source":"OpenStreetMap contributors (ODbL)","osm_relations":[3639021]},"geometry":{"type":"MultiLineString","coordinates":[[[139.20129,35.37358],[139.19497,35.37157],[139.18219,35.37688],[139.17449,35.37858],[139.16971,35.37817],[139.1635,35.37355],[139.16206,35.36765],[139.15873,35.36371],[139.15815,35.3608],[139.15949,35.35831],[139.15783,35.3571],[139.15738,35.35533],[139.15422,35.3545],[139.14974,35.35111],[139.1485,35.34838],[139.14593,35.34787],[139.14649,35.346],[139.15215,35.33852],[139.15763,35.32835],[139.15946,35.31817],[139.16626,35.30449],[139.1677,35.28981],[139.16988,35.2861],[139.16934,35.27981],[139.16144,35.27302],[139.15865,35.27159],[139.16034,35.26295],[139.16027,35.26062],[139.15961,35.26045],[139.15977,35.25399],[139.15863,35.25398],[139.15931,35.25059]],[[139.1485,35.34838],[139.14609,35.34787],[139.14658,35.34587]],[[139.1489,35.3428],[139.15199,35.33874]]]}}]}