{"type":"FeatureCollection","features":[{"type":"Feature","properties":{"route_id":"304","route_number":304,"name":"国道304号","source":"OpenStreetMap contributors (ODbL)","osm_relations":[8901184]},"geometry":{"type":"MultiLineString","coordinates":[[[136.67931,36.56229],[136.67775,36.56541],[136.6782,36.56839],[136.6802,36.57073],[136.68595,36.57428],[136.68772,36.5798],[136.68785,36.5843],[136.6853,36.59006],[136.68598,36.59336],[136.68816,36.59568],[136.69485,36.5986],[136.699,36.60138],[136.70225,36.60514],[136.70205,36.60679],[136.70323,36.60645],[136.70319,36.60442],[136.70415,36.60618],[136.70327,36.60473],[136.70454,36.60354],[136.70441,36.60411],[136.70217,36.60426],[136.69726,36.59957],[136.68911,36.59583],[136.68661,36.59357],[136.68578,36.58982],[136.68836,36.58329],[136.68695,36.57578],[136.68552,36.57348],[136.67889,36.56886],[136.67809,36.5657],[136.67959,36.56246],[136.67756,36.56078],[136.67233,36.56315],[136.66782,36.56376],[136.66339,36.56559],[136.66316,36.56672],[136.66443,36.56739],[136.66389,36.57098],[136.65585,36.57208]],[[136.94931,36.43327],[136.9482,36.4337],[136.94345,36.43002],[136.94073,36.42999],[136.93892,36.42703],[136.93886,36.43122],[136.94208,36.43212],[136.94507,36.43435],[136.94307,36.435],[136.94152,36.43737],[136.94416,36.4395],[136.94068,36.43927],[136.93326,36.44548],[136.93024,36.44571],[136.90729,36.46406],[136.89776,36.46615],[136.89886,36.46872],[136.89651,36.46974],[136.89366,36.47306],[136.89447,36.47599],[136.89579,36.47671],[136.89542,36.47843],[136.89354,36.47944],[136.89357,36.48117],[136.89644,36.48309],[136.90013,36.48737],[136.89537,36.49343],[136.89857,36.50665],[136.90441,36.51944],[136.89752,36.52489],[136.8894,36.52896],[136.88207,36.54043],[136.87514,36.54504],[136.87433,36.55242],[136.87665,36.55866],[136.86721,36.56163],[136.85682,36.57329],[136.85206,36.57457],[136.84919,36.57713],[136.84648,36.58184],[136.83791,36.58642],[136.83446,36.58931],[136.81981,36.5933],[136.81054,36.5917],[136.80211,36.59541],[136.79582,36.5932],[136.79351,36.59052],[136.78755,36.5889],[136.78318,36.59185],[136.77745,36.59219],[136.77414,36.59656],[136.77241,36.59703],[136.769,36.59514],[136.76257,36.59495],[136.75749,36.59168],[136.75326,36.59213],[136.75061,36.5915],[136.74832,36.59249],[136.74358,36.59667],[136.73454,36.59715],[136.73043,36.59887],[136.7269,36.60166],[136.72372,36.60227],[136.72175,36.6036],[136.71881,36.60359],[136.71263,36.6053],[136.70616,36.60415],[136.70341,36.60554]]]}}]}