{"type":"FeatureCollection","features":[{"type":"Feature","properties":{"route_id":"195","route_number":195,"name":"国道195号","source":"OpenStreetMap contributors (ODbL)","osm_relations":[12582,2821835,9424975,9424977,9424978,9813973]},"geometry":{"type":"MultiLineString","coordinates":[[[134.55719,34.06653],[134.55216,34.04999],[134.55214,34.03095],[134.55254,34.0284],[134.5582,34.01767],[134.56358,34.01367],[134.57106,34.00492],[134.5841,33.9939],[134.59344,33.98349],[134.60378,33.97773],[134.62654,33.97546],[134.65436,33.96676],[134.65975,33.96264],[134.67427,33.94423],[134.67548,33.94032],[134.67524,33.93029],[134.67829,33.92312],[134.67429,33.8961],[134.67258,33.89387],[134.67048,33.89277],[134.65817,33.88999],[134.65277,33.88781]],[[134.30428,33.79626],[134.30731,33.79599],[134.31094,33.79282],[134.31282,33.79276],[134.31423,33.79366],[134.31512,33.79765],[134.3189,33.80133],[134.32181,33.80221],[134.32494,33.79957],[134.32813,33.79935],[134.33028,33.80103],[134.32916,33.80484],[134.33376,33.80459],[134.34624,33.80761],[134.34881,33.8087],[134.34948,33.80988],[134.35114,33.80921],[134.358,33.80995],[134.36011,33.8121],[134.36106,33.81136],[134.36083,33.80924],[134.36257,33.80823],[134.3634,33.80452],[134.3679,33.80243],[134.37079,33.8031],[134.37299,33.80709],[134.37577,33.80832],[134.37844,33.80669],[134.38019,33.80098],[134.38296,33.80145],[134.38579,33.80455],[134.3898,33.80545],[134.39916,33.80271],[134.40186,33.80086],[134.40402,33.79782],[134.40358,33.79556],[134.40072,33.79351],[134.401,33.79269],[134.40603,33.79371],[134.40864,33.79763],[134.41157,33.79904],[134.41757,33.79922],[134.42253,33.79663],[134.42572,33.79635],[134.43236,33.79949],[134.4337,33.79906],[134.43636,33.79563],[134.44033,33.79325],[134.44154,33.79034],[134.44235,33.79],[134.44421,33.79294],[134.44563,33.79754],[134.44819,33.79969],[134.45912,33.80046],[134.46461,33.79925],[134.46784,33.80107],[134.47435,33.8096],[134.47581,33.81202],[134.47591,33.8139],[134.47735,33.81562],[134.48394,33.81803],[134.48375,33.81933],[134.47992,33.82051],[134.48019,33.82263],[134.48491,33.82334],[134.48421,33.82638],[134.48868,33.82741],[134.4897,33.82943],[134.48884,33.83106],[134.48381,33.8327],[134.48182,33.83489],[134.482,33.83862],[134.48368,33.84032],[134.4869,33.84154],[134.49276,33.84032],[134.49458,33.84074],[134.49519,33.84179],[134.49354,33.84381],[134.48157,33.84889],[134.48048,33.85018],[134.48038,33.8522],[134.48268,33.85444],[134.48326,33.85631],[134.48676,33.85855],[134.49647,33.85777],[134.50126,33.85634],[134.51351,33.85492],[134.5152,33.85748],[134.51676,33.85841],[134.51876,33.85876],[134.52169,33.85744],[134.5245,33.85784],[134.53041,33.85973],[134.53286,33.86162],[134.53992,33.86439],[134.55068,33.86644],[134.55586,33.86999],[134.56057,33.86932],[134.56306,33.87017],[134.56707,33.87564],[134.56908,33.87464],[134.57189,33.87464],[134.57387,33.87061],[134.58258,33.87253],[134.58511,33.87216],[134.58982,33.87357],[134.59713,33.87015],[134.59951,33.86978],[134.60516,33.87126],[134.60978,33.87521],[134.62378,33.88089],[134.62536,33.88032],[134.6284,33.87549],[134.63455,33.87538],[134.63843,33.87212],[134.64106,33.87231],[134.65243,33.88062],[134.65276,33.8879],[134.65869,33.89024],[134.67042,33.89286],[134.67312,33.89453],[134.67456,33.89741],[134.67816,33.92318],[134.67517,33.93002],[134.67534,33.94072],[134.67343,33.94536],[134.65969,33.9626],[134.65378,33.96692],[134.62689,33.97528],[134.60359,33.97767],[134.59552,33.98195],[134.59126,33.98502],[134.58356,33.99428],[134.57094,34.00491],[134.56346,34.01362],[134.55828,34.01736],[134.5525,34.02825],[134.55203,34.03096],[134.55199,34.04969],[134.55703,34.06655]],[[133.53221,33.55819],[133.54143,33.55975],[133.56762,33.55752],[133.54129,33.55962],[133.53223,33.55804]],[[133.56762,33.55752],[133.57006,33.55736],[133.57661,33.55937],[133.58258,33.55969],[133.59343,33.56674],[133.59781,33.56733],[133.60072,33.57197],[133.60504,33.57421],[133.6087,33.57413],[133.61206,33.57512],[133.61726,33.57451],[133.6299,33.57725],[133.64396,33.57566],[133.64631,33.57924],[133.64849,33.57966],[133.67357,33.60129],[133.68708,33.60493],[133.69495,33.60789],[133.70394,33.60941],[133.70777,33.61095],[133.71331,33.61516],[133.71471,33.61545],[133.71772,33.6223],[133.72212,33.62845],[133.72114,33.63109],[133.72153,33.63314],[133.72289,33.63478],[133.72636,33.6367],[133.73711,33.63879],[133.74121,33.64061],[133.75003,33.64105],[133.7602,33.6439],[133.7645,33.64398],[133.7717,33.64644],[133.78369,33.64886],[133.79453,33.65437],[133.8153,33.65986],[133.82403,33.66519],[133.82723,33.66952],[133.8317,33.67071],[133.83249,33.67263],[133.84117,33.67982],[133.84732,33.68712],[133.84967,33.68696],[133.85141,33.68429],[133.85385,33.68308],[133.86096,33.68432],[133.86517,33.68934],[133.86928,33.69155],[133.87468,33.69593],[133.87619,33.69559],[133.87659,33.69439],[133.87818,33.69365],[133.88257,33.69293],[133.88419,33.69474],[133.8823,33.69744],[133.88323,33.69973],[133.89197,33.70174],[133.89542,33.70087],[133.90161,33.70282],[133.90319,33.70429],[133.90263,33.70562],[133.90357,33.70986],[133.90585,33.71188],[133.90845,33.71251],[133.9108,33.71103],[133.91237,33.71218],[133.91742,33.71338],[133.91827,33.71614],[133.91977,33.71659],[133.92385,33.71475],[133.92564,33.71522],[133.92765,33.71616],[133.93122,33.72113],[133.93923,33.71941],[133.93974,33.7208],[133.94441,33.72314],[133.94644,33.72375],[133.94852,33.72327],[133.95005,33.72501],[133.95338,33.72634],[133.95431,33.7282],[133.95337,33.72987],[133.9557,33.73193],[133.96244,33.73087],[133.96429,33.72957],[133.96507,33.7309],[133.96761,33.73207],[133.96646,33.73498],[133.96853,33.73589],[133.97199,33.73662],[133.97488,33.73386],[133.97661,33.73353],[133.98021,33.73473],[133.98184,33.73654],[133.98425,33.73664],[133.98595,33.73849],[133.9911,33.73919],[133.99893,33.74522],[134.00172,33.74358],[134.00508,33.74299],[134.0082,33.74529],[134.02145,33.75166],[134.02361,33.75397],[134.02538,33.75422],[134.02632,33.75686],[134.02851,33.75753],[134.02755,33.76089],[134.02996,33.76233],[134.03257,33.76181],[134.03522,33.76263],[134.03546,33.76369],[134.03425,33.76549],[134.0357,33.76681],[134.03418,33.76771],[134.03621,33.76701],[134.03606,33.76573],[134.03837,33.76527],[134.04079,33.76642],[134.04112,33.76532],[134.04425,33.76437],[134.04687,33.76494],[134.04813,33.76623],[134.06879,33.76943],[134.07182,33.76912],[134.07336,33.7699],[134.07741,33.7688],[134.0788,33.77057],[134.08452,33.77153],[134.08058,33.77511],[134.08105,33.77558],[134.08378,33.77292],[134.08588,33.7725],[134.08721,33.76992],[134.08984,33.76947],[134.0912,33.76989],[134.09195,33.7715],[134.09513,33.77116],[134.10067,33.77291],[134.10316,33.77293],[134.10474,33.77578],[134.10938,33.77631],[134.1137,33.77437],[134.11735,33.77377],[134.1225,33.77504],[134.126,33.77392],[134.13184,33.77444],[134.13621,33.7731],[134.13844,33.77444],[134.14137,33.77362],[134.14374,33.77166],[134.14999,33.77286],[134.15331,33.77112],[134.15377,33.7699],[134.15652,33.7702],[134.15596,33.76824],[134.15736,33.76788],[134.15784,33.76906],[134.15917,33.76955],[134.16335,33.7675],[134.16556,33.77046],[134.16531,33.77224],[134.16856,33.77391],[134.17933,33.77575],[134.18277,33.77559],[134.18728,33.77437],[134.19369,33.77427],[134.19768,33.76982],[134.20051,33.76812],[134.20155,33.76882],[134.20213,33.77227],[134.20545,33.7746],[134.20582,33.7769],[134.20506,33.77952],[134.20746,33.78198],[134.2078,33.78823],[134.21023,33.79162],[134.21454,33.79189],[134.21765,33.79023],[134.22183,33.79132],[134.22645,33.78972],[134.23456,33.79102],[134.23706,33.79311],[134.23604,33.79594],[134.23841,33.798],[134.23844,33.80292],[134.24145,33.80782],[134.24732,33.80797],[134.25041,33.81088],[134.25496,33.80986],[134.25864,33.81152],[134.26571,33.81159],[134.26863,33.8096],[134.27129,33.81117],[134.27159,33.81328],[134.27344,33.81492],[134.27623,33.81464],[134.27805,33.81332],[134.27815,33.81221],[134.28382,33.80987],[134.28815,33.80546],[134.29234,33.80591],[134.29454,33.80492],[134.29566,33.80348],[134.29459,33.80199],[134.29513,33.7997],[134.30008,33.79814],[134.30098,33.7966],[134.30305,33.79622]],[[133.57885,33.57502],[133.58651,33.5783],[133.60021,33.58028],[133.60957,33.5837],[133.61975,33.58163],[133.6283,33.58101],[133.6366,33.58527],[133.65524,33.58933],[133.65795,33.59122],[133.66828,33.60219],[133.67524,33.60694],[133.66843,33.60218],[133.65563,33.58938],[133.63662,33.58518],[133.62788,33.58089],[133.60898,33.58353],[133.60019,33.58019],[133.58651,33.57824],[133.57647,33.5736],[133.5658,33.57153]],[[134.14365,33.77167],[134.14516,33.77093],[134.14686,33.77229]],[[133.56591,33.57157],[133.56999,33.5725]],[[133.6429,33.57589],[133.64397,33.57574]]]}}]}