{"type":"FeatureCollection","features":[{"type":"Feature","properties":{"route_id":"34","route_number":34,"name":"国道34号","source":"OpenStreetMap contributors (ODbL)","osm_relations":[2829210,2829245,2829246,9069720,9069723]},"geometry":{"type":"MultiLineString","coordinates":[[[129.9467,32.7603],[129.94181,32.76036],[129.93958,32.76117],[129.93617,32.76488],[129.93574,32.76175],[129.93128,32.759],[129.9169,32.75909],[129.90584,32.75318],[129.89582,32.75041],[129.89195,32.75203],[129.88312,32.75265],[129.87685,32.74947],[129.8741,32.74512],[129.87673,32.74949],[129.88326,32.75277],[129.89211,32.75213],[129.89587,32.75052],[129.9058,32.75326],[129.90854,32.7555],[129.91282,32.75665],[129.91689,32.7594],[129.93124,32.7591],[129.93557,32.76172],[129.93614,32.76499],[129.93964,32.76125],[129.94184,32.76045],[129.9467,32.7603],[129.94787,32.76172],[129.94821,32.76638],[129.95123,32.77283],[129.95229,32.77804],[129.94761,32.78666],[129.94731,32.78878],[129.94888,32.79073],[129.95126,32.79202],[129.9557,32.79829],[129.96229,32.80071],[129.96327,32.80467],[129.96634,32.80932],[129.96636,32.81698],[129.97649,32.82528],[129.9837,32.82908],[129.98873,32.83045],[129.99752,32.82911],[129.99979,32.83047],[130.00582,32.83693],[130.01913,32.83763],[130.02663,32.84092],[130.02835,32.8461],[130.02909,32.85254],[130.02779,32.86219],[130.02815,32.86631],[130.02218,32.87864],[130.01765,32.8824],[130.00998,32.8841],[130.00383,32.88699],[129.9889,32.88859],[129.97734,32.89215],[129.97047,32.89084],[129.96804,32.89495],[129.96298,32.89517],[129.96122,32.89623],[129.95908,32.90009],[129.95702,32.9064],[129.95477,32.90871],[129.95692,32.90633],[129.95894,32.9001],[129.96149,32.89583],[129.96284,32.8951],[129.96792,32.89489],[129.9706,32.89069],[129.9748,32.89167]],[[130.52911,33.39792],[130.52603,33.39532],[130.5207,33.39412],[130.5177,33.39227],[130.50814,33.38102],[130.50436,33.36691],[130.49442,33.35997],[130.49008,33.35809],[130.46385,33.35152],[130.45656,33.34731],[130.43849,33.34219],[130.42907,33.33814],[130.41904,33.33623],[130.41584,33.33444],[130.40804,33.32666],[130.38284,33.31882],[130.37167,33.3105],[130.36867,33.30415],[130.33559,33.27393],[130.30975,33.2772],[130.28932,33.27345],[130.26772,33.27145],[130.25651,33.26673],[130.20289,33.25782],[130.19975,33.25534],[130.19867,33.25006],[130.1977,33.24869],[130.19173,33.24659],[130.18596,33.24302],[130.18317,33.23782],[130.17929,33.22689],[130.1728,33.22274],[130.17063,33.21928],[130.1679,33.21804],[130.15876,33.21735],[130.14965,33.22089],[130.12138,33.21277],[130.10314,33.21286],[130.08404,33.21673],[130.079,33.21706],[130.07276,33.22045],[130.0553,33.22039],[130.05264,33.2192],[130.05055,33.21545],[130.05146,33.2142],[130.05571,33.2173],[130.06147,33.21816]],[[130.15689,33.21783],[130.16042,33.21736],[130.16854,33.21831],[130.17081,33.21963],[130.17269,33.22277],[130.17867,33.22638],[130.18331,33.23848],[130.18587,33.24308],[130.19162,33.24664],[130.19776,33.24888],[130.1996,33.25528],[130.20291,33.25791],[130.25665,33.26684],[130.26775,33.27154],[130.28945,33.27354],[130.31015,33.27735],[130.33481,33.27385],[130.34127,33.27892]],[[130.01096,33.19013],[130.0251,33.19244],[130.03333,33.19758],[130.02517,33.19234],[130.01096,33.19013],[130.01716,33.17912],[130.01752,33.17091],[130.01862,33.16871],[130.01655,33.16738],[130.00818,33.16593],[130.00138,33.16215],[129.98961,33.14115],[129.98787,33.13513],[129.99111,33.13074],[129.99619,33.12721],[129.99769,33.12345],[130.00043,33.12044],[130.00177,33.11662],[130.00044,33.11036],[129.99152,33.10165],[129.98073,33.09672],[129.97716,33.09401],[129.97561,33.09051],[129.97556,33.08759],[129.97127,33.08137],[129.96112,33.07329],[129.96144,33.07113],[129.96348,33.06813],[129.96017,33.0647],[129.9594,33.06134],[129.95509,33.06102],[129.95101,33.05929],[129.94872,33.06006],[129.94895,33.05708],[129.94574,33.05639],[129.94371,33.0545],[129.94299,33.05238],[129.94118,33.05304],[129.93784,33.0525],[129.93726,33.05508],[129.93553,33.05567],[129.93381,33.05421],[129.92844,33.05223],[129.92038,33.04442],[129.92206,33.03786],[129.92643,33.03057],[129.92917,33.02812],[129.93875,33.02396],[129.94106,33.01904],[129.94681,33.01469],[129.94477,33.01024],[129.94875,33.00477],[129.94794,33.00237],[129.94552,33.00115],[129.94523,32.99965],[129.94847,32.99625],[129.94895,32.99221],[129.95114,32.98916],[129.9514,32.98717],[129.95068,32.98541],[129.9478,32.98377],[129.94666,32.98221],[129.9464,32.97871],[129.94714,32.97592],[129.94455,32.97369],[129.94315,32.97104],[129.9442,32.96246],[129.9425,32.95912],[129.94523,32.9487],[129.94681,32.93875],[129.9512,32.92849],[129.94893,32.92317],[129.95052,32.91342],[129.95477,32.90871]],[[130.05146,33.2142],[130.04655,33.20639],[130.03333,33.19758]],[[129.89114,32.76869],[129.89089,32.77111],[129.88127,32.79035],[129.88207,32.79299],[129.8883,32.79818],[129.88814,32.80059]],[[129.88808,32.80159],[129.88844,32.79824],[129.88393,32.79453]],[[129.89116,32.76991],[129.89121,32.76869]],[[130.02916,32.85552],[130.02842,32.84609],[130.0262,32.84042],[130.01916,32.8375],[130.00585,32.83685],[129.99787,32.82911],[129.98845,32.83036],[129.98326,32.82879],[129.9765,32.82515],[129.96805,32.81793],[129.96644,32.81615],[129.96609,32.81371]]]}}]}