{"type":"FeatureCollection","features":[{"type":"Feature","properties":{"route_id":"422","route_number":422,"name":"国道422号","source":"OpenStreetMap contributors (ODbL)","osm_relations":[8346063,10109720,10110204]},"geometry":{"type":"MultiLineString","coordinates":[[[135.90533,34.97798],[135.9047,34.97842],[135.90524,34.97455],[135.90366,34.96729],[135.9049,34.96378],[135.90905,34.96056],[135.90999,34.95793],[135.91073,34.94764],[135.90794,34.9431],[135.90934,34.94177],[135.90916,34.93683],[135.91251,34.93472],[135.91412,34.93226],[135.91712,34.93143],[135.92294,34.92714],[135.92396,34.9248],[135.92429,34.91862],[135.92909,34.91435],[135.92995,34.91198],[135.93164,34.91213],[135.93302,34.91127],[135.93467,34.90663],[135.93585,34.90606],[135.93951,34.90737],[135.94411,34.90554],[135.9459,34.90613],[135.94753,34.90538],[135.95021,34.90237],[135.95046,34.90114],[135.94947,34.89928],[135.95014,34.89238],[135.95314,34.8851],[135.95372,34.88005],[135.95689,34.87799],[135.95817,34.87368],[135.95965,34.87267],[135.96593,34.87357],[135.96998,34.87209],[135.97044,34.87057],[135.96848,34.86727],[135.96961,34.8629],[135.96835,34.86213],[135.96838,34.86121],[135.9711,34.85994],[135.97241,34.85654],[135.97658,34.85297],[135.98131,34.85156],[135.99568,34.85484],[136.0048,34.8557],[136.01466,34.85528],[136.02003,34.85624],[136.02613,34.85946],[136.02791,34.86162],[136.03532,34.8663],[136.03931,34.8677],[136.0409,34.86649],[136.04532,34.86531],[136.04947,34.86527],[136.05463,34.86267],[136.05768,34.86001],[136.06654,34.85851],[136.06918,34.85524],[136.07761,34.85222],[136.0845,34.85154],[136.08761,34.85199],[136.10633,34.84729],[136.10843,34.84596],[136.11282,34.84625],[136.1139,34.84456],[136.11562,34.8438],[136.12524,34.84305],[136.125,34.84184],[136.12751,34.84017],[136.12525,34.83466],[136.12069,34.83106],[136.12159,34.83074],[136.11996,34.82847],[136.11659,34.82654],[136.1165,34.82313],[136.11262,34.82201],[136.1157,34.81899],[136.12112,34.81651],[136.12582,34.80911],[136.13172,34.80334],[136.13197,34.80145],[136.12926,34.79953],[136.12906,34.79825],[136.13051,34.79728],[136.13418,34.7973],[136.13557,34.79248],[136.13426,34.79025],[136.12386,34.78674],[136.12306,34.76616],[136.1239,34.75664],[136.13251,34.75764],[136.13356,34.74871],[136.13841,34.74556],[136.1395,34.744],[136.13889,34.73917],[136.13956,34.73709],[136.1402,34.73617],[136.14263,34.73597],[136.14405,34.73495],[136.15025,34.72304],[136.15381,34.71121],[136.1538,34.70828],[136.15714,34.70348],[136.15688,34.7015],[136.15851,34.69613],[136.15786,34.69415],[136.15476,34.69185],[136.15139,34.68713],[136.15185,34.68282],[136.15343,34.67968],[136.15671,34.67582],[136.1613,34.67515],[136.16116,34.67259],[136.16457,34.67205],[136.16695,34.67282],[136.17083,34.67121],[136.17138,34.66994],[136.1705,34.66834],[136.17074,34.66709],[136.16438,34.6657],[136.16462,34.66136],[136.16391,34.65936],[136.16173,34.6571],[136.16083,34.65229],[136.15208,34.64553],[136.1495,34.64578],[136.14731,34.64868],[136.1394,34.64882],[136.13121,34.64413],[136.12385,34.64239],[136.11756,34.63625],[136.12342,34.63217],[136.12731,34.62833],[136.1351,34.62571],[136.13888,34.62143],[136.14221,34.61986],[136.14442,34.61759],[136.15035,34.61749],[136.15419,34.61625],[136.16366,34.61668],[136.16617,34.61462],[136.17139,34.61459],[136.17625,34.6117],[136.17485,34.60807],[136.1753,34.60512],[136.17111,34.60441],[136.16706,34.60083],[136.17051,34.59721],[136.16932,34.59433],[136.17187,34.58841],[136.1708,34.58174],[136.1724,34.57993],[136.17226,34.57826],[136.17299,34.57759],[136.17601,34.57779],[136.17906,34.57556],[136.18451,34.56759],[136.1844,34.56659],[136.18209,34.56504],[136.18517,34.56338],[136.18861,34.55901],[136.18914,34.55684],[136.19125,34.5568],[136.19256,34.5557],[136.1923,34.54955],[136.19477,34.54537],[136.19346,34.54326],[136.19357,34.54034],[136.19559,34.5341],[136.19332,34.53113],[136.19126,34.52993],[136.19034,34.52683],[136.19325,34.52224],[136.19455,34.51789],[136.20088,34.51547],[136.20403,34.51741],[136.20698,34.51787],[136.20836,34.51667],[136.2112,34.51593],[136.21313,34.5139],[136.22481,34.51236],[136.23328,34.5137],[136.23853,34.51267],[136.24298,34.51441],[136.2459,34.51186],[136.2507,34.51277],[136.25546,34.51121],[136.2618,34.51291],[136.26604,34.5111],[136.27215,34.51301],[136.29282,34.51031],[136.29833,34.51197],[136.30428,34.51181],[136.306,34.5092],[136.30657,34.50652],[136.30436,34.50241],[136.30607,34.50059],[136.3029,34.49729],[136.30476,34.49434],[136.30466,34.49171],[136.30376,34.49064],[136.30162,34.48154],[136.29952,34.47937],[136.29875,34.47518],[136.29906,34.47218],[136.30015,34.47056],[136.29988,34.46787],[136.30206,34.46514]],[[136.21919,34.29861],[136.2237,34.30064],[136.23044,34.30116],[136.23235,34.3023],[136.23204,34.30674],[136.23272,34.30863],[136.23806,34.31471],[136.23662,34.31677],[136.24109,34.31951],[136.23655,34.32176],[136.23508,34.32394],[136.23678,34.32973],[136.24517,34.33076],[136.24751,34.3322],[136.25294,34.33272],[136.25725,34.33223],[136.25922,34.33073],[136.2607,34.33068],[136.26177,34.33119],[136.26549,34.33657],[136.26847,34.3376],[136.27303,34.33644],[136.27531,34.33723],[136.27767,34.34022],[136.28467,34.3439],[136.2903,34.34831],[136.29632,34.35161],[136.29762,34.35429],[136.30038,34.35576],[136.30351,34.35912],[136.30509,34.3623],[136.31075,34.36531],[136.30795,34.36616],[136.30636,34.37221],[136.304,34.37294],[136.30313,34.37414],[136.30118,34.37325],[136.3,34.37381],[136.30055,34.37587],[136.30296,34.37657],[136.30422,34.3788],[136.30285,34.3809],[136.30334,34.38354],[136.29944,34.38725],[136.29786,34.3865],[136.2954,34.38713],[136.29131,34.38656],[136.28968,34.38909],[136.28528,34.39196],[136.28121,34.39134],[136.27698,34.39182],[136.27679,34.39271],[136.27483,34.39304],[136.27114,34.39543],[136.27019,34.39532],[136.27005,34.39452],[136.26801,34.39539],[136.2673,34.39405],[136.26453,34.39322],[136.26152,34.39359],[136.26086,34.3943],[136.26179,34.3961],[136.25945,34.39835],[136.25827,34.39834],[136.25837,34.39948],[136.25989,34.40004],[136.25771,34.40082],[136.25818,34.40183],[136.25694,34.40127],[136.25447,34.40212],[136.25164,34.40131],[136.24984,34.40242],[136.2488,34.4019],[136.24748,34.40278],[136.24592,34.40213],[136.24458,34.40308],[136.24077,34.40212],[136.24012,34.40327],[136.24064,34.40565],[136.23881,34.40693],[136.23886,34.40797],[136.23353,34.40935],[136.23377,34.4111],[136.2357,34.41131],[136.23669,34.41319],[136.23614,34.41665],[136.23684,34.4184],[136.24509,34.42318],[136.24883,34.42257],[136.25088,34.42018],[136.25313,34.41973]],[[136.25377,34.41967],[136.26085,34.42334],[136.26465,34.42058],[136.27076,34.41803],[136.27316,34.41884],[136.2775,34.42233],[136.28193,34.42062],[136.28975,34.42045],[136.29561,34.42299],[136.30393,34.43043],[136.30662,34.43147],[136.30974,34.43126],[136.31305,34.43214],[136.31391,34.43333],[136.31084,34.43305],[136.30653,34.43428],[136.30489,34.43639],[136.30116,34.43755],[136.30014,34.44195],[136.29873,34.44297],[136.2996,34.4456],[136.29857,34.44761],[136.29853,34.45085]],[[136.21918,34.29859],[136.22313,34.29322],[136.22568,34.29403],[136.23439,34.28846],[136.23817,34.28391],[136.23853,34.28112],[136.23701,34.27906],[136.23943,34.27676],[136.23984,34.27452],[136.24265,34.27361],[136.24371,34.27121],[136.24748,34.26985],[136.24982,34.27058],[136.25124,34.27005],[136.2522,34.2717],[136.25438,34.27196],[136.25536,34.27331]],[[136.32712,34.21854],[136.32285,34.22151],[136.31992,34.22154],[136.3171,34.21989]],[[136.31705,34.21987],[136.31409,34.22235],[136.31144,34.22105],[136.31417,34.21718],[136.31451,34.21543],[136.31384,34.21427],[136.31238,34.21388],[136.31272,34.21253],[136.3118,34.2114],[136.30962,34.21096],[136.30487,34.21224],[136.30039,34.21572],[136.30039,34.22064],[136.29881,34.22172],[136.29375,34.2226],[136.2917,34.22449],[136.29078,34.22735],[136.2909,34.23304],[136.28883,34.2357],[136.28583,34.23662],[136.27936,34.23563],[136.2738,34.23991]],[[136.33435,34.21172],[136.33223,34.21346],[136.33054,34.21623],[136.32714,34.21846]],[[135.92515,34.91749],[135.92592,34.91682]]]}}]}