{"type":"FeatureCollection","features":[{"type":"Feature","properties":{"route_id":"237","route_number":237,"name":"国道237号","source":"OpenStreetMap contributors (ODbL)","osm_relations":[2883869,10217554]},"geometry":{"type":"MultiLineString","coordinates":[[[142.35187,43.77153],[142.34736,43.76345],[142.34425,43.76163],[142.35524,43.75297],[142.35799,43.74796],[142.35829,43.74352],[142.37253,43.71856],[142.35818,43.74347],[142.35786,43.74804],[142.35511,43.75292],[142.34425,43.76163]],[[142.37253,43.71856],[142.40152,43.66786],[142.40418,43.66668],[142.42276,43.66499],[142.43004,43.66205],[142.44342,43.65313],[142.45831,43.63266],[142.46429,43.6284],[142.46967,43.62105],[142.47609,43.61732],[142.47745,43.61385],[142.47587,43.60994],[142.46954,43.60557],[142.4656,43.59891],[142.45034,43.58853],[142.44572,43.58713],[142.44257,43.58464],[142.43737,43.58329],[142.43925,43.57749],[142.43939,43.57428],[142.43445,43.56465],[142.43518,43.56139],[142.43466,43.55716],[142.43923,43.55125],[142.43849,43.54475],[142.43933,43.53754],[142.44059,43.53555],[142.44084,43.53319],[142.44449,43.52965],[142.44793,43.52108],[142.44825,43.51884],[142.44698,43.51474],[142.45804,43.50648],[142.45919,43.50293],[142.46138,43.50053],[142.46108,43.49757],[142.46264,43.49257],[142.46204,43.48946],[142.46328,43.48427],[142.453,43.4715],[142.46361,43.44936],[142.46361,43.44748],[142.4334,43.41292],[142.42815,43.41173],[142.40062,43.38012],[142.39418,43.37588],[142.39162,43.36911],[142.3873,43.36558],[142.38699,43.36147],[142.38974,43.35561],[142.38947,43.35387],[142.38131,43.3445],[142.39433,43.33826],[142.40027,43.32902],[142.40375,43.32112],[142.40172,43.29568],[142.39971,43.29464],[142.39201,43.29537],[142.38556,43.29218],[142.38246,43.29192],[142.38077,43.27994],[142.3818,43.27666],[142.3849,43.27148],[142.38282,43.25501],[142.38433,43.25194],[142.3808,43.23907],[142.37865,43.22079],[142.37974,43.2193],[142.38142,43.21863],[142.40148,43.21576],[142.40774,43.21365],[142.40786,43.21166],[142.412,43.20434],[142.41629,43.1996],[142.41651,43.19614],[142.42138,43.18726],[142.4239,43.17107],[142.42346,43.16677],[142.42124,43.16251],[142.4228,43.15874],[142.42247,43.15427],[142.41887,43.14905],[142.41648,43.14715],[142.41664,43.14187],[142.415,43.13809],[142.41602,43.13316],[142.4149,43.13071],[142.41328,43.12871],[142.39848,43.11953],[142.39814,43.11504],[142.39965,43.11222],[142.40066,43.10315],[142.40182,43.10085],[142.40477,43.09807],[142.40242,43.09445],[142.40554,43.09249],[142.40571,43.09165],[142.40454,43.09155],[142.3985,43.09554],[142.39215,43.09415],[142.39091,43.09284],[142.39128,43.08708],[142.39463,43.08501],[142.39498,43.08118],[142.40025,43.0775],[142.39984,43.07223],[142.4014,43.06625],[142.40604,43.05891],[142.40406,43.05541],[142.40005,43.05369],[142.39893,43.05246],[142.39821,43.03887],[142.39674,43.03514],[142.39635,43.03119],[142.39685,43.02963],[142.40044,43.0257],[142.39917,43.02016],[142.39937,43.00921],[142.40106,43.00737],[142.40565,43.00544],[142.40699,43.00278],[142.3985,42.98786],[142.40002,42.9841],[142.39734,42.97934],[142.39942,42.97805],[142.40288,42.97819],[142.41269,42.97517],[142.41827,42.97533],[142.42688,42.96755],[142.42865,42.95868],[142.42981,42.9566],[142.44162,42.94967],[142.44279,42.94827],[142.44492,42.93881],[142.44492,42.93368],[142.44354,42.93078],[142.44519,42.92611],[142.44453,42.92234],[142.44757,42.9192],[142.44655,42.91168],[142.44327,42.90917],[142.43613,42.90705],[142.43539,42.90609],[142.43853,42.90162],[142.4357,42.8986],[142.43604,42.8955],[142.43501,42.89138],[142.4368,42.88874],[142.43358,42.8862],[142.43511,42.88238],[142.43468,42.88047],[142.42941,42.87483],[142.42612,42.86785],[142.42237,42.8623],[142.41713,42.85846],[142.41549,42.85558],[142.41747,42.84331],[142.41571,42.83861],[142.41637,42.82624],[142.42163,42.81598],[142.41768,42.81263],[142.40808,42.81194],[142.40019,42.80726],[142.398,42.80424],[142.39762,42.80026],[142.3956,42.79773],[142.39471,42.79506],[142.39309,42.7936],[142.39585,42.78778],[142.39476,42.78396],[142.38008,42.76993],[142.37408,42.76667],[142.36984,42.76036],[142.36415,42.75634],[142.36343,42.75421],[142.36456,42.74838],[142.3626,42.74275],[142.35354,42.73435],[142.34197,42.73124],[142.33415,42.73182],[142.33075,42.73039],[142.32572,42.7267],[142.31923,42.72662],[142.31517,42.72494],[142.30915,42.72771],[142.30416,42.72648],[142.28754,42.72572],[142.28272,42.72215],[142.27902,42.72141],[142.27233,42.72168],[142.26732,42.71938],[142.26509,42.7175],[142.26045,42.71791],[142.24992,42.71474],[142.23723,42.70457],[142.22647,42.70065],[142.22254,42.69691],[142.21796,42.69526],[142.21105,42.68563],[142.20876,42.68365],[142.20412,42.68335],[142.1981,42.67943],[142.19271,42.67803],[142.18987,42.67365],[142.18188,42.66891],[142.17758,42.65917],[142.17161,42.6573],[142.16172,42.64618],[142.15869,42.63453],[142.1509,42.62588],[142.14991,42.6169],[142.14752,42.61106],[142.14926,42.5997],[142.14545,42.59513],[142.14555,42.59042],[142.14365,42.58811],[142.13624,42.58489],[142.12808,42.58429],[142.11822,42.5784],[142.10764,42.57544],[142.09766,42.56994],[142.08901,42.56322],[142.08178,42.55957],[142.07039,42.55008],[142.05864,42.54375],[142.05607,42.54003],[142.05543,42.53692],[142.05423,42.53518],[142.0461,42.53012],[142.03149,42.51817],[142.03394,42.51392],[142.03173,42.51778]],[[142.03394,42.51392],[142.03695,42.50875],[142.04366,42.50309],[142.05275,42.49818],[142.05583,42.49516],[142.05838,42.49094],[142.07678,42.48083],[142.07764,42.4746],[142.07932,42.47296],[142.08879,42.47326],[142.09481,42.47188],[142.10339,42.47175],[142.11067,42.47022],[142.11981,42.47148],[142.1264,42.46953],[142.13796,42.46776],[142.16031,42.46278],[142.17385,42.45861],[142.18029,42.45427],[142.18705,42.45151],[142.1957,42.44929],[142.19892,42.44496],[142.20678,42.43991],[142.20809,42.43626],[142.20969,42.43453],[142.21525,42.43227],[142.2206,42.42741],[142.22621,42.42378],[142.22975,42.4167],[142.23465,42.41445],[142.24219,42.41295],[142.25038,42.40653],[142.25537,42.39964],[142.26063,42.39488],[142.26594,42.39107],[142.27213,42.38509],[142.27805,42.38224],[142.28049,42.37681],[142.2853,42.37287],[142.29405,42.36933],[142.29554,42.36994],[142.30114,42.3755],[142.30754,42.37506],[142.30888,42.37324],[142.30757,42.37012],[142.31363,42.36514],[142.31809,42.35684],[142.32905,42.34873],[142.33778,42.3437],[142.34622,42.34131],[142.36224,42.3419],[142.36486,42.34008],[142.36609,42.33711],[142.3685,42.33466],[142.36902,42.32863],[142.37038,42.32701],[142.38811,42.31797],[142.3938,42.31713],[142.40253,42.31359],[142.40499,42.31089],[142.4248,42.31104],[142.42783,42.30988],[142.43802,42.30833],[142.45223,42.30294],[142.45364,42.30131],[142.45491,42.29461],[142.45924,42.28982],[142.46638,42.28313],[142.47428,42.27812],[142.47654,42.27482],[142.48328,42.27248],[142.48571,42.27031],[142.49495,42.26641],[142.49836,42.26771],[142.50848,42.26868],[142.51355,42.2657],[142.51547,42.2637],[142.5217,42.26057],[142.54401,42.25139],[142.55159,42.25067],[142.5548,42.24887],[142.56917,42.24638],[142.57209,42.24695],[142.57536,42.2465],[142.58528,42.24405],[142.59128,42.23909],[142.60245,42.2335],[142.61061,42.23146],[142.61903,42.22712],[142.63073,42.2232],[142.64007,42.21885],[142.6444,42.21173],[142.65425,42.20604],[142.6665,42.19604],[142.67464,42.19726],[142.68023,42.19621],[142.68656,42.19334],[142.6956,42.1908],[142.70087,42.18618],[142.71202,42.18667],[142.7221,42.18548],[142.72752,42.18347],[142.73164,42.17875],[142.73706,42.17696],[142.74775,42.17738],[142.75789,42.1764],[142.76605,42.17329],[142.76891,42.16891],[142.77302,42.16536],[142.7748,42.16243]],[[142.30794,42.37115],[142.30768,42.37003]]]}}]}