{"type":"FeatureCollection","features":[{"type":"Feature","properties":{"route_id":"405","route_number":405,"name":"国道405号","source":"OpenStreetMap contributors (ODbL)","osm_relations":[6518913]},"geometry":{"type":"MultiLineString","coordinates":[[[138.62758,36.81259],[138.62772,36.81414],[138.63288,36.81743],[138.63198,36.81941],[138.62817,36.81947],[138.62709,36.82079],[138.62708,36.82355],[138.63321,36.82902],[138.6332,36.82988],[138.63112,36.83037],[138.63308,36.83209],[138.63167,36.83205],[138.6312,36.83313],[138.63298,36.83395],[138.63271,36.8351],[138.63354,36.83598],[138.63121,36.83555],[138.62925,36.83633],[138.62893,36.83729],[138.62414,36.83732],[138.62093,36.8439],[138.62566,36.84629],[138.6268,36.84806],[138.62526,36.85264],[138.62629,36.85481],[138.62847,36.85671],[138.62967,36.86161],[138.63481,36.86409],[138.63409,36.86609],[138.63527,36.86757],[138.63549,36.87019],[138.63825,36.87402],[138.6384,36.87859],[138.64026,36.87899],[138.63852,36.88075],[138.63841,36.88194],[138.63636,36.88209],[138.63742,36.88495],[138.63864,36.886],[138.63723,36.88547],[138.63779,36.88732],[138.637,36.88644],[138.63719,36.88778],[138.63558,36.88831],[138.63577,36.88936],[138.63352,36.89251],[138.63209,36.89266],[138.63313,36.89391],[138.62968,36.89517],[138.63035,36.89601],[138.62982,36.89658],[138.63085,36.89682],[138.63126,36.898],[138.62861,36.90127],[138.63001,36.90209],[138.63126,36.90585],[138.63442,36.90966],[138.6343,36.91347],[138.6351,36.91556],[138.63677,36.91657],[138.63575,36.91821],[138.64023,36.9205],[138.64172,36.92247],[138.64192,36.92436],[138.6456,36.9255],[138.65005,36.92863],[138.65081,36.93015],[138.65833,36.93395],[138.66002,36.93607],[138.66139,36.94383],[138.66098,36.94551],[138.66612,36.95166],[138.66539,36.95342],[138.66385,36.95444],[138.66698,36.95539],[138.66854,36.957],[138.67002,36.95929],[138.6701,36.9625],[138.67125,36.96292],[138.67162,36.96451],[138.67085,36.96644],[138.67142,36.96883],[138.67005,36.96842],[138.66983,36.97013],[138.67105,36.9756],[138.67067,36.97907],[138.66824,36.98269],[138.66834,36.99035],[138.66602,36.99795],[138.6622,37.00472],[138.65892,37.00866],[138.65102,37.01376],[138.65298,37.01551],[138.64511,37.01931],[138.64286,37.02203],[138.63969,37.02311],[138.6403,37.02612],[138.63861,37.02664],[138.63571,37.02614],[138.63285,37.0288],[138.63006,37.02931],[138.63235,37.02922],[138.63171,37.02934],[138.63267,37.02965],[138.63142,37.02957],[138.63296,37.03021],[138.63048,37.02998],[138.626,37.03548],[138.62551,37.03721],[138.6246,37.0361],[138.62374,37.03725],[138.61993,37.03695],[138.61643,37.03865],[138.61185,37.03718],[138.61312,37.03893],[138.61075,37.04125],[138.61239,37.04259],[138.61034,37.04324],[138.61189,37.04356],[138.61083,37.04463],[138.61277,37.04508],[138.61333,37.04713],[138.61247,37.04829],[138.61413,37.0489],[138.61509,37.05093],[138.61162,37.05281],[138.61076,37.05679],[138.60904,37.05709],[138.60949,37.05813],[138.60723,37.05874],[138.60849,37.06012],[138.60803,37.06126],[138.60471,37.05929],[138.60382,37.05806],[138.60419,37.05701],[138.60075,37.05812],[138.59923,37.05564],[138.59483,37.05207],[138.58974,37.05218],[138.58572,37.05079],[138.58776,37.0533],[138.58782,37.05455],[138.58949,37.0557],[138.58634,37.0548],[138.58613,37.05406],[138.58225,37.05386],[138.57834,37.0522],[138.57901,37.05314],[138.5764,37.0523],[138.57376,37.05278],[138.5742,37.05355],[138.57334,37.05447],[138.56974,37.05586],[138.56918,37.05405],[138.56767,37.05463],[138.56623,37.05387],[138.5661,37.05294],[138.56498,37.0533],[138.56486,37.05231],[138.56377,37.05344],[138.56375,37.05273],[138.5629,37.05316],[138.56235,37.05226],[138.55895,37.05194],[138.5566,37.05327],[138.55312,37.05084],[138.55449,37.0563],[138.55598,37.05798],[138.55362,37.05995],[138.55426,37.0641],[138.55188,37.06328],[138.55021,37.06412],[138.5485,37.06243],[138.54623,37.0654],[138.54401,37.06512],[138.54284,37.06395],[138.53798,37.06405],[138.5387,37.06587],[138.53546,37.06653],[138.53344,37.06891],[138.52935,37.06754],[138.52671,37.06785],[138.52724,37.06687],[138.52673,37.06638],[138.52511,37.06723],[138.52315,37.06678],[138.52092,37.07096],[138.51945,37.07178],[138.51815,37.07838],[138.51705,37.07703],[138.51574,37.07802],[138.51272,37.07849],[138.51377,37.07633],[138.51217,37.07702],[138.51115,37.07666],[138.51191,37.0762],[138.50996,37.0757],[138.50763,37.07612],[138.5058,37.07481],[138.50378,37.07472],[138.50324,37.07264],[138.50166,37.07538],[138.50114,37.07502],[138.50175,37.07386],[138.50061,37.07374],[138.49884,37.07721],[138.49458,37.07949],[138.4935,37.07932],[138.49245,37.08048],[138.49063,37.08491],[138.48755,37.08803],[138.48725,37.09058],[138.48161,37.09375],[138.47764,37.0942],[138.47375,37.09333],[138.47108,37.09476],[138.46822,37.09842],[138.46769,37.10264],[138.46595,37.10563],[138.46369,37.10832],[138.46133,37.10901],[138.45641,37.1057],[138.45345,37.0994],[138.44836,37.09342],[138.44578,37.08829],[138.44426,37.09223],[138.4439,37.09073],[138.44193,37.08873],[138.43718,37.08567],[138.43307,37.08439],[138.43052,37.08461],[138.42886,37.08244],[138.4239,37.08112],[138.42287,37.08139],[138.42254,37.08292],[138.42401,37.085],[138.42334,37.08725],[138.42174,37.08737],[138.41895,37.08484],[138.41646,37.08623],[138.4133,37.08137],[138.41176,37.08037],[138.41023,37.08047],[138.40726,37.07844],[138.3974,37.07791],[138.39635,37.0804],[138.39509,37.07969],[138.39463,37.07829],[138.39316,37.07789],[138.39184,37.08005],[138.3907,37.07809],[138.38832,37.0781],[138.3921,37.07595],[138.39058,37.07545],[138.38637,37.07772],[138.38297,37.07851],[138.3788,37.08184],[138.37563,37.08218],[138.37188,37.084],[138.3662,37.08526],[138.36249,37.08679],[138.36061,37.08873],[138.35629,37.08984],[138.34568,37.08951],[138.33528,37.09328],[138.31364,37.09862],[138.30894,37.10039],[138.3034,37.10442],[138.29368,37.10709],[138.28805,37.1115],[138.27693,37.11274]],[[138.6403,36.61433],[138.64162,36.6175],[138.64434,36.61832],[138.64529,36.61949],[138.6447,36.6214],[138.64698,36.62321],[138.64668,36.62535],[138.65048,36.62838],[138.65011,36.63044],[138.65435,36.63413],[138.65274,36.63475],[138.6532,36.63556],[138.65096,36.63687],[138.65218,36.63888],[138.65034,36.64239],[138.64884,36.64331],[138.64942,36.64585],[138.65059,36.64684],[138.6507,36.64994],[138.65326,36.6524],[138.65167,36.65259],[138.65332,36.65486],[138.65475,36.65376],[138.65837,36.65615],[138.65993,36.656],[138.65954,36.65387],[138.66004,36.65377],[138.65987,36.65456],[138.6614,36.65651],[138.66409,36.65758],[138.66622,36.66013],[138.66592,36.66109],[138.66837,36.66487],[138.66964,36.66422],[138.66979,36.66816],[138.6688,36.66906],[138.67113,36.66873],[138.67079,36.66959],[138.67151,36.67052],[138.67065,36.67247],[138.66896,36.67277],[138.66849,36.67368],[138.66804,36.67296],[138.66973,36.6718],[138.66567,36.67342],[138.6663,36.67476],[138.66337,36.67664],[138.66422,36.67819],[138.66261,36.68094],[138.66405,36.68158],[138.65985,36.68184],[138.65883,36.68552],[138.65524,36.68683],[138.65425,36.68827],[138.65212,36.68899],[138.65055,36.6879],[138.65126,36.6901],[138.65395,36.69036],[138.65668,36.69496],[138.65411,36.70216],[138.65396,36.70496],[138.65295,36.70609],[138.65497,36.70819],[138.65227,36.70989],[138.65176,36.71153],[138.65262,36.71214],[138.65064,36.71611],[138.64901,36.71749],[138.64598,36.71794],[138.64491,36.71909],[138.64477,36.718],[138.64375,36.71997]]]}}]}