{"type":"FeatureCollection","features":[{"type":"Feature","properties":{"route_id":"123","route_number":123,"name":"国道123号","source":"OpenStreetMap contributors (ODbL)","osm_relations":[3262076,9055806,9055807,9055808,11225613]},"geometry":{"type":"MultiLineString","coordinates":[[[140.17606,36.52695],[140.16998,36.5284],[140.16584,36.52805],[140.17013,36.52828],[140.17853,36.52571],[140.18201,36.52617],[140.18916,36.52445],[140.19829,36.52797],[140.20145,36.53136],[140.20558,36.53341],[140.20683,36.53737],[140.2113,36.54041],[140.21506,36.54155],[140.22032,36.54449],[140.22211,36.54859],[140.2234,36.5488],[140.22573,36.54758],[140.23225,36.54755],[140.23639,36.55241],[140.24013,36.55351],[140.2404,36.55515],[140.23808,36.55749],[140.24428,36.56503],[140.25181,36.562],[140.26415,36.56189],[140.27205,36.56531],[140.28329,36.56625],[140.2852,36.56568],[140.28915,36.56253],[140.2911,36.56208],[140.2997,36.56595],[140.30216,36.56592],[140.30656,36.56319],[140.31049,36.55931],[140.31877,36.55636],[140.31992,36.55486],[140.32161,36.55493],[140.32289,36.5527],[140.32832,36.55023],[140.32874,36.54937],[140.33149,36.54871],[140.33227,36.5447],[140.33545,36.54371],[140.3374,36.54087],[140.34871,36.53442],[140.35079,36.53174],[140.35321,36.52506],[140.35923,36.52194],[140.36514,36.51695],[140.3676,36.51272],[140.37037,36.5104],[140.37225,36.50636],[140.37207,36.49664],[140.37313,36.49538],[140.37844,36.49465],[140.37989,36.49208],[140.38077,36.48836],[140.381,36.47726],[140.39355,36.47066],[140.40117,36.46191],[140.4067,36.45752],[140.40784,36.45269],[140.41226,36.44224],[140.4175,36.43694],[140.42036,36.43207],[140.42223,36.42401],[140.42687,36.41076],[140.43116,36.40447],[140.44457,36.39733]],[[139.99758,36.53085],[139.98611,36.53295],[139.97531,36.53206],[139.96858,36.53789],[139.96101,36.54093],[139.94383,36.54219],[139.93706,36.54568],[139.92159,36.54943],[139.93651,36.54577],[139.94379,36.5421],[139.96113,36.54081],[139.96853,36.53782],[139.97526,36.532],[139.98651,36.53283],[139.99241,36.53128],[140.00247,36.53027],[140.01427,36.52168],[140.01735,36.52189],[140.02219,36.5253],[140.02497,36.5257],[140.04276,36.51665],[140.05076,36.51606],[140.05798,36.5126],[140.06764,36.51365],[140.07083,36.50801],[140.07281,36.50229],[140.07745,36.49991],[140.08395,36.49507],[140.08675,36.49408],[140.09202,36.4938],[140.09331,36.49116],[140.09451,36.49055],[140.10304,36.49109],[140.10495,36.49318],[140.10481,36.4972],[140.10796,36.5032],[140.11238,36.50733],[140.11901,36.50933],[140.12547,36.51252],[140.12954,36.51749],[140.13278,36.51885],[140.13878,36.51882],[140.14069,36.5226],[140.14753,36.52561],[140.1522,36.52606],[140.15331,36.52947],[140.15431,36.53023],[140.16039,36.52834],[140.16584,36.52805]],[[139.9077,36.55206],[139.92159,36.54943]],[[140.37668,36.48748],[140.37456,36.48673],[140.37558,36.48644],[140.37552,36.48348]],[[140.37844,36.49465],[140.38044,36.49058]],[[140.3808,36.4863],[140.38095,36.47736]]]}}]}