{"type":"FeatureCollection","features":[{"type":"Feature","properties":{"route_id":"118","route_number":118,"name":"国道118号","source":"OpenStreetMap contributors (ODbL)","osm_relations":[3189378,3189379,3189380,9045744,9045746,9045747,17869536]},"geometry":{"type":"MultiLineString","coordinates":[[[140.41925,37.10589],[140.41584,37.11108],[140.41522,37.11351],[140.41767,37.11978],[140.41795,37.12416],[140.42047,37.12686],[140.42202,37.13097],[140.43065,37.13694],[140.43201,37.13735],[140.44001,37.13615],[140.44284,37.13769],[140.44338,37.14067],[140.44219,37.14345],[140.44552,37.14729],[140.44521,37.14959],[140.44631,37.15129],[140.44606,37.15324],[140.44744,37.15747],[140.4437,37.16205],[140.44044,37.16339],[140.43635,37.16312],[140.43136,37.16593],[140.42816,37.17071],[140.42814,37.17395],[140.42655,37.17707],[140.41761,37.18259],[140.41583,37.18595],[140.41315,37.18826],[140.40929,37.19378],[140.40756,37.20129],[140.40697,37.21251],[140.4024,37.22622],[140.40093,37.23317],[140.38794,37.24835],[140.38812,37.24952],[140.39055,37.252],[140.39097,37.25724],[140.3905,37.26112],[140.38776,37.26479],[140.38745,37.26674],[140.38242,37.266],[140.37875,37.26664],[140.36864,37.27299],[140.36079,37.27641],[140.35585,37.27635],[140.34842,37.27466],[140.34129,37.27696],[140.33549,37.27771],[140.32801,37.27554],[140.32353,37.27556],[140.32083,37.27628],[140.31378,37.2803],[140.29513,37.27882],[140.29048,37.27977],[140.28748,37.27779],[140.28398,37.27729],[140.25131,37.28286],[140.24176,37.28634],[140.22246,37.28855],[140.2187,37.2874],[140.21029,37.28842],[140.20745,37.29017],[140.20074,37.29181],[140.19435,37.29001],[140.19112,37.2908],[140.18691,37.28988],[140.17853,37.29174],[140.17321,37.29143],[140.17124,37.28981],[140.16922,37.2826],[140.16642,37.28055],[140.16726,37.27859],[140.16425,37.27591],[140.16165,37.2758],[140.1544,37.2716],[140.15076,37.2711],[140.14725,37.27164],[140.14649,37.27065],[140.13608,37.26625],[140.13016,37.26621],[140.126,37.26833],[140.1217,37.26893],[140.10751,37.26549],[140.10138,37.26569],[140.09357,37.26834],[140.08701,37.27194],[140.08378,37.27207],[140.08214,37.27112],[140.07814,37.27145],[140.06881,37.27581],[140.06493,37.27638],[140.06184,37.27945],[140.05977,37.28033],[140.05649,37.27966],[140.0516,37.27646],[140.04618,37.27595],[140.0414,37.2727],[140.03241,37.27225],[140.0299,37.27117],[140.02415,37.27345],[140.01917,37.27386],[140.01639,37.27591],[140.0047,37.28057],[140.00177,37.27933],[139.99523,37.28022],[139.99342,37.27968],[139.98574,37.28168],[139.98432,37.27941],[139.98217,37.27958],[139.97975,37.27864],[139.97758,37.28006],[139.97384,37.28103],[139.96613,37.28609],[139.96366,37.28666],[139.96087,37.28908],[139.96121,37.29236],[139.96036,37.29363],[139.9567,37.29508],[139.95457,37.29715],[139.94532,37.3005],[139.94223,37.30241],[139.94081,37.30482],[139.9322,37.30242],[139.92733,37.30426],[139.92695,37.30702],[139.92523,37.30814],[139.9185,37.30707],[139.91493,37.30798],[139.91063,37.30764],[139.90595,37.30841],[139.90384,37.30789],[139.90065,37.30949],[139.8978,37.30912],[139.89733,37.31039],[139.9,37.31537],[139.90288,37.31698],[139.90625,37.31584],[139.9079,37.3173],[139.90842,37.32113],[139.91039,37.32504],[139.91056,37.32706],[139.90756,37.33952],[139.90772,37.34642],[139.90896,37.35337],[139.91021,37.3547],[139.91301,37.35549],[139.91354,37.35655],[139.90943,37.35948],[139.9091,37.36107],[139.91103,37.36382],[139.91826,37.3671],[139.9227,37.38064],[139.92734,37.38502],[139.93203,37.38678],[139.93201,37.38964],[139.93481,37.39682],[139.93097,37.4022],[139.91968,37.41003],[139.9184,37.41806],[139.91447,37.4275],[139.92,37.43944],[139.92214,37.46405],[139.92864,37.49842],[139.93246,37.50723],[139.93279,37.50944],[139.93157,37.51337],[139.93314,37.51794]],[[139.9024,37.51546],[139.89798,37.51506],[139.89635,37.50268],[139.89664,37.49467],[139.90249,37.48136],[139.9031,37.47357],[139.91056,37.46003],[139.903,37.47354],[139.90238,37.48133],[139.8977,37.49081],[139.8965,37.49492],[139.89624,37.50267],[139.89787,37.51503],[139.90234,37.51555]],[[140.40728,36.55978],[140.40648,36.55712],[140.40776,36.55337],[140.40855,36.54494],[140.40962,36.54238],[140.41281,36.53902],[140.41992,36.53524],[140.43503,36.52163],[140.44147,36.51051],[140.44098,36.5017],[140.44977,36.49082],[140.44108,36.50177],[140.44157,36.51056],[140.43491,36.52195],[140.41998,36.53528],[140.41215,36.53964],[140.40878,36.54447],[140.40784,36.55338],[140.40655,36.55727],[140.40728,36.55978],[140.40515,36.56491],[140.40475,36.56989],[140.40823,36.58487],[140.41068,36.58883],[140.41179,36.59359],[140.41079,36.59547],[140.40191,36.60169],[140.39936,36.60501],[140.39827,36.60817],[140.39834,36.6117],[140.40014,36.61632],[140.40285,36.61993],[140.40288,36.62489],[140.39977,36.63057],[140.39094,36.63609],[140.39348,36.64902],[140.39296,36.655],[140.39376,36.65744],[140.38952,36.66393],[140.39033,36.67573],[140.38749,36.68254],[140.39105,36.68805],[140.3892,36.69168],[140.38911,36.69376],[140.38407,36.69947],[140.3829,36.70556],[140.38702,36.71388],[140.38189,36.72049],[140.38339,36.72457],[140.38287,36.72912],[140.38478,36.73078],[140.39008,36.73101],[140.38975,36.73534],[140.38652,36.73727],[140.38006,36.73585],[140.37672,36.73663],[140.3768,36.73812],[140.38302,36.74415],[140.37711,36.74944],[140.37656,36.75713],[140.37426,36.76026],[140.37188,36.76163],[140.36935,36.76189],[140.36456,36.76092],[140.35926,36.762],[140.3586,36.76346],[140.35913,36.76691],[140.35688,36.77581],[140.36033,36.7868],[140.36726,36.79473],[140.36663,36.79891],[140.36826,36.80301],[140.36812,36.80729],[140.36948,36.8112],[140.36899,36.81601],[140.37218,36.81875],[140.37758,36.81853],[140.37896,36.81937],[140.37853,36.83213],[140.3833,36.83588],[140.38552,36.84438],[140.38791,36.84707],[140.39354,36.84875],[140.39981,36.85384],[140.40161,36.85436],[140.40453,36.85372],[140.40898,36.85521],[140.41476,36.86235],[140.42373,36.86396],[140.42479,36.86492],[140.42368,36.87672],[140.41973,36.88193],[140.42037,36.88525],[140.41777,36.90943],[140.41481,36.92527],[140.41511,36.93554],[140.4122,36.94055],[140.4155,36.95169],[140.40748,36.95997],[140.40673,36.96246],[140.40165,36.96583],[140.39357,36.97629],[140.39169,36.99642],[140.3882,36.99709],[140.38618,36.99874],[140.38397,37.01615],[140.38102,37.01988],[140.37939,37.02343],[140.37516,37.02566],[140.3715,37.03724],[140.37203,37.04074],[140.37344,37.04254],[140.38106,37.04445],[140.38846,37.04835],[140.39208,37.05333],[140.39203,37.0587],[140.39599,37.06463],[140.40476,37.06768],[140.41892,37.07583],[140.42006,37.07787],[140.42005,37.08009],[140.41783,37.08499],[140.42048,37.0894],[140.42074,37.092],[140.41944,37.09374],[140.41931,37.09589],[140.42142,37.1011],[140.4196,37.10537]],[[140.47318,36.37479],[140.47433,36.37696],[140.46793,36.37948],[140.46872,36.38075],[140.45779,36.38612],[140.45165,36.39234],[140.44457,36.39733],[140.44911,36.40214],[140.45298,36.40342],[140.44944,36.40225],[140.44694,36.39991]],[[140.45781,36.40429],[140.46096,36.40485],[140.46226,36.40588],[140.46133,36.41214],[140.46246,36.40677],[140.46194,36.4053],[140.45298,36.40342]],[[140.46133,36.41214],[140.46114,36.41522],[140.46371,36.4207],[140.46094,36.44247],[140.44909,36.46081],[140.45204,36.46747],[140.44916,36.47955],[140.45033,36.48879],[140.44977,36.49082]],[[140.35815,37.27647],[140.3615,37.27634],[140.36715,37.27382],[140.37878,37.26671],[140.38241,37.2661],[140.38745,37.26674]],[[139.90814,37.3181],[139.91026,37.31469],[139.91048,37.31297],[139.90961,37.3112],[139.90649,37.30839]]]}}]}