{"type":"FeatureCollection","features":[{"type":"Feature","properties":{"route_id":"263","route_number":263,"name":"国道263号","source":"OpenStreetMap contributors (ODbL)","osm_relations":[9361996,9361997,10296545]},"geometry":{"type":"MultiLineString","coordinates":[[[130.3567,33.57044],[130.34658,33.54625],[130.34506,33.54041],[130.33634,33.52232],[130.33545,33.51675],[130.33577,33.51336],[130.33705,33.51086],[130.33539,33.50149],[130.33579,33.49725],[130.33479,33.49466],[130.33144,33.49021],[130.33047,33.4899],[130.3199,33.49279],[130.3149,33.49284],[130.31144,33.4939],[130.30811,33.49338],[130.30635,33.49517],[130.29805,33.49893],[130.29692,33.49812],[130.29616,33.49498],[130.29119,33.49403],[130.29144,33.4933],[130.29501,33.49356],[130.29556,33.49156],[130.29326,33.48797],[130.29188,33.48717],[130.2919,33.48804],[130.29036,33.48534],[130.29108,33.48518],[130.29048,33.48395],[130.28991,33.48432],[130.29024,33.48347],[130.28718,33.48207],[130.28827,33.48217],[130.28648,33.48086],[130.2856,33.47855],[130.2838,33.47725],[130.28322,33.47801],[130.28309,33.47586],[130.28414,33.47539],[130.28193,33.47549],[130.2804,33.47108],[130.27874,33.46942],[130.27899,33.468],[130.27695,33.46703],[130.27704,33.46421],[130.27368,33.45868],[130.27632,33.45339],[130.27561,33.45048],[130.27298,33.44832],[130.27062,33.44473],[130.26909,33.44393],[130.26832,33.44159],[130.26435,33.43827],[130.26479,33.43611],[130.26815,33.43682],[130.2711,33.43554],[130.27334,33.43303],[130.2776,33.4315],[130.27859,33.42619],[130.27731,33.42255],[130.27937,33.41997],[130.27917,33.41776],[130.27455,33.41115],[130.27245,33.41006],[130.27284,33.40406],[130.27068,33.39343],[130.26701,33.39138],[130.2659,33.39166],[130.2656,33.38956],[130.26088,33.3872],[130.26062,33.3848],[130.25801,33.38102],[130.25472,33.38078],[130.25521,33.37983],[130.25724,33.38024],[130.25795,33.3796],[130.25541,33.37364],[130.25754,33.36875],[130.25452,33.36365],[130.25213,33.35753],[130.24826,33.35199],[130.24819,33.35054],[130.24953,33.34851],[130.24816,33.34623],[130.24812,33.34412],[130.2493,33.34297],[130.2521,33.34334],[130.25568,33.34223],[130.26163,33.33557],[130.26338,33.3324],[130.26821,33.33019],[130.27077,33.32285],[130.2753,33.31871],[130.27626,33.31667],[130.28065,33.3121],[130.28705,33.29383],[130.28787,33.28888],[130.29177,33.28314],[130.29372,33.2743]],[[130.27368,33.45868],[130.27551,33.46315],[130.2873,33.47672],[130.2909,33.48711],[130.29326,33.49035],[130.29477,33.48995],[130.29463,33.48855],[130.29336,33.48829],[130.2926,33.48914],[130.29454,33.49052]],[[130.27046,33.32335],[130.27607,33.31778],[130.27578,33.31315],[130.27697,33.30844],[130.28158,33.29762],[130.29177,33.28336],[130.29383,33.27432]],[[130.28787,33.28888],[130.28068,33.29925],[130.2766,33.30913],[130.27568,33.31349],[130.27626,33.31667]]]}}]}