{"type":"FeatureCollection","features":[{"type":"Feature","properties":{"route_id":"386","route_number":386,"name":"国道386号","source":"OpenStreetMap contributors (ODbL)","osm_relations":[9581384,9581402]},"geometry":{"type":"MultiLineString","coordinates":[[[130.54733,33.45199],[130.5604,33.45103],[130.564,33.45217],[130.56563,33.45411],[130.56861,33.46308],[130.5715,33.46705],[130.58325,33.46223],[130.59235,33.45715],[130.59944,33.45434],[130.6066,33.45313],[130.61256,33.4502],[130.63307,33.43601],[130.64482,33.43983],[130.64876,33.43955],[130.6651,33.43193],[130.66994,33.43081],[130.67352,33.42635],[130.67733,33.42372],[130.67842,33.41969],[130.68062,33.41829],[130.67738,33.41348],[130.6817,33.41197],[130.68512,33.4095],[130.69039,33.40716],[130.69815,33.40154],[130.72264,33.3864],[130.73452,33.38181],[130.73709,33.37865],[130.7531,33.36754],[130.75862,33.36535],[130.76237,33.36646],[130.7687,33.36597],[130.77521,33.35902],[130.78389,33.35433],[130.79456,33.35641],[130.79736,33.35836],[130.80799,33.36218],[130.81698,33.36269],[130.82056,33.35771],[130.834,33.34802],[130.84042,33.33974],[130.84639,33.33957],[130.85009,33.33817],[130.85285,33.33495],[130.85607,33.32875],[130.86442,33.32212],[130.86814,33.316],[130.87263,33.31239],[130.87597,33.31172],[130.88991,33.31374],[130.89484,33.31612],[130.89924,33.3204],[130.90186,33.32462],[130.90643,33.32596],[130.92917,33.32131],[130.9467,33.30624],[130.95702,33.30131],[130.95811,33.29807]],[[130.68062,33.41829],[130.69032,33.41483],[130.69253,33.41293],[130.69731,33.41168],[130.70682,33.40755],[130.71115,33.40663],[130.72059,33.4019],[130.72687,33.39368],[130.72738,33.39102],[130.7249,33.38549]],[[130.5716,33.46696],[130.56872,33.46304],[130.56691,33.45797]]]}}]}