{"type":"FeatureCollection","features":[{"type":"Feature","properties":{"route_id":"264","route_number":264,"name":"国道264号","source":"OpenStreetMap contributors (ODbL)","osm_relations":[9361995,9519146]},"geometry":{"type":"MultiLineString","coordinates":[[[130.51268,33.31448],[130.50875,33.31548],[130.50721,33.31173],[130.49677,33.31176],[130.4904,33.31368],[130.49724,33.31178],[130.50723,33.31182],[130.50865,33.3156],[130.51276,33.31457]],[[130.29372,33.2743],[130.29241,33.24996],[130.31175,33.25228],[130.31472,33.25459],[130.32325,33.25322],[130.35318,33.26339],[130.35631,33.26375],[130.35963,33.26738],[130.36028,33.271],[130.36222,33.27261],[130.38132,33.27679],[130.39723,33.27918],[130.41027,33.28452],[130.42183,33.29062],[130.42615,33.29169],[130.43051,33.29531],[130.43422,33.297],[130.44902,33.29779],[130.45168,33.29941],[130.45406,33.30353],[130.45739,33.3055],[130.46369,33.30682],[130.4801,33.30715],[130.48296,33.30915],[130.48614,33.31571],[130.4904,33.31368]],[[130.29383,33.27432],[130.29251,33.24997]]]}}]}