{"type":"FeatureCollection","features":[{"type":"Feature","properties":{"route_id":"57","route_number":57,"name":"国道57号","source":"OpenStreetMap contributors (ODbL)","osm_relations":[2971981,2971982,2971983,10119484,10119485,11724953]},"geometry":{"type":"MultiLineString","coordinates":[[[130.67069,32.68995],[130.67879,32.72762],[130.68035,32.72952],[130.68701,32.73277],[130.6887,32.73517],[130.68842,32.74496],[130.68692,32.75293],[130.68949,32.76235],[130.70453,32.76316],[130.72419,32.7679],[130.72976,32.77057],[130.74397,32.78013],[130.74675,32.78559],[130.74426,32.79625],[130.75061,32.81585],[130.77626,32.83436],[130.77958,32.83933],[130.78342,32.85313],[130.78459,32.85458],[130.79269,32.85788],[130.80998,32.86194],[130.82461,32.86349],[130.8416,32.86967],[130.84895,32.87448],[130.85233,32.8755],[130.87951,32.87565],[130.88317,32.87664],[130.88982,32.88013],[130.89524,32.88047],[130.90931,32.87949],[130.93156,32.8754],[130.94364,32.877],[130.94688,32.87624],[130.95399,32.87685],[130.96279,32.87926],[130.97212,32.87765],[130.98105,32.87925],[130.98508,32.88094],[130.98124,32.87921],[130.97206,32.87756],[130.96281,32.87917],[130.95394,32.87674],[130.94714,32.87602],[130.94301,32.87683],[130.93157,32.87531],[130.90896,32.87947],[130.89466,32.88039],[130.88927,32.87988],[130.87993,32.87562],[130.85233,32.87542],[130.84899,32.87441],[130.84056,32.86913],[130.82464,32.86341],[130.81065,32.862],[130.79271,32.85779],[130.78481,32.85458],[130.78361,32.85332],[130.77969,32.83933],[130.77674,32.83471],[130.75075,32.81582],[130.74438,32.79617],[130.74697,32.78554],[130.74405,32.77999],[130.72811,32.76937],[130.72434,32.76772],[130.7046,32.76292],[130.68956,32.7621],[130.68704,32.75257],[130.68848,32.74555],[130.6888,32.73518],[130.68693,32.73261],[130.68043,32.72945],[130.67905,32.72792],[130.67069,32.68995],[130.64245,32.69174],[130.61136,32.69851],[130.58999,32.70437],[130.57252,32.70093],[130.56807,32.69925],[130.56446,32.69379],[130.55457,32.68732],[130.5526,32.67254],[130.55055,32.66913],[130.53814,32.66487],[130.52712,32.66313],[130.5206,32.66108],[130.50812,32.65468],[130.49994,32.65377],[130.48924,32.64672],[130.48261,32.64454],[130.47907,32.64193],[130.47824,32.63961],[130.47581,32.63762],[130.46208,32.63428],[130.45684,32.62894],[130.45241,32.62604],[130.45111,32.62359],[130.45499,32.62337],[130.46161,32.61766],[130.46219,32.61317],[130.46746,32.60936],[130.46816,32.60824],[130.46788,32.60617],[130.4704,32.60784],[130.47238,32.60644],[130.47158,32.6055],[130.46699,32.60425],[130.4606,32.60512],[130.45796,32.60746],[130.45776,32.60931],[130.45957,32.6147],[130.45059,32.62228],[130.45007,32.62741],[130.37456,32.76774],[130.37192,32.76829],[130.3698,32.76255],[130.36665,32.76026],[130.36228,32.75904],[130.36139,32.75619],[130.35878,32.75406],[130.35841,32.75213],[130.35103,32.74101],[130.34742,32.7375],[130.33678,32.73298],[130.3254,32.7297],[130.32138,32.73049],[130.32009,32.73203],[130.3163,32.73141],[130.31342,32.73342],[130.31084,32.73369],[130.30857,32.7324],[130.30802,32.73073],[130.30645,32.73014],[130.30619,32.72842],[130.30313,32.72804],[130.3042,32.72737],[130.30382,32.72653],[130.30628,32.72594],[130.30711,32.72282],[130.30569,32.72256],[130.30315,32.71994],[130.30036,32.7214],[130.29951,32.72272],[130.2992,32.72007],[130.29777,32.71924],[130.29542,32.72005],[130.29316,32.72236],[130.29106,32.72202],[130.29098,32.7242],[130.2901,32.72425],[130.28876,32.72633],[130.28696,32.72622],[130.2873,32.72722],[130.2866,32.7278],[130.28734,32.72821],[130.28667,32.72967],[130.28508,32.72905],[130.28426,32.73072],[130.28473,32.73134],[130.28211,32.73334],[130.28163,32.73208],[130.27854,32.7333],[130.27713,32.7321],[130.27664,32.73394],[130.27742,32.73497],[130.27584,32.73574],[130.27648,32.73715],[130.27508,32.74131],[130.27177,32.74336],[130.26909,32.74292],[130.26783,32.7441],[130.26132,32.7449],[130.26083,32.74202],[130.26273,32.73862],[130.25996,32.73743],[130.25969,32.73519],[130.25801,32.73422],[130.25524,32.7281],[130.24917,32.72395],[130.247,32.72646],[130.24565,32.72428],[130.24207,32.72196],[130.2315,32.72062],[130.22998,32.71825],[130.22994,32.71671],[130.23091,32.71585],[130.23403,32.71578],[130.23439,32.71375],[130.23355,32.71492],[130.2278,32.71357],[130.2262,32.71389],[130.22179,32.71037],[130.22122,32.71139],[130.22267,32.71429],[130.22205,32.71513],[130.22325,32.71662],[130.21994,32.71395],[130.22002,32.71248],[130.21921,32.71287],[130.21945,32.71612],[130.21752,32.71534],[130.21576,32.7163],[130.2191,32.71831],[130.21364,32.72032],[130.21446,32.7211],[130.2141,32.7227],[130.21629,32.7225],[130.21456,32.7247],[130.21308,32.72499],[130.20878,32.72164],[130.20513,32.72269],[130.20446,32.72366],[130.20474,32.72561],[130.2062,32.72652],[130.20692,32.72832],[130.20683,32.73201],[130.20872,32.73382],[130.21001,32.73777],[130.2095,32.74099],[130.21048,32.74386],[130.21119,32.75193],[130.20831,32.75351],[130.20933,32.75719],[130.20422,32.75676],[130.20303,32.75781],[130.20267,32.75996],[130.2047,32.7614],[130.20947,32.76168],[130.21371,32.76502],[130.21414,32.76651],[130.21346,32.76838],[130.21438,32.77136],[130.21303,32.7754],[130.20438,32.78413],[130.18982,32.78873],[130.18363,32.79307],[130.18281,32.79461],[130.17652,32.79626],[130.16734,32.79512],[130.1658,32.79551],[130.16241,32.79953],[130.15528,32.80359],[130.14967,32.80877],[130.15054,32.81198],[130.15014,32.81394],[130.15206,32.81734],[130.14957,32.81986],[130.14747,32.82576],[130.13468,32.83378],[130.12055,32.83448],[130.11519,32.83401],[130.10547,32.83717],[130.10068,32.83794],[130.0829,32.833],[130.07602,32.83299],[130.06751,32.8342],[130.05352,32.83205],[130.04322,32.83387],[130.03334,32.84097],[130.02889,32.84139],[130.01913,32.83763],[130.00582,32.83693],[129.99979,32.83047],[129.99752,32.82911],[129.98873,32.83045],[129.98351,32.829],[129.97649,32.82528],[129.96648,32.81708],[129.96609,32.81371],[129.96644,32.81615],[129.96805,32.81793],[129.9765,32.82515],[129.98326,32.82879],[129.98845,32.83036],[129.99787,32.82911],[130.00585,32.83685],[130.01916,32.8375],[130.02849,32.84116],[130.03322,32.84086],[130.04319,32.83381],[130.05351,32.83198],[130.06752,32.83414],[130.08258,32.83286],[130.08943,32.83423],[130.09585,32.83689]],[[129.9467,32.7603],[129.94181,32.76036],[129.93958,32.76117],[129.93617,32.76488],[129.93574,32.76175],[129.93128,32.759],[129.9169,32.75909],[129.90584,32.75318],[129.89582,32.75041],[129.89195,32.75203],[129.88312,32.75265],[129.87685,32.74947],[129.8741,32.74512],[129.87673,32.74949],[129.88326,32.75277],[129.89211,32.75213],[129.89587,32.75052],[129.9058,32.75326],[129.90854,32.7555],[129.91282,32.75665],[129.91689,32.7594],[129.93124,32.7591],[129.93557,32.76172],[129.93614,32.76499],[129.93964,32.76125],[129.94184,32.76045],[129.9467,32.7603],[129.94787,32.76172],[129.94821,32.76638],[129.95123,32.77283],[129.95229,32.77804],[129.94761,32.78666],[129.94731,32.78878],[129.94888,32.79073],[129.95126,32.79202],[129.9557,32.79829],[129.96229,32.80071],[129.96327,32.80467],[129.96634,32.80932],[129.96609,32.81371]],[[131.6025,33.23701],[131.61198,33.23227],[131.619,33.23204],[131.61872,33.22412],[131.61888,33.23192],[131.61198,33.23214],[131.60247,33.23692]],[[131.64037,33.08774],[131.64246,33.09044],[131.64833,33.09148],[131.65036,33.09377],[131.65138,33.10089],[131.65677,33.11008],[131.65645,33.11214],[131.65372,33.11678],[131.65412,33.12237],[131.66012,33.13395],[131.65814,33.14028],[131.65745,33.14946],[131.65459,33.15568],[131.65019,33.16071],[131.63862,33.16619],[131.65,33.161],[131.65453,33.15596],[131.65756,33.14949],[131.65835,33.13971],[131.66018,33.13469],[131.65993,33.13268],[131.65511,33.12478],[131.65393,33.12113],[131.65394,33.11625],[131.65692,33.11041],[131.65135,33.10056],[131.65105,33.09367],[131.64831,33.09111],[131.64232,33.09019],[131.63971,33.08699],[131.63222,33.08085],[131.63088,33.07831],[131.6304,33.07252],[131.62884,33.07086],[131.62363,33.06887],[131.62164,33.06346],[131.61947,33.06068],[131.61016,33.05593],[131.6031,33.05101],[131.59116,33.04504],[131.58321,33.03909],[131.57698,33.03807],[131.56785,33.04061],[131.56093,33.03884],[131.55371,33.03908],[131.54595,33.03731],[131.53678,33.03247],[131.53266,33.03138],[131.51791,33.03402],[131.51034,33.03451],[131.49338,33.03397],[131.48412,33.03169],[131.48132,33.02992],[131.47601,33.02373],[131.46699,33.01835],[131.45488,33.00722],[131.43528,32.99777],[131.42086,32.99497],[131.41519,32.99052],[131.40557,32.98565],[131.39663,32.97997],[131.39348,32.97779],[131.39346,32.97618],[131.3897,32.97384],[131.38559,32.97371],[131.38348,32.97169],[131.38236,32.96773],[131.38391,32.96377],[131.38349,32.96126],[131.37872,32.95734],[131.37636,32.95643],[131.37464,32.95313],[131.37161,32.95195],[131.36342,32.95315],[131.35632,32.95177],[131.34798,32.95314],[131.34613,32.9524],[131.34316,32.94944],[131.33625,32.94792],[131.3325,32.94898],[131.327,32.94875],[131.32053,32.95126],[131.29877,32.95426],[131.28986,32.9572],[131.27577,32.95708],[131.25682,32.96101],[131.251,32.96132],[131.24647,32.96054],[131.23695,32.96195],[131.22845,32.95994],[131.22202,32.95746],[131.21682,32.95688],[131.2113,32.95861],[131.20539,32.9623],[131.19115,32.95689],[131.18403,32.95127],[131.1682,32.94929],[131.16102,32.9451],[131.15919,32.94165],[131.15454,32.94133],[131.15571,32.94309],[131.15386,32.94283],[131.15311,32.94357],[131.15155,32.94043],[131.14971,32.94011],[131.1498,32.94134],[131.14611,32.94102],[131.14452,32.94395],[131.14371,32.94412],[131.14341,32.94357],[131.14503,32.94205],[131.14451,32.94049],[131.1466,32.9394],[131.14504,32.93766],[131.14296,32.93688],[131.13191,32.93818],[131.12668,32.93722],[131.12253,32.93812],[131.11486,32.93771],[131.11076,32.9383],[131.10029,32.93805],[131.09242,32.93646],[131.08583,32.938],[131.07711,32.93488],[131.0709,32.93382],[131.04672,32.93609],[131.04021,32.93441],[131.03502,32.93525],[131.03077,32.93499],[131.02503,32.93102],[131.01023,32.92853],[131.00615,32.927],[131.00297,32.92243],[130.99372,32.91714],[130.99374,32.91167],[130.99217,32.90588],[130.98827,32.89915],[130.98842,32.89466],[130.99022,32.89221],[130.98742,32.88703],[130.98675,32.88254],[130.98508,32.88094]],[[131.60378,33.20726],[131.60321,33.20518],[131.60692,33.20086],[131.61668,33.18536],[131.61649,33.18047],[131.61858,33.17805],[131.61639,33.18048],[131.61652,33.18545],[131.60675,33.20086],[131.6031,33.20517],[131.60368,33.20715],[131.61762,33.22151],[131.61872,33.22412]],[[131.63128,33.07109],[131.63025,33.07157],[131.62884,33.07102],[131.63059,33.07299]],[[131.63099,33.07427],[131.63092,33.07134]],[[131.61858,33.17805],[131.62396,33.17328],[131.62606,33.1701],[131.63343,33.1697],[131.63862,33.16619]],[[131.63156,33.08],[131.63616,33.08415]],[[131.61891,33.06027],[131.61022,33.05585],[131.60128,33.05005]],[[131.00008,32.92104],[130.99632,32.92496],[130.99236,32.92403],[130.98723,32.92405],[130.98472,32.92227],[130.98279,32.91679],[130.97924,32.91452],[130.98201,32.9157]],[[130.98145,32.91593],[130.95673,32.90548],[130.93731,32.9007],[130.92919,32.89991]],[[130.89611,32.89013],[130.89627,32.89615],[130.9044,32.89914],[130.93194,32.89992],[130.92923,32.89932],[130.92933,32.89841],[130.93118,32.89724]],[[130.92933,32.89841],[130.92908,32.89975]],[[130.89665,32.8901],[130.89616,32.89208],[130.89673,32.88767]],[[131.39604,32.97953],[131.40456,32.98514],[131.41526,32.99065],[131.4208,32.99504],[131.435,32.99773],[131.45504,33.00739],[131.46748,33.01881],[131.47646,33.02416],[131.48081,33.0295],[131.48351,33.03148],[131.49189,33.0338],[131.49969,33.03442]],[[130.93289,32.90001],[130.93194,32.89992]],[[130.97924,32.91452],[130.979,32.91442]]]}}]}