{"type":"FeatureCollection","features":[{"type":"Feature","properties":{"route_id":"416","route_number":416,"name":"国道416号","source":"OpenStreetMap contributors (ODbL)","osm_relations":[8616846]},"geometry":{"type":"MultiLineString","coordinates":[[[136.29514,36.0819],[136.29057,36.08466],[136.28302,36.08451],[136.28274,36.08935],[136.28901,36.08964],[136.30203,36.09277],[136.30347,36.09467],[136.30883,36.09782],[136.31401,36.10001],[136.31831,36.10064],[136.32721,36.09805],[136.33484,36.09269],[136.34085,36.09077],[136.34027,36.08855],[136.3555,36.08735],[136.3601,36.08498],[136.37167,36.08327],[136.37472,36.08244],[136.37773,36.08043],[136.38482,36.07907],[136.38596,36.08069],[136.39185,36.0824],[136.40278,36.07932],[136.42022,36.07718],[136.42168,36.08075],[136.42516,36.08019],[136.42949,36.07824],[136.43572,36.07759],[136.45449,36.07773],[136.4626,36.07972],[136.49272,36.07432]],[[136.47612,36.3752],[136.47754,36.37483],[136.47768,36.36816],[136.48012,36.36428],[136.48026,36.36073],[136.48096,36.3599],[136.48578,36.35785],[136.49176,36.35909],[136.49419,36.35813],[136.50008,36.35813],[136.50358,36.35687],[136.50445,36.35593],[136.50397,36.3522],[136.50549,36.34752],[136.50948,36.34447],[136.51411,36.34229],[136.51874,36.34053],[136.52366,36.33974],[136.52469,36.33856],[136.52487,36.33579],[136.52765,36.33395],[136.5271,36.33143],[136.52767,36.32883],[136.52998,36.32417],[136.53216,36.32251],[136.53232,36.3189],[136.5317,36.31506],[136.52895,36.31231],[136.52787,36.30947],[136.52796,36.30145],[136.52906,36.29985],[136.52809,36.29819],[136.52894,36.29837],[136.5296,36.29573],[136.529,36.29335],[136.52813,36.29283],[136.52863,36.2902],[136.52629,36.2893],[136.52779,36.28887],[136.5275,36.28681],[136.52818,36.28631],[136.52741,36.28485],[136.53312,36.27914],[136.53312,36.27795],[136.53525,36.2752],[136.5341,36.27368],[136.53429,36.26843],[136.53363,36.26667],[136.53437,36.2619],[136.53978,36.25374],[136.53955,36.25077],[136.53697,36.24724],[136.53623,36.24728],[136.5349,36.24456],[136.53152,36.24277],[136.53113,36.2399],[136.52893,36.23804],[136.52996,36.23528],[136.53129,36.23424],[136.53036,36.23084],[136.53229,36.23034],[136.52975,36.2272],[136.53211,36.22352],[136.5322,36.22172],[136.53047,36.21986],[136.53063,36.21753],[136.52943,36.21679],[136.52915,36.21366],[136.52558,36.20635],[136.52523,36.19946],[136.52448,36.19845],[136.52528,36.19666],[136.52387,36.19431],[136.52613,36.19167],[136.52332,36.18888],[136.52282,36.18675],[136.52424,36.18067],[136.52183,36.1791],[136.52136,36.17704],[136.52413,36.17195],[136.52327,36.16609],[136.52653,36.16209],[136.52639,36.15675],[136.52772,36.15449],[136.53018,36.15251],[136.52705,36.15278],[136.52721,36.15188],[136.52633,36.15112],[136.52469,36.1513],[136.52288,36.15022],[136.52415,36.149],[136.52351,36.14846],[136.52296,36.14922],[136.52324,36.14774],[136.52219,36.14834],[136.52124,36.14674],[136.52011,36.14643],[136.52091,36.14623],[136.51972,36.14394],[136.52071,36.14343],[136.52018,36.1423],[136.5164,36.13774],[136.51452,36.13762],[136.51392,36.13543],[136.51509,36.13596],[136.51504,36.13529],[136.51595,36.13546],[136.51354,36.13345],[136.51421,36.13311],[136.51313,36.13163],[136.50997,36.13007],[136.50849,36.12781],[136.50739,36.12244],[136.50809,36.11946],[136.50647,36.11632],[136.50261,36.11213],[136.49993,36.11112],[136.49728,36.10715],[136.49209,36.10249],[136.49166,36.09972],[136.49236,36.1013]],[[136.29528,36.08146],[136.29062,36.08455],[136.28308,36.08441],[136.28274,36.08935]],[[136.09875,36.14639],[136.0993,36.14555],[136.10245,36.14471],[136.11036,36.14427],[136.11324,36.14189],[136.11433,36.13994],[136.12164,36.13992],[136.12548,36.14126],[136.12723,36.1399],[136.14256,36.13864],[136.14582,36.1401],[136.15097,36.14051],[136.15852,36.13633],[136.16742,36.12587],[136.16501,36.13669],[136.1636,36.13832],[136.15885,36.14004],[136.1579,36.1491],[136.15529,36.15403],[136.15043,36.15724],[136.14525,36.15817],[136.11969,36.15321],[136.11394,36.15384],[136.1111,36.15514]],[[136.18852,36.10875],[136.18859,36.10574],[136.19184,36.10425],[136.19686,36.09907],[136.19764,36.08184],[136.25555,36.08588],[136.26498,36.08603],[136.27596,36.08432],[136.28308,36.08441],[136.27359,36.08464]],[[136.16742,36.12587],[136.16821,36.12121],[136.16921,36.11992],[136.17659,36.11891],[136.18867,36.11526],[136.18932,36.11397],[136.18852,36.1088]],[[136.4626,36.07972],[136.46773,36.07825],[136.49268,36.07425],[136.49475,36.07834],[136.49526,36.08158],[136.49417,36.08346],[136.49468,36.08529],[136.49137,36.0904],[136.49049,36.09323],[136.49166,36.09972]],[[136.28715,36.08655],[136.28718,36.08461]],[[136.17704,36.11878],[136.18916,36.11486],[136.1885,36.10607],[136.1921,36.10417],[136.19703,36.09886],[136.19764,36.08184]],[[136.26779,36.08563],[136.26293,36.086]],[[136.23394,36.08453],[136.22875,36.08409]]]}}]}