{"type":"FeatureCollection","features":[{"type":"Feature","properties":{"route_id":"241","route_number":241,"name":"国道241号","source":"OpenStreetMap contributors (ODbL)","osm_relations":[6632428,9442303]},"geometry":{"type":"MultiLineString","coordinates":[[[143.16337,42.92909],[143.15902,42.96398],[143.16139,42.96632],[143.18183,42.97446],[143.18377,42.97596],[143.1843,42.9786],[143.18068,43.00574],[143.18106,43.00831],[143.18274,43.01007],[143.18511,43.01101],[143.19937,43.01223],[143.20334,43.01403],[143.20447,43.01592],[143.2056,43.02186],[143.2048,43.03263],[143.21857,43.04728],[143.24248,43.15301],[143.24637,43.15945],[143.24853,43.16128],[143.26312,43.16506],[143.26595,43.16695],[143.27603,43.2084],[143.28316,43.2194],[143.30052,43.22916],[143.30318,43.23746],[143.30589,43.23972],[143.3719,43.25976],[143.4052,43.27601],[143.40657,43.27785],[143.40684,43.28316],[143.4136,43.2848],[143.41686,43.2836],[143.42867,43.27295],[143.43523,43.26285],[143.43725,43.26117],[143.44949,43.25561],[143.45296,43.25515],[143.45608,43.2536],[143.46473,43.25299],[143.46999,43.25365],[143.47815,43.25231],[143.48461,43.24469],[143.48476,43.23841],[143.4856,43.23727],[143.49827,43.23174],[143.50673,43.23345],[143.51443,43.23073],[143.52284,43.22624],[143.52902,43.22631],[143.53014,43.22771],[143.52664,43.23003],[143.52591,43.23179],[143.52706,43.23425],[143.52983,43.23691],[143.53273,43.23828],[143.53687,43.23868],[143.53838,43.2376],[143.54047,43.2328],[143.54604,43.23204],[143.54702,43.24428],[143.55822,43.24331],[143.56648,43.25388],[143.58057,43.26434],[143.5933,43.26843],[143.59748,43.27071],[143.60214,43.27455],[143.6105,43.27821],[143.62191,43.27948],[143.62994,43.28445],[143.63731,43.28667],[143.64311,43.28739],[143.65438,43.28722],[143.66078,43.29137],[143.67025,43.29423],[143.68878,43.30401],[143.69227,43.30419],[143.69634,43.30762],[143.70255,43.30899],[143.70922,43.30861],[143.72124,43.31654],[143.72305,43.32023],[143.7303,43.32344],[143.7328,43.32635],[143.73914,43.32994],[143.74448,43.3368],[143.75231,43.33962],[143.75967,43.34006],[143.7637,43.34268],[143.77541,43.3471],[143.77761,43.35039],[143.78276,43.35424],[143.78727,43.35484],[143.79408,43.35266],[143.79735,43.35287],[143.82689,43.36139],[143.84557,43.35972],[143.85359,43.3623],[143.86233,43.3683],[143.87055,43.37089],[143.87523,43.37456],[143.87909,43.37507],[143.88591,43.37885],[143.90476,43.38297],[143.91342,43.38296],[143.92226,43.39251],[143.92617,43.39868],[143.93331,43.40381],[143.94763,43.40743],[143.95304,43.40755],[143.96521,43.41043],[143.97234,43.41408],[143.98397,43.42265],[143.98658,43.42662],[143.99486,43.43329],[144.01136,43.43988],[144.01322,43.44302],[144.02192,43.44809],[144.03203,43.4468],[144.05578,43.43816],[144.07315,43.43396],[144.0857,43.43513],[144.08776,43.43442],[144.09066,43.43178],[144.09518,43.43124],[144.10464,43.43369],[144.13493,43.43144],[144.14218,43.42943],[144.14228,43.4247],[144.14317,43.42366],[144.14476,43.42297],[144.15096,43.423],[144.15589,43.4203],[144.15787,43.42006],[144.16258,43.42243],[144.16641,43.42256],[144.17331,43.4254],[144.1754,43.42682],[144.17463,43.42877],[144.1755,43.43161],[144.18154,43.43329],[144.18628,43.43695],[144.19108,43.43747],[144.19137,43.43853],[144.19062,43.43923],[144.18665,43.43906],[144.18489,43.44001],[144.18464,43.44341],[144.1858,43.44465],[144.18811,43.44471],[144.19075,43.44307],[144.19559,43.44308],[144.19746,43.44454],[144.19785,43.44688],[144.20178,43.44917],[144.20438,43.44878],[144.21195,43.44526],[144.2211,43.44923],[144.22355,43.4492],[144.22497,43.45063],[144.22768,43.45059],[144.22552,43.4537],[144.22281,43.4541],[144.22114,43.45623],[144.22365,43.45718],[144.22633,43.46062],[144.22878,43.46053],[144.23228,43.46277],[144.23545,43.46218],[144.23731,43.46268],[144.23761,43.46212],[144.2366,43.46117],[144.2371,43.4607],[144.24023,43.46079],[144.24184,43.46171],[144.24237,43.46052],[144.24573,43.45987],[144.24134,43.45776],[144.24379,43.45676],[144.24766,43.45685],[144.24987,43.45772],[144.25149,43.45919],[144.25176,43.46048],[144.25338,43.46052],[144.25812,43.46284],[144.25947,43.46279],[144.25947,43.46198],[144.26092,43.46112],[144.26239,43.46207],[144.2652,43.46225],[144.26628,43.46022],[144.26878,43.4612],[144.2685,43.46202],[144.26915,43.46234],[144.27192,43.46155],[144.27286,43.46319],[144.28125,43.46268],[144.28762,43.46376],[144.2953,43.47119],[144.29927,43.47371],[144.30218,43.47449],[144.32337,43.47438],[144.32884,43.47298],[144.33784,43.47392],[144.34965,43.47092],[144.39075,43.47191],[144.3965,43.47465],[144.41274,43.47526],[144.42177,43.47663],[144.43972,43.48219],[144.44107,43.48398],[144.43859,43.48786],[144.43929,43.48953],[144.44886,43.49346],[144.45399,43.49303]],[[143.20396,42.9321],[143.20314,42.93405],[143.20104,42.93452],[143.20384,42.94215],[143.20123,42.93464],[143.2034,42.93397],[143.20408,42.93208]],[[143.20384,42.94215],[143.20804,42.97624],[143.2033,42.99057],[143.20194,42.99802],[143.19801,43.00538],[143.1986,43.0068],[143.20348,43.01092],[143.20397,43.01455],[143.20052,43.01236],[143.18561,43.01101],[143.1817,43.009],[143.1808,43.0059],[143.18441,42.97864],[143.18408,42.97621],[143.18161,42.97425],[143.16134,42.96618],[143.15915,42.96399],[143.1635,42.9291]],[[143.20528,43.01975],[143.20383,43.01461]]]}}]}