{"type":"FeatureCollection","features":[{"type":"Feature","properties":{"route_id":"15","route_number":15,"name":"国道15号","source":"OpenStreetMap contributors (ODbL)","osm_relations":[2107249]},"geometry":{"type":"MultiLineString","coordinates":[[[139.68239,35.50927],[139.67379,35.49945],[139.6663,35.49313],[139.65601,35.48647],[139.64437,35.48353],[139.63887,35.47944],[139.63013,35.47023],[139.62737,35.47],[139.6304,35.47009],[139.64006,35.48027],[139.64455,35.48346],[139.65635,35.48654],[139.66678,35.49341],[139.67389,35.49945],[139.67961,35.50577],[139.69014,35.52011],[139.70234,35.52685],[139.7073,35.53352],[139.70919,35.54084],[139.73337,35.57299],[139.73635,35.58168],[139.73571,35.58743],[139.73642,35.59478],[139.74008,35.60271],[139.74309,35.60666],[139.74066,35.61914],[139.73795,35.62368],[139.73756,35.63174],[139.73942,35.63776],[139.74368,35.64482],[139.75301,35.64918],[139.75515,35.6604],[139.76119,35.66763],[139.76886,35.67489],[139.77445,35.68406]],[[139.77454,35.68405],[139.76893,35.67485],[139.76127,35.6676],[139.7553,35.66033],[139.75314,35.64905],[139.74371,35.64468],[139.73888,35.63594],[139.7376,35.63027],[139.73807,35.62368],[139.74076,35.61917],[139.74319,35.60665],[139.73999,35.60238],[139.73653,35.59476],[139.73595,35.58739],[139.73668,35.58205],[139.73373,35.57317],[139.71021,35.54223],[139.70911,35.54035],[139.70763,35.53387],[139.70254,35.52675],[139.69039,35.52006],[139.6863,35.51443]]]}}]}