{"type":"FeatureCollection","features":[{"type":"Feature","properties":{"route_id":"466","route_number":466,"name":"国道466号","source":"OpenStreetMap contributors (ODbL)","osm_relations":[10768604,13030567]},"geometry":{"type":"MultiLineString","coordinates":[[[139.59952,35.47435],[139.59512,35.48068],[139.59222,35.48804],[139.59127,35.49839],[139.59267,35.50563],[139.59348,35.52115],[139.59523,35.52573],[139.60071,35.53494],[139.60263,35.54691],[139.60802,35.55528],[139.61,35.56395],[139.61592,35.57334],[139.61873,35.58339],[139.62333,35.59023],[139.62864,35.59581]],[[139.63136,35.6211],[139.6351,35.61872],[139.64026,35.60781],[139.64205,35.60692],[139.64089,35.60723],[139.6273,35.59442],[139.61986,35.58518],[139.61807,35.58119],[139.6161,35.5733],[139.61016,35.56387],[139.60818,35.55521],[139.60281,35.5469],[139.60089,35.5349],[139.5954,35.52567],[139.59353,35.52057],[139.59288,35.50601],[139.59144,35.49836],[139.59243,35.48777],[139.5944,35.48248],[139.59749,35.47725],[139.60078,35.47432],[139.6016,35.47455],[139.60023,35.47491]],[[139.64129,35.60677],[139.6388,35.60515]],[[139.63081,35.59762],[139.64082,35.60729],[139.64195,35.60737],[139.64252,35.60649]],[[139.63208,35.59879],[139.63434,35.60098]],[[139.6416,35.60665],[139.64014,35.6078],[139.63512,35.61847],[139.63125,35.62105]],[[139.63871,35.60528],[139.64046,35.60734]]]}}]}