{"type":"FeatureCollection","features":[{"type":"Feature","properties":{"route_id":"503","route_number":503,"name":"国道503号","source":"OpenStreetMap contributors (ODbL)","osm_relations":[9852047]},"geometry":{"type":"MultiLineString","coordinates":[[[131.63084,32.4194],[131.61558,32.41641],[131.61347,32.41716],[131.61069,32.4168],[131.602,32.41276],[131.59876,32.41026],[131.59412,32.41024],[131.58389,32.40619],[131.58098,32.40433],[131.57473,32.40387],[131.56611,32.39986],[131.56214,32.40083],[131.55694,32.39744],[131.55417,32.39347],[131.54292,32.39298],[131.54062,32.39439],[131.53947,32.39665],[131.53752,32.39783],[131.53581,32.39785],[131.53367,32.39654],[131.52957,32.38837],[131.52634,32.38661],[131.52163,32.38993],[131.50875,32.3932],[131.5027,32.39675],[131.49955,32.39972],[131.49915,32.40182],[131.50236,32.40457],[131.50197,32.40691],[131.50375,32.41052],[131.5038,32.4143],[131.50035,32.4183],[131.49604,32.42607],[131.48669,32.42624],[131.48252,32.42854],[131.47905,32.429],[131.47783,32.42868],[131.47538,32.42596],[131.47152,32.42429],[131.46935,32.42597],[131.46853,32.42868],[131.46379,32.43063],[131.46013,32.43011],[131.45229,32.43071],[131.45027,32.43221],[131.44861,32.43568],[131.44162,32.4388],[131.44013,32.44284],[131.43389,32.44261],[131.42911,32.44649],[131.42828,32.44975],[131.42913,32.45358],[131.43438,32.45786],[131.42631,32.46278],[131.42265,32.46385],[131.41948,32.46216],[131.41881,32.46064],[131.4201,32.45694],[131.41952,32.45516],[131.41836,32.45435],[131.41425,32.45434],[131.40358,32.45802],[131.39697,32.4574],[131.39513,32.45348],[131.39119,32.45205],[131.38769,32.45304],[131.3847,32.45648],[131.38433,32.46064],[131.38288,32.46257],[131.37599,32.46291],[131.37464,32.4648],[131.37621,32.46786],[131.37467,32.47162],[131.37439,32.47675],[131.379,32.47974],[131.38383,32.4879],[131.38415,32.49011],[131.37815,32.49217],[131.37262,32.48924],[131.37077,32.48937],[131.36997,32.49052],[131.37259,32.49273],[131.37301,32.49425],[131.37131,32.49735],[131.36939,32.49857],[131.36181,32.49929],[131.35916,32.50326],[131.35715,32.50474],[131.35022,32.50478],[131.34562,32.50271],[131.34294,32.50261],[131.34128,32.5047],[131.34344,32.50758],[131.34265,32.50882],[131.33931,32.50916],[131.33431,32.50731],[131.33184,32.50969],[131.32921,32.51087],[131.32506,32.51036],[131.32359,32.51238],[131.31811,32.51588],[131.31459,32.51635],[131.31169,32.52037],[131.30848,32.52099],[131.30864,32.52241],[131.30585,32.52259],[131.30566,32.52362],[131.30657,32.5247],[131.30429,32.52676],[131.30128,32.52803],[131.30122,32.53319],[131.29782,32.53314],[131.29691,32.53543],[131.29377,32.53723],[131.29432,32.5393],[131.29381,32.54194],[131.29194,32.54305],[131.29039,32.54825],[131.28647,32.55112],[131.28685,32.55218],[131.28386,32.55454],[131.28272,32.55753],[131.28159,32.55818],[131.28146,32.55966],[131.27984,32.56067],[131.28015,32.56415],[131.27831,32.56697],[131.27539,32.56665],[131.27575,32.56764],[131.27433,32.56942],[131.27466,32.57446],[131.27589,32.57607],[131.27496,32.57718],[131.27507,32.58041],[131.27895,32.58391],[131.27804,32.58508],[131.27936,32.58612],[131.28258,32.59281],[131.2803,32.59853],[131.28288,32.60243],[131.28227,32.6056],[131.28115,32.60482],[131.27919,32.60677],[131.27664,32.60718],[131.27271,32.61021],[131.27411,32.60924],[131.27191,32.61233],[131.27208,32.61466],[131.27264,32.61364],[131.27298,32.61503],[131.2708,32.61677],[131.26954,32.61983],[131.26999,32.62068],[131.26819,32.62091],[131.26752,32.62304],[131.26885,32.62112],[131.26784,32.62432],[131.26953,32.62658],[131.27097,32.62705],[131.27038,32.62833],[131.2674,32.62742],[131.26696,32.62632],[131.26496,32.62641],[131.26209,32.62453],[131.26132,32.62646],[131.26247,32.62537],[131.26145,32.63107],[131.26065,32.63219],[131.25778,32.63421],[131.2579,32.63248],[131.25662,32.63176],[131.25603,32.63406],[131.25535,32.63239],[131.25557,32.63356],[131.25384,32.63452],[131.2525,32.63322],[131.25447,32.63376],[131.25444,32.6322],[131.2533,32.63192],[131.25264,32.63046],[131.25341,32.63263],[131.25066,32.63073],[131.24897,32.63048],[131.24994,32.63],[131.24662,32.62897],[131.24497,32.62992],[131.24311,32.62981],[131.24282,32.63114],[131.23999,32.62792],[131.23416,32.62767],[131.23123,32.62942],[131.22717,32.62953],[131.22642,32.63132],[131.22443,32.63077],[131.22524,32.63313],[131.22349,32.63433],[131.22341,32.64117],[131.22192,32.64243],[131.22338,32.64445],[131.22094,32.64768],[131.22322,32.65246],[131.22308,32.6564],[131.21656,32.66221],[131.21637,32.66474],[131.21875,32.667],[131.21212,32.67133],[131.21164,32.67418],[131.20818,32.6791],[131.20881,32.6805],[131.21065,32.68103],[131.21115,32.68198],[131.20337,32.67987],[131.20094,32.6806],[131.19963,32.68222],[131.19499,32.68279],[131.19266,32.68463],[131.18749,32.68057],[131.18597,32.68196],[131.18584,32.68437],[131.17903,32.68736],[131.17673,32.69039],[131.17501,32.69118],[131.16626,32.68677],[131.16562,32.6848],[131.16167,32.68529],[131.16134,32.68431],[131.16275,32.6828],[131.16225,32.68181],[131.15923,32.68242],[131.15665,32.68198],[131.14987,32.6847],[131.14693,32.68454],[131.1429,32.68665],[131.1396,32.69089],[131.13789,32.69144],[131.13694,32.69334],[131.13521,32.69395],[131.13509,32.69562],[131.13717,32.69955],[131.13786,32.70369],[131.13707,32.70635],[131.13732,32.70882],[131.14204,32.71155],[131.14716,32.71226],[131.14873,32.71367],[131.14922,32.71581],[131.15452,32.71761],[131.15753,32.71763],[131.15965,32.71897],[131.16156,32.7227],[131.16631,32.72571],[131.17142,32.73095],[131.17315,32.74002],[131.17629,32.74191],[131.1791,32.74824],[131.17619,32.7563],[131.1733,32.76087],[131.17001,32.76405],[131.16692,32.76867],[131.16405,32.77021],[131.16109,32.77543],[131.15549,32.77871],[131.15522,32.78231],[131.15253,32.7863],[131.15136,32.78959],[131.15115,32.79509],[131.14844,32.797],[131.14845,32.80098],[131.14218,32.80386],[131.13925,32.80664],[131.13922,32.81035],[131.1407,32.81139],[131.13979,32.81371],[131.14094,32.81511],[131.14029,32.81644],[131.13818,32.81679],[131.13919,32.8147],[131.13661,32.81425],[131.13666,32.81161],[131.13553,32.8116],[131.13439,32.8129],[131.13485,32.815],[131.13377,32.82112],[131.13528,32.82439],[131.13224,32.82721]]]}}]}