{"type":"FeatureCollection","features":[{"type":"Feature","properties":{"route_id":"446","route_number":446,"name":"国道446号","source":"OpenStreetMap contributors (ODbL)","osm_relations":[9668498]},"geometry":{"type":"MultiLineString","coordinates":[[[131.63084,32.4194],[131.61558,32.41641],[131.61347,32.41716],[131.61069,32.4168],[131.602,32.41276],[131.59876,32.41026],[131.59412,32.41024],[131.58389,32.40619],[131.58098,32.40433],[131.57473,32.40387],[131.56611,32.39986],[131.56214,32.40083],[131.55694,32.39744],[131.55417,32.39347],[131.54292,32.39298],[131.54062,32.39439],[131.53947,32.39665],[131.53752,32.39783],[131.53581,32.39785],[131.53367,32.39654],[131.52989,32.38875],[131.5267,32.38662],[131.52309,32.38835],[131.52177,32.38987],[131.51283,32.39209],[131.50992,32.38796],[131.50666,32.38596],[131.50365,32.37992],[131.50347,32.37518],[131.49858,32.37088],[131.49471,32.37026],[131.48553,32.36415],[131.48054,32.36441],[131.47484,32.36341],[131.47159,32.36506],[131.46581,32.36291],[131.46207,32.36298],[131.45822,32.36144],[131.45582,32.36295],[131.45039,32.3631],[131.4485,32.3639],[131.44446,32.36355],[131.43961,32.36035],[131.43741,32.35983],[131.43593,32.35822],[131.43657,32.35459],[131.43547,32.35058],[131.43308,32.34863],[131.43261,32.34654],[131.43085,32.34483],[131.43137,32.34378],[131.42958,32.34234],[131.43098,32.34132],[131.42986,32.34023],[131.42473,32.33866],[131.41646,32.34142],[131.41198,32.34042],[131.40702,32.34147],[131.40514,32.34069],[131.4043,32.33943],[131.39924,32.33773],[131.3923,32.34137],[131.39208,32.34222],[131.39368,32.34494],[131.39352,32.34666],[131.39189,32.34875],[131.38912,32.34796],[131.38748,32.34834],[131.38615,32.35214],[131.38728,32.35599],[131.37932,32.36505],[131.3743,32.36867],[131.37333,32.37383],[131.36912,32.3761],[131.36621,32.37634],[131.36242,32.37784],[131.35454,32.37741],[131.33758,32.381],[131.33452,32.38484],[131.33,32.38612],[131.32803,32.38957],[131.32577,32.39917],[131.32487,32.4002],[131.32109,32.39989],[131.31939,32.39752],[131.31376,32.39637],[131.31202,32.38698],[131.30698,32.38285],[131.30412,32.38152],[131.30143,32.3815],[131.30013,32.38239],[131.29873,32.38577],[131.29541,32.38625],[131.29235,32.38881],[131.29111,32.39267],[131.28449,32.39483],[131.28389,32.39799],[131.28147,32.39779],[131.27813,32.3989],[131.27497,32.40219],[131.2691,32.40139],[131.26767,32.40349],[131.26252,32.40401],[131.25914,32.40598],[131.25948,32.4078],[131.256,32.4083],[131.25409,32.41006],[131.25176,32.41522],[131.24673,32.41583],[131.2451,32.41742],[131.23941,32.41868],[131.23872,32.4181],[131.23978,32.41505],[131.23744,32.41349],[131.24016,32.4126],[131.24099,32.41108],[131.23933,32.40878],[131.2379,32.40869],[131.23605,32.40664],[131.23246,32.40643],[131.23241,32.40422],[131.23047,32.40359],[131.22806,32.40421],[131.22667,32.40276],[131.22148,32.4026],[131.21979,32.40463],[131.21963,32.40341],[131.21758,32.40521],[131.21098,32.40729],[131.21044,32.40852],[131.20844,32.40758],[131.20595,32.4104],[131.20304,32.4106],[131.20233,32.40977],[131.20008,32.40956],[131.20139,32.40842],[131.19904,32.40822],[131.19635,32.40623],[131.19625,32.40537],[131.1969,32.40567],[131.19749,32.40432],[131.19792,32.40609],[131.19889,32.40636],[131.20108,32.40615],[131.2023,32.4042],[131.2037,32.40546],[131.20274,32.40373],[131.19982,32.40466],[131.19984,32.40298],[131.19666,32.39908],[131.19407,32.39914],[131.19311,32.39995],[131.19358,32.40106],[131.19301,32.40165],[131.19206,32.40137],[131.19257,32.40067],[131.19099,32.40092],[131.19178,32.39966],[131.19102,32.40046],[131.19028,32.40015],[131.19096,32.39881],[131.18746,32.4],[131.18629,32.40187],[131.18604,32.39983],[131.18343,32.39775],[131.18324,32.39679],[131.17897,32.39575],[131.17736,32.39605],[131.17713,32.39735],[131.1731,32.39842],[131.17369,32.39928],[131.17269,32.40054],[131.17623,32.40377],[131.17353,32.40378],[131.17248,32.40167],[131.17219,32.40284],[131.17125,32.40312],[131.17093,32.40112],[131.1682,32.39886],[131.16906,32.39596],[131.16792,32.39354],[131.16645,32.39272],[131.16543,32.38908],[131.16478,32.38964],[131.16469,32.38901],[131.16003,32.3872],[131.15563,32.38664],[131.15202,32.38399],[131.15008,32.38407],[131.14854,32.38213],[131.14706,32.38213],[131.14558,32.37977],[131.14395,32.37903],[131.14466,32.37701],[131.14213,32.36879],[131.14416,32.36693],[131.14228,32.36548],[131.14118,32.36269],[131.14121,32.35831],[131.13929,32.35749],[131.13506,32.35791],[131.13285,32.35673],[131.13288,32.35852],[131.13183,32.3581],[131.13071,32.36059],[131.12623,32.36232],[131.12676,32.36399],[131.12282,32.36543],[131.12215,32.36442],[131.12,32.36471],[131.10905,32.36059],[131.10246,32.36063],[131.10349,32.35882],[131.10158,32.3572],[131.10158,32.35614],[131.09567,32.3536],[131.09437,32.35228],[131.09426,32.35003],[131.09287,32.34809],[131.09014,32.34695],[131.08769,32.34399],[131.08513,32.34409],[131.08494,32.34269],[131.08379,32.34279],[131.08313,32.34173],[131.08378,32.34073],[131.08216,32.34017],[131.08286,32.33906],[131.07862,32.33651],[131.07995,32.33647],[131.07762,32.33577],[131.08062,32.33559],[131.07445,32.33425],[131.07222,32.3326],[131.07177,32.33341],[131.0725,32.33203],[131.07114,32.33245],[131.06862,32.33176],[131.06673,32.32906],[131.06031,32.32587],[131.05931,32.32453],[131.05526,32.32319],[131.05405,32.3214],[131.04202,32.32088],[131.03754,32.31933],[131.03518,32.31755],[131.0313,32.31895],[131.02934,32.32198],[131.02803,32.32242],[131.02622,32.32123],[131.02622,32.3193],[131.0105,32.31936],[131.01079,32.31598],[131.00978,32.31585],[131.00968,32.31678],[131.01065,32.31613],[131.00453,32.31057],[131.00275,32.30772],[130.99809,32.30406],[130.99466,32.29997],[130.9952,32.29893],[130.99429,32.29723],[130.98606,32.29226],[130.98595,32.28905],[130.98373,32.28631],[130.98293,32.28134]]]}}]}