{"type":"FeatureCollection","features":[{"type":"Feature","properties":{"route_id":"176","route_number":176,"name":"国道176号","source":"OpenStreetMap contributors (ODbL)","osm_relations":[8812592,9349808,9349809,9349810,9349811,9349812,9349813,10034599,10034815]},"geometry":{"type":"MultiLineString","coordinates":[[[135.09776,35.33456],[135.10009,35.33103],[135.09952,35.32848],[135.10041,35.32643],[135.09721,35.32443],[135.09699,35.32335],[135.10288,35.31145],[135.10367,35.30537],[135.10819,35.30247],[135.10981,35.2975],[135.11313,35.29612],[135.11797,35.29257],[135.12276,35.29067],[135.13319,35.29135],[135.13776,35.29067],[135.13755,35.28647],[135.13854,35.28251],[135.13696,35.27732],[135.13959,35.27505],[135.14723,35.27149],[135.14532,35.26971],[135.14645,35.26881],[135.14414,35.26541],[135.14551,35.26439],[135.14671,35.26173],[135.14576,35.25776],[135.13924,35.25145],[135.12567,35.2446],[135.12336,35.2415],[135.12367,35.23929],[135.12787,35.23286],[135.13053,35.21969],[135.13202,35.21731],[135.13498,35.21572],[135.13658,35.21083],[135.12869,35.20254],[135.12436,35.20069],[135.1215,35.19486],[135.11861,35.19226],[135.12327,35.18807],[135.12409,35.18532],[135.12238,35.18071],[135.11911,35.17819],[135.11764,35.17249],[135.11766,35.16795],[135.1168,35.16682],[135.11324,35.16629],[135.09718,35.16683],[135.09026,35.16856],[135.07847,35.1688],[135.07077,35.16714],[135.06867,35.16389],[135.06433,35.1618],[135.06115,35.15384],[135.05357,35.1525],[135.04788,35.15246],[135.04795,35.14993],[135.05349,35.14544],[135.06209,35.14121],[135.06863,35.13614],[135.07417,35.13553],[135.0749,35.12894],[135.08201,35.12512],[135.08949,35.11805],[135.09399,35.11734],[135.10013,35.11813],[135.1071,35.12214],[135.11418,35.12068],[135.12015,35.11622],[135.12317,35.10858],[135.13272,35.09993],[135.13619,35.09816],[135.14847,35.09536],[135.15056,35.09348],[135.15506,35.09222],[135.16351,35.0797],[135.16562,35.07851],[135.16617,35.07649],[135.16547,35.07488],[135.16709,35.0711],[135.16285,35.06748],[135.16266,35.06634],[135.16673,35.06375],[135.17233,35.06293],[135.17709,35.05418],[135.18042,35.05247],[135.18104,35.05129],[135.17503,35.04287],[135.17388,35.03971],[135.17322,35.0339],[135.16148,35.02567],[135.16086,35.02373],[135.15462,35.02024],[135.15303,35.01722],[135.15223,35.01445],[135.15282,35.00793],[135.15528,35.00384],[135.15412,34.99567],[135.15585,34.99219],[135.15976,34.99038],[135.16046,34.98853],[135.15879,34.98525],[135.15437,34.98552],[135.15346,34.98378],[135.15385,34.9822],[135.15677,34.97933],[135.15845,34.97542],[135.15668,34.97138],[135.16282,34.96549],[135.1671,34.96394],[135.17622,34.94429],[135.18688,34.9378],[135.19191,34.93273],[135.19225,34.9288],[135.1938,34.92652],[135.19844,34.92505],[135.2016,34.92141],[135.20467,34.91927],[135.20603,34.91724],[135.20668,34.91426],[135.21125,34.90849],[135.21502,34.89895],[135.23011,34.8919],[135.23457,34.88894],[135.23232,34.88246],[135.2248,34.87683],[135.22333,34.8735],[135.22502,34.87049],[135.22858,34.8684],[135.23009,34.86632],[135.23439,34.8563],[135.23392,34.85044],[135.23474,34.84863],[135.23742,34.84616],[135.23986,34.83507],[135.2411,34.83276],[135.24479,34.8294],[135.24825,34.82845],[135.25853,34.83427],[135.26423,34.83461],[135.25814,34.83403],[135.2484,34.82836],[135.24494,34.82921],[135.24113,34.8326],[135.23973,34.83518],[135.23732,34.84618],[135.23462,34.84863],[135.23375,34.85068],[135.23415,34.85674],[135.22955,34.86717],[135.22498,34.87036],[135.22347,34.87282],[135.22421,34.87616]],[[135.43726,34.8013],[135.42646,34.80924],[135.41161,34.81089],[135.3886,34.80973],[135.37157,34.80333],[135.36828,34.80318],[135.34072,34.81094],[135.33641,34.81344],[135.33245,34.81911],[135.32886,34.82076],[135.325,34.82016],[135.32676,34.82086],[135.33005,34.82051],[135.3334,34.81857],[135.33624,34.81375],[135.34001,34.81132],[135.35114,34.80824],[135.35229,34.80987],[135.35501,34.8105],[135.35941,34.81284],[135.36279,34.81607],[135.36686,34.81757],[135.3755,34.81858],[135.38421,34.81854],[135.389,34.8202],[135.39243,34.82245],[135.40606,34.82593],[135.40976,34.82536],[135.42054,34.82682],[135.42396,34.82605],[135.42469,34.82281],[135.43647,34.81609],[135.44697,34.80846],[135.44941,34.79523],[135.45088,34.79214],[135.46284,34.78732],[135.46824,34.78352],[135.47668,34.7638],[135.47623,34.74422],[135.48179,34.73621],[135.48315,34.73092],[135.48228,34.72505],[135.47851,34.72417],[135.47825,34.71832],[135.4876,34.70745],[135.49335,34.7095],[135.49636,34.70849],[135.49711,34.70526],[135.49626,34.70847],[135.4891,34.7106],[135.48228,34.7184],[135.48139,34.71964],[135.48228,34.72505]],[[135.49961,34.70079],[135.50058,34.69815],[135.4973,34.70413],[135.49961,34.70079]],[[135.09818,35.33558],[135.09768,35.33451],[135.09997,35.33854],[135.10627,35.34031],[135.10798,35.34429],[135.10826,35.34958],[135.11232,35.35504],[135.11478,35.36343],[135.10851,35.36427],[135.10403,35.36399],[135.10179,35.36562],[135.10209,35.36784],[135.10014,35.37002],[135.09612,35.38721],[135.09316,35.39292],[135.08226,35.40073],[135.08239,35.40568],[135.08658,35.41387],[135.0862,35.42047],[135.08033,35.42142],[135.07809,35.42311],[135.07142,35.4251],[135.06773,35.42869],[135.06725,35.43107],[135.06782,35.43383],[135.06705,35.43555],[135.0679,35.43888],[135.07009,35.44072],[135.07391,35.44895],[135.07893,35.45348],[135.07832,35.45464],[135.0756,35.45594],[135.076,35.45831],[135.07436,35.46038],[135.0741,35.46229],[135.07589,35.46415],[135.07723,35.46431],[135.07974,35.46207],[135.08034,35.45944],[135.08303,35.45998],[135.0837,35.46343],[135.08532,35.4648],[135.08489,35.46902],[135.09113,35.47412],[135.09443,35.48569],[135.09724,35.48844],[135.10123,35.4952],[135.104,35.50499],[135.1033,35.5079],[135.10664,35.51309],[135.10821,35.51943],[135.11906,35.52732],[135.12184,35.53193],[135.12239,35.53491],[135.13042,35.5396],[135.13755,35.54955],[135.14,35.55155],[135.14838,35.55327],[135.15219,35.55239],[135.15533,35.55295],[135.1611,35.55161],[135.16522,35.55192],[135.16851,35.55055],[135.17161,35.55069],[135.18328,35.54709],[135.1871,35.54731],[135.18999,35.54538],[135.18999,35.54322],[135.19233,35.53861],[135.19715,35.53703]],[[135.13787,35.29038],[135.13327,35.29111],[135.12232,35.29067],[135.11731,35.29281],[135.10945,35.29806]],[[135.34771,34.80864],[135.36993,34.80314],[135.38479,34.80917],[135.38903,34.81018],[135.40402,34.81143],[135.42033,34.81074],[135.42796,34.80897],[135.43719,34.80171]],[[135.29113,34.83026],[135.28795,34.83055],[135.30422,34.82764],[135.30966,34.82557],[135.31131,34.82338],[135.31524,34.82546],[135.31678,34.82497],[135.31754,34.82363],[135.31678,34.82488],[135.3154,34.82534],[135.31238,34.82339],[135.31092,34.82339],[135.30965,34.82542],[135.30537,34.82703],[135.30514,34.82859],[135.30417,34.82935],[135.29983,34.82967],[135.29578,34.83151],[135.29472,34.8303],[135.29069,34.83076],[135.29759,34.82841],[135.30537,34.82703]],[[135.49711,34.70526],[135.4973,34.70413]],[[135.26423,34.83461],[135.26913,34.83531],[135.27767,34.8329],[135.27611,34.83403],[135.28418,34.83362],[135.28505,34.83171],[135.28795,34.83055]],[[135.48224,34.71852],[135.48395,34.71662]],[[135.31754,34.82363],[135.31661,34.8202],[135.31802,34.81808],[135.32126,34.81808],[135.325,34.82016]],[[135.09814,35.33423],[135.09768,35.33451]]]}}]}