{"type":"FeatureCollection","features":[{"type":"Feature","properties":{"route_id":"221","route_number":221,"name":"国道221号","source":"OpenStreetMap contributors (ODbL)","osm_relations":[9651112]},"geometry":{"type":"MultiLineString","coordinates":[[[130.76948,32.1997],[130.77221,32.20034],[130.77595,32.19974],[130.77887,32.19707],[130.78561,32.19631],[130.7933,32.19314],[130.79544,32.18879],[130.79507,32.18609],[130.79651,32.18172],[130.8011,32.17369],[130.80121,32.16858],[130.80544,32.16277],[130.80516,32.1618],[130.80183,32.1598],[130.80104,32.15488],[130.80464,32.15291],[130.80456,32.14731],[130.80802,32.1459],[130.81004,32.14133],[130.81245,32.13999],[130.81244,32.13696],[130.81485,32.13508],[130.81448,32.12783],[130.81205,32.1241],[130.80767,32.1215],[130.80821,32.12093],[130.81278,32.12152],[130.81368,32.1201],[130.81196,32.11982],[130.81187,32.12087],[130.81297,32.12125],[130.8146,32.12057],[130.8149,32.1193],[130.81331,32.11842],[130.81043,32.11862],[130.80654,32.11536],[130.80558,32.11326],[130.80476,32.10737],[130.80515,32.10478],[130.80202,32.0912],[130.8009,32.08278],[130.79809,32.08009],[130.79911,32.07886],[130.80256,32.07909],[130.8031,32.07778],[130.79768,32.07297],[130.79851,32.07131],[130.80061,32.07179],[130.80152,32.07392],[130.79933,32.07552],[130.79673,32.07379],[130.79697,32.07153],[130.79947,32.0708],[130.80385,32.07196],[130.80776,32.07083],[130.81206,32.06777],[130.81391,32.06304],[130.81799,32.05907],[130.81702,32.05477],[130.8175,32.05256],[130.82363,32.05035],[130.83804,32.04899],[130.84123,32.04792],[130.86201,32.04982],[130.87945,32.04389],[130.88624,32.04531],[130.89111,32.04556],[130.89345,32.04461],[130.89751,32.04517],[130.90741,32.03806],[130.91207,32.02724],[130.9183,32.02181],[130.92294,32.01955],[130.92609,32.01667],[130.93484,32.01231],[130.93912,32.0089],[130.946,32.00823],[130.95056,32.00939],[130.9563,32.00863],[130.96609,31.99763],[130.97773,31.99213],[130.98432,31.99151],[130.98958,31.98816],[130.9907,31.98608],[130.99589,31.98134],[130.99992,31.97465],[131.00173,31.96643],[131.004,31.96294],[131.00472,31.95793],[131.00748,31.95116],[131.0071,31.94948],[131.00468,31.94752],[131.00774,31.94439],[131.00832,31.9419],[131.01183,31.93541],[131.00984,31.9311],[131.01465,31.92845],[131.02127,31.92063],[131.02934,31.91486],[131.02989,31.91233],[131.03253,31.91018],[131.03733,31.90646],[131.04238,31.90553],[131.04371,31.90238],[131.0461,31.90042],[131.04612,31.89843],[131.04804,31.89532],[131.05636,31.89025],[131.0592,31.88236],[131.06395,31.87739],[131.07113,31.8714],[131.07825,31.86745],[131.08358,31.8634],[131.08799,31.85179],[131.0875,31.84261],[131.08843,31.83616],[131.08982,31.83273],[131.09382,31.82688],[131.0918,31.82088],[131.09466,31.81668],[131.09845,31.80743],[131.09754,31.80433],[131.09779,31.80149],[131.09145,31.77724],[131.08963,31.76407]],[[130.79259,32.19337],[130.79415,32.19183]],[[130.8175,32.05256],[130.81734,32.05325]]]}}]}