{"type":"FeatureCollection","features":[{"type":"Feature","properties":{"route_id":"303","route_number":303,"name":"国道303号","source":"OpenStreetMap contributors (ODbL)","osm_relations":[8547309,10151050,10606304,10606305]},"geometry":{"type":"MultiLineString","coordinates":[[[136.24245,35.50913],[136.23838,35.50548],[136.23112,35.5053],[136.22974,35.50333],[136.22691,35.50255],[136.22525,35.50572],[136.22085,35.50441],[136.22453,35.49599],[136.22352,35.49626],[136.22391,35.49698],[136.23274,35.49961],[136.23416,35.5031],[136.23971,35.50605],[136.24337,35.50998],[136.25175,35.51397],[136.25313,35.51531],[136.25291,35.52043],[136.24965,35.53001],[136.25286,35.53366],[136.25164,35.5384],[136.25292,35.54151],[136.25426,35.54253],[136.2536,35.54391],[136.25137,35.54482],[136.2531,35.54708],[136.25239,35.5485],[136.2528,35.55418],[136.25102,35.55533],[136.25195,35.55723],[136.25671,35.55914],[136.25925,35.56247],[136.26153,35.5625],[136.2666,35.56624],[136.26767,35.56797],[136.26753,35.57018],[136.26971,35.57162],[136.27097,35.57165],[136.27278,35.56909],[136.27428,35.56883],[136.27803,35.57123],[136.28379,35.57213],[136.285,35.57345],[136.28837,35.58155],[136.29345,35.5851],[136.29892,35.58731],[136.30635,35.58712],[136.31037,35.58832],[136.33798,35.60123],[136.35412,35.61313],[136.35893,35.61429],[136.36213,35.61292],[136.36475,35.61064],[136.3659,35.60743],[136.36531,35.60545],[136.36599,35.60116],[136.36787,35.59882],[136.36882,35.59552],[136.36983,35.59498],[136.37432,35.59561],[136.37932,35.59757],[136.38415,35.60091],[136.39031,35.60108],[136.39908,35.60354],[136.40498,35.60379],[136.4075,35.60291],[136.41136,35.60292],[136.42093,35.59711],[136.42528,35.59611],[136.42883,35.59304],[136.43083,35.59261],[136.43296,35.59307],[136.43438,35.59542],[136.434,35.59693],[136.43824,35.59733],[136.43904,35.60172],[136.44143,35.60065],[136.44345,35.60173],[136.44738,35.60216],[136.45073,35.60144],[136.45338,35.60367],[136.45675,35.60254],[136.45822,35.60311],[136.45859,35.60087],[136.46084,35.59856],[136.45756,35.59724],[136.45899,35.59488],[136.45624,35.59164],[136.46073,35.57724],[136.46238,35.57648],[136.46826,35.57731],[136.47998,35.57429],[136.48608,35.57026],[136.48939,35.56949],[136.50636,35.55647],[136.50969,35.5532],[136.51222,35.54836],[136.52484,35.53448],[136.52993,35.53124],[136.53177,35.52909],[136.53225,35.52629],[136.53566,35.51883],[136.5356,35.51407],[136.5326,35.51034],[136.53347,35.50586],[136.54177,35.50399],[136.55191,35.50336],[136.55743,35.49742],[136.55783,35.49459],[136.56098,35.49346],[136.56919,35.4881],[136.58046,35.48417],[136.58625,35.47727],[136.59103,35.47434],[136.59918,35.47148],[136.60198,35.46914],[136.60815,35.46771],[136.62548,35.46784],[136.62894,35.46668],[136.63583,35.46596],[136.6377,35.46514],[136.63776,35.46048],[136.65009,35.45839],[136.65392,35.45397],[136.65959,35.45224],[136.66808,35.45121],[136.67218,35.44818],[136.67476,35.4479],[136.67369,35.44341],[136.67568,35.43843],[136.68589,35.44012],[136.6925,35.44034],[136.69724,35.43837],[136.71471,35.43769],[136.72488,35.43496],[136.7416,35.42882],[136.74985,35.43166],[136.75289,35.41745],[136.76,35.41721]],[[136.15013,35.51409],[136.14963,35.51261],[136.142,35.50576],[136.14966,35.51332],[136.154,35.51947],[136.15771,35.52233],[136.1615,35.52376],[136.16308,35.522],[136.16518,35.51495],[136.16674,35.51427],[136.17148,35.51439],[136.17948,35.50856],[136.18833,35.49967],[136.20397,35.49968],[136.22085,35.50441]],[[136.142,35.50576],[136.14092,35.50478],[136.13416,35.50268],[136.12773,35.50452],[136.12362,35.50359],[136.117,35.50352],[136.11069,35.50167],[136.10626,35.49727],[136.10316,35.49633],[136.09582,35.49619],[136.08847,35.49711],[136.08237,35.48291],[136.08278,35.47862],[136.08088,35.4731],[136.07834,35.47063],[136.07849,35.46876],[136.07781,35.46791],[136.07062,35.46484],[136.0664,35.4618],[136.0528,35.46257],[136.04945,35.46196],[136.04708,35.46051],[136.04526,35.4573],[136.04343,35.45574],[136.0353,35.45487],[136.03251,35.45362],[136.03118,35.45181],[136.03068,35.44635],[136.02914,35.44308],[136.02683,35.44094],[136.01802,35.43602],[136.01631,35.43349],[136.01656,35.42653],[136.02106,35.41895],[136.02169,35.40764],[135.99702,35.40703],[135.98831,35.40838],[135.98512,35.40741],[135.98348,35.40546],[135.97995,35.40433],[135.97629,35.402],[135.96146,35.39702],[135.95762,35.398],[135.95379,35.40438],[135.95249,35.40549],[135.94915,35.40623],[135.94801,35.40953],[135.94673,35.41045],[135.94717,35.41302],[135.94987,35.41738],[135.94884,35.4228],[135.93828,35.4269],[135.93642,35.43117],[135.92976,35.43435],[135.92624,35.43511],[135.9218,35.43483],[135.91146,35.43757],[135.89981,35.44499],[135.89664,35.44805],[135.88239,35.45028],[135.86226,35.4627]],[[136.02175,35.41065],[136.0222,35.40771],[136.02169,35.40764]],[[136.23091,35.50098],[136.22974,35.50333]],[[136.62247,35.46786],[136.62204,35.46787]],[[136.74985,35.43166],[136.75296,35.41752],[136.76001,35.41727]],[[136.45752,35.59694],[136.45493,35.59862],[136.45089,35.59865],[136.43258,35.59283]]]}}]}