{"type":"FeatureCollection","features":[{"type":"Feature","properties":{"route_id":"211","route_number":211,"name":"国道211号","source":"OpenStreetMap contributors (ODbL)","osm_relations":[9578522,10123499,10123500]},"geometry":{"type":"MultiLineString","coordinates":[[[130.8622,33.32169],[130.86352,33.32275],[130.86442,33.32212],[130.86661,33.32311],[130.87059,33.32691],[130.87275,33.33309],[130.87264,33.33747],[130.87401,33.3392],[130.87419,33.34478],[130.87864,33.35552],[130.8793,33.36054],[130.88308,33.36735],[130.88566,33.36856],[130.8866,33.36992],[130.88567,33.37245],[130.88167,33.37555],[130.88078,33.37714],[130.87953,33.3838],[130.87629,33.39101],[130.87442,33.39272],[130.87304,33.39634],[130.86711,33.3992],[130.86066,33.40062],[130.85435,33.40784],[130.85155,33.40892],[130.85171,33.41461],[130.85027,33.41716],[130.84989,33.42026],[130.8473,33.42335],[130.84718,33.42779],[130.84569,33.43283],[130.84361,33.43406],[130.84415,33.43546],[130.84309,33.43676],[130.84243,33.44085],[130.83947,33.44592],[130.8326,33.45212],[130.83235,33.45445],[130.83039,33.45621],[130.83173,33.45862],[130.83155,33.46048],[130.82789,33.46238],[130.82462,33.46916],[130.82255,33.46864],[130.81927,33.46973],[130.81625,33.47175],[130.81249,33.47716],[130.81053,33.47824],[130.80488,33.47719],[130.80107,33.47907],[130.79925,33.48558],[130.80032,33.4858],[130.80223,33.48291],[130.80323,33.48338],[130.7991,33.49166],[130.80014,33.49381],[130.79788,33.49491],[130.79763,33.49719],[130.79288,33.49971],[130.78945,33.50321],[130.78726,33.50379],[130.78612,33.50529],[130.78399,33.50628],[130.77995,33.512],[130.77684,33.51452],[130.7739,33.51939],[130.76983,33.52315],[130.76842,33.52715],[130.75629,33.53688],[130.75458,33.53926],[130.7447,33.54648],[130.73803,33.55354],[130.73354,33.56269],[130.72882,33.5674],[130.72339,33.57111],[130.71889,33.57973],[130.7208,33.58381],[130.71827,33.59425],[130.71741,33.60959],[130.7148,33.61207],[130.70707,33.61692],[130.70447,33.62154],[130.69402,33.63042],[130.69309,33.63557],[130.68977,33.63835],[130.68639,33.63699],[130.68296,33.65203],[130.68282,33.6545],[130.68637,33.66328],[130.69542,33.66846],[130.70571,33.67741],[130.70849,33.67885],[130.71029,33.68167],[130.7107,33.68567],[130.7125,33.68762],[130.71367,33.69179],[130.70696,33.70511],[130.70642,33.71124],[130.71132,33.72083],[130.71226,33.72416],[130.71827,33.72923],[130.72458,33.73314],[130.72931,33.74201],[130.7312,33.74962],[130.73597,33.75027],[130.74012,33.75219],[130.74129,33.75377],[130.74097,33.75781],[130.73716,33.76378],[130.73452,33.77094],[130.73084,33.77732],[130.73074,33.77888],[130.73283,33.78328],[130.74329,33.78981],[130.74781,33.79677],[130.75231,33.80121],[130.75298,33.80723],[130.75047,33.80932],[130.7499,33.81128],[130.75019,33.81462],[130.75294,33.82005],[130.7517,33.82777],[130.75889,33.83712],[130.76053,33.84517],[130.76267,33.84778],[130.76166,33.85086],[130.7615,33.86575]],[[130.74586,33.79379],[130.74391,33.7907]],[[130.76169,33.86578],[130.76173,33.85087],[130.76276,33.84777],[130.76061,33.84516],[130.75897,33.8371],[130.75692,33.83373],[130.75195,33.82837],[130.75283,33.81936]],[[130.84363,33.43426],[130.84497,33.43633],[130.84322,33.43655]],[[130.7499,33.81151],[130.75032,33.81493]]]}}]}