{"type":"FeatureCollection","features":[{"type":"Feature","properties":{"route_id":"266","route_number":266,"name":"国道266号","source":"OpenStreetMap contributors (ODbL)","osm_relations":[9576053,9577315,9577579]},"geometry":{"type":"MultiLineString","coordinates":[[[130.70691,32.79694],[130.70997,32.79247],[130.71093,32.78776],[130.71395,32.78894],[130.71491,32.78089],[130.71628,32.77789],[130.72095,32.77154],[130.73833,32.75224],[130.73973,32.74902],[130.73809,32.74785],[130.74048,32.74312],[130.74039,32.73913],[130.73782,32.72897],[130.74021,32.7147],[130.73656,32.70807],[130.73234,32.70432],[130.72682,32.69623],[130.72721,32.69089],[130.72847,32.68784],[130.72658,32.68401],[130.72341,32.68045],[130.72228,32.67693],[130.71847,32.67553],[130.70691,32.66901],[130.70342,32.66839],[130.69473,32.66157],[130.69309,32.65903],[130.68603,32.65605],[130.67926,32.6549],[130.67363,32.64997],[130.67053,32.64824],[130.66072,32.64513],[130.65772,32.64544],[130.65315,32.6433],[130.64293,32.64027],[130.64194,32.63874],[130.63666,32.63528],[130.63573,32.63361],[130.63211,32.63382],[130.6268,32.63253],[130.6223,32.6329],[130.62058,32.63164],[130.616,32.6329],[130.61338,32.632],[130.61213,32.62987],[130.60784,32.62922],[130.60237,32.62722],[130.60105,32.62596],[130.59737,32.62586],[130.5937,32.62329],[130.59133,32.62819],[130.58983,32.62945],[130.58776,32.62867],[130.58683,32.62377],[130.58491,32.62318],[130.58096,32.62402],[130.5783,32.62169],[130.56292,32.62419],[130.56066,32.62519],[130.5568,32.62494],[130.55345,32.6226],[130.54732,32.6232],[130.5465,32.62363],[130.54686,32.6253],[130.54468,32.62491],[130.54429,32.62693],[130.54279,32.62757],[130.53944,32.6249],[130.53069,32.62701],[130.52126,32.62429],[130.51693,32.62423],[130.50993,32.61677],[130.50802,32.61575],[130.50566,32.61594],[130.50063,32.61195],[130.48609,32.61287],[130.48048,32.60972],[130.4732,32.60995],[130.46796,32.60613],[130.46814,32.60838],[130.46702,32.6097],[130.46358,32.60911],[130.45602,32.61195],[130.45626,32.61317],[130.45425,32.61384],[130.45412,32.61538],[130.44848,32.61891],[130.44708,32.61938],[130.44516,32.6183],[130.44433,32.61714],[130.44285,32.60921],[130.43614,32.60061],[130.43505,32.59672],[130.43031,32.59205],[130.42919,32.58452],[130.42249,32.57884],[130.41975,32.57521],[130.41934,32.57273],[130.4155,32.5701],[130.41463,32.56847],[130.40934,32.568],[130.40869,32.56731],[130.40988,32.56481],[130.41355,32.56151],[130.4173,32.55307],[130.42186,32.54862],[130.42235,32.54222],[130.42352,32.54052],[130.42272,32.53471],[130.42489,32.52617],[130.42426,32.52469],[130.42078,32.5219],[130.42086,32.52016],[130.42238,32.51895],[130.42799,32.51758],[130.42878,32.51608],[130.4314,32.51663],[130.43345,32.51784],[130.43826,32.52632],[130.43982,32.52686],[130.44401,32.52367],[130.44508,32.52097],[130.44719,32.51932],[130.45513,32.51713],[130.45614,32.5154],[130.45393,32.51259],[130.45131,32.51085],[130.45104,32.50948],[130.45213,32.5069],[130.44288,32.49282],[130.43739,32.4861],[130.43595,32.47656],[130.43167,32.46889],[130.43039,32.46045],[130.42858,32.45813],[130.42824,32.45519],[130.41752,32.44958],[130.41595,32.44705],[130.41494,32.44276],[130.4095,32.44342],[130.40639,32.442],[130.40519,32.43954],[130.40601,32.43473],[130.40542,32.43327],[130.39967,32.43139],[130.40235,32.4284],[130.40191,32.42646],[130.40376,32.4218],[130.40557,32.42002],[130.40376,32.41807],[130.40406,32.41692],[130.40994,32.41718],[130.41083,32.41533],[130.41035,32.41401],[130.40764,32.41035],[130.40433,32.4088],[130.40195,32.40403],[130.40002,32.40258],[130.39871,32.39916],[130.39636,32.39659],[130.38578,32.39167],[130.3852,32.38888],[130.38181,32.3869],[130.38163,32.38339],[130.37989,32.38305],[130.37704,32.38921],[130.37476,32.39009],[130.36712,32.39011],[130.36352,32.38788],[130.3614,32.38553],[130.35991,32.38516],[130.35604,32.38716],[130.35098,32.39156],[130.35189,32.39218],[130.35128,32.39336],[130.35328,32.39522],[130.352,32.39603],[130.35299,32.39712],[130.35294,32.40087],[130.35563,32.40287],[130.35665,32.4072],[130.35909,32.40932],[130.3574,32.41391],[130.35147,32.41654],[130.3511,32.41734],[130.35235,32.42013],[130.34949,32.42185],[130.34757,32.42125],[130.34287,32.41598],[130.33781,32.41418],[130.3364,32.41068],[130.33261,32.40811],[130.33234,32.40422],[130.32822,32.40193],[130.32497,32.40156],[130.32386,32.39935],[130.32253,32.39855],[130.31612,32.39725],[130.31194,32.39959],[130.30489,32.40072],[130.30154,32.39949],[130.29481,32.39991],[130.28998,32.40183],[130.28238,32.40687],[130.27691,32.4071],[130.2751,32.4096],[130.27491,32.41229],[130.2721,32.41521],[130.26801,32.41732],[130.25202,32.41505],[130.24803,32.41333],[130.24419,32.41289],[130.24211,32.41493],[130.2354,32.41821],[130.23032,32.42518],[130.21994,32.42778],[130.21643,32.43187],[130.21138,32.43318],[130.21125,32.43736],[130.20563,32.44301],[130.20592,32.44797],[130.205,32.44752],[130.20553,32.44701],[130.20549,32.44796],[130.20317,32.44814],[130.20063,32.4471],[130.19054,32.43421],[130.17575,32.43594],[130.15519,32.43626],[130.14287,32.43206],[130.13845,32.4339],[130.13514,32.43368],[130.13198,32.43227],[130.13104,32.43019],[130.12953,32.42931],[130.12922,32.42729],[130.12793,32.42569],[130.12861,32.42477],[130.13201,32.42371],[130.13048,32.42071],[130.12842,32.42043],[130.12522,32.41764],[130.12322,32.41749],[130.12129,32.41435],[130.11757,32.41163],[130.12336,32.40581],[130.12321,32.40451],[130.12477,32.4036],[130.12417,32.40193],[130.12602,32.40029],[130.12634,32.39804],[130.12886,32.39472],[130.12729,32.38889],[130.12779,32.37904],[130.13164,32.37346],[130.12961,32.36393],[130.12951,32.35933],[130.13188,32.35915],[130.13302,32.35789],[130.13241,32.35359],[130.13367,32.34897],[130.13266,32.34779],[130.12607,32.3453],[130.12467,32.34389],[130.1211,32.34296],[130.11973,32.34042],[130.11624,32.33854],[130.11307,32.33505],[130.11257,32.3325],[130.10873,32.32855],[130.10678,32.32527],[130.10275,32.326],[130.09854,32.32522],[130.09809,32.32298],[130.09504,32.32082],[130.0952,32.31947],[130.09334,32.31615],[130.08798,32.31441],[130.08089,32.31009],[130.07906,32.30706],[130.0761,32.30497],[130.07122,32.29944],[130.07113,32.29386],[130.06981,32.29085],[130.06989,32.2857],[130.06457,32.28209],[130.06159,32.27603],[130.05852,32.27428],[130.05776,32.27149],[130.05913,32.26808],[130.06294,32.26587],[130.06448,32.26323],[130.06238,32.26204],[130.0628,32.26017],[130.06203,32.25891],[130.05263,32.25013],[130.0516,32.24774],[130.05282,32.24503],[130.0527,32.24349],[130.0474,32.23858],[130.04489,32.23216],[130.04008,32.22787],[130.03853,32.22938],[130.0365,32.22672],[130.03452,32.22691],[130.03263,32.21557],[130.0287,32.2146],[130.02937,32.20933],[130.03163,32.20365],[130.03176,32.20051],[130.02611,32.19794],[130.02616,32.19428],[130.02673,32.19431]],[[130.44026,32.60613],[130.44321,32.6077],[130.44679,32.61183],[130.45216,32.61439],[130.45535,32.61403],[130.46337,32.60983],[130.46578,32.61018],[130.46537,32.6117],[130.46419,32.6112],[130.46675,32.60982]],[[130.43873,32.6035],[130.43781,32.60535],[130.44012,32.60607]],[[130.73966,32.74898],[130.73864,32.75179]]]}}]}