{"type":"FeatureCollection","features":[{"type":"Feature","properties":{"route_id":"473","route_number":473,"name":"国道473号","source":"OpenStreetMap contributors (ODbL)","osm_relations":[3519913,14183749,14183753]},"geometry":{"type":"MultiLineString","coordinates":[[[137.28339,34.91444],[137.27681,34.91047],[137.28618,34.91598],[137.28887,34.91954],[137.2917,34.91982],[137.29377,34.92114],[137.29266,34.92474],[137.29297,34.92561],[137.29491,34.92648],[137.29397,34.92917],[137.29252,34.92995],[137.2924,34.93643],[137.2944,34.93874],[137.29745,34.93974],[137.30093,34.9446],[137.30053,34.94616],[137.29902,34.9466],[137.29849,34.94772],[137.30161,34.94894],[137.30209,34.94765],[137.30279,34.94765],[137.30331,34.94861],[137.30279,34.94945],[137.30539,34.95115],[137.30494,34.95295],[137.30835,34.9543],[137.30596,34.95608],[137.30628,34.95857],[137.3076,34.95994],[137.30651,34.96371],[137.30461,34.96512],[137.30388,34.96682],[137.3069,34.96739],[137.3082,34.96869],[137.30887,34.97094],[137.31051,34.97157],[137.31113,34.97335],[137.3105,34.97817],[137.31185,34.98026],[137.31507,34.98276],[137.31636,34.98224],[137.31512,34.98303],[137.31251,34.98252],[137.31155,34.98381],[137.31038,34.98394],[137.31399,34.98459],[137.31153,34.98632],[137.3112,34.98805],[137.31358,34.98859],[137.31824,34.9866],[137.32215,34.98911],[137.32458,34.98859],[137.3271,34.98933],[137.32735,34.99155],[137.32993,34.99125],[137.33143,34.99252],[137.33235,34.99604],[137.33407,34.99771],[137.33439,35.00067],[137.33704,35.00243],[137.34196,35.00412],[137.34029,35.00605],[137.3433,35.00455],[137.34743,35.00548],[137.34922,35.00511],[137.3468,35.00229],[137.35125,35.00327],[137.35233,35.00618],[137.35435,35.00656],[137.35883,35.0107],[137.36027,35.01335],[137.36027,35.01522],[137.36203,35.01569],[137.36241,35.01908],[137.36019,35.02155],[137.36264,35.02426],[137.36185,35.02474],[137.35952,35.02385],[137.3586,35.02529],[137.35765,35.02812],[137.35857,35.03273],[137.36122,35.03303],[137.36244,35.03495],[137.36447,35.03549],[137.36434,35.0384],[137.36705,35.03823],[137.36842,35.04149],[137.37513,35.04216],[137.38023,35.04435],[137.38,35.04555],[137.37775,35.04637],[137.37735,35.04805],[137.38134,35.04866],[137.38443,35.05239],[137.38662,35.05163],[137.38802,35.05281],[137.39206,35.05349],[137.39785,35.05595],[137.40046,35.06097],[137.40499,35.06415],[137.40126,35.07026],[137.40496,35.07046],[137.40634,35.07217],[137.40588,35.07378],[137.40751,35.07493],[137.40853,35.07713],[137.41327,35.07823],[137.41998,35.07831],[137.42311,35.07971],[137.43137,35.07954],[137.44997,35.08391],[137.45791,35.08051],[137.45885,35.08207],[137.46213,35.0799],[137.46777,35.08017],[137.46942,35.07787],[137.46918,35.07625],[137.47055,35.07433],[137.47494,35.07225],[137.47322,35.06902],[137.47108,35.06706],[137.47191,35.06529],[137.47531,35.0624],[137.48455,35.06424],[137.48597,35.06287],[137.48762,35.06372],[137.49351,35.06219],[137.49531,35.05954],[137.49818,35.05895],[137.50204,35.05615],[137.5041,35.05589],[137.50679,35.05677],[137.50938,35.05624],[137.5124,35.05791],[137.51533,35.05723],[137.51998,35.05214],[137.5192,35.05071],[137.52037,35.04934],[137.52385,35.04825],[137.52386,35.04632],[137.52552,35.04565],[137.52563,35.04334],[137.52908,35.0427],[137.53179,35.04319],[137.53462,35.05234],[137.53982,35.05306],[137.53857,35.05746],[137.53613,35.0588],[137.53793,35.06127],[137.53739,35.06414],[137.54258,35.06472],[137.5493,35.06378],[137.55253,35.0656],[137.55407,35.06785],[137.5577,35.07031],[137.55839,35.07508],[137.55736,35.0772],[137.55886,35.07975],[137.56137,35.08115],[137.56602,35.08112],[137.56853,35.08287],[137.56931,35.08518],[137.57059,35.08498],[137.57054,35.08669],[137.57282,35.08946],[137.57272,35.09108],[137.56952,35.09426],[137.56899,35.09594],[137.5707,35.09782],[137.57398,35.09875],[137.57575,35.0979],[137.57634,35.09609],[137.58198,35.09661],[137.58475,35.09461],[137.58763,35.09453],[137.59051,35.09223],[137.59483,35.0923],[137.6054,35.08596],[137.60889,35.08305],[137.61695,35.07882],[137.61859,35.07564],[137.6185,35.07343],[137.62031,35.07223],[137.62584,35.0728],[137.62819,35.0744],[137.62783,35.07602],[137.63097,35.07724],[137.63244,35.07655],[137.63207,35.07519],[137.63363,35.0748],[137.63337,35.07853],[137.63631,35.07883],[137.63829,35.08087],[137.63956,35.08043],[137.63974,35.07885],[137.64241,35.07694],[137.64383,35.07736],[137.64188,35.07889],[137.64216,35.08005],[137.64567,35.08214],[137.64636,35.08114],[137.65301,35.07804],[137.65415,35.07534],[137.65617,35.07485],[137.66328,35.07684],[137.67275,35.07792],[137.67564,35.07999],[137.67653,35.0833],[137.678,35.08377],[137.68232,35.08282],[137.68392,35.07949],[137.69016,35.07645],[137.69427,35.07711],[137.6937,35.07834],[137.69447,35.07837],[137.70129,35.07523],[137.7062,35.07488],[137.71234,35.07804],[137.71494,35.07762],[137.7203,35.07933],[137.72508,35.07939],[137.72561,35.07766],[137.72255,35.07447],[137.7234,35.07271],[137.72782,35.07278],[137.73232,35.06781],[137.73589,35.06548],[137.74338,35.06779],[137.74167,35.07085],[137.74349,35.07318],[137.74424,35.07638],[137.75017,35.07877],[137.75227,35.07621],[137.75231,35.07117],[137.75131,35.06894],[137.75229,35.06708],[137.75573,35.06467],[137.75723,35.06219],[137.76104,35.06144],[137.76384,35.0597],[137.76456,35.06036],[137.76823,35.06],[137.7685,35.05855],[137.77012,35.05835],[137.77206,35.06093],[137.77088,35.0619],[137.78898,35.07226],[137.78988,35.07519],[137.79187,35.07634],[137.79145,35.07916],[137.79335,35.08114],[137.79795,35.08045],[137.79892,35.08669],[137.80071,35.08862],[137.80567,35.09168],[137.81259,35.09305],[137.81723,35.08997],[137.8199,35.0898],[137.82104,35.08865],[137.82053,35.08327],[137.82074,35.08142],[137.82169,35.08079],[137.82746,35.08183],[137.83478,35.08792],[137.83818,35.08701],[137.84019,35.0836],[137.84109,35.07701],[137.84192,35.07626],[137.83843,35.07129],[137.83853,35.07014],[137.84237,35.06572],[137.84456,35.0617],[137.85047,35.05743],[137.85394,35.05113],[137.85465,35.04812],[137.85444,35.04642],[137.85188,35.04453],[137.85009,35.03691],[137.84457,35.02752],[137.8369,35.0205],[137.83493,35.01082],[137.83478,35.00317],[137.83261,35.00053],[137.82786,34.99759],[137.82463,34.99381],[137.82421,34.98782],[137.82659,34.98343],[137.82809,34.97793],[137.82604,34.9701],[137.82453,34.96939],[137.82736,34.9683],[137.82998,34.96311],[137.82687,34.95295],[137.8267,34.94988],[137.82765,34.94728],[137.8318,34.94128],[137.82821,34.93736],[137.82666,34.93682],[137.82163,34.9388],[137.81851,34.94161],[137.81392,34.9387],[137.81622,34.92556],[137.81153,34.91249],[137.81288,34.91115],[137.81557,34.91156],[137.81704,34.91082],[137.82007,34.90857],[137.82156,34.90633],[137.82094,34.90279],[137.81962,34.90138],[137.81396,34.90125],[137.81285,34.90056],[137.81274,34.89949],[137.8155,34.89121],[137.81608,34.88608],[137.82215,34.88023],[137.82225,34.87658],[137.82079,34.87341],[137.82474,34.87398],[137.82819,34.8757],[137.83136,34.88221],[137.83407,34.88344],[137.83558,34.88835],[137.83384,34.89002],[137.83399,34.89192],[137.83704,34.8936],[137.83962,34.89338],[137.8408,34.89422],[137.84332,34.8934],[137.84486,34.89654],[137.84836,34.89845],[137.85015,34.89811],[137.85201,34.89621],[137.85849,34.89467],[137.86072,34.89656],[137.86479,34.89685],[137.86576,34.89996],[137.86779,34.90049],[137.86933,34.9032],[137.87264,34.9064],[137.87242,34.90905],[137.87345,34.91098],[137.8788,34.9147],[137.87917,34.92545],[137.88043,34.92823],[137.87974,34.93285],[137.88157,34.93474],[137.8795,34.93831],[137.88019,34.94145],[137.87921,34.94338],[137.88298,34.94415],[137.88394,34.95191],[137.88682,34.95402],[137.88869,34.9572],[137.89336,34.95848],[137.89839,34.95813],[137.90134,34.9597],[137.90233,34.96151],[137.90018,34.96648],[137.90151,34.97233],[137.89998,34.97372],[137.89762,34.97422],[137.89668,34.97548],[137.89926,34.97852],[137.89859,34.98197],[137.89734,34.98273],[137.89233,34.9826],[137.89064,34.98496],[137.89056,34.98818],[137.89165,34.99206],[137.89501,34.99437],[137.8973,34.99756],[137.90087,34.99686],[137.90803,35.00037],[137.91027,35.0078],[137.91343,35.00953],[137.91335,35.01308],[137.91637,35.01341],[137.9199,35.01269],[137.92324,35.01489],[137.92474,35.01772],[137.92713,35.01927],[137.92774,35.02064],[137.9326,35.01995],[137.93764,35.02206],[137.93992,35.01918],[137.94387,35.02173],[137.94488,35.02374],[137.94765,35.02317],[137.9497,35.02507],[137.95391,35.02322],[137.95774,35.02479],[137.95959,35.02225],[137.96078,35.02347],[137.96109,35.02713],[137.96255,35.02634],[137.96496,35.02854],[137.96957,35.0289],[137.97223,35.03155],[137.97253,35.03011],[137.97474,35.02784],[137.97759,35.02763],[137.97922,35.02933],[137.979,35.03186],[137.9797,35.0326],[137.98154,35.03258],[137.98284,35.03151],[137.98716,35.03143],[137.98766,35.03235],[137.98547,35.03367],[137.98588,35.03415],[137.99064,35.03343],[137.99146,35.03656],[137.99317,35.03695],[137.99207,35.03857],[137.99272,35.03908],[137.99711,35.03649],[137.9972,35.035],[137.99962,35.03284],[138.00013,35.03569],[138.00133,35.03653],[138.00114,35.03809],[138.00549,35.0404],[138.00608,35.04139],[138.00934,35.04198],[138.01075,35.04678],[138.01257,35.04697],[138.01437,35.04557],[138.01792,35.04652],[138.01722,35.04536],[138.01931,35.04271],[138.02209,35.0416],[138.02345,35.03866],[138.02887,35.03792],[138.02818,35.03576],[138.03032,35.03416],[138.02817,35.03163],[138.02892,35.03038],[138.02737,35.02701],[138.03022,35.02738],[138.03311,35.026],[138.03357,35.02951],[138.03943,35.028],[138.04061,35.03051],[138.04248,35.02897],[138.04417,35.02506],[138.04624,35.02729],[138.04695,35.02691],[138.0481,35.02879],[138.04894,35.02605],[138.04802,35.02506],[138.04849,35.02221],[138.05003,35.02187],[138.05262,35.02282],[138.05387,35.02129],[138.05294,35.02126],[138.05234,35.01998],[138.05325,35.01873],[138.05435,35.0191],[138.05518,35.01827],[138.05512,35.01543],[138.0567,35.01664],[138.05852,35.01683],[138.05888,35.01555],[138.06185,35.01736],[138.06367,35.01693],[138.06387,35.01875],[138.06518,35.01714],[138.06636,35.01809],[138.06684,35.01741],[138.06826,35.01818],[138.06988,35.01792],[138.07121,35.01937],[138.07253,35.01833],[138.07456,35.01886],[138.07724,35.01798],[138.07734,35.01871],[138.07824,35.01865],[138.07841,35.01742],[138.08111,35.01822],[138.08277,35.01707],[138.0827,35.01488],[138.08395,35.01342],[138.08209,35.01302],[138.0824,35.01115],[138.07983,35.00904],[138.07971,35.004],[138.08251,35.00131],[138.0865,35.00179],[138.08605,34.99938],[138.08709,34.99779],[138.08276,34.99731],[138.07861,35.00066],[138.07399,35.00158],[138.07092,35.00017],[138.06886,34.99694],[138.07073,34.99324],[138.07322,34.99065],[138.07246,34.9879],[138.06972,34.9844],[138.07028,34.98188],[138.07293,34.98008],[138.0776,34.97895],[138.0794,34.97768],[138.07929,34.97688],[138.07525,34.97588],[138.07355,34.97397],[138.07443,34.97335],[138.07429,34.97185],[138.07535,34.97013],[138.07718,34.9697],[138.07674,34.96571],[138.07878,34.96483],[138.08673,34.95792],[138.08257,34.95657],[138.08119,34.9545],[138.07981,34.94973],[138.0804,34.94812],[138.08178,34.94736],[138.08069,34.9458],[138.07789,34.94602],[138.07583,34.9442],[138.0765,34.93385],[138.07911,34.92939],[138.08046,34.922],[138.08265,34.91853],[138.08791,34.91499],[138.09712,34.91462],[138.09716,34.91253],[138.09539,34.90823],[138.09202,34.90513],[138.09024,34.90153],[138.08919,34.89356],[138.09404,34.89034],[138.09365,34.88842],[138.09564,34.88936],[138.1022,34.8867],[138.10037,34.8846],[138.09985,34.8795],[138.09841,34.87802],[138.09961,34.87775],[138.09939,34.8765],[138.09614,34.87568],[138.0998,34.87374],[138.1007,34.87013],[138.10181,34.86991],[138.10418,34.86653],[138.10143,34.86525],[138.11216,34.86088],[138.11798,34.85232],[138.12275,34.83754],[138.12664,34.83371],[138.12842,34.83051],[138.13167,34.82876],[138.13243,34.82749],[138.12965,34.82681],[138.13137,34.82548],[138.13074,34.82437],[138.12583,34.81955],[138.12451,34.8192],[138.12427,34.81803],[138.12715,34.81605],[138.12866,34.81838],[138.13146,34.81878],[138.13274,34.81664],[138.13662,34.81427],[138.13555,34.81129],[138.13511,34.80415],[138.14174,34.78211],[138.14099,34.77903],[138.14176,34.77665],[138.14037,34.7749],[138.14068,34.77189],[138.13765,34.76582],[138.14001,34.7654],[138.13988,34.76404],[138.14097,34.76206],[138.14461,34.7625],[138.14463,34.75992],[138.15036,34.75476],[138.15098,34.75015],[138.16029,34.73911],[138.16153,34.73606],[138.16091,34.73424],[138.16227,34.72932],[138.16077,34.7282],[138.15853,34.72862]],[[137.23772,34.84927],[137.23684,34.84936],[137.23727,34.85095],[137.23644,34.85561],[137.23758,34.85546],[137.23852,34.85403],[137.23947,34.85531],[137.2412,34.85554],[137.24131,34.85754],[137.2424,34.8567],[137.24337,34.85723],[137.24387,34.85617],[137.24586,34.85724],[137.24688,34.85654],[137.24953,34.85748],[137.24844,34.86066],[137.25022,34.86795],[137.25149,34.86834],[137.24841,34.87157],[137.24891,34.87445],[137.25043,34.87686],[137.25864,34.88104],[137.26018,34.88426],[137.25962,34.88658],[137.2559,34.88904],[137.25485,34.89061],[137.25322,34.8936],[137.25373,34.89509],[137.25643,34.89745],[137.2615,34.89902],[137.26654,34.90264],[137.27122,34.90435],[137.27681,34.91047]],[[138.16227,34.72932],[138.16528,34.72151],[138.16723,34.71945],[138.17181,34.71634],[138.17385,34.71643],[138.17747,34.71494],[138.18112,34.71498],[138.18114,34.71361],[138.19265,34.69288],[138.19205,34.68772],[138.19302,34.68453],[138.19716,34.68048],[138.20017,34.67903]],[[138.11842,34.8512],[138.11709,34.85144],[138.12073,34.85321],[138.11718,34.85145],[138.11842,34.8512]],[[138.12124,34.85337],[138.12073,34.85321]],[[137.25996,34.89848],[137.25644,34.89735],[137.25373,34.89498]]]}}]}