{"type":"FeatureCollection","features":[{"type":"Feature","properties":{"route_id":"462","route_number":462,"name":"国道462号","source":"OpenStreetMap contributors (ODbL)","osm_relations":[5450521]},"geometry":{"type":"MultiLineString","coordinates":[[[139.21298,36.35483],[139.2054,36.34081],[139.20524,36.33302],[139.20827,36.32663],[139.20853,36.32395],[139.20652,36.31133],[139.19787,36.31164],[139.19661,36.2958],[139.19707,36.27767],[139.19652,36.27098],[139.1949,36.2673],[139.18498,36.25295],[139.16956,36.23558],[139.16657,36.22538],[139.1606,36.21677],[139.156,36.21285],[139.15187,36.21108],[139.13151,36.19709],[139.13172,36.18999],[139.10716,36.19012],[139.09591,36.18696],[139.09048,36.18695],[139.08393,36.18875],[139.07575,36.1831],[139.07219,36.18435],[139.06928,36.18645],[139.05976,36.18699],[139.05501,36.18171],[139.0578,36.16326],[139.05486,36.15917],[139.05371,36.15545],[139.05126,36.15384],[139.04647,36.15242],[139.04198,36.14872],[139.0407,36.14665],[139.0395,36.13704],[139.04032,36.13116],[139.03729,36.12843],[139.03431,36.12855],[139.0314,36.13136],[139.02857,36.13198],[139.02887,36.13405],[139.02632,36.13687],[139.02404,36.13725],[139.02164,36.13632],[139.01795,36.13706],[139.01755,36.13771],[139.01836,36.13915],[139.01652,36.13966],[139.00972,36.13891],[139.00937,36.13631],[139.00326,36.13682],[139.00115,36.13332],[138.99973,36.13311],[138.99925,36.13177],[138.99396,36.12948],[138.99132,36.13129],[138.99047,36.12826],[138.99126,36.12687],[138.99031,36.12581],[138.989,36.12085],[138.98487,36.11691],[138.98135,36.11847],[138.97787,36.11752],[138.97503,36.11991],[138.97489,36.12236],[138.97192,36.12353],[138.96993,36.12582],[138.96685,36.12515],[138.96581,36.12644],[138.96427,36.12672],[138.95927,36.12481],[138.95512,36.12805],[138.94774,36.12898],[138.94102,36.12505],[138.94074,36.12329],[138.9416,36.12062],[138.94081,36.11902],[138.93989,36.11883],[138.9372,36.12154],[138.9333,36.12164],[138.93223,36.12081],[138.93168,36.11876],[138.93322,36.11598],[138.9294,36.11698],[138.92462,36.1153],[138.92009,36.11608],[138.91223,36.11508],[138.90795,36.11367],[138.90596,36.11192],[138.90002,36.11088],[138.89697,36.1087],[138.88976,36.10571],[138.88898,36.10378],[138.88595,36.10229],[138.88532,36.10033],[138.88276,36.09807],[138.87628,36.09878],[138.86566,36.09556],[138.86287,36.09558],[138.86071,36.09253],[138.8543,36.09176],[138.84599,36.08623],[138.84142,36.08677],[138.83963,36.08814],[138.83251,36.08845],[138.82986,36.09094],[138.82702,36.09191],[138.82499,36.09119],[138.82249,36.09254],[138.81037,36.09196],[138.80643,36.08865],[138.80139,36.08912],[138.80296,36.08419],[138.79867,36.08097],[138.79391,36.08032],[138.79207,36.08317],[138.78863,36.0854],[138.78411,36.08337],[138.78335,36.07881],[138.78163,36.07719],[138.77977,36.07686],[138.77892,36.07931],[138.77441,36.08088],[138.77251,36.08275],[138.7585,36.08321],[138.75405,36.0823],[138.74948,36.08342],[138.74441,36.08299],[138.73637,36.08528],[138.72808,36.08552],[138.72607,36.08743],[138.72228,36.08691],[138.71867,36.0888],[138.71356,36.08926],[138.71201,36.09219],[138.70949,36.09245],[138.70793,36.09439],[138.70545,36.09487],[138.70634,36.09793],[138.70567,36.10024],[138.70383,36.10288],[138.70116,36.10403],[138.70085,36.10535],[138.69974,36.10551],[138.69734,36.10816],[138.69724,36.11027],[138.6964,36.10771],[138.69452,36.10614],[138.69226,36.10673],[138.6901,36.10909],[138.68828,36.10719],[138.68236,36.10856],[138.67951,36.1062],[138.67561,36.10773],[138.66794,36.10726],[138.66574,36.10888],[138.66606,36.10721],[138.66249,36.10733],[138.65841,36.10977],[138.6565,36.10938],[138.65539,36.10747],[138.6586,36.10813],[138.65827,36.10561],[138.65962,36.10577],[138.65983,36.10266],[138.66177,36.10354],[138.66331,36.1028],[138.6618,36.09934],[138.66954,36.09788],[138.65996,36.09712],[138.65631,36.09854],[138.6555,36.09993],[138.65357,36.0998],[138.65077,36.10094],[138.64969,36.10247],[138.64635,36.10287],[138.648,36.10415],[138.64818,36.106],[138.64525,36.10778],[138.64482,36.10945],[138.64207,36.10913],[138.64009,36.11008],[138.6406,36.11035],[138.63939,36.11153],[138.63873,36.11073],[138.63686,36.11228],[138.63376,36.11322],[138.62814,36.1136],[138.6257,36.11284],[138.622,36.1145],[138.61767,36.11488],[138.61877,36.11644],[138.6143,36.11665],[138.61374,36.11866],[138.61047,36.11892],[138.60504,36.12422],[138.60237,36.1249],[138.59555,36.1245],[138.59251,36.12588],[138.58663,36.1262],[138.57731,36.13007],[138.5694,36.13233],[138.5662,36.13496],[138.55717,36.13692],[138.55145,36.13993],[138.54874,36.14223],[138.54169,36.14151],[138.53864,36.14223],[138.5226,36.14186],[138.51874,36.1435],[138.51492,36.14726],[138.50282,36.15418],[138.49822,36.15518],[138.49028,36.15492],[138.48563,36.15654],[138.48136,36.15992],[138.48589,36.16579],[138.48615,36.16867],[138.4849,36.17612],[138.48203,36.1801],[138.47981,36.19175],[138.46866,36.20295],[138.46523,36.21162],[138.45732,36.22405],[138.45637,36.22766],[138.45662,36.23191]],[[139.19792,36.31179],[139.19671,36.29592],[139.19724,36.27851],[139.19662,36.27094],[139.19474,36.26674],[139.18584,36.25387],[139.16964,36.23555],[139.16666,36.22538],[139.1606,36.21677]],[[138.4799,36.19135],[138.47859,36.19353],[138.46857,36.20292],[138.4652,36.21144],[138.45722,36.22403],[138.45623,36.22802],[138.4565,36.23195]],[[139.21309,36.35479],[139.20595,36.34228],[139.20529,36.33713]]]}}]}