{"type":"FeatureCollection","features":[{"type":"Feature","properties":{"route_id":"47","route_number":47,"name":"国道47号","source":"OpenStreetMap contributors (ODbL)","osm_relations":[2938280,2938281,8972426,9136304,9136305]},"geometry":{"type":"MultiLineString","coordinates":[[[140.93845,38.2689],[140.9384,38.2839],[140.93677,38.28814],[140.92966,38.29571],[140.92011,38.30248],[140.91582,38.30421],[140.90787,38.30529],[140.90372,38.30776],[140.90195,38.31047],[140.90039,38.31592],[140.89636,38.32152],[140.89144,38.33166],[140.87126,38.3532],[140.87056,38.35511],[140.87368,38.36034],[140.87277,38.36503],[140.87398,38.36885],[140.87392,38.37436],[140.87257,38.38062],[140.88321,38.39439],[140.88637,38.40591],[140.88681,38.41226],[140.89116,38.42735],[140.89187,38.44525],[140.8896,38.44779],[140.87948,38.4543],[140.87812,38.46248],[140.87451,38.47032],[140.88182,38.49353],[140.88813,38.50329],[140.89528,38.51115],[140.91008,38.51927],[140.92225,38.5218],[140.93557,38.52017],[140.93861,38.52111],[140.93953,38.52262],[140.93994,38.52862],[140.94528,38.53425],[140.94943,38.54136],[140.9529,38.55164],[140.95285,38.55374],[140.94896,38.55877],[140.94577,38.5782],[140.94602,38.58133],[140.94828,38.58437],[140.94025,38.58889],[140.93893,38.59089],[140.9332,38.59504],[140.9386,38.59107],[140.94013,38.58888],[140.94805,38.58435],[140.94604,38.58167],[140.9457,38.57819],[140.94881,38.55892],[140.95294,38.5528],[140.94951,38.54172],[140.94523,38.53446],[140.94005,38.52909],[140.93938,38.52254],[140.93806,38.52082],[140.93566,38.52026],[140.9226,38.5219],[140.91131,38.51981],[140.8987,38.51357],[140.89528,38.51115]],[[140.87464,38.47192],[140.87495,38.46919],[140.87828,38.46253],[140.87961,38.45433],[140.88992,38.44767],[140.89167,38.44589],[140.89225,38.44384],[140.89109,38.43484],[140.89125,38.42714],[140.88696,38.41246],[140.88646,38.40589],[140.88339,38.39454],[140.87262,38.38035],[140.87401,38.3746],[140.87409,38.36888],[140.87289,38.36505],[140.87385,38.3604],[140.8711,38.35664],[140.87075,38.35444],[140.89152,38.33172],[140.89665,38.32123],[140.90052,38.3159],[140.90206,38.31051],[140.90401,38.30765],[140.90808,38.30531],[140.916,38.30425],[140.92026,38.30252],[140.92986,38.2957],[140.93687,38.28826],[140.93854,38.28402],[140.93858,38.26889]],[[140.87789,38.64967],[140.87742,38.64729],[140.87801,38.64533],[140.87752,38.64885],[140.88057,38.65567],[140.8803,38.65742],[140.87193,38.66336],[140.85993,38.67803],[140.87198,38.66339],[140.88038,38.6574],[140.88062,38.65567],[140.87789,38.64967]],[[140.85993,38.67803],[140.85627,38.68353],[140.84699,38.69241],[140.84544,38.69561],[140.84021,38.70047],[140.83691,38.7053],[140.82937,38.71324],[140.82224,38.71659],[140.81833,38.71581],[140.8141,38.71706],[140.8085,38.71607],[140.80426,38.71751],[140.80273,38.71879],[140.79938,38.7248],[140.7916,38.73143],[140.78638,38.73343],[140.78336,38.73382],[140.77658,38.73292],[140.76411,38.73594],[140.7581,38.73331],[140.75459,38.73352],[140.74273,38.73881],[140.7397,38.74144],[140.73824,38.74521],[140.73676,38.74686],[140.7344,38.74823],[140.73096,38.74891],[140.72098,38.74815],[140.70845,38.73779],[140.70289,38.73566],[140.70107,38.73582],[140.69735,38.73934],[140.69418,38.73926],[140.6875,38.73471],[140.68924,38.72918],[140.68631,38.72764],[140.68025,38.7274],[140.67344,38.72874],[140.66651,38.72675],[140.66315,38.72739],[140.66034,38.7256],[140.65281,38.7262],[140.65036,38.72452],[140.64731,38.72431],[140.63947,38.72775],[140.63661,38.72775],[140.63284,38.72971],[140.62777,38.72912],[140.62174,38.73036],[140.62069,38.73146],[140.62009,38.73594],[140.61551,38.73772],[140.59951,38.73739],[140.58548,38.74063],[140.57985,38.73905],[140.56725,38.73033],[140.56229,38.72846],[140.55724,38.7283],[140.55404,38.72971],[140.545,38.73886],[140.54061,38.74161],[140.53449,38.74445],[140.52897,38.74543],[140.52591,38.74739],[140.52263,38.75103],[140.51838,38.75345],[140.51438,38.75747],[140.51327,38.76173],[140.51213,38.76309],[140.4989,38.76537],[140.48512,38.76471],[140.47955,38.76624],[140.46905,38.76644],[140.46029,38.76212],[140.45547,38.76417],[140.43344,38.76516],[140.43204,38.76385],[140.43021,38.75894],[140.42563,38.75551],[140.42053,38.75468],[140.4152,38.7554],[140.40902,38.75457],[140.40746,38.75267],[140.39591,38.74583],[140.39331,38.73922],[140.39279,38.73414],[140.38989,38.73141],[140.38841,38.7276],[140.38627,38.72641],[140.3828,38.72606],[140.37971,38.72379],[140.37713,38.72434],[140.36234,38.73427],[140.35482,38.73508],[140.34963,38.73806],[140.34428,38.73838],[140.3392,38.74299],[140.33661,38.74398],[140.33211,38.74456],[140.32223,38.74362],[140.31716,38.74417],[140.31045,38.74206],[140.30415,38.74232]],[[140.9332,38.59504],[140.93155,38.59773],[140.92642,38.60199],[140.9216,38.60936],[140.91528,38.61346],[140.9092,38.62025],[140.89762,38.62877],[140.88638,38.63923],[140.87801,38.64533]],[[140.26759,38.74363],[140.27095,38.74285],[140.26223,38.74442],[140.24851,38.74202],[140.24098,38.74478],[140.23043,38.74526],[140.22436,38.74739],[140.22062,38.74781],[140.20168,38.74177],[140.19404,38.73694],[140.19023,38.73562],[140.18474,38.73564],[140.17623,38.73815],[140.16723,38.73644],[140.15852,38.73698],[140.15259,38.7364],[140.14687,38.7387],[140.13508,38.73804],[140.12258,38.74425],[140.10855,38.74688],[140.10291,38.75149],[140.10032,38.75483],[140.09555,38.75647],[140.08806,38.75582],[140.08376,38.75028],[140.08177,38.74921],[140.07694,38.74993],[140.06921,38.75421],[140.06552,38.75768],[140.05503,38.76496],[140.04291,38.76815],[140.03326,38.77338],[140.03199,38.77596],[140.02619,38.78253],[140.02713,38.7855],[140.02679,38.78718],[140.02321,38.79025],[140.01457,38.7914],[140.0005,38.79016],[139.99434,38.79088],[139.9717,38.79871],[139.96472,38.79902],[139.95696,38.80521],[139.95179,38.80826],[139.92972,38.81469],[139.92871,38.81589],[139.92598,38.82429],[139.92471,38.82557],[139.91339,38.83048],[139.89618,38.83529],[139.89311,38.83679],[139.89147,38.83847],[139.89047,38.8411],[139.89183,38.84781],[139.89096,38.85768],[139.88583,38.86848],[139.88887,38.88368],[139.88851,38.88747],[139.88716,38.89097],[139.88394,38.89512],[139.87986,38.89804],[139.86682,38.90359],[139.8633,38.90586],[139.85711,38.90793]],[[140.26865,38.7438],[140.27146,38.74276],[140.27883,38.74245],[140.28609,38.74086],[140.30224,38.74231],[140.30985,38.742]],[[140.77554,38.73312],[140.77751,38.7329]],[[139.85713,38.90803],[139.86339,38.90591],[139.88143,38.89713]],[[139.91584,38.82946],[139.89573,38.83537],[139.89167,38.8381],[139.89039,38.84112],[139.89175,38.84782],[139.89088,38.85768],[139.88592,38.8679]],[[140.27146,38.74276],[140.27095,38.74285]]]}}]}