{"type":"FeatureCollection","features":[{"type":"Feature","properties":{"route_id":"16","route_number":16,"name":"国道16号","source":"OpenStreetMap contributors (ODbL)","osm_relations":[18187,2139444,2139458,2227096,7273751,7277416,7281303,8910691,8910692,8910693,8910694,8910695,8910696,8910697,8910698,8910699,8910700]},"geometry":{"type":"MultiLineString","coordinates":[[[139.49026,35.90408],[139.49738,35.91031],[139.5032,35.91947],[139.51423,35.9187],[139.52362,35.91556],[139.53733,35.91256],[139.55689,35.91865],[139.56626,35.92362],[139.5836,35.92472],[139.58879,35.92592],[139.59414,35.93058],[139.60746,35.94629],[139.60823,35.94851],[139.60798,35.95354],[139.62359,35.95841],[139.6321,35.96272],[139.63987,35.96419],[139.64563,35.96304],[139.6583,35.95712],[139.66962,35.95008],[139.6782,35.94182],[139.68198,35.94006],[139.68482,35.93988],[139.70597,35.94329],[139.71388,35.94669],[139.71962,35.95164],[139.72634,35.95529],[139.7364,35.97045],[139.73595,35.97676],[139.74027,35.98554],[139.7521,35.99151],[139.76499,35.99328],[139.78741,35.98959],[139.79966,35.9898],[139.81008,35.9879],[139.81388,35.98882],[139.82648,35.99492],[139.84092,35.99617],[139.84502,35.99555],[139.84848,35.99363],[139.86094,35.98144],[139.86961,35.96322],[139.89383,35.93408],[139.89853,35.93101],[139.92112,35.92194],[139.92477,35.91942],[139.9326,35.91192],[139.95102,35.90247],[139.95978,35.89183],[139.96917,35.87568],[139.97754,35.86806],[139.98893,35.85478],[140.03236,35.81208],[140.06081,35.7964],[140.09643,35.77015],[140.12042,35.74619],[140.12179,35.74379],[140.12202,35.74117],[140.11666,35.72277],[140.11662,35.71693],[140.12011,35.70688],[140.11932,35.70189],[140.12004,35.69926],[140.12481,35.6936],[140.12939,35.69044],[140.12994,35.68808],[140.11854,35.66471],[140.11843,35.66204],[140.11841,35.66466],[140.12996,35.68877],[140.12933,35.69039],[140.1249,35.6934],[140.11989,35.69937],[140.11923,35.70203],[140.12002,35.70687],[140.11655,35.71677],[140.11655,35.72277],[140.1219,35.74105],[140.12177,35.74354],[140.12038,35.7461],[140.09648,35.77001],[140.06103,35.79614],[140.03179,35.81249],[139.98885,35.85474],[139.97722,35.86825],[139.96908,35.87563],[139.95979,35.89164],[139.95047,35.90279],[139.93267,35.91178],[139.92107,35.92187],[139.89849,35.93095],[139.89268,35.93501],[139.86949,35.96319],[139.861,35.98123],[139.84841,35.99358],[139.84499,35.99548],[139.8406,35.99608],[139.82651,35.99485],[139.81378,35.98868],[139.81017,35.98782],[139.79966,35.98972],[139.78705,35.98953],[139.76461,35.99319],[139.75176,35.99131],[139.74036,35.98548],[139.73602,35.9767],[139.73651,35.97044],[139.72692,35.95562],[139.71966,35.95157],[139.7141,35.94672],[139.70617,35.94326],[139.68495,35.93983],[139.68204,35.93995],[139.67847,35.94156],[139.66934,35.95016],[139.65824,35.95706],[139.64548,35.96301],[139.64015,35.96413],[139.63209,35.96266],[139.62388,35.95842],[139.60846,35.95363],[139.60834,35.94822],[139.60753,35.94615],[139.59219,35.92824],[139.58938,35.92603],[139.58355,35.92461],[139.56576,35.92341],[139.55697,35.91853],[139.53773,35.91247],[139.52384,35.9154],[139.51439,35.91855],[139.50324,35.91938],[139.4973,35.91011],[139.48625,35.9002],[139.47732,35.90231],[139.47328,35.90583],[139.47738,35.90237],[139.48602,35.90025],[139.49026,35.90408]],[[139.8762,35.34307],[139.87585,35.34463],[139.88616,35.34627],[139.90243,35.35254],[139.9063,35.35475],[139.90938,35.35798],[139.91116,35.36192],[139.91187,35.36682],[139.91021,35.37024],[139.91206,35.37068],[139.91815,35.36987],[139.92709,35.36786],[139.93301,35.37243],[139.94042,35.37551],[139.94254,35.38034],[139.94091,35.39123],[139.94225,35.40324],[139.94686,35.40799],[139.95267,35.40991],[139.95534,35.41195],[139.95906,35.42139],[139.96477,35.42957],[139.96991,35.43432],[139.97202,35.44232],[140.00411,35.45581],[140.02494,35.46785],[140.04221,35.4889],[140.06751,35.52831],[140.07937,35.53264],[140.0876,35.53198],[140.09328,35.5303],[140.09668,35.52825],[140.09849,35.52827],[140.11183,35.53728],[140.11703,35.54191],[140.12426,35.55016],[140.13494,35.54897],[140.13661,35.54984],[140.13971,35.55352],[140.14007,35.55491],[140.13811,35.56632],[140.13856,35.56885],[140.13991,35.57127],[140.14866,35.58079],[140.14883,35.58319],[140.14682,35.58744],[140.14663,35.5905],[140.15201,35.60614],[140.15333,35.61241],[140.152,35.61502],[140.1434,35.62403],[140.12867,35.63062],[140.11506,35.64123],[140.1144,35.64198],[140.11763,35.6469],[140.1184,35.65189],[140.11688,35.64538],[140.11463,35.64236],[140.11284,35.64138],[140.11375,35.64171],[140.129,35.62977],[140.14377,35.62307],[140.15117,35.61537],[140.15288,35.61251],[140.1527,35.6098],[140.14582,35.58993],[140.14838,35.58335],[140.14828,35.58092],[140.13867,35.57075],[140.1377,35.56868],[140.13921,35.55313],[140.13631,35.54971],[140.13481,35.54904],[140.12425,35.5503],[140.11684,35.54181],[140.11236,35.53786],[140.099,35.52861],[140.0968,35.52844],[140.0941,35.53008],[140.08764,35.53207],[140.07933,35.53271],[140.06713,35.5284],[140.04226,35.48953],[140.02463,35.46799],[140.00552,35.45687],[139.97206,35.44267],[139.96978,35.43434],[139.96469,35.42961],[139.95899,35.42146],[139.95522,35.412],[139.95266,35.41001],[139.94676,35.40807],[139.94215,35.40327],[139.94082,35.39124],[139.94242,35.38035],[139.94074,35.37594],[139.93259,35.37247],[139.92693,35.36799],[139.91757,35.37004],[139.91203,35.37077],[139.9101,35.37031],[139.91153,35.36629],[139.91055,35.36114],[139.90803,35.35681],[139.90419,35.35374],[139.8853,35.34632],[139.87584,35.34493],[139.8762,35.34307],[139.86698,35.34133],[139.86424,35.33826],[139.8633,35.33484],[139.86077,35.33282],[139.83789,35.31964],[139.82715,35.31502],[139.82203,35.31447],[139.82074,35.31787],[139.81833,35.32079],[139.77759,35.32029],[139.773,35.31964],[139.76757,35.31754],[139.76561,35.31619],[139.73532,35.26134],[139.73328,35.26122],[139.73191,35.2621],[139.7308,35.26483],[139.72861,35.26441],[139.72511,35.2623],[139.7183,35.26335],[139.69721,35.26373],[139.68682,35.26664],[139.67784,35.27157],[139.67701,35.27269],[139.67699,35.27743],[139.67062,35.2826],[139.66923,35.28298],[139.6617,35.28155],[139.65838,35.28297],[139.65227,35.28358],[139.64475,35.28958],[139.63682,35.29103],[139.63218,35.29323],[139.6296,35.29936],[139.6276,35.29961],[139.62515,35.30151],[139.62414,35.30754],[139.62551,35.31527],[139.62498,35.31671],[139.62259,35.31816],[139.62077,35.32067],[139.62003,35.32715],[139.62124,35.33139],[139.62385,35.33492],[139.62381,35.34046],[139.6225,35.34502],[139.62779,35.3525],[139.62814,35.35771],[139.62948,35.35992],[139.63144,35.36703],[139.63404,35.36983],[139.63319,35.37113],[139.62407,35.37467],[139.62194,35.37778],[139.62215,35.38163],[139.61888,35.3852],[139.61445,35.39249],[139.61425,35.39762],[139.6199,35.40516],[139.62273,35.41159],[139.61997,35.40513],[139.61635,35.40084],[139.61419,35.39682],[139.61501,35.39123],[139.62226,35.38164],[139.62202,35.37908]],[[139.44007,35.53292],[139.43528,35.53718],[139.44711,35.52689],[139.45708,35.51508],[139.46986,35.51304],[139.47982,35.50666],[139.48957,35.50249],[139.49518,35.49659],[139.50326,35.492],[139.5113,35.48407],[139.51771,35.48031],[139.51084,35.48446]],[[139.5107,35.48438],[139.51359,35.48194],[139.51798,35.48005],[139.51116,35.48398],[139.50285,35.49211],[139.49473,35.49624],[139.48951,35.50241],[139.47975,35.50658],[139.46982,35.51294],[139.457,35.51501],[139.44628,35.52755],[139.43646,35.53574],[139.42843,35.54398],[139.41778,35.55209],[139.36399,35.57758],[139.35436,35.58296],[139.3447,35.58606],[139.3388,35.59615],[139.33846,35.60436]],[[139.43528,35.53718],[139.42387,35.54789],[139.41471,35.55394],[139.36336,35.57797],[139.35465,35.58291],[139.34488,35.58606],[139.33905,35.59579],[139.33905,35.60026],[139.34033,35.60099],[139.34157,35.60422],[139.34354,35.60594],[139.34493,35.60913],[139.34113,35.61616],[139.34088,35.62214],[139.33687,35.62717],[139.33867,35.6323],[139.33957,35.63974],[139.33865,35.64333],[139.33412,35.65021],[139.33284,35.65363],[139.33359,35.65996],[139.32871,35.66032],[139.33245,35.67376],[139.33233,35.67711],[139.3428,35.68022],[139.34781,35.68641],[139.34759,35.68958],[139.34835,35.69227],[139.34548,35.69501],[139.34979,35.70588],[139.34185,35.70984],[139.33838,35.71396],[139.3406,35.72144],[139.34345,35.72511],[139.34158,35.73273],[139.33822,35.73971],[139.33728,35.74772],[139.34287,35.75801],[139.34153,35.76383],[139.33627,35.7746],[139.33958,35.78009],[139.34142,35.78163],[139.34765,35.78437],[139.35758,35.78479],[139.36788,35.79867],[139.37827,35.80513],[139.37888,35.80759],[139.37605,35.81853],[139.38099,35.82548],[139.37995,35.83199],[139.38236,35.83879],[139.39075,35.84716],[139.39753,35.85144],[139.4045,35.8589],[139.4092,35.8659],[139.41128,35.86721],[139.42549,35.87197],[139.43623,35.88172],[139.44944,35.89085],[139.46277,35.89803],[139.47328,35.90583]],[[139.47391,35.90516],[139.47299,35.90543],[139.46238,35.8977],[139.4474,35.88938],[139.43438,35.88023],[139.42533,35.87178],[139.40945,35.86603],[139.40471,35.85901],[139.3976,35.85136],[139.39089,35.84717],[139.38241,35.83875],[139.38003,35.83202],[139.3811,35.82542],[139.37614,35.81862],[139.37902,35.80726],[139.37822,35.8049],[139.36798,35.79862],[139.35784,35.78481],[139.35147,35.78486],[139.3461,35.78375],[139.34035,35.78084],[139.33671,35.7756],[139.33655,35.77317],[139.34173,35.76363],[139.34297,35.75787],[139.33737,35.74746],[139.33827,35.73996],[139.3417,35.73273],[139.34355,35.72523],[139.34073,35.72131],[139.33846,35.71409],[139.3421,35.70978],[139.34992,35.70582],[139.34566,35.69504],[139.34846,35.69229],[139.34771,35.68958],[139.34793,35.68636],[139.34299,35.68021],[139.33239,35.67701],[139.33253,35.67368],[139.32879,35.66031]],[[139.33855,35.60443],[139.33893,35.60023]],[[139.62294,35.42635],[139.61842,35.43541],[139.6226,35.43671],[139.63578,35.44579],[139.63162,35.44933],[139.62352,35.45944],[139.62235,35.45814],[139.61249,35.45418],[139.61,35.45394],[139.60753,35.45624],[139.60074,35.45853],[139.58899,35.46513],[139.58256,35.46629],[139.57692,35.47039],[139.57007,35.47775],[139.5621,35.47836],[139.55748,35.47966],[139.54818,35.47832],[139.54316,35.4765],[139.54732,35.47802]],[[139.62444,35.37433],[139.6229,35.37614]],[[139.53679,35.46591],[139.53489,35.46706],[139.53504,35.46628],[139.53447,35.46661],[139.53321,35.4696],[139.53515,35.46707],[139.54246,35.46226],[139.54981,35.45599],[139.5541,35.45415],[139.55994,35.45298],[139.56128,35.45182],[139.56068,35.45267],[139.56271,35.45254]],[[139.5624,35.45362],[139.56113,35.45345],[139.56278,35.45275],[139.5595,35.45341],[139.5624,35.45362]],[[139.46647,35.51361],[139.4706,35.51283],[139.47984,35.50669],[139.4896,35.50252],[139.49398,35.49745],[139.48948,35.50238],[139.47973,35.50656],[139.47032,35.51261],[139.46646,35.51348]],[[139.57313,35.47434],[139.57701,35.4704],[139.58278,35.46624],[139.58902,35.46519],[139.60078,35.45859],[139.60772,35.45624],[139.61004,35.45403],[139.61255,35.45433],[139.62248,35.45842],[139.62359,35.45954],[139.63173,35.4494],[139.63591,35.4458],[139.62277,35.43672],[139.61853,35.43535],[139.62113,35.4295]],[[139.53694,35.466],[139.53341,35.46958],[139.53548,35.46699],[139.54242,35.46246],[139.54941,35.45638],[139.55419,35.45425],[139.5595,35.45341]],[[139.56278,35.45275],[139.56783,35.45122]],[[139.62368,35.34141],[139.62389,35.33463],[139.62131,35.33127],[139.62011,35.32715],[139.62065,35.32128],[139.62242,35.31847],[139.62504,35.31674],[139.62559,35.31528],[139.62422,35.30752],[139.62506,35.30182],[139.62756,35.29973],[139.62968,35.2994],[139.63203,35.29341],[139.63439,35.29225],[139.64054,35.29178],[139.64333,35.29083],[139.6482,35.28776],[139.6523,35.28366],[139.65876,35.28307],[139.66175,35.28176],[139.6692,35.28306],[139.67067,35.28266],[139.67707,35.27747],[139.67756,35.27188],[139.68682,35.26671],[139.69718,35.26381],[139.7183,35.26335]],[[139.56726,35.45141],[139.56781,35.45118]],[[139.49526,35.49731],[139.49418,35.49742],[139.50113,35.49649],[139.51058,35.4931],[139.52347,35.48465],[139.53108,35.48244],[139.54316,35.4765]],[[139.43999,35.53286],[139.4352,35.53714]],[[139.53321,35.4696],[139.5281,35.47541],[139.51798,35.48005]],[[139.62688,35.41524],[139.6266,35.41448],[139.6267,35.41693],[139.62301,35.42617]],[[139.56116,35.45175],[139.56111,35.45188]],[[139.62388,35.41267],[139.6266,35.41448]],[[139.51771,35.48031],[139.5278,35.4758],[139.53115,35.47286],[139.53341,35.46958]],[[139.56774,35.45101],[139.55834,35.45335]],[[139.56771,35.45092],[139.56698,35.45126]],[[139.55716,35.45367],[139.56779,35.45113]],[[140.11843,35.66204],[140.11931,35.65496],[140.1184,35.65189]],[[139.49418,35.49742],[139.49398,35.49745]],[[139.62495,35.41352],[139.62522,35.4137]],[[139.62273,35.41159],[139.62381,35.41261]]]}}]}