{"type":"FeatureCollection","features":[{"type":"Feature","properties":{"route_id":"44","route_number":44,"name":"国道44号","source":"OpenStreetMap contributors (ODbL)","osm_relations":[2885462]},"geometry":{"type":"MultiLineString","coordinates":[[[144.38592,42.97993],[144.38592,42.97993]],[[144.38441,42.9845],[144.39095,42.98575],[144.39546,42.98917],[144.40004,42.99744],[144.3998,42.99912],[144.39795,43.00146],[144.40176,43.00599],[144.40969,43.01103],[144.423,42.99998],[144.4339,42.99682],[144.43908,42.99632],[144.43404,42.99668],[144.42369,42.99951],[144.40966,43.01093],[144.40187,43.00592],[144.39812,43.00147],[144.39991,42.99921],[144.40019,42.99743],[144.3956,42.98916],[144.39081,42.98559],[144.38441,42.9845],[144.38596,42.98015]],[[144.43908,42.99632],[144.44907,42.9948],[144.45472,42.99024],[144.45625,42.98983],[144.45785,42.99058],[144.45982,42.99349],[144.46546,42.99507],[144.47433,42.99421],[144.47937,42.99757],[144.4871,42.99648],[144.49369,42.99751],[144.50199,43.00036],[144.50633,42.99953],[144.51456,42.99489],[144.51891,42.99329],[144.52107,42.99101],[144.52573,42.98173],[144.53315,42.97632],[144.54146,42.97661],[144.54889,42.9827],[144.55318,42.98348],[144.55961,42.98367],[144.56865,42.98169],[144.57484,42.98133],[144.58506,42.98264],[144.5959,42.98019],[144.59817,42.98112],[144.60111,42.98432],[144.61312,42.9899],[144.61718,42.99758],[144.62131,43.00024],[144.62544,43.00522],[144.6314,43.00721],[144.63904,43.00669],[144.64473,43.00786],[144.66028,43.01724],[144.66313,43.01734],[144.67876,43.01289],[144.69053,43.01383],[144.70272,43.01662],[144.72377,43.0169],[144.7258,43.01883],[144.73429,43.04457],[144.73716,43.04811],[144.74793,43.05635],[144.76853,43.05844],[144.77464,43.0576],[144.7784,43.05916],[144.78236,43.05821],[144.79093,43.05779],[144.82188,43.06177],[144.8242,43.06126],[144.82739,43.05905],[144.83894,43.05673],[144.84039,43.05779],[144.84172,43.06416],[144.83817,43.07525],[144.83845,43.07685],[144.84171,43.07914],[144.84422,43.08253],[144.84819,43.08596],[144.85623,43.0896],[144.85988,43.09489],[144.86745,43.09853],[144.87509,43.10509],[144.89293,43.10737],[144.8955,43.1064],[144.89891,43.10274],[144.90169,43.10198],[144.91992,43.10439],[144.93299,43.10484],[144.94177,43.10337],[144.94858,43.10422],[144.95481,43.10746],[144.96184,43.10934],[144.96804,43.11471],[144.97458,43.11609],[144.98038,43.11841],[144.98434,43.121],[144.99131,43.12255],[144.9963,43.12531],[145.00429,43.12643],[145.01102,43.1292],[145.0141,43.13141],[145.0243,43.14179],[145.02682,43.14255],[145.03541,43.14267],[145.04314,43.14663],[145.04597,43.14895],[145.05835,43.15478],[145.12464,43.21406],[145.15605,43.22378],[145.15851,43.22356],[145.16195,43.22132],[145.16432,43.22098],[145.18203,43.22662],[145.18943,43.22691],[145.19471,43.22804],[145.21564,43.21939],[145.21975,43.21903],[145.26836,43.23449],[145.27564,43.23917],[145.28226,43.24088],[145.28931,43.24575],[145.30504,43.24725],[145.31691,43.24553],[145.32636,43.24969],[145.33871,43.24842],[145.34402,43.24956],[145.35487,43.25493],[145.35877,43.25599],[145.36941,43.25686],[145.37636,43.25349],[145.37971,43.25306],[145.39553,43.25694],[145.40401,43.2567],[145.41191,43.26146],[145.41399,43.26199],[145.43013,43.25995],[145.43886,43.26135],[145.44604,43.25795],[145.44886,43.25749],[145.45931,43.26046],[145.46445,43.26557],[145.47361,43.26967],[145.4761,43.26963],[145.48598,43.26627],[145.49304,43.26654],[145.49452,43.26739],[145.49793,43.27303],[145.50531,43.27822],[145.50923,43.2862],[145.51593,43.29355],[145.52391,43.29754],[145.53575,43.30887],[145.54671,43.31459],[145.55127,43.31565],[145.58547,43.33024]],[[145.55118,43.3157],[145.58543,43.33035]],[[144.38564,42.98007],[144.3857,42.98055]]]}}]}