{"type":"FeatureCollection","features":[{"type":"Feature","properties":{"route_id":"169","route_number":169,"name":"国道169号","source":"OpenStreetMap contributors (ODbL)","osm_relations":[7790754,9314874,9314876,9314877,9314878,9314879,9314880,11229451]},"geometry":{"type":"MultiLineString","coordinates":[[[135.83807,34.50879],[135.84361,34.50928],[135.84387,34.5236],[135.84235,34.52953],[135.83747,34.53803],[135.83807,34.50879],[135.81967,34.50715],[135.81394,34.50886],[135.79155,34.50874],[135.79158,34.5058],[135.79379,34.5048],[135.79596,34.50068],[135.79609,34.4798],[135.7993,34.46491],[135.79632,34.45791],[135.79511,34.4473],[135.79917,34.44132],[135.7991,34.43806],[135.80023,34.43574],[135.79846,34.42816],[135.79882,34.42613],[135.79613,34.41839],[135.79599,34.41376],[135.79827,34.40914],[135.79599,34.41446],[135.7964,34.41808],[135.79905,34.42593],[135.79856,34.42821],[135.80012,34.43219],[135.80007,34.43469]],[[135.83747,34.53803],[135.83794,34.54067],[135.84369,34.54537],[135.84665,34.55121],[135.84605,34.55929],[135.84357,34.57174],[135.84053,34.57516],[135.83715,34.58508],[135.83565,34.60554],[135.83228,34.61397],[135.83173,34.61936],[135.83287,34.62265],[135.83318,34.62707],[135.83284,34.66422],[135.83303,34.66895],[135.83487,34.66993],[135.83474,34.68447]],[[135.79827,34.40914],[135.79644,34.40499],[135.79412,34.40247],[135.7935,34.39967],[135.79371,34.3935],[135.79626,34.3871],[135.80759,34.38633],[135.84328,34.39433],[135.84971,34.39426],[135.86412,34.39636],[135.87348,34.3918],[135.87617,34.3894],[135.88094,34.38886],[135.88171,34.38536],[135.88337,34.38358],[135.88897,34.38398],[135.89132,34.38323],[135.89246,34.38089],[135.89155,34.37882],[135.89192,34.37808],[135.89603,34.3773],[135.89798,34.37821],[135.90372,34.37656],[135.90701,34.37729],[135.91351,34.37442],[135.91474,34.37226],[135.91768,34.36082],[135.92114,34.36146],[135.92654,34.35849],[135.92538,34.35683],[135.92381,34.35639],[135.92396,34.35583],[135.93118,34.35386],[135.9377,34.34741],[135.94216,34.34846],[135.94609,34.3462],[135.94823,34.34396],[135.95207,34.34297],[135.95213,34.33954],[135.9576,34.3338],[135.95958,34.33032],[135.96488,34.33044],[135.96766,34.33181],[135.97216,34.33039],[135.97258,34.32828],[135.96883,34.32566],[135.96881,34.32421],[135.97085,34.32166],[135.97034,34.31919],[135.97162,34.31832],[135.97513,34.31935],[135.9766,34.31829],[135.97757,34.31579],[135.97725,34.3132],[135.97834,34.31148],[135.98121,34.31122],[135.98854,34.31428],[135.98974,34.31406],[135.99325,34.30971],[135.99193,34.30684],[135.99177,34.30246],[135.99651,34.30191],[136.00234,34.29541],[135.99859,34.29143],[136.00036,34.28873],[136.00275,34.28757],[136.00394,34.28536],[136.00337,34.28104],[136.00572,34.27883],[136.00839,34.27402],[136.01404,34.27262],[136.0138,34.26992],[136.01246,34.26788],[136.00764,34.26802],[136.00435,34.26473],[136.00244,34.26037],[135.99636,34.25078],[135.99768,34.24907],[135.99978,34.25021],[135.99951,34.25147],[135.99855,34.25196],[135.99596,34.25126],[135.99404,34.23958],[135.99086,34.23593],[135.9969,34.21841],[135.99828,34.21741],[135.99804,34.21525],[136.00057,34.21164],[135.99945,34.20726],[135.99774,34.20466],[135.99968,34.1966],[135.99356,34.19084],[135.99867,34.18564],[136.00306,34.18475],[136.00323,34.18322],[136.00627,34.18168],[136.00439,34.17906],[136.0022,34.17368],[136.00225,34.1717],[136.00076,34.16967],[135.99474,34.16795],[135.99427,34.16661],[135.99524,34.16443],[135.9953,34.1614],[135.99795,34.15886],[135.99394,34.15556],[135.99379,34.15301],[135.99102,34.15064],[135.99245,34.14702],[135.99443,34.14551],[135.99467,34.14352],[135.99934,34.14097],[136.00135,34.13673],[136.00114,34.13205],[135.99835,34.13199],[135.99724,34.13089],[135.99888,34.12932],[135.99885,34.12732],[136.00114,34.12563],[135.99953,34.12331],[135.99638,34.12131],[135.99704,34.1178],[135.99465,34.1144],[135.99474,34.10889],[135.99131,34.10731],[135.99061,34.10464],[135.9888,34.10215],[135.9854,34.10063],[135.98567,34.09845],[135.98456,34.09672],[135.98035,34.09655],[135.97948,34.09377],[135.97617,34.08995],[135.97554,34.08773],[135.97427,34.08724],[135.97583,34.08481],[135.97955,34.08354],[135.97963,34.0826],[135.97558,34.0801],[135.9732,34.08035],[135.97226,34.07916],[135.97248,34.07509],[135.97129,34.07357],[135.97153,34.07121],[135.96769,34.06936],[135.96754,34.06637],[135.96846,34.06536],[135.9678,34.06411],[135.96651,34.06396],[135.9672,34.06272],[135.96586,34.06107],[135.9671,34.0608],[135.96749,34.05967],[135.97107,34.05898],[135.97074,34.05729],[135.96922,34.05685],[135.96868,34.05319],[135.96927,34.05201],[135.97052,34.05182],[135.97082,34.05016],[135.96559,34.05049],[135.96111,34.04838],[135.95957,34.04644],[135.95862,34.04338],[135.9598,34.0422],[135.96069,34.03803],[135.96334,34.03623],[135.96553,34.0369],[135.96692,34.04182],[135.96839,34.04208],[135.97085,34.04086],[135.97258,34.03567],[135.97315,34.02942],[135.97051,34.02819],[135.97479,34.0259],[135.97419,34.02497],[135.97582,34.02296],[135.97718,34.01889],[135.97886,34.01894],[135.98201,34.01677],[135.98378,34.01942],[135.98607,34.01991],[135.98704,34.01866],[135.98635,34.01662],[135.98887,34.01542],[135.98946,34.01263],[135.99194,34.01276],[135.99541,34.01118],[135.99901,34.01169],[135.99978,34.01058],[136.00658,34.0099],[136.00825,34.00823],[136.00822,34.00579],[136.00959,34.00388],[136.00928,34.00054],[136.01108,33.99923],[136.01342,33.99557],[136.0158,33.99875],[136.01897,33.99749],[136.0218,33.99793],[136.02656,33.99524],[136.02895,33.99512],[136.03207,33.99191],[136.03103,33.98962],[136.03475,33.99008],[136.03627,33.98805],[136.03674,33.98545],[136.04,33.98405],[136.03866,33.98208],[136.03511,33.98185],[136.02538,33.97622],[136.01409,33.97799],[136.01338,33.97617],[136.01573,33.97449],[136.01463,33.97413],[136.01416,33.97276],[136.01452,33.96999],[136.01359,33.96699],[136.01079,33.96478],[136.00443,33.96187],[136.00343,33.96008],[136.00127,33.96031],[136.00003,33.95796],[135.99554,33.95934],[135.99242,33.96511],[135.98732,33.96958],[135.98394,33.96967],[135.97611,33.96715],[135.97358,33.96319],[135.97666,33.9571],[135.97671,33.94915],[135.97503,33.94506],[135.97506,33.94235],[135.97238,33.93786],[135.97189,33.93539],[135.96894,33.93184],[135.9635,33.93088],[135.95846,33.9348],[135.94493,33.94051],[135.93441,33.94007],[135.93201,33.94111],[135.93099,33.94245],[135.92707,33.94216],[135.92666,33.93895],[135.92722,33.93767],[135.92555,33.93553],[135.9207,33.93466],[135.91847,33.93275],[135.91691,33.92956],[135.91736,33.92849],[135.91637,33.92318],[135.91731,33.92074],[135.90605,33.92096],[135.90101,33.92326],[135.89469,33.92343],[135.88999,33.92169],[135.87898,33.91378],[135.87611,33.90814],[135.87578,33.90588],[135.87933,33.89763],[135.87969,33.88803],[135.87611,33.87737],[135.86644,33.87601],[135.8633,33.8779],[135.86006,33.87742],[135.85664,33.87496],[135.85555,33.87317],[135.85731,33.86977],[135.85692,33.86796],[135.85287,33.86309],[135.85177,33.85838],[135.85438,33.85338],[135.85874,33.84893],[135.85673,33.84364],[135.85526,33.83601],[135.85323,33.83318],[135.85502,33.83232],[135.85595,33.83073],[135.85505,33.82058],[135.85674,33.81479],[135.86304,33.81024],[135.86632,33.80944],[135.87292,33.80619]],[[136.00789,34.0025],[136.00806,34.00242]],[[136.00635,34.00329],[136.00638,34.00436],[136.00819,34.00637]],[[135.87391,33.7978],[135.88019,33.7983],[135.8861,33.8015],[135.89392,33.79542],[135.89607,33.79332],[135.89648,33.7917],[135.89577,33.78594],[135.90095,33.77967],[135.90565,33.7667],[135.90802,33.76572],[135.9137,33.76589],[135.91687,33.76478],[135.92035,33.75743],[135.92757,33.75272],[135.93143,33.75355],[135.93451,33.75596],[135.93558,33.75593],[135.93753,33.75163],[135.93783,33.7433],[135.93863,33.7423],[135.93895,33.73913],[135.94046,33.7353],[135.94398,33.73187],[135.94778,33.73038],[135.95211,33.7272],[135.95838,33.72499],[135.97738,33.71956],[135.98695,33.71917]],[[135.99883,34.21367],[135.99774,34.20466]],[[135.77714,34.44886],[135.78615,34.44105]],[[135.78445,34.44297],[135.78663,34.44104]],[[136.00928,34.00195],[136.00895,34.00201]],[[135.93801,33.74826],[135.92757,33.75272]]]}}]}