{"type":"FeatureCollection","features":[{"type":"Feature","properties":{"route_id":"344","route_number":344,"name":"国道344号","source":"OpenStreetMap contributors (ODbL)","osm_relations":[6649827]},"geometry":{"type":"MultiLineString","coordinates":[[[140.48894,39.16371],[140.48954,39.15308],[140.4915,39.14892],[140.49152,39.14687],[140.49007,39.14365],[140.48317,39.1392],[140.48157,39.13681],[140.48257,39.12961],[140.48081,39.11855],[140.47944,39.11493],[140.47938,39.10238],[140.47765,39.09399],[140.47779,39.09106],[140.47496,39.08895],[140.47136,39.08447],[140.46128,39.07669],[140.46113,39.06515],[140.46052,39.06325],[140.45241,39.05375],[140.44811,39.0515],[140.44544,39.0514],[140.44,39.05361],[140.43698,39.05363],[140.42796,39.05172],[140.42316,39.04793],[140.42083,39.04713],[140.41722,39.04768],[140.40843,39.05081],[140.4033,39.05141],[140.39398,39.04268],[140.39224,39.03868],[140.38425,39.03177],[140.37926,39.02402],[140.3767,39.0223],[140.37275,39.01641],[140.37109,39.0058],[140.36902,39.00321],[140.36421,38.99966],[140.36315,38.9952],[140.36362,38.99223],[140.36246,38.98842],[140.36307,38.98524],[140.36196,38.98057],[140.35765,38.97575],[140.35765,38.97383],[140.35554,38.97359],[140.35512,38.97244],[140.35351,38.97209],[140.35386,38.96956],[140.35269,38.96575],[140.35853,38.95856],[140.35793,38.9565],[140.35888,38.95361],[140.35545,38.94899],[140.35289,38.94362],[140.35325,38.94031],[140.35008,38.93758],[140.34889,38.93416],[140.34698,38.93215],[140.34461,38.92736],[140.3398,38.92321],[140.33399,38.92274],[140.33335,38.92007],[140.33473,38.91879],[140.33069,38.92039],[140.32933,38.92007],[140.32533,38.91595],[140.32389,38.91282],[140.32311,38.90881],[140.32725,38.90429],[140.32766,38.89805],[140.32537,38.89541],[140.32345,38.89134],[140.32645,38.88915],[140.33055,38.88906],[140.33217,38.88795],[140.32774,38.88595],[140.32173,38.88592],[140.31517,38.88411],[140.30748,38.87724],[140.30171,38.86487],[140.29772,38.86296],[140.28938,38.86332],[140.27999,38.86602],[140.27585,38.86297],[140.26836,38.86264],[140.26464,38.86103],[140.2543,38.86049],[140.25289,38.85925],[140.24926,38.86132],[140.24714,38.865],[140.24394,38.86635],[140.23694,38.86571],[140.23505,38.8616],[140.2323,38.86136],[140.22913,38.8648],[140.23023,38.86753],[140.2281,38.87019],[140.22782,38.87334],[140.22578,38.87628],[140.22424,38.88083],[140.22268,38.88199],[140.2167,38.88365],[140.21488,38.88803],[140.21259,38.89032],[140.2136,38.89572],[140.21164,38.89983],[140.21042,38.90087],[140.2067,38.90172],[140.20386,38.90593],[140.20547,38.91208],[140.20101,38.91524],[140.20219,38.91907],[140.201,38.92167],[140.20077,38.92576],[140.19674,38.9293],[140.19344,38.9304],[140.18948,38.92968],[140.18715,38.93129],[140.18717,38.93313],[140.18432,38.93473],[140.18106,38.93824],[140.18066,38.94219],[140.17785,38.94503],[140.17571,38.94598],[140.1758,38.95111],[140.17501,38.95317],[140.17342,38.9541],[140.16785,38.95415],[140.16694,38.95518],[140.16683,38.95919],[140.16504,38.96034],[140.16388,38.96233],[140.16138,38.96324],[140.15773,38.96261],[140.15641,38.96406],[140.15645,38.96532],[140.15545,38.96543],[140.1554,38.96655],[140.15412,38.96594],[140.15404,38.9645],[140.15237,38.96356],[140.14853,38.96657],[140.14798,38.96518],[140.14623,38.9648],[140.13712,38.9654],[140.13407,38.96809],[140.12938,38.96798],[140.12682,38.96983],[140.12347,38.96966],[140.12241,38.97074],[140.11572,38.9698],[140.11248,38.97083],[140.11128,38.96933],[140.10673,38.96825],[140.10217,38.96907],[140.09551,38.96853],[140.08599,38.96596],[140.08358,38.96413],[140.08082,38.96401],[140.07481,38.9619],[140.05869,38.96197],[140.05553,38.96464],[140.05079,38.96627],[140.04583,38.96598],[140.03205,38.96869],[140.02462,38.96754],[140.02005,38.96462],[140.01483,38.96556],[139.99864,38.96549],[139.99309,38.96378],[139.98364,38.9626],[139.97788,38.96573],[139.97249,38.9651],[139.96209,38.96713],[139.95642,38.96687],[139.94993,38.96832],[139.94749,38.9699],[139.93777,38.97081],[139.93671,38.96567],[139.92675,38.96512],[139.91432,38.96076],[139.90594,38.95462],[139.89883,38.95138],[139.88998,38.94992],[139.88867,38.94859],[139.88814,38.94557],[139.88558,38.94377],[139.87682,38.93397],[139.86943,38.93054],[139.859,38.92998]]]}}]}