{"type":"FeatureCollection","features":[{"type":"Feature","properties":{"route_id":"270","route_number":270,"name":"国道270号","source":"OpenStreetMap contributors (ODbL)","osm_relations":[9678094,9678230,10375265]},"geometry":{"type":"MultiLineString","coordinates":[[[130.2952,31.26978],[130.29129,31.28099],[130.28974,31.28211],[130.2882,31.28678],[130.28339,31.29259],[130.28303,31.29785],[130.28035,31.30239],[130.28034,31.30469],[130.28124,31.30754],[130.28257,31.30884],[130.28272,31.31142],[130.27827,31.31578],[130.27458,31.31613],[130.2729,31.31869],[130.27316,31.32204],[130.2756,31.32616],[130.27345,31.32921],[130.27292,31.33149],[130.27346,31.33369],[130.27067,31.33744],[130.27061,31.33981],[130.27391,31.34616],[130.27964,31.34803],[130.2848,31.35554],[130.28686,31.36812],[130.29123,31.37057],[130.29493,31.37606],[130.29739,31.37693],[130.3013,31.37661],[130.30451,31.37834],[130.30656,31.38064],[130.31162,31.38198],[130.31322,31.38434],[130.31309,31.39024],[130.31521,31.39315],[130.31532,31.39651],[130.3119,31.40334],[130.31764,31.41294],[130.32011,31.4142],[130.32252,31.41833],[130.32581,31.42485],[130.32635,31.429],[130.3289,31.43301],[130.33627,31.43628],[130.335,31.44303],[130.33336,31.44522],[130.33279,31.44894],[130.33984,31.45522],[130.34414,31.45603],[130.34537,31.46175],[130.345,31.46778],[130.34641,31.47037],[130.3468,31.47524],[130.35265,31.48868],[130.34923,31.49589],[130.34941,31.49781],[130.35208,31.50335],[130.35179,31.50821],[130.34957,31.51161],[130.34924,31.51527],[130.35022,31.51698],[130.35005,31.51926],[130.3473,31.52338],[130.34107,31.52745],[130.33975,31.53391],[130.3387,31.53561],[130.33807,31.54375],[130.33922,31.54622],[130.33918,31.55018],[130.3375,31.55684],[130.33814,31.55855],[130.34148,31.56098],[130.34245,31.56481],[130.33985,31.57461],[130.34139,31.57756],[130.34176,31.58703],[130.33878,31.59104],[130.3374,31.59438],[130.33759,31.59855],[130.33616,31.60245],[130.33686,31.60838],[130.33468,31.61587],[130.3354,31.61882],[130.33281,31.62342],[130.33306,31.62647],[130.32966,31.62929],[130.32316,31.64682],[130.32298,31.64903],[130.32427,31.65351],[130.3217,31.66027],[130.31467,31.66653],[130.31068,31.67134],[130.31233,31.67761]],[[130.29535,31.68945],[130.29616,31.68361],[130.3068,31.66821],[130.30767,31.66378],[130.31234,31.6624],[130.31698,31.65917],[130.32009,31.65911],[130.32107,31.65552],[130.32397,31.65213]],[[130.33627,31.43628],[130.34049,31.43797],[130.34331,31.44798],[130.34107,31.44015]],[[130.34331,31.44798],[130.34414,31.45603]]]}}]}