{"type":"FeatureCollection","features":[{"type":"Feature","properties":{"route_id":"398","route_number":398,"name":"国道398号","source":"OpenStreetMap contributors (ODbL)","osm_relations":[6012803,18207501]},"geometry":{"type":"MultiLineString","coordinates":[[[141.13254,38.76469],[141.13199,38.76528],[141.13531,38.75801],[141.14299,38.75241],[141.15004,38.74485],[141.15184,38.73952],[141.1523,38.73176],[141.15172,38.7302],[141.14858,38.72735],[141.14906,38.72436],[141.17666,38.7112],[141.18066,38.70717],[141.1903,38.70098],[141.19289,38.69496],[141.19495,38.69322],[141.19511,38.68905],[141.19905,38.68923],[141.23633,38.71022],[141.24221,38.70881],[141.26769,38.70764],[141.27127,38.7052],[141.27484,38.70423],[141.279,38.70522],[141.28294,38.70429],[141.28814,38.70762],[141.28838,38.7062],[141.29407,38.70603],[141.30265,38.70841],[141.30896,38.70918],[141.31156,38.7104],[141.3194,38.7106],[141.33627,38.70639],[141.34717,38.70579],[141.35217,38.7068],[141.35833,38.70945],[141.36672,38.70772],[141.37565,38.7072],[141.38405,38.70377],[141.38957,38.70468],[141.39374,38.70423],[141.40751,38.70029],[141.41119,38.70155],[141.41359,38.69993],[141.41604,38.69536],[141.41928,38.69503],[141.42213,38.6937],[141.42717,38.69435],[141.43487,38.68777],[141.43765,38.68836],[141.44063,38.68715],[141.44324,38.68169],[141.44761,38.67986],[141.44892,38.67832],[141.44949,38.67703],[141.44419,38.67547],[141.44075,38.67051],[141.4413,38.66756],[141.44452,38.66568],[141.44544,38.66258],[141.44878,38.65759],[141.44539,38.65405],[141.44227,38.64845],[141.43763,38.64757],[141.43829,38.64324],[141.44036,38.63865],[141.44747,38.63836],[141.4506,38.64089],[141.45306,38.64134],[141.45616,38.6376],[141.45817,38.63705],[141.46464,38.64423],[141.46656,38.64479],[141.47345,38.64319],[141.47898,38.64347],[141.4816,38.64142],[141.49,38.63875],[141.49769,38.63956],[141.49993,38.63712],[141.50546,38.63631],[141.50849,38.63684],[141.51264,38.63573],[141.51466,38.6341],[141.5203,38.63364],[141.52424,38.6306],[141.52448,38.62299],[141.52245,38.62165],[141.51939,38.61646],[141.52022,38.61292],[141.51636,38.60763],[141.51253,38.60696],[141.50785,38.60439],[141.50465,38.60458],[141.50131,38.60331],[141.5001,38.60131],[141.49553,38.59853],[141.49548,38.59725],[141.49742,38.59482],[141.49666,38.59328],[141.48802,38.58882],[141.48582,38.58502],[141.47575,38.58705],[141.47238,38.58687],[141.457,38.57799],[141.4487,38.57393],[141.44088,38.57154],[141.435,38.56838],[141.42769,38.56253],[141.42395,38.55441],[141.41968,38.54883],[141.4263,38.54546],[141.4262,38.544],[141.42769,38.54262],[141.42792,38.53938],[141.42997,38.5383],[141.43079,38.53671],[141.43703,38.53477],[141.43543,38.53344],[141.43857,38.53121],[141.439,38.52303],[141.44015,38.5212],[141.44331,38.51884],[141.44871,38.51723],[141.45156,38.5148],[141.45506,38.5134],[141.45723,38.51083],[141.46011,38.5103],[141.46622,38.51226],[141.47133,38.5153],[141.47152,38.51664],[141.47287,38.51734],[141.47535,38.51662],[141.47792,38.51369],[141.48385,38.51017],[141.4867,38.50715],[141.48677,38.50573],[141.48469,38.50292],[141.48576,38.49816],[141.48839,38.49288],[141.48756,38.4882],[141.49185,38.48557],[141.4936,38.47905],[141.49313,38.47615],[141.49054,38.4733],[141.48755,38.47275],[141.4866,38.47016],[141.48583,38.47046],[141.48619,38.47257],[141.48545,38.473],[141.48447,38.47136],[141.47969,38.47],[141.47907,38.46916],[141.4771,38.46895],[141.47414,38.46993],[141.47171,38.46923],[141.47339,38.46784],[141.47322,38.46423],[141.4743,38.46284],[141.47955,38.4627],[141.48019,38.462],[141.48189,38.46216],[141.48344,38.46051],[141.48472,38.46091],[141.48736,38.46014],[141.48643,38.45772],[141.48679,38.45537],[141.49098,38.45273],[141.48919,38.44701],[141.48555,38.44446],[141.48362,38.44442],[141.48468,38.44106],[141.48386,38.43962],[141.48114,38.4394],[141.48061,38.44173],[141.47811,38.44333],[141.47756,38.44537],[141.47282,38.44222],[141.47042,38.44152],[141.4633,38.44448],[141.45895,38.44769],[141.452,38.44611],[141.44736,38.4462],[141.4464,38.44533],[141.44654,38.4429],[141.44272,38.44098],[141.42039,38.43653],[141.41512,38.43353],[141.41026,38.43373],[141.40674,38.43683],[141.40296,38.43632],[141.39777,38.43742],[141.39512,38.43601],[141.39303,38.43588],[141.39023,38.43738],[141.38784,38.43746],[141.38268,38.43329],[141.38071,38.43071],[141.37548,38.43011],[141.37338,38.42724],[141.36904,38.42383],[141.36561,38.41798],[141.36,38.41601],[141.34687,38.41709],[141.3221,38.42112],[141.31451,38.42775],[141.31294,38.43022],[141.3086,38.43239],[141.30494,38.4328],[141.2986,38.43541],[141.29547,38.43511],[141.28942,38.42963],[141.26703,38.43081]],[[141.13199,38.76528],[141.12199,38.77345],[141.11389,38.77322],[141.11001,38.77155],[141.09575,38.77107],[141.09114,38.76701],[141.08629,38.76575],[141.07896,38.76243],[141.07722,38.76],[141.06944,38.75531],[141.06014,38.75335],[141.05131,38.74755],[141.04315,38.74331],[141.03818,38.74171],[141.03154,38.73591],[141.02393,38.73497],[141.0173,38.73533],[141.01496,38.73422],[140.99695,38.73086],[140.99053,38.73147],[140.98618,38.72985],[140.95402,38.73496],[140.94818,38.73978],[140.94363,38.73908],[140.94169,38.73991],[140.92553,38.74194],[140.9211,38.7437],[140.91846,38.74358],[140.9063,38.74677],[140.89384,38.74865],[140.88722,38.75176],[140.87617,38.75228],[140.86974,38.75167],[140.86778,38.75614],[140.86587,38.75748],[140.86393,38.76061],[140.86475,38.76245],[140.8628,38.76773],[140.8638,38.7722],[140.86094,38.7755],[140.85721,38.77554],[140.8512,38.779],[140.85138,38.78122],[140.84767,38.78435],[140.8446,38.78878],[140.84586,38.79199],[140.84556,38.79328],[140.83782,38.79818],[140.83382,38.7979],[140.82836,38.79946],[140.82087,38.80549],[140.81597,38.81353],[140.81173,38.81537],[140.80997,38.81925],[140.80738,38.82041],[140.79887,38.82186],[140.79593,38.82557],[140.79404,38.82676],[140.79137,38.83116],[140.78828,38.83279],[140.78279,38.83909],[140.77801,38.84235],[140.77733,38.84462],[140.77802,38.85004],[140.78128,38.85325],[140.78191,38.85507],[140.77849,38.85777],[140.77696,38.86284],[140.776,38.86225],[140.77605,38.86344],[140.77542,38.86245],[140.77445,38.8641],[140.77335,38.86324],[140.77375,38.86426],[140.77213,38.86387],[140.77234,38.86452],[140.76726,38.86854],[140.76571,38.86757],[140.76576,38.86553],[140.76371,38.86605],[140.76366,38.86775],[140.76155,38.8669],[140.75696,38.86707],[140.75747,38.86856],[140.75399,38.87499],[140.74625,38.88169],[140.74654,38.88635],[140.74074,38.89029],[140.74029,38.89187],[140.73877,38.89317],[140.73821,38.89301],[140.73848,38.8917],[140.73655,38.89333],[140.73724,38.89448],[140.73672,38.89855],[140.73753,38.89967],[140.73286,38.90206],[140.73269,38.90393],[140.73034,38.90604],[140.73427,38.90697],[140.73616,38.90626],[140.73615,38.90777],[140.73358,38.91147],[140.73221,38.91233],[140.73028,38.9121],[140.72999,38.91349],[140.72801,38.91511],[140.73149,38.91567],[140.73007,38.91974],[140.7314,38.92275],[140.72933,38.92409],[140.73028,38.92578],[140.72623,38.93286],[140.72222,38.93488],[140.71939,38.93739],[140.71849,38.93998],[140.71893,38.94097],[140.71692,38.94159],[140.71641,38.94558],[140.71851,38.94829],[140.71825,38.95087],[140.71556,38.95427],[140.71567,38.95583],[140.71203,38.95728],[140.71364,38.95894],[140.71329,38.96113],[140.71522,38.96701],[140.71235,38.96767],[140.71317,38.97073],[140.71026,38.97312],[140.71023,38.9757],[140.70845,38.9768],[140.71109,38.97799],[140.71235,38.97778],[140.71545,38.98112],[140.71574,38.98219],[140.71507,38.98279],[140.71118,38.98263],[140.71386,38.98786],[140.7126,38.98794],[140.70868,38.98322],[140.70415,38.98537],[140.70343,38.98481],[140.70415,38.98368],[140.70327,38.98328],[140.70129,38.98506],[140.69892,38.98488],[140.69538,38.98724],[140.6934,38.98747],[140.69303,38.98683],[140.69477,38.98189],[140.69365,38.98144],[140.68517,38.99295],[140.68162,38.99408],[140.67894,38.99378],[140.67573,38.99538],[140.67358,38.99849],[140.66596,39.00522],[140.66221,39.00654],[140.6592,39.01425],[140.64412,39.02591],[140.64109,39.03129],[140.63385,39.03548],[140.62849,39.04135],[140.629,39.04277],[140.62824,39.0457],[140.62904,39.04777],[140.62638,39.05016],[140.62619,39.05202],[140.62463,39.054],[140.6223,39.05503],[140.61373,39.05534],[140.6097,39.0565],[140.60585,39.05988],[140.60319,39.05955],[140.59529,39.06101],[140.59352,39.06208],[140.59207,39.06434],[140.58839,39.06623],[140.58595,39.06857],[140.58707,39.07513],[140.58916,39.07991],[140.59031,39.08074],[140.58996,39.08483],[140.58745,39.088],[140.58573,39.0884],[140.58046,39.09201],[140.58055,39.09411],[140.58233,39.09688],[140.5829,39.10127],[140.58246,39.10973],[140.58324,39.11138],[140.58316,39.11462],[140.5807,39.1185],[140.57844,39.12007],[140.57668,39.12612],[140.57672,39.12989],[140.57506,39.13479],[140.57741,39.14183],[140.57555,39.14534],[140.56987,39.15193],[140.56864,39.15291],[140.55886,39.15227],[140.55483,39.15814],[140.54426,39.15819],[140.53149,39.1602],[140.52541,39.1625],[140.51547,39.1611],[140.50855,39.16361],[140.50373,39.16431],[140.49412,39.16895],[140.49035,39.16939],[140.47158,39.17547],[140.46746,39.18084],[140.4582,39.18658],[140.45371,39.19032],[140.44394,39.18855],[140.43192,39.19065],[140.41197,39.19241],[140.41226,39.2015],[140.41126,39.20303],[140.40643,39.20539],[140.41182,39.21234],[140.41243,39.21872],[140.40796,39.22328],[140.40667,39.22721],[140.40375,39.23028],[140.40109,39.23171],[140.40104,39.23351]],[[140.40701,39.22675],[140.40771,39.22703],[140.40317,39.23304],[140.39896,39.23396],[140.39805,39.23537],[140.39378,39.2352],[140.38723,39.23157],[140.37728,39.22937],[140.37013,39.23082],[140.36372,39.22996],[140.35445,39.23217],[140.35147,39.23324],[140.35176,39.23392],[140.34974,39.23329],[140.35078,39.23431],[140.34466,39.23352],[140.342,39.23442],[140.33676,39.23466],[140.32851,39.23276],[140.32428,39.23319],[140.31957,39.23174],[140.31232,39.23217],[140.31119,39.23296],[140.31069,39.23554],[140.30665,39.23597],[140.30632,39.23684],[140.30409,39.23779],[140.30556,39.24061],[140.30555,39.24293],[140.30712,39.24505],[140.30582,39.24682],[140.30608,39.24933],[140.30333,39.25084],[140.30113,39.2533],[140.30011,39.25803],[140.29647,39.26389],[140.29626,39.26685],[140.29498,39.26769],[140.29296,39.27155],[140.29527,39.27748],[140.294,39.28436],[140.2898,39.28627],[140.28552,39.29295],[140.2855,39.29922],[140.28033,39.30701],[140.27159,39.30785],[140.26689,39.31182],[140.26235,39.31277],[140.25858,39.31198],[140.25298,39.30675],[140.23647,39.30843],[140.23139,39.31302],[140.22855,39.31432],[140.21608,39.31415],[140.20694,39.31689],[140.19995,39.32116],[140.18694,39.32535],[140.17635,39.32619],[140.17331,39.3299],[140.16951,39.33136],[140.17071,39.33321],[140.16937,39.33642],[140.16533,39.33857],[140.15106,39.33638],[140.14403,39.33647],[140.11903,39.34458],[140.10243,39.35187],[140.09287,39.35447],[140.08201,39.35461],[140.06807,39.36769],[140.06284,39.37731],[140.04774,39.38326],[140.04608,39.3849],[140.0427,39.38601],[140.032,39.38641]],[[141.43073,38.43891],[141.43164,38.43722],[141.43268,38.4369],[141.43764,38.43736],[141.43945,38.43931],[141.446,38.4408],[141.44654,38.4429]],[[141.51134,38.60645],[141.50791,38.60547],[141.50355,38.60609],[141.50051,38.60505],[141.4992,38.60397],[141.49753,38.60016]],[[140.58707,39.07513],[140.58645,39.07806],[140.58297,39.08214],[140.58241,39.08439],[140.58077,39.08573],[140.57989,39.08777],[140.57762,39.0895],[140.5775,39.09122]],[[141.18029,38.70811],[141.18185,38.70693]],[[140.30665,39.23597],[140.30402,39.23654],[140.30413,39.23862]]]}}]}