{"type":"FeatureCollection","features":[{"type":"Feature","properties":{"route_id":"210","route_number":210,"name":"国道210号","source":"OpenStreetMap contributors (ODbL)","osm_relations":[9587541,9589358,9589492,9592416,9592451,10123365]},"geometry":{"type":"MultiLineString","coordinates":[[[131.59547,33.22425],[131.59493,33.21881],[131.59533,33.22675],[131.60236,33.23698]],[[131.60247,33.23692],[131.59568,33.22719],[131.59558,33.22519]],[[131.60707,33.20035],[131.59679,33.21244],[131.59564,33.21604],[131.59699,33.21233],[131.60719,33.20042],[131.60133,33.19849],[131.60076,33.19658],[131.59838,33.19513],[131.59599,33.19147],[131.57018,33.18409],[131.55888,33.18504],[131.55356,33.18741],[131.55062,33.18745],[131.55361,33.18749],[131.55883,33.18512],[131.57006,33.18416],[131.59615,33.19169]],[[130.52385,33.32572],[130.52651,33.325],[130.5361,33.3194],[130.5535,33.32185],[130.55706,33.32157],[130.57152,33.31464],[130.55989,33.32058],[130.55615,33.32163],[130.5356,33.31939],[130.52677,33.32465],[130.52384,33.32561]],[[130.57152,33.31464],[130.59006,33.31889],[130.60682,33.3239],[130.62189,33.32542],[130.63284,33.33031],[130.64565,33.33783],[130.65576,33.34088],[130.66952,33.34215],[130.68212,33.34222],[130.70451,33.34625],[130.73426,33.34504]],[[130.81427,33.33214],[130.80083,33.33934],[130.7912,33.33887],[130.78594,33.34128],[130.77796,33.34279],[130.77048,33.34665],[130.76269,33.34884],[130.74615,33.34756],[130.73308,33.3483],[130.71739,33.35271],[130.70172,33.34921],[130.69118,33.35039],[130.68762,33.34998]],[[130.85709,33.32616],[130.86389,33.32056],[130.8694,33.3126],[130.87359,33.3106],[130.89167,33.31133],[130.89714,33.31218],[130.90169,33.31405],[130.90556,33.31338],[130.90794,33.31384],[130.91186,33.3131],[130.91322,33.31211],[130.91543,33.30755],[130.91741,33.30588],[130.93897,33.2988],[130.94325,33.29964],[130.94902,33.2975],[130.95609,33.29848],[130.9614,33.29721],[130.96911,33.2992],[130.97205,33.29622],[130.97874,33.29337],[130.98486,33.29651],[130.98989,33.29741],[130.99021,33.29652],[130.98758,33.2928],[130.98808,33.29115],[130.99132,33.28946],[130.99304,33.28753],[130.99792,33.28915],[131.00106,33.28736],[131.00403,33.28704],[131.0089,33.28083],[131.009,33.2766],[131.00577,33.27485],[131.00513,33.27338],[131.00644,33.27092],[131.01198,33.26802],[131.01208,33.26458],[131.0106,33.26169],[131.01175,33.25888],[131.01082,33.25494],[131.01226,33.25375],[131.02351,33.2551],[131.0287,33.25364],[131.0324,33.25457],[131.03711,33.25742],[131.04484,33.25903],[131.04992,33.25887],[131.05161,33.26133],[131.05564,33.26403],[131.06066,33.26492],[131.06448,33.26434],[131.06719,33.26492],[131.06978,33.2672],[131.07839,33.26815],[131.08409,33.27407],[131.08522,33.2771],[131.08808,33.27872],[131.08904,33.28071],[131.09255,33.28238],[131.10594,33.28139],[131.12194,33.27794],[131.12584,33.27971],[131.12888,33.28009],[131.1458,33.27824],[131.15763,33.27367],[131.16538,33.26812],[131.16689,33.26167],[131.16612,33.25858],[131.16687,33.2559],[131.16654,33.2515],[131.16777,33.24824],[131.16994,33.24696],[131.17244,33.23996],[131.17472,33.23805],[131.17953,33.23697],[131.18668,33.23288],[131.18806,33.23008],[131.19203,33.22986],[131.19651,33.22651],[131.20149,33.22443],[131.21173,33.22554],[131.21367,33.22935],[131.21835,33.23284],[131.21899,33.23467],[131.22181,33.23687],[131.2219,33.23892],[131.22706,33.24202],[131.23772,33.2432],[131.24357,33.24163],[131.24796,33.24487],[131.2666,33.25394],[131.27306,33.25249],[131.27674,33.25342],[131.27886,33.25226],[131.28486,33.25339],[131.28752,33.25141],[131.29517,33.24969],[131.30066,33.25336],[131.30404,33.25248],[131.3074,33.25373],[131.30813,33.25603],[131.30992,33.25709],[131.31083,33.2588],[131.31418,33.25857],[131.31763,33.25722],[131.32431,33.26185],[131.32553,33.26031],[131.329,33.25993],[131.32992,33.25912],[131.33014,33.25659],[131.32878,33.2551],[131.3265,33.25427],[131.32632,33.25126],[131.3295,33.25],[131.32849,33.2466],[131.33068,33.2439],[131.32927,33.24088],[131.32575,33.24205],[131.32442,33.24103],[131.32326,33.23703],[131.32434,33.23394],[131.32408,33.23142],[131.32583,33.2295],[131.32635,33.22692],[131.33166,33.22061],[131.33425,33.2137],[131.3358,33.21189],[131.33831,33.21181],[131.3391,33.20918],[131.34232,33.20776],[131.34333,33.20545],[131.34536,33.2039],[131.34578,33.20174],[131.34941,33.19861],[131.35557,33.19762],[131.36513,33.19795],[131.36766,33.19438],[131.38246,33.18915],[131.38786,33.18924],[131.39293,33.18518],[131.40177,33.18244],[131.40753,33.17911],[131.41954,33.18015],[131.42356,33.18153],[131.44423,33.17937],[131.45341,33.18408],[131.45867,33.18369],[131.47022,33.1905],[131.47202,33.19303],[131.47143,33.19589],[131.47193,33.1984],[131.47441,33.20006],[131.47791,33.20012],[131.48024,33.19926],[131.48502,33.19582],[131.48845,33.19123],[131.49819,33.1967],[131.50701,33.1972],[131.51265,33.19961],[131.51976,33.20014],[131.52589,33.19861],[131.52871,33.19713],[131.53253,33.19199],[131.53805,33.18891],[131.54597,33.1874],[131.55062,33.18745]],[[130.79873,33.33396],[130.78484,33.33366],[130.76138,33.34215],[130.75274,33.34369],[130.73628,33.3449]],[[130.802,33.33333],[130.81427,33.33214],[130.83528,33.33793],[130.83823,33.33726],[130.84161,33.33496],[130.84709,33.33519]],[[131.59564,33.21604],[131.59493,33.21881]],[[131.59629,33.1918],[131.59819,33.19504],[131.60066,33.19661],[131.60128,33.19857],[131.60714,33.2005]]]}}]}