{"type":"FeatureCollection","features":[{"type":"Feature","properties":{"route_id":"106","route_number":106,"name":"国道106号","source":"OpenStreetMap contributors (ODbL)","osm_relations":[3066928,8028330,9090098,9090099,10220367,10220370,12500110]},"geometry":{"type":"MultiLineString","coordinates":[[[141.15426,39.70222],[141.15345,39.70115],[141.16167,39.69739],[141.16325,39.69777],[141.16548,39.69679],[141.17336,39.69114],[141.18114,39.68702],[141.18305,39.68176],[141.18861,39.67942],[141.19609,39.67212],[141.19939,39.67271],[141.20129,39.67416],[141.20214,39.67604],[141.2063,39.67713],[141.21286,39.67304],[141.22102,39.67697],[141.22493,39.6775],[141.22678,39.67671],[141.22945,39.67418],[141.22917,39.67286],[141.23414,39.66922],[141.23763,39.66771],[141.24329,39.66706],[141.28636,39.67454],[141.29515,39.67203],[141.30162,39.66672],[141.30553,39.66539],[141.31172,39.66619],[141.31492,39.66562],[141.31776,39.66767],[141.32128,39.66677],[141.32336,39.66845],[141.32634,39.66933],[141.32969,39.66886],[141.3303,39.67019],[141.32752,39.67139],[141.32782,39.67229],[141.32909,39.67249],[141.33069,39.67137],[141.33308,39.67152],[141.3337,39.67068],[141.33241,39.669],[141.33192,39.66592],[141.32719,39.66452],[141.32722,39.66301],[141.33109,39.66291],[141.33259,39.66159],[141.3344,39.66153],[141.33698,39.66016],[141.34105,39.65637],[141.34594,39.65629],[141.35821,39.64793],[141.37818,39.64259],[141.39139,39.64383],[141.38686,39.64415],[141.38013,39.64215],[141.3742,39.64161],[141.36135,39.64326],[141.33037,39.65674],[141.32283,39.6585],[141.31112,39.6597],[141.305,39.66148],[141.30079,39.66435],[141.29735,39.66983],[141.29498,39.67189],[141.29757,39.66966],[141.3006,39.66467],[141.30482,39.66163],[141.31009,39.65998],[141.32286,39.65855],[141.33074,39.65671],[141.36238,39.64308],[141.37539,39.64173],[141.3886,39.64429],[141.40595,39.64172],[141.42048,39.64138],[141.42532,39.63904],[141.4352,39.63715],[141.44107,39.63498],[141.45071,39.63394],[141.45699,39.63128],[141.45983,39.63176],[141.4621,39.62756],[141.46809,39.62622],[141.47591,39.62186],[141.47636,39.61766],[141.47519,39.61557],[141.47607,39.61458],[141.47931,39.61574],[141.48314,39.61402],[141.48522,39.61409],[141.48797,39.61668],[141.49,39.61691],[141.49386,39.61955],[141.49909,39.61674],[141.50202,39.61669],[141.50474,39.61842],[141.5045,39.62134],[141.51355,39.62382],[141.51388,39.62648],[141.51489,39.6275],[141.5191,39.62839],[141.52319,39.63142],[141.52817,39.63135],[141.53595,39.63452],[141.53681,39.63562],[141.53629,39.63832],[141.53687,39.64057],[141.53863,39.64288],[141.54071,39.6439],[141.54642,39.64496],[141.55341,39.64382],[141.55976,39.64603],[141.57256,39.6476],[141.57972,39.64957],[141.58708,39.64788],[141.59108,39.64777],[141.59294,39.6468],[141.59973,39.64081],[141.60084,39.63646],[141.60799,39.62867],[141.61137,39.62349],[141.62019,39.62094],[141.62241,39.61944],[141.62536,39.61578],[141.63436,39.60934],[141.63785,39.6087],[141.64475,39.61052],[141.64673,39.61228],[141.64884,39.61182],[141.64959,39.60921],[141.65278,39.60729],[141.65376,39.60497],[141.65183,39.60294],[141.64752,39.60161],[141.64793,39.59806],[141.65111,39.59651],[141.65809,39.59641],[141.66465,39.59247],[141.66643,39.5903],[141.67461,39.59321],[141.67648,39.59525],[141.67772,39.59822],[141.67952,39.59946],[141.68499,39.59979],[141.68959,39.60218],[141.69253,39.60187],[141.69553,39.60474],[141.69703,39.60518],[141.70363,39.60122],[141.70959,39.60158],[141.71164,39.60099],[141.71502,39.59723],[141.71971,39.59597],[141.72878,39.59909],[141.73111,39.60076],[141.73371,39.60077],[141.73301,39.60092]],[[141.82489,39.6233],[141.82333,39.62361],[141.82384,39.62552],[141.82332,39.62354],[141.82839,39.62266],[141.83246,39.62296],[141.83678,39.62486],[141.8386,39.62671],[141.8402,39.63354],[141.84495,39.63586],[141.84907,39.63465],[141.85475,39.63028],[141.8583,39.62893],[141.86552,39.63235],[141.87582,39.63091],[141.8818,39.63266],[141.89052,39.63189],[141.90041,39.63272],[141.90875,39.63114],[141.92022,39.63294],[141.93238,39.63923],[141.9366,39.63965],[141.95066,39.6386],[141.95904,39.64164]],[[141.73371,39.60077],[141.74091,39.59785],[141.75645,39.59848],[141.76026,39.59763],[141.76095,39.59995],[141.7636,39.60206],[141.76656,39.60292],[141.77256,39.60305],[141.77303,39.6043],[141.77197,39.60612],[141.7736,39.61],[141.77482,39.61085],[141.77741,39.61043],[141.78342,39.60648],[141.78636,39.60631],[141.78822,39.60993],[141.78884,39.61527],[141.79178,39.6186],[141.79384,39.61858],[141.79612,39.61644],[141.7981,39.61575],[141.80047,39.61896],[141.80317,39.62075],[141.80728,39.61926],[141.81014,39.62003],[141.81093,39.62232],[141.80918,39.62463],[141.80895,39.62664],[141.81022,39.62818],[141.81595,39.62714],[141.82131,39.62759],[141.82342,39.62669],[141.82384,39.62552]],[[141.43732,39.63642],[141.44236,39.63474],[141.45071,39.63402],[141.45702,39.63131]],[[141.17769,39.66069],[141.18194,39.66474],[141.18584,39.66669],[141.20887,39.66873],[141.2211,39.67434],[141.22673,39.67375],[141.23414,39.66922],[141.23035,39.67208]],[[141.69703,39.60518],[141.69394,39.60641],[141.69024,39.6065],[141.67516,39.6002],[141.65546,39.59736],[141.65042,39.59857],[141.63767,39.60362],[141.63391,39.60674],[141.63087,39.6115]],[[141.8888,39.63222],[141.89137,39.63156],[141.89373,39.6279],[141.89736,39.62545],[141.90808,39.62235],[141.91484,39.62171],[141.91964,39.6227],[141.92639,39.62665],[141.93308,39.62864],[141.93763,39.62923],[141.94523,39.62796],[141.94953,39.62846],[141.9565,39.63182],[141.96146,39.63266],[141.96262,39.63485],[141.96151,39.63261],[141.95653,39.63174],[141.94975,39.62842],[141.94547,39.62785],[141.93732,39.62914],[141.93316,39.62856],[141.92666,39.6267],[141.91968,39.62265],[141.91483,39.62165],[141.90807,39.62228],[141.89733,39.62541],[141.89391,39.6276],[141.8913,39.63152],[141.88877,39.63215]],[[141.17761,39.66074],[141.18189,39.66479],[141.1858,39.66676],[141.20886,39.66881],[141.22109,39.6744],[141.22677,39.6738],[141.23341,39.66968]],[[141.52499,39.63165],[141.5259,39.63149]],[[141.70988,39.60143],[141.70852,39.60139]],[[141.39293,39.64367],[141.39144,39.64391]],[[141.75647,39.59842],[141.7555,39.59825]]]}}]}