{"type":"FeatureCollection","features":[{"type":"Feature","properties":{"route_id":"235","route_number":235,"name":"国道235号","source":"OpenStreetMap contributors (ODbL)","osm_relations":[6624769]},"geometry":{"type":"MultiLineString","coordinates":[[[142.03394,42.51392],[142.03173,42.51778],[142.03695,42.50875],[142.04366,42.50309],[142.05275,42.49818],[142.05583,42.49516],[142.05838,42.49094],[142.07678,42.48083],[142.07764,42.4746],[142.07932,42.47296],[142.08879,42.47326],[142.09481,42.47188],[142.10339,42.47175],[142.11067,42.47022],[142.11981,42.47148],[142.1264,42.46953],[142.13796,42.46776],[142.16031,42.46278],[142.17385,42.45861],[142.18029,42.45427],[142.18705,42.45151],[142.1957,42.44929],[142.19892,42.44496],[142.20678,42.43991],[142.20809,42.43626],[142.20969,42.43453],[142.21525,42.43227],[142.2206,42.42741],[142.22621,42.42378],[142.22975,42.4167],[142.23465,42.41445],[142.24219,42.41295],[142.25038,42.40653],[142.25537,42.39964],[142.26063,42.39488],[142.26594,42.39107],[142.27213,42.38509],[142.27805,42.38224],[142.28049,42.37681],[142.2853,42.37287],[142.29405,42.36933],[142.29554,42.36994],[142.30114,42.3755],[142.30754,42.37506],[142.30888,42.37324],[142.30757,42.37012],[142.31363,42.36514],[142.31809,42.35684],[142.32905,42.34873],[142.33778,42.3437],[142.34622,42.34131],[142.36224,42.3419],[142.36486,42.34008],[142.36609,42.33711],[142.3685,42.33466],[142.36902,42.32863],[142.37038,42.32701],[142.38811,42.31797],[142.3938,42.31713],[142.40253,42.31359],[142.40499,42.31089],[142.4248,42.31104],[142.42783,42.30988],[142.43802,42.30833],[142.45223,42.30294],[142.45364,42.30131],[142.45491,42.29461],[142.45924,42.28982],[142.46638,42.28313],[142.47428,42.27812],[142.47654,42.27482],[142.48328,42.27248],[142.48571,42.27031],[142.49495,42.26641],[142.49836,42.26771],[142.50848,42.26868],[142.51355,42.2657],[142.51547,42.2637],[142.5217,42.26057],[142.54401,42.25139],[142.55159,42.25067],[142.5548,42.24887],[142.56917,42.24638],[142.57209,42.24695],[142.57536,42.2465],[142.58528,42.24405],[142.59128,42.23909],[142.60245,42.2335],[142.61061,42.23146],[142.61903,42.22712],[142.63073,42.2232],[142.64007,42.21885],[142.6444,42.21173],[142.65425,42.20604],[142.6665,42.19604],[142.67464,42.19726],[142.68023,42.19621],[142.68656,42.19334],[142.6956,42.1908],[142.70087,42.18618],[142.71202,42.18667],[142.7221,42.18548],[142.72752,42.18347],[142.73164,42.17875],[142.73706,42.17696],[142.74775,42.17738],[142.75789,42.1764],[142.76605,42.17329],[142.76891,42.16891],[142.77302,42.16536],[142.7748,42.16243]],[[141.68763,42.6935],[141.70166,42.68647],[141.70935,42.67936],[141.71508,42.67668],[141.74539,42.67401],[141.77745,42.67336],[141.7806,42.67234],[141.74458,42.67339],[141.71516,42.6764],[141.70961,42.67881],[141.70028,42.68645],[141.68719,42.693],[141.67658,42.68153],[141.66999,42.67613],[141.65795,42.67181],[141.66237,42.66466],[141.61664,42.64926],[141.61756,42.64762],[141.61718,42.64818],[141.61652,42.64932],[141.66218,42.66471],[141.65782,42.6719],[141.66985,42.67619],[141.67649,42.6816],[141.68763,42.6935]],[[141.7806,42.67234],[141.78234,42.67141],[141.78602,42.67139],[141.80098,42.66624],[141.82671,42.65639],[141.82919,42.65467],[141.8303,42.65181],[141.83158,42.63629],[141.83591,42.62572],[141.83995,42.60854],[141.84355,42.60439],[141.9062,42.58255],[141.91216,42.57713],[141.92347,42.57341],[141.93148,42.57266],[141.94293,42.57605],[141.96147,42.57271],[141.99265,42.54218],[141.99863,42.53721],[142.00559,42.53421],[142.00822,42.53221],[142.00601,42.5341],[141.99858,42.53737],[141.99023,42.54454]],[[142.00822,42.53221],[142.02056,42.52039],[142.026,42.52058],[142.02992,42.51943],[142.03173,42.51778]],[[140.97634,42.31853],[140.97317,42.32025],[140.97901,42.31786],[140.97958,42.31683],[140.99293,42.31792],[140.99587,42.32116],[140.99549,42.32616],[140.99629,42.32903],[140.99931,42.33209],[141.0026,42.33377],[141.00762,42.33453],[141.01404,42.33802],[141.02347,42.33748],[141.03603,42.34459],[141.03875,42.34782],[141.04923,42.35578],[141.08051,42.38809],[141.10094,42.40439],[141.10539,42.4053],[141.12359,42.41891],[141.12481,42.42167],[141.14504,42.43702],[141.15229,42.44362],[141.15764,42.44507],[141.16418,42.4442],[141.16861,42.44478],[141.17322,42.44733],[141.17543,42.45058],[141.17643,42.45376],[141.18321,42.45688],[141.1916,42.45634],[141.2218,42.46489],[141.23793,42.47542],[141.27022,42.49866],[141.28475,42.50766],[141.29301,42.5116],[141.3051,42.51908],[141.31816,42.5259],[141.32503,42.53188],[141.33233,42.53677],[141.33976,42.53927],[141.34833,42.54409],[141.35537,42.54519],[141.37839,42.55704],[141.38017,42.55874],[141.38203,42.56381],[141.39146,42.56716],[141.39703,42.57161],[141.41691,42.57717],[141.42918,42.58213],[141.51607,42.612],[141.53221,42.61627],[141.54075,42.61695],[141.59184,42.62645],[141.59325,42.62817],[141.61843,42.64288],[141.61883,42.64533],[141.61756,42.64762]],[[141.04923,42.35578],[141.03878,42.34772],[141.0361,42.34454],[141.02396,42.33759],[141.01407,42.33795],[141.00813,42.33466],[141.0024,42.33362],[140.99945,42.33193],[140.99617,42.32838],[140.99559,42.32605],[140.996,42.32127],[140.99346,42.31809],[140.98668,42.31686],[140.97951,42.3167],[140.97873,42.31797]],[[141.60053,42.63245],[141.61866,42.64377]],[[140.97317,42.32025],[140.96978,42.32363]],[[141.10432,42.40492],[141.10112,42.40428],[141.08022,42.3877],[141.07446,42.38191]],[[141.24502,42.48048],[141.22077,42.46437],[141.19205,42.45633],[141.18426,42.45709],[141.17791,42.4545]],[[141.55014,42.61877],[141.54095,42.61688],[141.53223,42.61619],[141.51491,42.61155],[141.45124,42.58956]],[[141.40037,42.57263],[141.39675,42.57131],[141.39106,42.56682],[141.38211,42.56371],[141.38016,42.55844],[141.37849,42.55699],[141.35545,42.54512],[141.34852,42.54405],[141.33934,42.53898],[141.33271,42.53688],[141.32511,42.53179],[141.31944,42.52684]],[[142.30794,42.37115],[142.30768,42.37003]]]}}]}