{"type":"FeatureCollection","features":[{"type":"Feature","properties":{"route_id":"297","route_number":297,"name":"国道297号","source":"OpenStreetMap contributors (ODbL)","osm_relations":[10259311,10544736,10544737,10544738]},"geometry":{"type":"MultiLineString","coordinates":[[[139.86315,34.99318],[139.87139,34.99119],[139.87543,34.9919],[139.88413,34.99143],[139.88858,34.99376],[139.88986,34.99907],[139.91142,34.99922],[139.91507,35.00136],[139.91849,35.0019],[139.92349,35.00422],[139.9297,35.00427],[139.93398,35.00676],[139.93592,35.0091],[139.94124,35.01032],[139.94334,35.01165],[139.95581,35.01289],[139.96425,35.01479],[139.99336,35.02577],[139.99752,35.02936],[140.00544,35.03265],[140.01199,35.03731],[140.01615,35.03671],[140.0185,35.03985],[140.0267,35.04716],[140.05067,35.05925],[140.07194,35.0596],[140.077,35.0648],[140.07903,35.06817],[140.08412,35.07013],[140.08479,35.07401],[140.08988,35.07362],[140.09665,35.07723],[140.09692,35.07847],[140.0948,35.08519],[140.09063,35.08835],[140.09021,35.0898],[140.09439,35.10137],[140.09738,35.10662],[140.1035,35.11023],[140.10631,35.10967],[140.11152,35.11104],[140.12452,35.11876],[140.13454,35.12277],[140.14053,35.12376],[140.1469,35.12321],[140.14828,35.124],[140.14961,35.12704],[140.15119,35.12786],[140.16859,35.12764],[140.17031,35.12688],[140.17297,35.12145],[140.17405,35.12104],[140.17856,35.12218],[140.18415,35.12587],[140.19165,35.12762],[140.19415,35.12646],[140.19584,35.12355],[140.19779,35.12335],[140.19909,35.1216],[140.20263,35.12053],[140.20654,35.11765],[140.21382,35.11653],[140.22703,35.11821],[140.22818,35.11887],[140.23009,35.12326],[140.23835,35.12808],[140.24027,35.13004],[140.24211,35.13525],[140.24828,35.13977],[140.25618,35.14037],[140.26405,35.14303],[140.27384,35.13953],[140.28236,35.14334],[140.28674,35.14349],[140.28832,35.14476],[140.29245,35.14607],[140.29669,35.15042],[140.29872,35.15137],[140.30414,35.15143],[140.31347,35.15009],[140.31445,35.15353],[140.3162,35.15481],[140.31629,35.15613],[140.31368,35.16037],[140.3075,35.16171],[140.30575,35.1639],[140.30208,35.1663],[140.29952,35.17134],[140.29873,35.17477],[140.29452,35.18156],[140.29327,35.18589],[140.28964,35.19093],[140.28458,35.19479],[140.28239,35.19806],[140.27786,35.19946],[140.27437,35.2034],[140.26788,35.20843],[140.26878,35.21201],[140.26456,35.21805],[140.26459,35.22435],[140.257,35.2293],[140.25049,35.23619],[140.24906,35.24456],[140.24947,35.24695],[140.261,35.25615],[140.26204,35.25844],[140.25921,35.26462],[140.25871,35.26855],[140.25199,35.27297],[140.25109,35.27438],[140.2522,35.27923],[140.25252,35.2872],[140.25188,35.2905],[140.25018,35.29378],[140.24251,35.3006],[140.23658,35.30719],[140.23499,35.30767],[140.23303,35.30723],[140.23306,35.30646],[140.23196,35.30701],[140.23189,35.3062],[140.23118,35.30663],[140.23054,35.30578],[140.23064,35.30704],[140.22595,35.31291],[140.22007,35.31586],[140.21563,35.32338],[140.21236,35.32512],[140.21069,35.32999],[140.20426,35.33821],[140.20165,35.34567],[140.19821,35.3486],[140.19543,35.35305],[140.19563,35.3554],[140.18501,35.36328],[140.18455,35.36799],[140.18286,35.37147],[140.18269,35.37644],[140.18058,35.37924],[140.17763,35.38019],[140.17366,35.38009],[140.16224,35.38314],[140.15544,35.38827],[140.14997,35.39063],[140.14872,35.39383],[140.14842,35.39808],[140.1468,35.3996],[140.13958,35.40139],[140.13132,35.40191],[140.12782,35.40554],[140.12165,35.41771],[140.11838,35.42146],[140.1181,35.424],[140.11572,35.42979],[140.11586,35.4333],[140.12329,35.45234],[140.12405,35.47023],[140.12161,35.4775],[140.12222,35.48222],[140.12531,35.48659],[140.12603,35.48888],[140.12399,35.49477],[140.12517,35.50077],[140.12385,35.50926],[140.12518,35.512],[140.12476,35.51606],[140.12603,35.51874],[140.12641,35.52362],[140.11035,35.53629]],[[140.10853,35.47207],[140.10423,35.48874],[140.0988,35.49234],[140.08451,35.50688],[140.0611,35.51978],[140.07228,35.51421],[140.08525,35.50641],[140.09888,35.49238],[140.10473,35.48828],[140.10853,35.47207],[140.11014,35.47187],[140.11509,35.46734],[140.12415,35.46427]],[[140.11046,35.53639],[140.11235,35.53471]],[[140.26634,35.21611],[140.26431,35.21489],[140.26653,35.20812],[140.27002,35.203],[140.27278,35.2012]],[[140.12636,35.52354],[140.11708,35.53101]]]}}]}