{"type":"FeatureCollection","features":[{"type":"Feature","properties":{"route_id":"328","route_number":328,"name":"国道328号","source":"OpenStreetMap contributors (ODbL)","osm_relations":[9674712,10992127]},"geometry":{"type":"MultiLineString","coordinates":[[[130.32761,32.11058],[130.3347,32.10093],[130.33592,32.09817],[130.33979,32.09487],[130.3441,32.08475],[130.34453,32.08101],[130.34868,32.07314],[130.35514,32.06931],[130.35759,32.0667],[130.36432,32.05492],[130.36863,32.05097],[130.36833,32.04876],[130.37166,32.0468],[130.37204,32.04492],[130.37497,32.04406],[130.37844,32.04145],[130.37866,32.03987],[130.38135,32.0378],[130.3808,32.03658],[130.38258,32.03257],[130.38417,32.03169],[130.38517,32.02939],[130.39135,32.02721],[130.39349,32.02182],[130.40033,32.01701],[130.4007,32.00944],[130.40327,32.00619],[130.40487,32.00104],[130.40442,31.99981],[130.40594,31.99747],[130.40441,31.98899],[130.40258,31.98821],[130.40265,31.98697],[130.40093,31.98483],[130.40173,31.98398],[130.40492,31.98509],[130.40588,31.98286],[130.40562,31.98172],[130.40341,31.98],[130.40406,31.97871],[130.40558,31.98],[130.4063,31.97959],[130.40347,31.97612],[130.40294,31.973],[130.40669,31.96974],[130.40801,31.96626],[130.40988,31.96448],[130.41017,31.96115],[130.41197,31.95818],[130.41227,31.95515],[130.41404,31.95347],[130.41662,31.94601],[130.41857,31.94413],[130.41957,31.94066],[130.42291,31.93718],[130.42967,31.93345],[130.43193,31.93071],[130.43803,31.92797],[130.44061,31.92325],[130.44443,31.92077],[130.44666,31.91784],[130.44704,31.91499],[130.44988,31.91275],[130.45033,31.90884],[130.45272,31.90517],[130.45361,31.89638],[130.45256,31.89152],[130.45001,31.88714],[130.44907,31.88184],[130.4441,31.87589],[130.43825,31.87355],[130.43185,31.86796],[130.43107,31.86613],[130.433,31.86309],[130.43163,31.85793],[130.42956,31.85667],[130.4291,31.85328],[130.4257,31.85249],[130.42444,31.84912],[130.42459,31.84796],[130.42968,31.8421],[130.43057,31.83455],[130.43543,31.8281],[130.43407,31.82516],[130.42921,31.8219],[130.42726,31.81285],[130.42845,31.81122],[130.43383,31.80832],[130.43422,31.80685],[130.43211,31.80511],[130.43215,31.80418],[130.43458,31.8018],[130.43706,31.80089],[130.44233,31.79531],[130.44282,31.78796],[130.44473,31.78613],[130.44657,31.78163],[130.44909,31.77935],[130.45082,31.7759],[130.45978,31.77035],[130.46297,31.77036],[130.46633,31.76849],[130.4679,31.76533],[130.4678,31.76351],[130.47024,31.76055],[130.46955,31.75635],[130.47205,31.75402],[130.47317,31.74767],[130.47801,31.74054],[130.47529,31.73621],[130.47136,31.73434],[130.47032,31.73272],[130.4718,31.72873],[130.47515,31.72529],[130.47458,31.72448],[130.47292,31.7253],[130.47249,31.72394],[130.47681,31.71885],[130.47654,31.71597],[130.47547,31.7147],[130.47645,31.71096],[130.47775,31.7094],[130.48007,31.70838],[130.48177,31.70592],[130.48039,31.7025],[130.48021,31.69869],[130.47767,31.69671],[130.47666,31.69419],[130.47791,31.68911],[130.4754,31.68542],[130.47612,31.68074],[130.47478,31.67667],[130.47515,31.67244],[130.47574,31.67165],[130.47917,31.67092],[130.4809,31.66928],[130.48425,31.66859],[130.48552,31.66725],[130.48638,31.66232]],[[130.43185,31.86796],[130.43794,31.87344],[130.44148,31.87474]]]}}]}