{"type":"FeatureCollection","features":[{"type":"Feature","properties":{"route_id":"247","route_number":247,"name":"国道247号","source":"OpenStreetMap contributors (ODbL)","osm_relations":[8466396,10218319,10218320,10218322,10218323]},"geometry":{"type":"MultiLineString","coordinates":[[[136.92577,34.89534],[136.92397,34.90102],[136.93556,34.90092],[136.94744,34.90283],[136.95096,34.90429],[136.95349,34.90696],[136.95102,34.90421],[136.94764,34.90277],[136.93549,34.90082],[136.92401,34.90095],[136.92573,34.89701],[136.92546,34.89361],[136.91712,34.88076],[136.91972,34.88018],[136.91782,34.87658],[136.91846,34.87066],[136.91979,34.86657],[136.92053,34.85834],[136.92191,34.85747],[136.92245,34.85304],[136.92433,34.84777],[136.92119,34.84003],[136.92015,34.8331],[136.91974,34.82598],[136.92068,34.81925],[136.91844,34.80563],[136.9189,34.79815],[136.92096,34.79475],[136.91622,34.7843],[136.91488,34.77918],[136.91293,34.7772],[136.91412,34.7763],[136.91395,34.77019],[136.92049,34.762],[136.9219,34.7581],[136.93258,34.75385],[136.93542,34.75076],[136.94037,34.74882],[136.94438,34.7429],[136.94692,34.74163],[136.95115,34.73766],[136.96313,34.73447],[136.96594,34.73204],[136.96633,34.72713],[136.96346,34.72465],[136.96181,34.72121],[136.96277,34.71853],[136.96495,34.71676],[136.96859,34.71563],[136.96846,34.71299],[136.9674,34.71121],[136.96764,34.70891],[136.96866,34.70722],[136.97042,34.70681],[136.9741,34.70332],[136.97319,34.70207],[136.97372,34.70111],[136.97114,34.69985],[136.96133,34.70167],[136.9555,34.69977],[136.94936,34.70006],[136.94801,34.70222],[136.94677,34.70269],[136.94329,34.70145],[136.94033,34.70313],[136.94189,34.70496],[136.94139,34.70652],[136.93727,34.70947],[136.93519,34.70959],[136.93212,34.7079],[136.931,34.70541],[136.91215,34.71284],[136.91024,34.71449],[136.90452,34.71641],[136.90047,34.7188],[136.88912,34.72153],[136.88099,34.72762],[136.87332,34.73134],[136.87187,34.7339],[136.87326,34.73531],[136.8732,34.73777],[136.85964,34.74147],[136.858,34.74507],[136.85221,34.7488],[136.8492,34.75405],[136.84543,34.7569],[136.84253,34.76313],[136.84271,34.76495],[136.84497,34.7652],[136.84581,34.76803],[136.85068,34.77448],[136.85732,34.77872],[136.8586,34.78061],[136.85851,34.78574],[136.86172,34.80048],[136.86072,34.8042],[136.86164,34.80671],[136.86739,34.81267],[136.86938,34.81654],[136.87437,34.81889],[136.8733,34.82867],[136.87076,34.83367],[136.87376,34.84144],[136.87303,34.84322],[136.8675,34.84939],[136.86687,34.85415],[136.8618,34.86905],[136.86128,34.87657],[136.86029,34.87959],[136.84943,34.89048],[136.84336,34.89269],[136.84146,34.89454],[136.83679,34.9121],[136.8299,34.92433],[136.82955,34.92768],[136.83426,34.93257],[136.83545,34.93866],[136.83281,34.94863],[136.83229,34.95444],[136.83292,34.94875],[136.83556,34.93858],[136.83434,34.9325],[136.82967,34.92768],[136.82999,34.92434],[136.83682,34.91229],[136.84154,34.8946],[136.84344,34.89276],[136.84926,34.89074],[136.85628,34.88401]],[[137.33468,34.78373],[137.34295,34.78462],[137.3466,34.78577],[137.33299,34.78373],[137.33284,34.78595],[137.33468,34.78373],[137.33264,34.78353],[137.33225,34.78672],[137.33005,34.78936],[137.32455,34.79311],[137.31269,34.8052],[137.30888,34.80789],[137.30181,34.81069],[137.29542,34.8116],[137.29247,34.81278],[137.28589,34.81318],[137.2738,34.81107],[137.26477,34.8126],[137.25781,34.81629],[137.25561,34.82208],[137.24274,34.83291],[137.22512,34.8358],[137.21015,34.82978],[137.20676,34.82516],[137.20326,34.82282],[137.19813,34.81248],[137.1962,34.81053],[137.18956,34.8078],[137.17404,34.8064],[137.1627,34.79836],[137.14574,34.79153],[137.14291,34.79154],[137.13303,34.79399],[137.12826,34.7968],[137.12251,34.79554],[137.08821,34.79385],[137.07402,34.79585],[137.06805,34.79512],[137.05371,34.79759],[137.04376,34.79767],[137.03262,34.80426],[137.02096,34.80717],[137.01623,34.82521],[137.01487,34.82802],[137.01511,34.83216],[137.01368,34.83772],[137.01493,34.8488],[137.00944,34.84966],[136.99036,34.8603],[136.9813,34.86738],[136.97414,34.87018],[136.97705,34.87521],[136.98107,34.88001],[136.98407,34.89009],[136.98466,34.89905],[136.9798,34.9117],[136.97994,34.91411],[136.98147,34.91778],[136.98123,34.92289],[136.97378,34.92345],[136.9736,34.92184],[136.97374,34.92353],[136.9814,34.92297],[136.98166,34.9188]],[[136.9736,34.92184],[136.97199,34.91848],[136.96732,34.91508],[136.96296,34.91062],[136.96047,34.90905],[136.95349,34.90696]],[[136.90738,35.12193],[136.9084,35.11236],[136.91385,35.09236],[136.91001,35.06933],[136.91389,35.05868],[136.90647,35.04812],[136.90394,35.04582],[136.90299,35.04017],[136.89756,35.03189],[136.89619,35.02831],[136.89653,35.02696],[136.89518,35.02703],[136.88725,35.01543]],[[137.32455,34.79311],[137.31218,34.80554],[137.30882,34.80784],[137.30181,34.81061],[137.2954,34.81153],[137.29262,34.8127],[137.2866,34.81314],[137.27381,34.81096],[137.26417,34.81276],[137.25787,34.8161],[137.25564,34.82188],[137.24352,34.83225],[137.24116,34.83341],[137.22599,34.83564],[137.22302,34.83529],[137.21008,34.82957],[137.20686,34.82511],[137.20332,34.82273],[137.2006,34.81768]],[[136.91245,35.06259],[136.90983,35.06888],[136.9137,35.09225],[136.90828,35.11218],[136.90716,35.12202]],[[136.8872,35.01537],[136.87957,35.00496],[136.86729,34.99607],[136.86218,34.99135],[136.86272,34.99007],[136.86053,34.986],[136.86311,34.98087],[136.85805,34.97617],[136.85629,34.9709],[136.84247,34.9668],[136.83229,34.95444]],[[137.39033,34.76775],[137.38983,34.77386],[137.36791,34.79619],[137.36459,34.79419],[137.36784,34.79642],[137.38988,34.77391],[137.39051,34.76786]],[[136.98437,34.89308],[136.98401,34.88955],[136.98078,34.87909],[136.97714,34.87516],[136.97435,34.87025],[136.98144,34.86744],[136.99044,34.86036],[137.0095,34.84974],[137.01493,34.8488]],[[137.36459,34.79419],[137.35483,34.78831],[137.3466,34.78577]],[[136.91717,34.88084],[136.91972,34.88018]],[[137.1924,34.80886],[137.18898,34.8076],[137.17952,34.807]],[[137.33165,34.78751],[137.33284,34.78595]],[[136.8756,34.8037],[136.8772,34.80743],[136.87478,34.81406],[136.87322,34.82846],[136.87065,34.83352],[136.8736,34.84179],[136.86754,34.84892],[136.86562,34.85764]],[[137.36799,34.79624],[137.36777,34.79636]],[[136.87437,34.81889],[136.875,34.8136],[136.87731,34.8074],[136.8757,34.80364]]]}}]}