{"type":"FeatureCollection","features":[{"type":"Feature","properties":{"route_id":"17","route_number":17,"name":"国道17号","source":"OpenStreetMap contributors (ODbL)","osm_relations":[2150021,2162715,2162716,2162717,2162719,2162720,2162721,2162722,9033876,9033878,9033879,9033880,9033881,9033882,9033883,9033885,9033888,9033889,9033890,9033891,9033892]},"geometry":{"type":"MultiLineString","coordinates":[[[139.62531,35.8986],[139.62976,35.88859],[139.62531,35.8986],[139.61913,35.90277],[139.61526,35.91102],[139.61482,35.91869],[139.61624,35.93621],[139.60809,35.95138],[139.60745,35.96106],[139.60349,35.96874],[139.59008,35.97972],[139.57449,35.99562],[139.56005,36.01414],[139.55384,36.02056],[139.54974,36.02674],[139.51841,36.06254],[139.50937,36.06798],[139.50095,36.07076],[139.48063,36.08845],[139.46729,36.0966],[139.46415,36.10314],[139.46155,36.1058],[139.4539,36.10995],[139.44335,36.11118],[139.39416,36.14145],[139.37923,36.14666],[139.36576,36.15817],[139.35943,36.16483],[139.29066,36.19686],[139.26252,36.19668],[139.25427,36.20216],[139.24383,36.21267],[139.22634,36.22349],[139.2436,36.21883],[139.2387,36.21985]],[[139.65294,35.76709],[139.65111,35.7723],[139.64987,35.78017],[139.64395,35.78692],[139.6431,35.78928],[139.64348,35.79181],[139.64915,35.80599],[139.64787,35.81498],[139.62884,35.83806],[139.62098,35.86123],[139.61951,35.87426],[139.6127,35.8897],[139.61029,35.89242],[139.60067,35.89983],[139.59362,35.91136],[139.59237,35.92856],[139.60776,35.9468],[139.60828,35.95049],[139.60768,35.95885]],[[139.61628,35.93402],[139.61607,35.93704],[139.61296,35.9418],[139.60826,35.95294],[139.60769,35.9464],[139.59313,35.92917],[139.5928,35.92446],[139.59227,35.93048],[139.59053,35.93463],[139.58172,35.9437],[139.57255,35.95532],[139.56761,35.95864],[139.5524,35.96488],[139.54294,35.97303],[139.55142,35.96523],[139.56706,35.95879],[139.57318,35.9544],[139.58044,35.9449],[139.58999,35.93503],[139.59173,35.93132],[139.59247,35.92526]],[[139.68353,35.8059],[139.68566,35.79518],[139.68483,35.78837],[139.68543,35.7867],[139.68642,35.78485],[139.70313,35.76768],[139.7095,35.75203],[139.71255,35.7498],[139.72176,35.74865],[139.72657,35.74569],[139.73681,35.73509],[139.74621,35.72712],[139.73722,35.73455],[139.72677,35.74537],[139.72166,35.74849],[139.71219,35.7497],[139.70853,35.75254],[139.70307,35.76758],[139.68647,35.78462],[139.68491,35.78775],[139.68556,35.79535],[139.68111,35.82075],[139.6733,35.83071],[139.65127,35.84575],[139.64795,35.85174],[139.64553,35.86989],[139.64357,35.87196],[139.6377,35.87469],[139.6319,35.88335],[139.62976,35.88859]],[[139.2436,36.21883],[139.2539,36.21686],[139.26827,36.21625],[139.29578,36.21026],[139.31876,36.20937],[139.32498,36.20711],[139.33092,36.20304],[139.33451,36.20156],[139.33182,36.20493],[139.32977,36.21292],[139.3277,36.21598],[139.31619,36.22377],[139.30895,36.23208],[139.30874,36.23429],[139.31252,36.24618],[139.31221,36.24909],[139.31082,36.25171],[139.27338,36.28081],[139.2535,36.29778],[139.24254,36.31288],[139.23258,36.33562],[139.21785,36.35147],[139.21201,36.35493],[139.18415,36.36378],[139.17591,36.36483],[139.16257,36.36439],[139.15589,36.36688]],[[139.34545,36.17123],[139.35493,36.1746],[139.36284,36.17476],[139.37212,36.17266],[139.38222,36.16701],[139.39211,36.16483],[139.40343,36.16021],[139.42061,36.15093],[139.43101,36.13924],[139.43498,36.13597],[139.45453,36.12722],[139.47584,36.11585],[139.4799,36.11146],[139.48816,36.0962],[139.48877,36.09146],[139.48715,36.0829],[139.50105,36.07079],[139.50969,36.0679],[139.51797,36.06296],[139.52477,36.05604],[139.5456,36.03086],[139.54991,36.02666],[139.55397,36.02054],[139.5597,36.01472],[139.57443,35.9958],[139.59261,35.9775],[139.60286,35.96971],[139.60749,35.96125],[139.60826,35.95294]],[[139.33451,36.20156],[139.33708,36.1985],[139.34809,36.19108],[139.36094,36.17539],[139.37418,36.17174]],[[139.37414,36.17168],[139.36654,36.17341],[139.37414,36.17168],[139.38304,36.16661],[139.39356,36.16419],[139.41787,36.15243],[139.42238,36.14891],[139.4296,36.1405],[139.43448,36.1362],[139.46395,36.12203],[139.47566,36.11556],[139.48013,36.1104],[139.48789,36.09537],[139.48836,36.09159],[139.48716,36.08276]],[[139.77445,35.68406],[139.77461,35.68458],[139.77454,35.68405]],[[139.06948,37.91855],[139.07243,37.91242],[139.0749,37.90432],[139.07188,37.89961],[139.06879,37.8999],[139.05407,37.896],[139.04204,37.89019],[139.0275,37.88626],[139.01934,37.88145],[139.01646,37.87835],[139.01601,37.8761],[139.01814,37.87207],[139.01882,37.86855],[139.01718,37.85744],[139.0178,37.85125],[139.01691,37.84757],[139.0183,37.83981],[139.01681,37.84745],[139.01768,37.85121],[139.01703,37.85745],[139.01864,37.86931],[139.01694,37.87434],[139.01464,37.87735],[139.01386,37.8774],[139.01464,37.87695],[139.01923,37.88153],[139.02694,37.88618],[139.04241,37.89046],[139.05365,37.896],[139.07122,37.90077],[139.07406,37.90335],[139.07181,37.91325],[139.06948,37.91855],[139.06023,37.91492],[139.05909,37.91673],[139.05017,37.92101],[139.04684,37.92159]],[[138.8806,37.47041],[138.87984,37.46405],[138.87709,37.45456],[138.86852,37.43937],[138.86426,37.42663],[138.85882,37.41924],[138.85166,37.40656],[138.84763,37.40266],[138.83956,37.39737],[138.83738,37.39427],[138.83442,37.38646],[138.83446,37.36358],[138.83286,37.35997],[138.82948,37.35551],[138.82925,37.34753],[138.82819,37.34583],[138.82909,37.34737],[138.82935,37.35554],[138.83305,37.36046],[138.83431,37.36359],[138.8343,37.38648],[138.83742,37.39464],[138.83981,37.39771],[138.84896,37.40392],[138.85292,37.40846],[138.85885,37.41954],[138.86456,37.42742],[138.8687,37.44002],[138.87733,37.45557],[138.88006,37.46573],[138.88036,37.47418],[138.87886,37.4813],[138.87228,37.49786],[138.87152,37.50301],[138.87199,37.50942],[138.87613,37.52226],[138.8774,37.53209],[138.88898,37.54101],[138.89151,37.54413],[138.89244,37.54698],[138.89419,37.56747],[138.90457,37.58134],[138.89433,37.56744],[138.89259,37.54714],[138.89158,37.54404],[138.88909,37.54095],[138.87879,37.53361],[138.87741,37.53184],[138.8762,37.52209],[138.87214,37.50953],[138.87202,37.49958],[138.87943,37.47979],[138.8806,37.47042]],[[138.90457,37.58134],[138.92718,37.60991],[138.93344,37.61497],[138.94087,37.62514],[138.9412,37.62837],[138.94013,37.63441],[138.94117,37.64472],[138.94449,37.64816],[138.95019,37.65048],[138.95323,37.65396],[138.95736,37.66131],[138.9574,37.6667],[138.96005,37.67289],[138.96377,37.67628],[138.96869,37.67787],[138.97231,37.67817],[138.97969,37.67718],[138.98241,37.67833],[138.985,37.68687],[139.00776,37.7221],[139.0176,37.75046],[139.02509,37.76204],[139.0268,37.76779],[139.0259,37.77328],[139.02135,37.78273],[139.01876,37.79631],[139.01938,37.81554],[139.0183,37.83981]],[[139.76913,35.69982],[139.76904,35.69872],[139.77125,35.69764],[139.77033,35.69524],[139.77298,35.68862],[139.77024,35.69522],[139.77109,35.6976],[139.76895,35.6987],[139.76913,35.69982],[139.76108,35.70496],[139.75859,35.71602],[139.75752,35.71612],[139.75537,35.71817],[139.75211,35.72368],[139.74621,35.72712]],[[138.879,37.07914],[138.87783,37.0769],[138.86918,37.06912],[138.86708,37.06363],[138.86682,37.05987]],[[138.94557,37.64861],[138.94224,37.64609],[138.94106,37.64366],[138.94026,37.63417],[138.94123,37.62559],[138.93354,37.61492],[138.92718,37.60991]],[[138.81325,36.92099],[138.81226,36.9214],[138.81405,36.92192],[138.81306,36.9223],[138.81377,36.92252],[138.81414,36.92188],[138.8124,36.92114],[138.8222,36.92125],[138.82041,36.92103]],[[139.31137,36.24185],[139.31263,36.24759],[139.3102,36.25257],[139.27435,36.28017],[139.25249,36.29903],[139.24263,36.31291],[139.23267,36.33567],[139.21647,36.35271],[139.2115,36.3552],[139.18418,36.36387],[139.17558,36.36491],[139.16307,36.36443],[139.15781,36.36582],[139.15309,36.37002],[139.14143,36.39225],[139.13836,36.39519],[139.12792,36.40235],[139.12078,36.41276],[139.11872,36.41469],[139.10479,36.42014],[139.0926,36.42181],[139.0781,36.42728],[139.06516,36.43001],[139.0532,36.43827],[139.04886,36.44003],[139.04425,36.44071],[139.04913,36.43983],[139.05066,36.43494],[139.05812,36.42354],[139.06724,36.40409],[139.05824,36.42356],[139.05079,36.43495],[139.04914,36.44019],[139.03853,36.4407],[139.03469,36.44289],[139.03387,36.44441],[139.03357,36.44902],[139.03065,36.45664],[139.02969,36.46404],[139.02546,36.46829],[139.02253,36.47445],[139.01948,36.47751],[139.01496,36.48013],[139.0127,36.48436],[139.01165,36.49135],[139.01336,36.49564],[139.01178,36.49971],[139.01423,36.50403],[139.01691,36.51433],[139.02075,36.52045],[139.01836,36.5273],[139.01852,36.52916],[139.02472,36.54198],[139.02791,36.54535],[139.0291,36.55168],[139.03731,36.55896],[139.03774,36.5671],[139.03961,36.56991],[139.04162,36.57186],[139.04516,36.5734],[139.04776,36.57283],[139.04982,36.57352],[139.04856,36.57815],[139.05001,36.5852],[139.05334,36.58644],[139.05551,36.58465],[139.0566,36.58509],[139.05442,36.58836],[139.04924,36.59276],[139.04964,36.59671],[139.04895,36.60122],[139.04185,36.60999],[139.0421,36.61585],[139.04069,36.62018],[139.03515,36.62474],[139.03539,36.62604],[139.03842,36.62837],[139.0384,36.63025],[139.03665,36.63196],[139.03158,36.63426],[139.03055,36.63623],[139.03111,36.63972],[139.02745,36.64717],[139.02321,36.6512],[139.01833,36.65926],[139.00935,36.66624],[139.00648,36.6708],[139.0041,36.67106],[138.99862,36.66877],[138.99126,36.66846],[138.97969,36.67647],[138.97359,36.67804],[138.96919,36.68174],[138.96687,36.68267],[138.96374,36.68318],[138.95927,36.68246],[138.95374,36.67884],[138.94981,36.67888],[138.94635,36.68041],[138.94281,36.6798],[138.93597,36.68312],[138.93205,36.68317],[138.92856,36.68618],[138.92139,36.69],[138.91262,36.69997],[138.91105,36.70316],[138.90763,36.70515],[138.90643,36.70757],[138.90225,36.71201],[138.89718,36.71371],[138.89586,36.71506],[138.89447,36.71743],[138.89492,36.71923],[138.89384,36.7294],[138.89164,36.72938],[138.88868,36.72625],[138.88496,36.72546],[138.88223,36.72829],[138.8795,36.72953],[138.87443,36.72961],[138.87261,36.73035],[138.87199,36.73259],[138.86969,36.73277],[138.8691,36.7313],[138.86719,36.73204],[138.86076,36.7298],[138.85948,36.73047],[138.85439,36.73064],[138.85114,36.73442],[138.84946,36.72954],[138.8481,36.73085],[138.84504,36.73119],[138.84425,36.73217],[138.84094,36.72969],[138.8391,36.73052],[138.83944,36.73189],[138.83771,36.73198],[138.8343,36.73376],[138.83551,36.73801],[138.83394,36.74023],[138.83499,36.74099],[138.83442,36.74245],[138.83554,36.74341],[138.83558,36.74479],[138.83348,36.74568],[138.83398,36.74814],[138.83302,36.74961],[138.83541,36.75092],[138.83297,36.75314],[138.83543,36.75882],[138.83356,36.75904],[138.83305,36.76086],[138.82856,36.75977],[138.82739,36.76143],[138.81604,36.7687],[138.81381,36.77153],[138.81121,36.77327],[138.80951,36.77523],[138.80573,36.78338],[138.79968,36.78645],[138.79701,36.78678],[138.78831,36.79181],[138.78751,36.79333],[138.78785,36.79578],[138.78602,36.80513],[138.7838,36.80748],[138.78362,36.81131],[138.78137,36.81671],[138.78154,36.82661],[138.78061,36.83359],[138.77827,36.84244],[138.77858,36.84465],[138.77701,36.84645],[138.77369,36.85824],[138.77367,36.86302],[138.77752,36.86552],[138.77555,36.8657],[138.77654,36.86612],[138.77728,36.86971],[138.77603,36.86813],[138.77532,36.86833],[138.77844,36.87951],[138.77796,36.88376],[138.77538,36.89067],[138.77685,36.90071],[138.77843,36.90421],[138.78323,36.90428],[138.78928,36.90637],[138.79682,36.91422],[138.79753,36.91384],[138.79606,36.91139],[138.79692,36.90914],[138.79912,36.90879],[138.80094,36.91277],[138.80354,36.91608],[138.80662,36.91767],[138.80798,36.92046],[138.81306,36.9223]],[[138.8173,36.9358],[138.82287,36.93123],[138.82381,36.92836],[138.82244,36.93152],[138.80353,36.94816],[138.79929,36.9546],[138.79875,36.9588],[138.80118,36.96387],[138.80195,36.97024],[138.80032,36.97267],[138.80055,36.97484],[138.80491,36.97551],[138.80901,36.98795],[138.81753,37.0041],[138.83449,37.02256],[138.84762,37.03436],[138.86453,37.04548],[138.87074,37.05693],[138.88065,37.06954],[138.91053,37.14143],[138.91231,37.1521],[138.91614,37.15982],[138.92377,37.16426],[138.92395,37.17663],[138.93318,37.18927],[138.93566,37.19039],[138.94336,37.19144],[138.95284,37.19839],[138.95561,37.2019],[138.96601,37.20775],[138.96663,37.20921],[138.96763,37.23492],[138.96633,37.23749],[138.95649,37.24316],[138.94671,37.23994],[138.94068,37.24112],[138.93551,37.23839],[138.93138,37.23845],[138.92392,37.24193],[138.92146,37.24552],[138.9192,37.24729],[138.89228,37.25878],[138.88862,37.26141],[138.88767,37.2638],[138.88537,37.26531],[138.88309,37.26498],[138.88177,37.2609],[138.87992,37.25903],[138.8744,37.26083],[138.87336,37.26028],[138.87248,37.25784],[138.87039,37.25792],[138.86663,37.26323],[138.86492,37.26705],[138.85582,37.27303],[138.85524,37.27633],[138.85234,37.27913],[138.84997,37.28299],[138.84301,37.28659],[138.83869,37.28769],[138.83539,37.29272],[138.8245,37.30039],[138.81837,37.3093],[138.81781,37.31325],[138.82007,37.32251],[138.81904,37.32475],[138.81235,37.33291],[138.8116,37.33642],[138.81703,37.34343],[138.82819,37.34583]],[[138.77645,36.86733],[138.7766,36.86605],[138.77593,36.86591]],[[139.07995,36.28453],[139.07322,36.28764],[139.06796,36.29594],[139.06191,36.3],[139.04788,36.30355],[139.03186,36.31088],[139.02015,36.31002],[139.01346,36.31062],[139.00924,36.31212],[139.00324,36.31803],[138.99776,36.32673],[138.9926,36.33127],[138.99032,36.33569],[138.99035,36.33952],[138.9927,36.34272],[139.01215,36.35512],[139.02494,36.37132],[139.03638,36.37821],[139.04718,36.38626],[139.06767,36.38796],[139.04909,36.38654],[139.04554,36.38535],[139.03674,36.37833],[139.02476,36.37101],[139.01253,36.35523],[138.99319,36.34297],[138.9909,36.34052],[138.99018,36.33648],[138.99246,36.3316],[138.99792,36.32667],[139.00058,36.32171],[139.00734,36.31378],[139.01038,36.3116],[139.01394,36.31063],[139.02102,36.31011],[139.02969,36.31126],[139.03329,36.31056],[139.04805,36.3036],[139.05574,36.3021],[139.06411,36.29908],[139.06849,36.29548],[139.07383,36.2873],[139.09279,36.28028],[139.09899,36.27609],[139.10503,36.27452],[139.11614,36.26956],[139.12714,36.26747],[139.12773,36.26546],[139.13572,36.26255],[139.14766,36.25991],[139.16689,36.25293],[139.19634,36.24521],[139.20043,36.24244],[139.21352,36.23066],[139.2269,36.22274]],[[139.7606,35.70752],[139.76129,35.70485],[139.76609,35.70147]],[[139.5928,35.92446],[139.59367,35.91217],[139.59467,35.90929],[139.60112,35.89963],[139.61152,35.89172],[139.61377,35.88901],[139.61969,35.87449],[139.62127,35.8611],[139.62943,35.83737],[139.64469,35.8198],[139.64833,35.81461],[139.64933,35.80548],[139.64331,35.78926],[139.64448,35.78659],[139.65007,35.77989],[139.65123,35.77212],[139.65306,35.76706]],[[139.06023,37.91492],[139.05864,37.91692]],[[139.51857,36.00654],[139.52118,36.00297],[139.5208,36.00037],[139.52217,35.99738],[139.53002,35.98872],[139.5383,35.97782],[139.52917,35.98951],[139.5181,36.00156],[139.51829,36.00453]],[[139.05205,36.43875],[139.04913,36.43983]],[[139.35835,36.17477],[139.36654,36.17341],[139.36014,36.17584],[139.34717,36.19143],[139.3344,36.20006],[139.3314,36.20559],[139.32826,36.2147],[139.32355,36.21914]],[[139.3344,36.20006],[139.32952,36.20395]],[[139.06767,36.38796],[139.06911,36.39882],[139.06724,36.40409]],[[139.02757,36.46624],[139.02504,36.46876],[139.02234,36.47453],[139.0143,36.48085],[139.01229,36.48529],[139.01154,36.4913],[139.01326,36.4952],[139.01177,36.49883],[139.01183,36.50059],[139.01426,36.50448],[139.0168,36.51439],[139.02066,36.52072],[139.01822,36.52864],[139.0234,36.53948]],[[138.95305,37.19858],[138.9493,37.18937],[138.94505,37.17551],[138.94025,37.16686],[138.93868,37.1646],[138.93604,37.16286],[138.93071,37.16197]],[[138.86392,37.26787],[138.86492,37.26705]],[[139.1413,36.39224],[139.13829,36.39513],[139.12769,36.40243],[139.12077,36.41261],[139.11805,36.41497],[139.10394,36.42028],[139.09096,36.42219]],[[139.04914,36.44019],[139.05209,36.4388]],[[139.77298,35.68862],[139.77461,35.68458]],[[139.37297,36.15215],[139.37958,36.14655],[139.39345,36.14184],[139.39661,36.13994]],[[139.43513,36.11628],[139.44389,36.11103],[139.45402,36.11],[139.4616,36.10585],[139.46432,36.10302],[139.46757,36.09647],[139.48021,36.08886],[139.48715,36.0829]],[[138.8222,36.92125],[138.82397,36.92395],[138.82381,36.92836]],[[139.00502,36.67117],[139.00731,36.67031],[139.00844,36.66762]],[[139.5383,35.97782],[139.54294,35.97303]],[[138.79739,36.91361],[138.79647,36.91386]],[[138.77913,36.90431],[138.77823,36.90397]],[[138.77713,36.86914],[138.77706,36.86977],[138.77655,36.86936]],[[138.77623,36.8648],[138.7774,36.86543],[138.77697,36.86579]],[[139.05744,36.43535],[139.05123,36.43918]]]}}]}