{"type":"FeatureCollection","features":[{"type":"Feature","properties":{"route_id":"185","route_number":185,"name":"国道185号","source":"OpenStreetMap contributors (ODbL)","osm_relations":[1282122,9385497,9385498,9385499]},"geometry":{"type":"MultiLineString","coordinates":[[[132.91459,34.33888],[132.91508,34.33465],[132.91765,34.33259],[132.91507,34.3345],[132.91469,34.33846],[132.91177,34.34393],[132.90678,34.34099],[132.90092,34.33931],[132.89979,34.3383],[132.90682,34.34093],[132.91177,34.34393],[132.91459,34.33888]],[[132.56507,34.24355],[132.57012,34.24821],[132.57512,34.25019],[132.5951,34.24087],[132.59925,34.23754],[132.62008,34.23186],[132.60643,34.235],[132.59863,34.23771],[132.59451,34.24101],[132.57505,34.25002],[132.57036,34.24823],[132.56517,34.24347]],[[132.62008,34.23186],[132.64131,34.22543],[132.64447,34.22586],[132.64967,34.22498],[132.65981,34.22238],[132.66403,34.2205],[132.66964,34.22059],[132.67381,34.21505],[132.68032,34.2164],[132.68335,34.21895],[132.68375,34.22124],[132.68501,34.22279],[132.68931,34.22505],[132.69292,34.2333],[132.70333,34.23948],[132.70785,34.2393],[132.70982,34.24027],[132.71204,34.23982],[132.71577,34.24272],[132.71603,34.24567],[132.72486,34.25772],[132.72607,34.26213],[132.72554,34.26602],[132.72892,34.27289],[132.73251,34.27373],[132.74001,34.27858],[132.74494,34.27907],[132.74748,34.28315],[132.75024,34.28321],[132.75692,34.28156],[132.76102,34.28266],[132.76537,34.2822],[132.76836,34.27986],[132.77043,34.27929],[132.77525,34.2808],[132.77723,34.27869],[132.78288,34.27718],[132.78474,34.27769],[132.78575,34.27896],[132.78627,34.28225],[132.78735,34.28319],[132.78767,34.28761],[132.78961,34.28928],[132.7906,34.2925],[132.79359,34.29496],[132.79352,34.29762],[132.79476,34.29888],[132.79645,34.30322],[132.79529,34.31002],[132.79769,34.31239],[132.80926,34.31636],[132.81859,34.31759],[132.82383,34.31604],[132.83085,34.31772],[132.83793,34.3154],[132.84215,34.31824],[132.84777,34.31889],[132.85534,34.32209],[132.86176,34.32267],[132.86665,34.32416],[132.87292,34.32354],[132.87766,34.32578],[132.88055,34.32857],[132.88486,34.32964],[132.8892,34.33319],[132.89644,34.33563],[132.89979,34.3383]],[[132.91765,34.33259],[132.92079,34.33077],[132.92304,34.32655],[132.92886,34.32575],[132.93524,34.32956],[132.94051,34.33388],[132.9452,34.33979],[132.95219,34.34064],[132.95682,34.34026],[132.96084,34.33803],[132.97319,34.33486],[132.97665,34.33318],[132.97943,34.33342],[132.98228,34.33221],[132.98504,34.3353],[132.98755,34.33554],[132.99415,34.3382],[132.9969,34.33745],[133.00025,34.33786],[133.00332,34.3364],[133.00601,34.33781],[133.00855,34.3377],[133.01202,34.336],[133.01612,34.33543],[133.01891,34.33315],[133.02535,34.3309],[133.02955,34.33287],[133.03288,34.33302],[133.03449,34.334],[133.03554,34.33594],[133.04636,34.33929],[133.05283,34.34327],[133.05966,34.34515],[133.07121,34.34304],[133.07429,34.34338],[133.07893,34.34549],[133.08105,34.35012],[133.0839,34.36186],[133.08374,34.36613],[133.08715,34.3763],[133.08611,34.37862],[133.08378,34.3805],[133.07776,34.38236],[133.07392,34.38539],[133.06769,34.38574],[133.07366,34.38561],[133.07749,34.38258],[133.08295,34.38099],[133.0853,34.37942]],[[133.06684,34.39358],[133.06756,34.39218],[133.06769,34.38574],[133.06747,34.39217],[133.06675,34.39354],[133.07272,34.39622],[133.07628,34.39918],[133.089,34.39729],[133.09586,34.39842],[133.10199,34.39338],[133.10567,34.39264],[133.10818,34.39097],[133.11185,34.38986],[133.11496,34.38491],[133.11775,34.38323],[133.12826,34.38342]],[[132.81635,34.32697],[132.82675,34.32616],[132.83197,34.32471]],[[133.06933,34.39469],[133.07189,34.39582]]]}}]}