{"type":"FeatureCollection","features":[{"type":"Feature","properties":{"route_id":"314","route_number":314,"name":"国道314号","source":"OpenStreetMap contributors (ODbL)","osm_relations":[9226628]},"geometry":{"type":"MultiLineString","coordinates":[[[133.34507,34.57312],[133.34777,34.56062],[133.35167,34.55809],[133.3683,34.53859],[133.37082,34.53111],[133.37804,34.52316],[133.38404,34.52152],[133.38804,34.51826],[133.39098,34.51172],[133.39752,34.50638],[133.40044,34.48982],[133.39736,34.50647],[133.39116,34.51132],[133.38777,34.51839],[133.384,34.52146],[133.37828,34.5229],[133.37684,34.52422],[133.37052,34.53138],[133.3682,34.53854],[133.35161,34.55803],[133.34786,34.56032],[133.34496,34.57368],[133.34332,34.57597],[133.34282,34.5805],[133.34061,34.58435],[133.33918,34.58598],[133.33379,34.58725],[133.33114,34.59012],[133.32909,34.59504],[133.32602,34.59671],[133.32577,34.59868],[133.3242,34.59764],[133.32522,34.59955],[133.32377,34.59968],[133.32308,34.60148],[133.32227,34.60429],[133.32319,34.60617],[133.32131,34.60637],[133.31821,34.60929],[133.31813,34.6112],[133.31566,34.6142],[133.31677,34.61891],[133.31544,34.62132],[133.31547,34.62349],[133.31764,34.6253],[133.31806,34.62751],[133.3124,34.63057],[133.31093,34.63578],[133.30914,34.63718],[133.30447,34.64392],[133.30548,34.64935],[133.30446,34.65145],[133.30523,34.65417],[133.30688,34.6561],[133.30675,34.66199],[133.30277,34.66411],[133.30203,34.66646],[133.29913,34.67001],[133.29985,34.67775],[133.29254,34.68571],[133.29259,34.68807],[133.28956,34.69642],[133.28987,34.69795],[133.29261,34.6999],[133.30057,34.70872],[133.30108,34.71018],[133.29932,34.71312],[133.30084,34.71561],[133.3006,34.71728],[133.29729,34.71923],[133.29762,34.72117],[133.29678,34.72235],[133.29749,34.72527],[133.29452,34.72879],[133.29148,34.72871],[133.28946,34.73044],[133.28242,34.73337],[133.27739,34.73947],[133.27571,34.74366],[133.27494,34.74668],[133.27595,34.75058],[133.27524,34.7529],[133.27716,34.75667],[133.28161,34.76044],[133.28009,34.76203],[133.28004,34.76359],[133.28225,34.76783],[133.2824,34.76993],[133.28086,34.77365],[133.27364,34.77686],[133.27228,34.77817],[133.26854,34.78548],[133.26905,34.79094],[133.26822,34.79497],[133.26881,34.79805],[133.26778,34.79827],[133.26722,34.79689],[133.26801,34.79674],[133.26817,34.80184],[133.27214,34.80424],[133.27226,34.80557],[133.2744,34.80723],[133.27613,34.81007],[133.27853,34.81674],[133.28098,34.81797],[133.28269,34.82137],[133.28544,34.82354],[133.2854,34.82586],[133.28948,34.83649],[133.28947,34.83948],[133.29527,34.84368],[133.29948,34.84292],[133.30225,34.84573],[133.30213,34.84856],[133.29897,34.85401],[133.30181,34.85681],[133.30269,34.85907],[133.29955,34.86017],[133.30105,34.86425],[133.29788,34.8666],[133.29415,34.87366],[133.29394,34.87659],[133.29292,34.87772],[133.28877,34.87753],[133.28572,34.88087],[133.28356,34.88145],[133.28217,34.88349],[133.27501,34.88666],[133.27311,34.89129],[133.27339,34.89372],[133.27202,34.89337],[133.27062,34.89823],[133.26648,34.90466],[133.25869,34.91054],[133.24296,34.91666],[133.23575,34.92725],[133.23331,34.92893],[133.23226,34.93201],[133.22987,34.93262],[133.2259,34.93581],[133.22398,34.93594],[133.22117,34.93853],[133.21864,34.94214],[133.21823,34.94557],[133.20627,34.9569],[133.20578,34.95857],[133.20699,34.96102],[133.21265,34.96508],[133.2134,34.97307],[133.21198,34.97668],[133.21458,34.98186],[133.21195,34.98736],[133.21012,34.98932],[133.21009,34.99376],[133.20477,35.00047],[133.19421,35.00867],[133.18801,35.01069],[133.17782,35.00823],[133.17711,35.0055],[133.17519,35.00304],[133.16839,34.99987],[133.16257,35.00024],[133.15858,35.00341],[133.15572,35.00301],[133.15209,35.00382],[133.1508,35.00257],[133.14629,35.00091],[133.14393,35.00125],[133.13881,34.99979],[133.1384,35.00107],[133.13715,35.00112],[133.13477,34.9998],[133.1336,35.00078],[133.13441,35.00341],[133.13205,35.00461],[133.13213,35.00844],[133.12842,35.01177],[133.12889,35.01377],[133.12566,35.01621],[133.12634,35.01707],[133.12919,35.01659],[133.13003,35.01789],[133.12807,35.01883],[133.12444,35.01908],[133.12267,35.0207],[133.12142,35.02355],[133.11748,35.02428],[133.11946,35.02644],[133.11745,35.03019],[133.11747,35.03484],[133.12219,35.04121],[133.12025,35.04507],[133.12168,35.04942],[133.1198,35.05738],[133.11893,35.05989],[133.11491,35.06486],[133.11598,35.06702],[133.11431,35.07278],[133.1148,35.0749],[133.11265,35.0788],[133.11259,35.08204],[133.11418,35.08568],[133.11354,35.08863],[133.11519,35.0914],[133.12016,35.09465],[133.12759,35.09633],[133.12938,35.09583],[133.13037,35.09449],[133.12915,35.09298],[133.1274,35.09416],[133.12955,35.09512],[133.13006,35.09426],[133.12922,35.09352],[133.12618,35.09435],[133.12068,35.10198],[133.114,35.10426],[133.11231,35.10615],[133.11119,35.11235],[133.11241,35.11466],[133.1106,35.1179],[133.11167,35.12039],[133.11143,35.12503],[133.11301,35.12843],[133.11013,35.13741],[133.10241,35.1417],[133.09889,35.14133],[133.09295,35.14371],[133.09112,35.14812],[133.08875,35.14909],[133.08482,35.15246],[133.08413,35.15626],[133.08631,35.16009],[133.08597,35.16965],[133.08743,35.17643],[133.089,35.17823],[133.08876,35.18215],[133.07964,35.18554],[133.07711,35.1851],[133.07231,35.18609],[133.0701,35.18866],[133.06289,35.19175],[133.05977,35.1919],[133.05816,35.19286],[133.04831,35.18899],[133.04009,35.1926],[133.0359,35.19253],[133.0351,35.19438],[133.03285,35.19587],[133.02847,35.19478],[133.02553,35.19701],[133.0226,35.19681],[133.02019,35.19446],[133.01838,35.19527],[133.01048,35.19594],[133.00441,35.20198],[132.99968,35.20365],[132.99784,35.20573],[132.99466,35.20552],[132.99259,35.20725],[132.99005,35.20682],[132.9865,35.20872],[132.98319,35.20801],[132.98053,35.20861],[132.97885,35.21001],[132.97392,35.21149],[132.96743,35.21807],[132.96186,35.22021],[132.95806,35.21971],[132.95179,35.21623],[132.94564,35.2153],[132.94346,35.21569],[132.93578,35.21301],[132.92612,35.21323],[132.92402,35.21221],[132.91796,35.20657],[132.91461,35.20608],[132.91251,35.20666],[132.90449,35.21445],[132.90694,35.21967],[132.90662,35.22262],[132.91058,35.22843],[132.9099,35.23149],[132.90807,35.23272],[132.9037,35.23201],[132.90087,35.23484],[132.90051,35.2359],[132.90219,35.23796],[132.90262,35.24073],[132.9,35.24402],[132.89736,35.24573],[132.89698,35.25],[132.8947,35.25373],[132.89274,35.2614],[132.89317,35.2625],[132.89489,35.26342],[132.90073,35.26343],[132.90368,35.26427],[132.90546,35.26624],[132.90626,35.26905],[132.90458,35.27114],[132.90179,35.27133],[132.89883,35.27321],[132.89705,35.27608],[132.89606,35.28397],[132.89363,35.28431],[132.8928,35.286],[132.89215,35.29156],[132.89321,35.29767],[132.89139,35.3007]],[[133.27497,34.89688],[133.27123,34.89667]]]}}]}