{"type":"FeatureCollection","features":[{"type":"Feature","properties":{"route_id":"507","route_number":507,"name":"国道507号","source":"OpenStreetMap contributors (ODbL)","osm_relations":[10387581,10387600]},"geometry":{"type":"MultiLineString","coordinates":[[[127.71166,26.19521],[127.71433,26.19165],[127.72028,26.1866],[127.7271,26.1767],[127.72703,26.17306],[127.72435,26.16388],[127.72052,26.16643],[127.72056,26.16889],[127.72218,26.17168],[127.72083,26.17299],[127.71928,26.17327],[127.71808,26.17875],[127.71199,26.18475],[127.70479,26.19606],[127.69166,26.19611],[127.68569,26.20014],[127.68087,26.2053],[127.6774,26.21047],[127.67841,26.20985]],[[127.6774,26.21047],[127.67508,26.21138]],[[127.66836,26.11905],[127.66851,26.1117],[127.67791,26.10405],[127.67827,26.10274],[127.6774,26.09938],[127.67965,26.09656],[127.68592,26.09475],[127.69033,26.09586],[127.69522,26.09471],[127.69914,26.09475],[127.70447,26.09612],[127.70872,26.09544],[127.7115,26.09392],[127.7166,26.09439],[127.72193,26.09924],[127.72198,26.1074],[127.72417,26.10838],[127.72707,26.11193],[127.73205,26.11548],[127.73299,26.11712],[127.73909,26.11881],[127.74209,26.12091],[127.73271,26.13046],[127.72386,26.15001],[127.72108,26.15296],[127.72173,26.15843],[127.72435,26.16388],[127.72195,26.15872],[127.72114,26.15494],[127.72113,26.15316],[127.72228,26.15158]],[[127.71181,26.195],[127.71471,26.19143],[127.72038,26.18667],[127.72721,26.17674],[127.72741,26.17431],[127.72444,26.16381]],[[127.66851,26.1117],[127.66825,26.11905]]]}}]}