{"type":"FeatureCollection","features":[{"type":"Feature","properties":{"route_id":"191","route_number":191,"name":"国道191号","source":"OpenStreetMap contributors (ODbL)","osm_relations":[3904021,9418086,9418087,9418088,9418089,9418090,9418091,9935000,21296982]},"geometry":{"type":"MultiLineString","coordinates":[[[132.46421,34.54179],[132.45873,34.5418],[132.45414,34.54371],[132.45009,34.54419],[132.45508,34.54375],[132.45922,34.54201],[132.46444,34.54172],[132.47161,34.53591],[132.47418,34.53532],[132.47704,34.53588],[132.48185,34.53218],[132.49463,34.52623],[132.51225,34.52116],[132.50943,34.51403],[132.51386,34.50423],[132.51247,34.50067],[132.5123,34.49661],[132.50644,34.49534],[132.50482,34.49124],[132.50224,34.48794],[132.50131,34.4841],[132.49022,34.47723],[132.47822,34.46581],[132.47781,34.46283],[132.47965,34.46092],[132.47986,34.45965],[132.47412,34.43982],[132.46945,34.43315],[132.47029,34.42765],[132.46573,34.42252],[132.46525,34.41866],[132.4623,34.40937],[132.45862,34.40513],[132.45676,34.39991],[132.45918,34.39916],[132.45408,34.38459]],[[132.45389,34.38463],[132.459,34.39922],[132.45664,34.39993],[132.45851,34.40515],[132.4622,34.40966],[132.46586,34.42321],[132.47004,34.42769],[132.46931,34.43325],[132.47399,34.43992],[132.47973,34.45968],[132.47768,34.46275],[132.47806,34.4658],[132.49006,34.47731],[132.50128,34.48421],[132.50214,34.48796],[132.50474,34.4913],[132.50622,34.49525],[132.512,34.49747],[132.51247,34.50067]],[[130.91854,33.96578],[130.91989,33.97118],[130.91701,33.97658],[130.91979,33.98532],[130.91683,33.99163],[130.91687,33.99781],[130.91489,34.00316],[130.91661,34.01052],[130.91724,34.01917],[130.91707,34.02139],[130.91532,34.02435],[130.91721,34.02139],[130.91736,34.01972],[130.91678,34.01084],[130.91503,34.00287],[130.91702,33.99765],[130.91696,33.99156],[130.9192,33.98799],[130.91989,33.98531],[130.91713,33.97669],[130.92,33.97113],[130.91809,33.96288],[130.91851,33.9608],[130.92128,33.95792],[130.92026,33.95393],[130.92259,33.95127]],[[132.45009,34.54419],[132.44797,34.54596],[132.44798,34.54864],[132.44626,34.55221],[132.4434,34.54976],[132.43498,34.54679],[132.43244,34.54475],[132.42713,34.54376],[132.40978,34.53325],[132.40546,34.53524],[132.40248,34.5395],[132.40279,34.54139],[132.4058,34.54455],[132.40516,34.54687],[132.4023,34.5475],[132.3963,34.545],[132.39463,34.54552],[132.39373,34.54897],[132.39539,34.54978],[132.39602,34.55148],[132.39391,34.55597],[132.39357,34.56026],[132.39265,34.56184],[132.39099,34.56264],[132.38719,34.56191],[132.38451,34.55919],[132.38258,34.55895],[132.38035,34.55959],[132.3784,34.56188],[132.37554,34.56281],[132.37114,34.56259],[132.36581,34.56007],[132.36099,34.56009],[132.35986,34.55945],[132.35934,34.55439],[132.35818,34.55289],[132.35392,34.55406],[132.34792,34.55196],[132.34509,34.55182],[132.34306,34.55247],[132.34111,34.55583],[132.33119,34.55599],[132.33074,34.55739],[132.33448,34.56154],[132.33316,34.56353],[132.3296,34.56364],[132.32373,34.56589],[132.31764,34.56474],[132.32163,34.57521],[132.3245,34.57649],[132.32138,34.58024],[132.32046,34.58251],[132.32107,34.58487],[132.32028,34.5872],[132.32288,34.59039],[132.32114,34.59262],[132.32054,34.59878],[132.32199,34.60546],[132.32094,34.60707],[132.31683,34.60799],[132.31458,34.61064],[132.31438,34.61236],[132.31515,34.61211],[132.31497,34.61066],[132.31069,34.60777],[132.30694,34.60294],[132.30065,34.59942],[132.2994,34.5963],[132.3017,34.59492],[132.30178,34.59356],[132.29599,34.59226],[132.29485,34.59122],[132.29447,34.58873],[132.28804,34.58542],[132.28152,34.58057],[132.27802,34.58045],[132.27049,34.57483],[132.25868,34.57422],[132.2547,34.57685],[132.25166,34.57752],[132.2359,34.57289],[132.23304,34.57296],[132.22998,34.57416],[132.22897,34.57577],[132.2201,34.58222],[132.21958,34.58353],[132.22076,34.58642],[132.21774,34.59053],[132.21801,34.5956],[132.21617,34.59747],[132.21629,34.5983],[132.21403,34.60008],[132.21374,34.60378],[132.21473,34.60551],[132.2187,34.60835],[132.22094,34.61236],[132.22399,34.61333],[132.22516,34.61453],[132.22748,34.62059],[132.22917,34.62228],[132.22888,34.62416],[132.23028,34.62582],[132.23232,34.63237],[132.23452,34.63657],[132.23776,34.63987],[132.24003,34.64736],[132.2428,34.65146],[132.24447,34.6588],[132.23855,34.65841],[132.23699,34.65974],[132.23187,34.65999],[132.22496,34.65409],[132.22266,34.65095],[132.21945,34.65006],[132.21971,34.64765],[132.21766,34.6445],[132.21222,34.64021],[132.21035,34.63972],[132.2051,34.64096],[132.19726,34.64847],[132.19572,34.65206],[132.19201,34.65441],[132.19161,34.65755],[132.19379,34.66072],[132.19394,34.66288],[132.18379,34.66809],[132.17956,34.67539],[132.17682,34.68493],[132.16993,34.68726],[132.16383,34.69357],[132.16186,34.69299],[132.16006,34.68989],[132.15694,34.68902],[132.15383,34.68365],[132.14868,34.67916],[132.14758,34.67719],[132.14331,34.67408],[132.14243,34.67203],[132.13634,34.67134],[132.13372,34.66771],[132.12517,34.66288],[132.12447,34.6602],[132.11795,34.65557],[132.11611,34.65219],[132.11215,34.65087],[132.10788,34.64652],[132.10296,34.6441],[132.10171,34.64247],[132.10132,34.64029],[132.09744,34.63864],[132.09579,34.63995],[132.09194,34.64065],[132.09013,34.64675],[132.08876,34.64691],[132.08632,34.64514],[132.08362,34.64554],[132.08138,34.64743],[132.08055,34.65052],[132.07643,34.65401],[132.07237,34.6557],[132.07012,34.66489],[132.07068,34.66564],[132.06817,34.66623],[132.07032,34.66931],[132.068,34.66952],[132.06644,34.67058],[132.06748,34.67212],[132.0675,34.67384],[132.06473,34.67175],[132.05942,34.67329],[132.059,34.67427],[132.0615,34.67581],[132.05945,34.67661],[132.05766,34.67552],[132.05329,34.67562],[132.05046,34.67479],[132.04675,34.67542],[132.04562,34.67652],[132.04287,34.67572],[132.04038,34.67617],[132.03699,34.67501],[132.02548,34.68699],[132.02263,34.68759],[132.01006,34.68378],[132.0086,34.68196],[132.00723,34.67782],[132.00361,34.67461],[131.99514,34.6731],[131.98074,34.66595],[131.97565,34.66469],[131.96996,34.66746],[131.96683,34.66792],[131.95722,34.67294],[131.95202,34.67426],[131.94911,34.67624],[131.9433,34.67599],[131.93613,34.67696],[131.9325,34.67966],[131.92994,34.68009],[131.92737,34.67898],[131.9257,34.676],[131.91825,34.67438],[131.91224,34.67035],[131.9089,34.67156],[131.90439,34.67109],[131.90298,34.66928],[131.90174,34.66475],[131.89936,34.66349],[131.89408,34.66696],[131.87938,34.67041],[131.87353,34.67426],[131.87191,34.67943],[131.86284,34.68252],[131.86019,34.6824],[131.85692,34.67983],[131.84935,34.67839],[131.84526,34.67953],[131.84309,34.67895],[131.8377,34.68146],[131.83395,34.68443],[131.82624,34.68664],[131.82291,34.68891],[131.81044,34.69023],[131.8011,34.68771],[131.78428,34.68519],[131.77938,34.68323],[131.75614,34.67693],[131.75423,34.67577],[131.75165,34.67187],[131.75011,34.67097],[131.74151,34.6711],[131.73707,34.67195],[131.73145,34.6707],[131.72798,34.67265],[131.72461,34.67266],[131.71967,34.67459],[131.71778,34.67379],[131.7152,34.67066],[131.70455,34.6664],[131.70118,34.66766],[131.69903,34.66688],[131.69688,34.66753],[131.69121,34.66699],[131.68155,34.66323],[131.67801,34.66035],[131.67621,34.65663],[131.67018,34.65399],[131.66519,34.64738],[131.66169,34.64544],[131.65964,34.64291],[131.65562,34.64147],[131.65233,34.63926],[131.64861,34.63972],[131.64323,34.63676],[131.64217,34.63517],[131.64297,34.63153],[131.63975,34.62672],[131.62918,34.62436],[131.62365,34.62594],[131.61696,34.62645],[131.61388,34.62569],[131.61109,34.62265],[131.60737,34.62289],[131.60485,34.62197],[131.60253,34.61987],[131.59986,34.61957],[131.59771,34.61435],[131.59856,34.60568],[131.5962,34.60174],[131.5887,34.60069],[131.57635,34.59553],[131.57391,34.59249],[131.57256,34.58838],[131.56773,34.58664],[131.56287,34.5869],[131.55826,34.58414],[131.55622,34.58188],[131.55539,34.57861],[131.55207,34.57449],[131.54428,34.56968],[131.53947,34.56341],[131.53541,34.56022],[131.52845,34.55836],[131.52625,34.55639],[131.5221,34.55445],[131.51673,34.55352],[131.51471,34.54867],[131.5118,34.54672],[131.50749,34.54157],[131.50473,34.53399],[131.49767,34.53098],[131.49631,34.52939],[131.48804,34.52425],[131.48584,34.5211],[131.48346,34.5132],[131.47864,34.50729],[131.46993,34.50101],[131.46878,34.49747],[131.46366,34.49087],[131.46215,34.48592],[131.44957,34.4766],[131.44514,34.47031],[131.43606,34.4678],[131.43489,34.4659],[131.4274,34.45924],[131.42521,34.45417],[131.41777,34.45181],[131.41766,34.44974],[131.41468,34.44769],[131.41439,34.44559],[131.41766,34.44389],[131.42002,34.44363],[131.42264,34.4415],[131.42284,34.44023],[131.42031,34.43708],[131.41454,34.43358],[131.41466,34.43206],[131.41738,34.42909],[131.41714,34.42664],[131.4157,34.42461],[131.4116,34.42299],[131.41012,34.42145],[131.4099,34.41798],[131.40732,34.41503],[131.40733,34.4084],[131.39469,34.40887],[131.3855,34.40368],[131.38036,34.40014],[131.37813,34.39708],[131.37418,34.39488],[131.37211,34.39242],[131.37227,34.38842],[131.36939,34.38838],[131.36411,34.3901],[131.35979,34.38888],[131.35667,34.38634],[131.35582,34.38458],[131.34732,34.38037],[131.34693,34.37843],[131.34406,34.37849],[131.34215,34.37669],[131.34212,34.37441],[131.33473,34.36701],[131.33238,34.36579],[131.32777,34.3654],[131.32268,34.36096],[131.32171,34.35929],[131.32423,34.35654],[131.32478,34.35455],[131.32268,34.35109],[131.31698,34.35368],[131.31573,34.35735],[131.3083,34.35392],[131.30608,34.35139],[131.30211,34.35011],[131.29185,34.3538],[131.28832,34.35435],[131.2859,34.35611],[131.28174,34.35617],[131.27298,34.35843],[131.26681,34.36064],[131.26218,34.36337],[131.25053,34.36273],[131.22268,34.36405],[131.20942,34.37014],[131.20303,34.37543],[131.20067,34.37622],[131.18985,34.37463],[131.18153,34.36869],[131.17554,34.36949],[131.17077,34.37194],[131.1645,34.37135],[131.1562,34.37218],[131.14733,34.37541],[131.14177,34.37477],[131.13684,34.3726],[131.1322,34.37188],[131.12907,34.37012],[131.12305,34.37113],[131.12267,34.3732],[131.11945,34.37554],[131.11888,34.37847],[131.11224,34.38091],[131.10499,34.38495],[131.09356,34.38538],[131.08834,34.3839],[131.07898,34.38307],[131.06395,34.3767],[131.06113,34.37347],[131.04514,34.36803],[131.03498,34.36742],[131.03058,34.37017],[131.01987,34.37245],[131.0159,34.37116],[131.00759,34.3703],[131.0007,34.37143],[130.99618,34.37075],[130.99292,34.36703],[130.98657,34.36679],[130.98311,34.36387],[130.97717,34.36225],[130.97509,34.35721],[130.97226,34.35614],[130.97133,34.35297],[130.96738,34.35293],[130.96394,34.35406],[130.95838,34.35029],[130.9507,34.34923],[130.94367,34.3471],[130.9416,34.34726],[130.93911,34.34569],[130.93547,34.34587],[130.93248,34.34412],[130.93076,34.34104],[130.92715,34.3404],[130.92335,34.33744],[130.91794,34.33676],[130.91643,34.33528],[130.90898,34.33187],[130.90728,34.32927],[130.90532,34.32791],[130.90322,34.32789],[130.89985,34.32606],[130.8977,34.32302],[130.89967,34.32173],[130.8996,34.31971],[130.89851,34.3179],[130.89434,34.31472],[130.8947,34.31121],[130.89383,34.30963],[130.89204,34.30894],[130.88818,34.30976],[130.88601,34.30892],[130.88551,34.30527],[130.88694,34.30247],[130.8869,34.29254],[130.89007,34.29019],[130.8935,34.28477],[130.89313,34.28348],[130.88745,34.27856],[130.88785,34.27602],[130.89056,34.26923],[130.89661,34.26574],[130.89921,34.26037],[130.90053,34.2546],[130.90953,34.24893],[130.91208,34.24578],[130.91582,34.24425],[130.92132,34.24037],[130.92296,34.23579],[130.92547,34.23319],[130.92686,34.22924],[130.92949,34.22608],[130.93103,34.22172],[130.92988,34.21695],[130.93286,34.20984],[130.93178,34.20319],[130.9328,34.19888],[130.93272,34.19329],[130.93416,34.18846],[130.93295,34.17703],[130.9301,34.17344],[130.92684,34.1669],[130.92749,34.15934],[130.92488,34.14914],[130.9176,34.13853],[130.91392,34.13517],[130.91314,34.12456],[130.91059,34.12119],[130.9094,34.11779],[130.90402,34.11306],[130.90275,34.10594],[130.90044,34.10198],[130.90074,34.09895],[130.89926,34.09508],[130.89597,34.0938],[130.89461,34.09111],[130.89471,34.08167],[130.89766,34.0726],[130.90309,34.06968],[130.90558,34.06626],[130.91123,34.06159],[130.91216,34.05996],[130.91201,34.05561],[130.91504,34.0462],[130.91334,34.0349],[130.91146,34.02958],[130.91532,34.02435]],[[132.26907,34.57455],[132.26555,34.57421]],[[131.25959,34.36306],[131.27136,34.37299],[131.27571,34.37539],[131.28118,34.37658],[131.29614,34.37625],[131.30063,34.37695],[131.30594,34.37895],[131.31898,34.38663],[131.32503,34.38864],[131.33365,34.38873],[131.34951,34.38579],[131.35424,34.38658],[131.36038,34.39022],[131.36332,34.391],[131.37653,34.3894],[131.39931,34.38898]],[[131.39494,34.40897],[131.4072,34.40844],[131.40744,34.41554]],[[132.25683,34.57523],[132.25438,34.57623],[132.25148,34.57428],[132.24858,34.5736],[132.24746,34.57504],[132.24497,34.57554]],[[131.31988,34.38705],[131.32637,34.38895],[131.33365,34.38873]],[[131.40028,34.38887],[131.40787,34.38883],[131.41382,34.39069],[131.41888,34.39424],[131.4253,34.40065],[131.43238,34.42175],[131.43179,34.42464],[131.42695,34.43347],[131.42713,34.43663],[131.43111,34.44359],[131.4444,34.45618],[131.44708,34.46352],[131.44776,34.46797]],[[131.19141,34.37495],[131.18911,34.37421],[131.18212,34.36881]],[[131.42819,34.43171],[131.42695,34.43347],[131.42726,34.43106],[131.42937,34.42901],[131.42819,34.43171],[131.42652,34.43049],[131.42556,34.42727],[131.42131,34.42577]]]}}]}