{"type":"FeatureCollection","features":[{"type":"Feature","properties":{"route_id":"369","route_number":369,"name":"国道369号","source":"OpenStreetMap contributors (ODbL)","osm_relations":[8346167,10105591,15532244]},"geometry":{"type":"MultiLineString","coordinates":[[[136.52809,34.56332],[136.5214,34.56317],[136.50992,34.55606],[136.50389,34.5509],[136.48874,34.54453],[136.48752,34.53929],[136.48484,34.53605],[136.47712,34.53137],[136.47641,34.52908],[136.47651,34.52315],[136.47564,34.5219],[136.47226,34.51903],[136.46729,34.51758],[136.46164,34.51387],[136.45748,34.51468],[136.45531,34.51327],[136.4543,34.51146],[136.45412,34.50742],[136.45254,34.50586],[136.45044,34.50089],[136.4505,34.49325],[136.44974,34.49132],[136.45191,34.48747],[136.45012,34.48488],[136.43853,34.48186],[136.43372,34.48356],[136.42948,34.48391],[136.42535,34.47888],[136.40754,34.47418],[136.39697,34.46996],[136.3939,34.47101],[136.39337,34.47302],[136.38818,34.47745],[136.37948,34.48025],[136.37624,34.48239],[136.37153,34.47989],[136.36665,34.47995],[136.36512,34.48058],[136.36443,34.48188],[136.36014,34.48381],[136.35783,34.48616],[136.35234,34.48694],[136.35082,34.48921],[136.35092,34.49386],[136.35007,34.49311],[136.34768,34.49555],[136.34523,34.49443],[136.34758,34.49381],[136.3466,34.49268],[136.34745,34.49218],[136.34631,34.49088],[136.34435,34.49217],[136.3434,34.49158],[136.3443,34.49024],[136.34278,34.49024],[136.34109,34.49199],[136.3406,34.49072],[136.33911,34.49121],[136.33691,34.49048],[136.33718,34.49212],[136.33326,34.49782],[136.33473,34.49989],[136.33291,34.5004],[136.3301,34.5027],[136.32968,34.50456],[136.32742,34.50691],[136.32534,34.50782],[136.32289,34.5122],[136.31815,34.51287],[136.31401,34.51137],[136.31074,34.51204],[136.29848,34.51198],[136.29282,34.51031],[136.27215,34.51301],[136.26725,34.51114],[136.26196,34.51291],[136.25666,34.51124],[136.2507,34.51277],[136.24601,34.51184],[136.24298,34.51441],[136.23853,34.51267],[136.23328,34.5137],[136.22566,34.51231],[136.21313,34.5139],[136.2112,34.51593],[136.2067,34.51789],[136.20387,34.51734],[136.20088,34.51547],[136.20059,34.51081],[136.19651,34.50646],[136.1919,34.50331],[136.1929,34.4996],[136.1912,34.49657],[136.17973,34.49354],[136.17148,34.49019],[136.16869,34.48816],[136.16256,34.48918],[136.15798,34.48807],[136.15396,34.48607],[136.14684,34.486],[136.13806,34.48138],[136.13544,34.48077],[136.12601,34.48278],[136.12359,34.484],[136.1226,34.48606],[136.12044,34.4866],[136.11656,34.49116],[136.11635,34.49271],[136.11846,34.49367],[136.11856,34.49441],[136.11377,34.49412],[136.11431,34.4984],[136.11087,34.49916],[136.10864,34.49648],[136.10579,34.49482],[136.1046,34.49208],[136.09977,34.48809],[136.09374,34.48757],[136.08518,34.49038],[136.04945,34.48694],[136.04794,34.48307],[136.04146,34.48259],[136.03898,34.48304],[136.03743,34.48486],[136.03541,34.48435],[136.04945,34.48694]],[[135.80012,34.68444],[135.83474,34.68447],[135.83487,34.69392],[135.8366,34.6955],[135.83711,34.69784],[135.83873,34.69992],[135.85059,34.70366],[135.85569,34.70422],[135.86052,34.70622],[135.86456,34.70422],[135.86691,34.70449],[135.86762,34.7028],[135.87295,34.70288],[135.87462,34.69961],[135.87608,34.69881],[135.87807,34.69875],[135.87603,34.70072],[135.87672,34.70125],[135.88254,34.70054],[135.88334,34.69871],[135.88573,34.69759],[135.89532,34.69735],[135.89758,34.69536],[135.90151,34.6943],[135.90181,34.69232],[135.90471,34.69114],[135.90796,34.69381],[135.91144,34.69368],[135.91594,34.69517],[135.91804,34.69778],[135.91654,34.70035],[135.91689,34.70143],[135.92241,34.70161],[135.92579,34.70427],[135.92553,34.70551],[135.92786,34.706],[135.9308,34.70884],[135.93359,34.70976],[135.93527,34.71277],[135.93762,34.71465],[135.94019,34.71998],[135.94253,34.72206],[135.94155,34.72509],[135.94168,34.72926],[135.94314,34.73204],[135.94478,34.73305],[135.9491,34.73311],[135.95092,34.73444],[135.95124,34.73249],[135.95394,34.72878],[135.95361,34.7259],[135.95431,34.72399],[135.95307,34.72213],[135.95214,34.71729],[135.95103,34.71637],[135.95102,34.71054],[135.94973,34.70849],[135.95087,34.7074],[135.94938,34.70484],[135.95019,34.70352],[135.95165,34.70506],[135.95283,34.70478],[135.95075,34.69936],[135.95145,34.69692],[135.95095,34.69579],[135.9526,34.69482],[135.95286,34.69358],[135.95103,34.69094],[135.95127,34.68921],[135.95016,34.68839],[135.95017,34.68619],[135.95174,34.68343],[135.94897,34.68028],[135.95032,34.67798],[135.95026,34.67429],[135.94759,34.67305],[135.94572,34.6615],[135.94962,34.65246],[135.94671,34.64872],[135.94611,34.64616],[135.94467,34.64474],[135.9409,34.64319],[135.93977,34.64106],[135.9419,34.63851],[135.945,34.63768],[135.94776,34.63493],[135.95075,34.6335],[135.95467,34.62844],[135.95748,34.6272],[135.95813,34.6251],[135.96084,34.62277],[135.96078,34.62127],[135.95932,34.62039],[135.95948,34.61932],[135.95688,34.61754],[135.95848,34.61633],[135.95908,34.60772],[135.96043,34.60398],[135.96254,34.60192],[135.96292,34.59825],[135.9642,34.59566],[135.96336,34.58979],[135.96508,34.58682],[135.96942,34.58379],[135.96967,34.58163],[135.96811,34.57883],[135.95948,34.56955],[135.95837,34.55764],[135.95725,34.55506],[135.95494,34.55442],[135.95797,34.55334],[135.95802,34.55185],[135.96289,34.54543],[135.96318,34.54234],[135.96137,34.53889],[135.96394,34.53357],[135.9619,34.5319],[135.9587,34.53083],[135.96168,34.52939],[135.96643,34.52937],[135.96882,34.5275],[135.97374,34.52717],[135.9741,34.52451],[135.9776,34.52132],[135.98016,34.52006],[135.98311,34.51973],[135.98687,34.51674],[135.9883,34.51674],[135.99051,34.51309],[135.99341,34.51207],[135.99488,34.50837],[135.99275,34.50422],[135.99267,34.5016],[135.99461,34.50089],[135.99435,34.49862],[135.99726,34.49535],[136.0009,34.4947],[136.00913,34.49042],[136.01818,34.48816],[136.02454,34.48891],[136.02829,34.48818],[136.03541,34.48435]],[[135.96546,34.52944],[135.96471,34.53403],[135.96313,34.53577]],[[135.83474,34.68447],[135.80013,34.68432]]]}}]}