{"type":"FeatureCollection","features":[{"type":"Feature","properties":{"route_id":"204","route_number":204,"name":"国道204号","source":"OpenStreetMap contributors (ODbL)","osm_relations":[9364398,9523528,9523917,9526011,9561739,9561740,9561741,9561742,21367402,21367403]},"geometry":{"type":"MultiLineString","coordinates":[[[129.89159,33.38564],[129.88925,33.38995],[129.88333,33.39281],[129.88243,33.39526],[129.88416,33.39771],[129.88436,33.40228],[129.88598,33.40307],[129.89397,33.4029],[129.89767,33.40564],[129.89975,33.40577],[129.89856,33.40694],[129.90017,33.40616],[129.90129,33.40711],[129.90328,33.407],[129.90648,33.4132],[129.91022,33.41354],[129.91123,33.41477],[129.90985,33.41558],[129.91149,33.41723],[129.91466,33.41966],[129.91881,33.42112],[129.9174,33.42368],[129.91358,33.42373],[129.91073,33.42624],[129.90819,33.42719],[129.90318,33.42494],[129.89868,33.42557],[129.89363,33.42494],[129.88772,33.4264],[129.88512,33.42801],[129.878,33.42834],[129.87589,33.42478],[129.87256,33.42208],[129.86518,33.42062],[129.86012,33.42561],[129.8563,33.42583],[129.85468,33.42684],[129.8514,33.42699],[129.8475,33.42834],[129.84535,33.4281],[129.84423,33.42922],[129.84148,33.42955],[129.83825,33.43186],[129.83296,33.4332],[129.82975,33.43212],[129.83161,33.43363],[129.83515,33.43474],[129.83556,33.43762],[129.83797,33.43905],[129.83931,33.44269],[129.84094,33.44402],[129.842,33.44415],[129.84344,33.44276],[129.84568,33.44298],[129.84932,33.44394],[129.85166,33.44596],[129.86041,33.44721],[129.86029,33.44826],[129.85879,33.44931],[129.85984,33.45257],[129.85895,33.45369],[129.859,33.45529],[129.85666,33.45839],[129.85843,33.46022],[129.85937,33.46296],[129.85838,33.46478],[129.85895,33.4667],[129.85753,33.469],[129.85283,33.47093],[129.85086,33.47287],[129.85121,33.47422],[129.85385,33.47608],[129.85382,33.47705],[129.8499,33.47785],[129.84801,33.47989],[129.84818,33.4833],[129.84931,33.48614],[129.84766,33.48939],[129.8502,33.50217],[129.85125,33.5043],[129.84821,33.50571],[129.84664,33.51058],[129.8439,33.51211],[129.85269,33.51884],[129.8573,33.51875],[129.86043,33.51705],[129.86172,33.51726],[129.86334,33.51981],[129.86071,33.52358],[129.86361,33.52925],[129.86544,33.52956],[129.86672,33.52837],[129.86928,33.52787],[129.87238,33.52894],[129.87841,33.52841],[129.88948,33.52976],[129.89239,33.53306],[129.89072,33.53599],[129.89092,33.53702],[129.89344,33.53415],[129.89269,33.5358],[129.89397,33.53718],[129.89716,33.53519],[129.89825,33.53563],[129.89956,33.53499],[129.90266,33.53679],[129.90684,33.53714],[129.91686,33.53566],[129.91779,33.53436],[129.92079,33.53335],[129.92371,33.53125],[129.92883,33.53303],[129.93324,33.53058],[129.93403,33.53346],[129.93548,33.53362],[129.94796,33.52629],[129.95296,33.52586],[129.95681,33.52146],[129.95571,33.51945],[129.95717,33.51317],[129.95648,33.50708],[129.95328,33.50476],[129.95145,33.5002],[129.94961,33.49804],[129.94391,33.49343],[129.94371,33.49051],[129.94144,33.48929],[129.94003,33.48535],[129.93524,33.47951],[129.93413,33.47264],[129.93595,33.47015],[129.93702,33.46642],[129.94045,33.46344],[129.94013,33.45718],[129.942,33.45371],[129.94501,33.45197],[129.95348,33.44999],[129.95488,33.44674],[129.9617,33.44066],[129.97879,33.43548],[129.98273,33.42861]],[[129.98264,33.42847],[129.97887,33.4353],[129.96162,33.4406],[129.95495,33.44652],[129.95455,33.44824]],[[129.87285,33.52898],[129.8713,33.53122],[129.8683,33.53191],[129.86612,33.53134],[129.86544,33.52956]],[[129.89299,33.3841],[129.89447,33.38226],[129.8938,33.37924],[129.88601,33.37649],[129.88445,33.37664],[129.88498,33.37567],[129.88377,33.37312],[129.87927,33.36924],[129.87779,33.3695],[129.87766,33.3711],[129.8754,33.37236],[129.8684,33.37279],[129.86398,33.3761],[129.86323,33.37582],[129.86348,33.37429],[129.86246,33.37331],[129.85983,33.37329],[129.85945,33.37003],[129.85839,33.3689],[129.85874,33.36682],[129.85775,33.36251],[129.8568,33.34909],[129.85761,33.34694],[129.85213,33.34277],[129.85062,33.34019],[129.85166,33.33794],[129.85149,33.33576],[129.85293,33.33395],[129.85276,33.33029],[129.84605,33.32461],[129.84255,33.32267],[129.84325,33.3195],[129.84225,33.31756],[129.84306,33.31416],[129.84486,33.31193],[129.84574,33.30923],[129.84773,33.30796],[129.84955,33.30511],[129.85162,33.30403],[129.85123,33.3017],[129.85402,33.29688],[129.85395,33.29377],[129.85932,33.28962],[129.86284,33.28824],[129.8639,33.28522],[129.87011,33.28079],[129.86879,33.27521],[129.86834,33.27073],[129.86893,33.26936],[129.86356,33.26401],[129.86137,33.26319],[129.85917,33.26332],[129.85707,33.26891],[129.85575,33.27033],[129.85184,33.27279],[129.84236,33.28172],[129.83703,33.28518],[129.83059,33.29391],[129.82911,33.29451],[129.81798,33.29471],[129.81612,33.29588],[129.81558,33.29767],[129.81628,33.30061],[129.81212,33.30841],[129.81067,33.31734],[129.807,33.32103],[129.80785,33.3259],[129.8071,33.32691],[129.80272,33.32988],[129.80179,33.33166],[129.7925,33.33544],[129.78926,33.34031],[129.78997,33.34202],[129.7879,33.3435],[129.78763,33.34511],[129.78593,33.34623],[129.78232,33.34578],[129.7807,33.34795],[129.77997,33.35104],[129.77732,33.35034],[129.77488,33.35117],[129.7721,33.35403],[129.77014,33.35465],[129.7685,33.35437],[129.76703,33.35186],[129.76388,33.35319],[129.76052,33.36007],[129.75341,33.36545],[129.74971,33.36628],[129.74385,33.36607],[129.73876,33.3632],[129.73914,33.36128],[129.73793,33.35829],[129.73295,33.35656],[129.73219,33.35506],[129.72599,33.34967],[129.72027,33.34693],[129.71259,33.34608],[129.70979,33.34305],[129.70474,33.34252],[129.70324,33.34325],[129.70262,33.34608],[129.6979,33.35034],[129.68916,33.35086],[129.68547,33.34711],[129.67962,33.34744],[129.67621,33.35115],[129.67496,33.35563],[129.67339,33.35671],[129.67219,33.35939],[129.66795,33.36229],[129.66722,33.36514],[129.6581,33.36713],[129.65293,33.36633],[129.64274,33.36251],[129.64086,33.36116],[129.63856,33.35669],[129.63289,33.35385],[129.62963,33.35635],[129.62864,33.35618],[129.62753,33.35414],[129.6261,33.35411],[129.62339,33.35631],[129.62292,33.36023],[129.61915,33.36246],[129.61596,33.36178],[129.61177,33.35933],[129.6114,33.3568],[129.60994,33.35464],[129.60325,33.35432],[129.60115,33.35338],[129.59649,33.35601],[129.58791,33.35917],[129.58707,33.36117],[129.58252,33.36447],[129.58142,33.36456],[129.57801,33.36208],[129.57661,33.35942],[129.57685,33.35784],[129.58039,33.35669],[129.58333,33.3544],[129.58717,33.34859],[129.58741,33.34707],[129.58976,33.34523],[129.58988,33.34198],[129.59643,33.33432],[129.59995,33.32212],[129.60374,33.3162],[129.60952,33.31695],[129.61135,33.31985],[129.60926,33.32109],[129.60933,33.32235],[129.6126,33.32207],[129.61505,33.32345],[129.61509,33.32102],[129.61357,33.31842],[129.61335,33.3155],[129.61627,33.31131],[129.62783,33.3098],[129.63117,33.3036],[129.63618,33.30162],[129.63739,33.29774],[129.64356,33.29413],[129.64679,33.29129],[129.65183,33.28909],[129.65485,33.28594],[129.65753,33.28453],[129.6633,33.284],[129.6758,33.28475],[129.68794,33.27875],[129.68923,33.27474],[129.6878,33.2722],[129.68755,33.2694],[129.68221,33.26711],[129.67167,33.26553],[129.66672,33.26269],[129.65338,33.24748],[129.65169,33.24457],[129.65239,33.24245],[129.65007,33.23293],[129.65104,33.22788],[129.65471,33.2242],[129.6555,33.21938],[129.65876,33.2164],[129.65912,33.2126],[129.66929,33.20931],[129.67572,33.20524],[129.68742,33.20636],[129.69837,33.21088],[129.70153,33.21149],[129.70945,33.21063],[129.71509,33.20838],[129.72031,33.20764],[129.72128,33.20623],[129.72077,33.20185],[129.72262,33.19714],[129.71858,33.19139],[129.71807,33.18774],[129.71865,33.18631],[129.7159,33.18012]],[[129.83121,33.29317],[129.83721,33.28514],[129.84241,33.28179],[129.852,33.27276],[129.85678,33.26949],[129.85929,33.26336],[129.86307,33.26378],[129.86888,33.26943]],[[129.71355,33.34773],[129.72252,33.34841],[129.70571,33.34644],[129.70134,33.34749]],[[129.69425,33.20912],[129.69699,33.21028]],[[129.87011,33.28079],[129.87147,33.28372],[129.87136,33.28551],[129.86058,33.29785]],[[129.95226,33.45047],[129.9446,33.45199],[129.94139,33.45416],[129.94,33.4575],[129.94039,33.46352]],[[129.94391,33.49343],[129.94246,33.49271],[129.93853,33.48775],[129.93598,33.48332],[129.93415,33.4737],[129.93513,33.47125]],[[129.93596,33.48074],[129.93503,33.47821]],[[129.71576,33.18011],[129.71815,33.18439]],[[129.9159,33.424],[129.91682,33.42463],[129.91691,33.42314],[129.91819,33.42244]]]}}]}