{"type":"FeatureCollection","features":[{"type":"Feature","properties":{"route_id":"310","route_number":310,"name":"国道310号","source":"OpenStreetMap contributors (ODbL)","osm_relations":[8770279]},"geometry":{"type":"MultiLineString","coordinates":[[[135.48372,34.56916],[135.48635,34.56773],[135.48874,34.56787],[135.49067,34.56656],[135.48899,34.56763],[135.486,34.56772],[135.47598,34.57317],[135.48372,34.56916]],[[135.49067,34.56656],[135.49316,34.56312],[135.4955,34.55666],[135.50171,34.55404],[135.50943,34.54726],[135.51732,34.53534],[135.52328,34.52934],[135.52713,34.52206],[135.53091,34.52043],[135.54087,34.51374],[135.54607,34.50269],[135.54844,34.49366],[135.55557,34.48239],[135.56344,34.47367],[135.56825,34.46122],[135.56988,34.45179],[135.57231,34.45097],[135.57366,34.45303],[135.57438,34.45294],[135.57414,34.45137],[135.5762,34.44809],[135.58066,34.44407],[135.58716,34.44204],[135.58823,34.43827],[135.59392,34.43841],[135.59629,34.43776],[135.59782,34.43599],[135.60084,34.43601],[135.60142,34.43446],[135.60427,34.43362],[135.6064,34.43161],[135.60657,34.43039],[135.6079,34.42978],[135.61075,34.425],[135.61107,34.42316],[135.61509,34.42073],[135.61493,34.41921],[135.61714,34.41898],[135.61786,34.41774],[135.62377,34.4152],[135.62681,34.41303],[135.62929,34.41318],[135.62918,34.40989],[135.63043,34.40765],[135.62917,34.40521],[135.62933,34.40373],[135.63025,34.40124],[135.63146,34.40069],[135.63147,34.39884],[135.63442,34.39566],[135.6396,34.39308],[135.64446,34.39182],[135.64636,34.38927],[135.64628,34.39184],[135.6466,34.39025],[135.64816,34.38887],[135.65138,34.3889],[135.65094,34.38766],[135.65348,34.38739],[135.65713,34.38569],[135.65939,34.38638],[135.66038,34.38569],[135.66129,34.38731],[135.6627,34.38493],[135.66373,34.38535],[135.66505,34.38462],[135.6664,34.38627],[135.66842,34.38398],[135.66946,34.38381],[135.66961,34.38644],[135.6738,34.38528],[135.67263,34.38755],[135.67438,34.3859],[135.67474,34.38424],[135.67234,34.38144],[135.67533,34.37997],[135.67618,34.37566],[135.67418,34.37347],[135.67648,34.37426],[135.67759,34.37363],[135.67841,34.37251],[135.67782,34.37028],[135.67916,34.37171],[135.67924,34.36703],[135.68105,34.3612],[135.69156,34.35504],[135.6953,34.35166]]]}}]}