{"type":"FeatureCollection","features":[{"type":"Feature","properties":{"route_id":"362","route_number":362,"name":"国道362号","source":"OpenStreetMap contributors (ODbL)","osm_relations":[3515480,3518586]},"geometry":{"type":"MultiLineString","coordinates":[[[137.72847,34.82485],[137.72634,34.82488],[137.72425,34.8272],[137.72738,34.82718],[137.73176,34.82525],[137.73773,34.82568],[137.74053,34.82402],[137.75505,34.82094],[137.75761,34.82394],[137.76047,34.82271],[137.76126,34.82464],[137.76347,34.82624],[137.77177,34.82734],[137.7897,34.84116],[137.79374,34.84312],[137.79828,34.84356],[137.80712,34.84966],[137.80512,34.85306],[137.80683,34.85673],[137.80774,34.85842],[137.8123,34.86159],[137.81446,34.86109],[137.81603,34.8647],[137.81693,34.87013],[137.82079,34.87341],[137.82474,34.87398],[137.82819,34.8757],[137.83136,34.88221],[137.83407,34.88344],[137.83558,34.88835],[137.83384,34.89002],[137.83399,34.89192],[137.83704,34.8936],[137.83962,34.89338],[137.8408,34.89422],[137.84332,34.8934],[137.84486,34.89654],[137.84836,34.89845],[137.85015,34.89811],[137.85201,34.89621],[137.85849,34.89467],[137.86072,34.89656],[137.86491,34.89697],[137.86576,34.89996],[137.86779,34.90049],[137.86933,34.9032],[137.87264,34.9064],[137.87242,34.90905],[137.87345,34.91098],[137.8788,34.9147],[137.87917,34.92545],[137.88043,34.92823],[137.87974,34.93285],[137.88157,34.93499],[137.87958,34.93804],[137.88019,34.94145],[137.87914,34.9432],[137.88308,34.94431],[137.88405,34.95214],[137.88657,34.95374],[137.88898,34.95736],[137.89336,34.95848],[137.89839,34.95813],[137.90134,34.9597],[137.90227,34.96128],[137.90227,34.96284],[137.90018,34.96648],[137.90151,34.97233],[137.89998,34.97372],[137.89762,34.97422],[137.89668,34.97548],[137.89926,34.97852],[137.89859,34.98197],[137.89734,34.98273],[137.89233,34.9826],[137.89064,34.98496],[137.89056,34.98818],[137.89178,34.99244],[137.89501,34.99437],[137.8973,34.99756],[137.90087,34.99686],[137.90803,35.00037],[137.91027,35.0078],[137.91343,35.00953],[137.91346,35.01317],[137.9199,35.01269],[137.92324,35.01489],[137.92474,35.01772],[137.92713,35.01927],[137.92774,35.02064],[137.9326,35.01995],[137.93764,35.02206],[137.93992,35.01918],[137.94387,35.02173],[137.94488,35.02374],[137.94765,35.02317],[137.9497,35.02507],[137.95391,35.02322],[137.95774,35.02479],[137.95959,35.02225],[137.96078,35.02347],[137.96109,35.02713],[137.96255,35.02634],[137.96496,35.02854],[137.96957,35.0289],[137.97223,35.03155],[137.97253,35.03011],[137.97474,35.02784],[137.97759,35.02763],[137.97922,35.02933],[137.979,35.03186],[137.9797,35.0326],[137.98154,35.03258],[137.98284,35.03151],[137.98716,35.03143],[137.98766,35.03235],[137.98547,35.03367],[137.98588,35.03415],[137.99064,35.03343],[137.99146,35.03656],[137.99317,35.03695],[137.99207,35.03857],[137.99272,35.03908],[137.99711,35.03649],[137.9972,35.035],[137.99962,35.03284],[138.00013,35.03569],[138.00133,35.03653],[138.00114,35.03809],[138.00549,35.0404],[138.00608,35.04139],[138.00934,35.04198],[138.01007,35.04277],[138.00958,35.04402],[138.01028,35.04618],[138.01164,35.04721],[138.01437,35.04557],[138.01792,35.04652],[138.01722,35.04536],[138.01931,35.04271],[138.02209,35.0416],[138.02345,35.03866],[138.02887,35.03792],[138.02818,35.03576],[138.03032,35.03416],[138.02817,35.03163],[138.02892,35.03038],[138.02737,35.02701],[138.03022,35.02738],[138.03311,35.026],[138.03357,35.02951],[138.03943,35.028],[138.04061,35.03051],[138.04248,35.02897],[138.04417,35.02506],[138.04624,35.02729],[138.04695,35.02691],[138.0481,35.02879],[138.04894,35.02605],[138.04802,35.02506],[138.04849,35.02221],[138.05003,35.02187],[138.05262,35.02282],[138.05387,35.02129],[138.05294,35.02126],[138.05234,35.01998],[138.05325,35.01873],[138.05435,35.0191],[138.05518,35.01827],[138.05512,35.01543],[138.0567,35.01664],[138.05852,35.01683],[138.05888,35.01555],[138.06185,35.01736],[138.06367,35.01693],[138.06387,35.01875],[138.06518,35.01714],[138.06636,35.01809],[138.06684,35.01741],[138.06826,35.01818],[138.06988,35.01792],[138.07121,35.01937],[138.07253,35.01833],[138.07456,35.01886],[138.07724,35.01798],[138.07734,35.01871],[138.07824,35.01865],[138.07858,35.01744],[138.08169,35.01879],[138.08261,35.02078],[138.08151,35.02203],[138.08137,35.02398],[138.08242,35.02358],[138.08365,35.02476],[138.08354,35.02587],[138.08679,35.03096],[138.08641,35.03222],[138.08258,35.03403],[138.08175,35.03673],[138.08238,35.04004],[138.08148,35.0404],[138.08321,35.04409],[138.08934,35.05044],[138.09036,35.0525],[138.08766,35.05674],[138.08808,35.05929],[138.0907,35.06105],[138.10069,35.06293],[138.10584,35.06748],[138.10753,35.0708],[138.11039,35.07329],[138.10992,35.07612],[138.10534,35.07726],[138.10204,35.08163],[138.10659,35.08685],[138.11052,35.08882],[138.12238,35.09115],[138.12569,35.09099],[138.12773,35.09315],[138.12735,35.09888],[138.12804,35.10011],[138.13333,35.10214],[138.13778,35.10134],[138.1394,35.104],[138.14223,35.10423],[138.14513,35.10909],[138.14662,35.1083],[138.14925,35.10836],[138.15222,35.10615],[138.15415,35.10275],[138.15596,35.10245],[138.15933,35.09899],[138.1615,35.09884],[138.16404,35.10003],[138.1708,35.09825],[138.16965,35.09964],[138.16707,35.10058],[138.17084,35.10016],[138.17475,35.09695],[138.17359,35.09517],[138.17481,35.09348],[138.18205,35.09461],[138.18626,35.09081],[138.18675,35.08915],[138.18771,35.0894],[138.18729,35.09103],[138.18848,35.09265],[138.19144,35.09048],[138.19517,35.08934],[138.19613,35.08778],[138.19753,35.08778],[138.19741,35.08671],[138.19856,35.08657],[138.19958,35.0853],[138.19942,35.08186],[138.20019,35.08147],[138.19959,35.08051],[138.20333,35.07844],[138.20486,35.07451],[138.20753,35.0728],[138.20841,35.0699],[138.21239,35.06751],[138.20947,35.06749],[138.21092,35.06595],[138.20883,35.06637],[138.20902,35.06547],[138.21131,35.06476],[138.21134,35.063],[138.21068,35.0617],[138.21048,35.06273],[138.20981,35.06194],[138.20909,35.05948],[138.20867,35.06026],[138.20837,35.05913],[138.20795,35.06032],[138.20781,35.05887],[138.20956,35.05836],[138.2098,35.05738],[138.21238,35.05582],[138.2154,35.05241],[138.21722,35.05228],[138.21901,35.05027],[138.22334,35.04879],[138.22336,35.04746],[138.22485,35.04586],[138.22813,35.04516],[138.22943,35.0437],[138.23001,35.04085],[138.22877,35.03924],[138.23187,35.03903],[138.2337,35.03615],[138.236,35.03594],[138.2383,35.03301],[138.24165,35.0309],[138.24466,35.0317],[138.24761,35.03399],[138.25444,35.03412],[138.25656,35.03336],[138.25682,35.03068],[138.25495,35.02889],[138.25413,35.02673],[138.25657,35.0245],[138.25612,35.02269],[138.25764,35.02057],[138.2675,35.01761],[138.26887,35.01544],[138.27283,35.01268],[138.28003,35.0097],[138.28332,35.00564],[138.28603,35.00386],[138.28741,34.99964],[138.29031,34.99505],[138.29588,34.99112],[138.3,34.99029],[138.30916,34.98557],[138.31308,34.98561],[138.31699,34.98305],[138.32785,34.98428],[138.33352,34.98373],[138.34973,34.97735],[138.36153,34.97593],[138.36847,34.97731],[138.38472,34.97056]],[[137.4038,34.81906],[137.41489,34.81786],[137.41643,34.81667],[137.42186,34.80865],[137.42789,34.80836],[137.43437,34.80594],[137.45315,34.80504],[137.46596,34.80185],[137.47893,34.80075],[137.48286,34.79886],[137.50101,34.79652],[137.50274,34.79724],[137.50396,34.79906],[137.50838,34.80113],[137.50987,34.80314],[137.51899,34.80651],[137.52674,34.80407],[137.53566,34.80487],[137.5478,34.80449],[137.55668,34.80207],[137.56183,34.79925],[137.56284,34.79723],[137.56581,34.79643],[137.56941,34.79705],[137.59118,34.78827],[137.59894,34.78951],[137.60585,34.78803],[137.60778,34.78908],[137.61037,34.78833],[137.61548,34.79332],[137.61726,34.79294],[137.61893,34.79358],[137.62034,34.79521],[137.61998,34.79767],[137.61873,34.79887],[137.62031,34.80153],[137.62461,34.80221],[137.62767,34.80069],[137.6298,34.80071],[137.6327,34.80191],[137.63243,34.8045],[137.6343,34.80547],[137.64434,34.80747],[137.64688,34.80912],[137.65173,34.80957],[137.65523,34.80866],[137.6567,34.81257],[137.6654,34.81236],[137.66746,34.81455],[137.67973,34.81789],[137.69433,34.81531],[137.69924,34.81543],[137.7024,34.81687],[137.7054,34.81971],[137.71332,34.82155],[137.71466,34.82503],[137.71638,34.82656],[137.72228,34.82899],[137.72425,34.8272]],[[138.34843,34.97776],[138.36361,34.97616]],[[137.40572,34.81887],[137.40371,34.81897]]]}}]}