{"type":"FeatureCollection","features":[{"type":"Feature","properties":{"route_id":"45","route_number":45,"name":"国道45号","source":"OpenStreetMap contributors (ODbL)","osm_relations":[2887904,2888100,2888101,2888105,2888110,9103309,9103312,9103313,9103314,9103315,9103316,9103317,9103318,9103319,9103320,9103321,9103322,9103323]},"geometry":{"type":"MultiLineString","coordinates":[[[141.50039,40.51201],[141.50942,40.50821],[141.52689,40.50707],[141.53671,40.50411],[141.54107,40.50035],[141.54278,40.49422],[141.54473,40.49123],[141.55223,40.48493],[141.55663,40.48342],[141.55227,40.48478],[141.54452,40.49129],[141.54268,40.49421],[141.54109,40.50007],[141.53713,40.50377],[141.52857,40.50668],[141.51157,40.5077],[141.50329,40.51031],[141.50074,40.51172],[141.4973,40.51514],[141.49656,40.51693],[141.49687,40.51979],[141.48063,40.5219],[141.46559,40.52786],[141.45676,40.53578],[141.43882,40.54865],[141.43642,40.55226],[141.43466,40.56094],[141.43762,40.5709],[141.43941,40.5708],[141.44081,40.57287],[141.44027,40.57812],[141.43727,40.58349],[141.43449,40.58619],[141.43032,40.59404],[141.43045,40.60018],[141.42288,40.59839],[141.40181,40.60432],[141.38199,40.60411],[141.36785,40.60739],[141.36242,40.60783],[141.35984,40.60732],[141.3558,40.60424],[141.34647,40.60241],[141.33739,40.60415],[141.32961,40.60716],[141.3104,40.6072],[141.2926,40.60528],[141.28308,40.6095],[141.26056,40.61239],[141.26101,40.61654],[141.25972,40.61953],[141.24359,40.63544],[141.23967,40.63799],[141.23454,40.63912],[141.22311,40.63888],[141.19875,40.6448],[141.19183,40.65878],[141.18758,40.66369],[141.18329,40.67101],[141.17719,40.67448],[141.17149,40.67973],[141.16879,40.69035],[141.16948,40.69437],[141.16902,40.69678],[141.16261,40.70398],[141.1605,40.70919],[141.15675,40.71444],[141.15693,40.71809],[141.16181,40.72919],[141.16254,40.7356],[141.16168,40.73741],[141.15795,40.74042],[141.14323,40.76675],[141.14477,40.77181],[141.14825,40.79805],[141.13801,40.80234],[141.13363,40.8068],[141.12669,40.81205],[141.12472,40.81465],[141.1221,40.82139],[141.12206,40.82358],[141.1275,40.82928],[141.12946,40.83399],[141.1269,40.84007],[141.12614,40.84658],[141.12103,40.85212],[141.11447,40.85536],[141.113,40.86209],[141.10977,40.8665],[141.09452,40.87465],[141.08272,40.88578],[141.07863,40.89559],[141.07002,40.90351],[141.05682,40.90959],[141.0513,40.91032],[141.04628,40.91302],[141.03809,40.91511],[141.02025,40.92577],[141.01446,40.92652],[140.99275,40.93293],[140.98765,40.93239],[140.98217,40.93067],[140.97717,40.92644],[140.9746,40.92527],[140.962,40.92535],[140.95468,40.92272],[140.9461,40.92164],[140.93882,40.91844],[140.91805,40.91719],[140.91056,40.91576],[140.90641,40.91711],[140.88831,40.92006],[140.87335,40.9176],[140.87018,40.91492],[140.86779,40.90709],[140.86102,40.90194],[140.86023,40.89723],[140.86105,40.8915],[140.86034,40.8888],[140.85693,40.88599],[140.85215,40.88475],[140.85048,40.8828],[140.84984,40.87819],[140.85156,40.87509],[140.85121,40.87247],[140.84636,40.86672],[140.84476,40.86192],[140.83913,40.85438],[140.83709,40.84801],[140.83437,40.84523],[140.82717,40.84154],[140.81795,40.8311],[140.8151,40.82979],[140.80005,40.82658],[140.78619,40.82848],[140.76514,40.82461],[140.74531,40.8229],[140.74133,40.82349]],[[141.78294,40.22344],[141.78369,40.222],[141.78162,40.22098],[141.78371,40.21854],[141.78252,40.22062],[141.78384,40.22215],[141.78294,40.22344],[141.78519,40.22542],[141.78536,40.2269],[141.78237,40.23003],[141.78048,40.23084],[141.77894,40.23405],[141.78327,40.23832],[141.78313,40.2415],[141.7881,40.24394],[141.7879,40.2448],[141.78404,40.24732],[141.78391,40.24941],[141.7853,40.25185],[141.79143,40.25757],[141.79121,40.26372],[141.79665,40.27039],[141.79369,40.27588],[141.78645,40.28208],[141.78673,40.28398],[141.78945,40.28757],[141.78936,40.29024],[141.7824,40.29646],[141.77687,40.29855],[141.77202,40.3033],[141.7706,40.30608],[141.77082,40.31122],[141.76859,40.3147],[141.76578,40.31655],[141.76312,40.32068],[141.7639,40.32409],[141.76311,40.33057],[141.76453,40.33186],[141.76786,40.33248],[141.76896,40.3337],[141.76712,40.33857],[141.76782,40.34267],[141.75863,40.34893],[141.75397,40.35359],[141.75014,40.36027],[141.74426,40.36477],[141.73271,40.38295],[141.72332,40.38906],[141.7173,40.39442],[141.71519,40.40038],[141.71003,40.41068],[141.70102,40.41737],[141.69743,40.42481],[141.69218,40.42838],[141.6857,40.43665],[141.67822,40.44217],[141.65784,40.44959],[141.64752,40.4482],[141.64022,40.44561],[141.63827,40.44565],[141.62884,40.45082],[141.62077,40.45182],[141.60963,40.45641],[141.59876,40.46505],[141.5796,40.47439],[141.57321,40.47836],[141.56583,40.48143],[141.55663,40.48342]],[[140.8714,38.26622],[140.87575,38.26714],[140.88426,38.26497],[140.89393,38.26447],[140.89807,38.26293],[140.91206,38.26748],[140.92285,38.2695],[140.94082,38.26862],[140.95564,38.27071],[140.95888,38.27184],[140.96473,38.27131],[140.98429,38.2798],[140.98995,38.28154],[140.99385,38.28398],[141.00286,38.28521],[141.00728,38.28759],[141.01658,38.30225],[141.01652,38.30461],[141.0179,38.30744],[141.0278,38.31606],[141.02799,38.31813],[141.02026,38.31672],[141.02123,38.32046],[141.02547,38.32407],[141.02951,38.3238],[141.03642,38.32626],[141.0385,38.33187],[141.03627,38.33918],[141.0376,38.34367],[141.04141,38.34789],[141.04131,38.34981],[141.04345,38.35139],[141.05621,38.3512],[141.06145,38.35467],[141.06242,38.35908],[141.06076,38.36168],[141.05943,38.36791],[141.06093,38.37005],[141.062,38.36967],[141.06586,38.37124],[141.06817,38.37564],[141.06744,38.38887],[141.06811,38.3912],[141.06709,38.39397],[141.06794,38.39933],[141.06955,38.40017],[141.06799,38.3994]],[[141.9554,39.47785],[141.9565,39.47605],[141.96038,39.47615],[141.96557,39.4777],[141.96659,39.47853],[141.96687,39.48108],[141.96934,39.48342],[141.96783,39.48678],[141.96184,39.49057],[141.96338,39.4946],[141.96258,39.49683],[141.96343,39.49852],[141.96319,39.50129],[141.96193,39.50321],[141.96291,39.50602],[141.95664,39.5092],[141.95211,39.50984],[141.95075,39.51275],[141.94577,39.51709],[141.93807,39.52126],[141.93235,39.5272],[141.92728,39.53005],[141.92685,39.53107],[141.92854,39.53485],[141.92797,39.54021],[141.93915,39.54758],[141.94096,39.56238],[141.93965,39.56434],[141.93382,39.5678],[141.93292,39.57024],[141.93939,39.58192],[141.94447,39.58552],[141.94617,39.58811],[141.94625,39.58945],[141.94412,39.59397],[141.9451,39.59928],[141.94781,39.60187],[141.95489,39.60514],[141.96246,39.61189],[141.96105,39.61697],[141.96273,39.6264],[141.96468,39.62822],[141.9628,39.6345],[141.96061,39.63771],[141.95726,39.63843],[141.95565,39.64004],[141.95686,39.64225],[141.96275,39.64059],[141.96508,39.64725],[141.96286,39.64917],[141.95915,39.65062],[141.95686,39.65271],[141.9561,39.65493],[141.9516,39.65605],[141.94916,39.65928],[141.9504,39.66494],[141.95433,39.66803],[141.95811,39.66951],[141.95977,39.67272],[141.95917,39.67434],[141.95675,39.67625],[141.95632,39.67865],[141.9522,39.68411],[141.95013,39.69365],[141.95355,39.70134],[141.95873,39.70462],[141.9613,39.70522],[141.96249,39.70737],[141.96722,39.71084],[141.96867,39.71446],[141.9677,39.71713],[141.96786,39.72618],[141.96478,39.72718],[141.96417,39.72852],[141.96642,39.73313],[141.97072,39.73642],[141.97193,39.74031],[141.97463,39.74363],[141.97409,39.74443],[141.97175,39.74472],[141.96999,39.74724],[141.9681,39.747],[141.96825,39.74868],[141.96472,39.75309],[141.96629,39.76431],[141.96572,39.76551],[141.96208,39.76762],[141.96255,39.77113],[141.96098,39.77367],[141.9607,39.77685],[141.95845,39.77969],[141.95851,39.78115],[141.96121,39.78635],[141.95791,39.794],[141.95946,39.79869],[141.96419,39.80007],[141.96671,39.80291],[141.97072,39.80306],[141.97265,39.80528],[141.97322,39.80726],[141.97497,39.80859],[141.97346,39.8095],[141.96908,39.80739],[141.96481,39.80906],[141.96145,39.80906],[141.96052,39.80852],[141.9604,39.80695],[141.95916,39.80653],[141.95833,39.807],[141.95802,39.80877],[141.96094,39.8135],[141.96171,39.81881],[141.96104,39.82105],[141.96588,39.82475],[141.97214,39.82606],[141.97475,39.82988],[141.97844,39.83228],[141.9781,39.83694],[141.97693,39.83821],[141.96909,39.84046],[141.96726,39.84422],[141.96129,39.84812],[141.95797,39.84905],[141.9578,39.84706],[141.9559,39.84681],[141.95554,39.84552],[141.95314,39.84622],[141.95228,39.84784],[141.95253,39.84919],[141.94685,39.85494],[141.94255,39.85649],[141.93981,39.85942],[141.94138,39.8606],[141.94185,39.86267],[141.93965,39.86639],[141.93573,39.86674],[141.93379,39.8688],[141.93026,39.87617],[141.92495,39.87636],[141.92343,39.87762],[141.92177,39.87783],[141.9197,39.88044],[141.9164,39.88179],[141.91593,39.88543],[141.91397,39.89006],[141.91434,39.89201],[141.9124,39.89388],[141.90975,39.90207],[141.90551,39.90534],[141.90238,39.91079],[141.90256,39.91229],[141.90521,39.91469],[141.90248,39.91757],[141.90304,39.92023],[141.8967,39.92938],[141.89198,39.93091],[141.88937,39.93086],[141.88118,39.92745],[141.87848,39.92756],[141.87848,39.92579],[141.8775,39.92507],[141.87378,39.92554],[141.87167,39.92348],[141.86959,39.9232],[141.86359,39.92607],[141.86185,39.9303],[141.85792,39.93221],[141.85685,39.93392],[141.85528,39.93458],[141.85207,39.93436],[141.85216,39.93304],[141.85068,39.93438],[141.84716,39.93511],[141.84667,39.93399],[141.84538,39.93459],[141.84511,39.93629],[141.84057,39.94077],[141.84062,39.94273],[141.84254,39.94504],[141.84154,39.94873],[141.84236,39.95235],[141.84397,39.95442],[141.84688,39.95594],[141.84515,39.95962],[141.85063,39.96241],[141.85559,39.96322],[141.85637,39.96426],[141.85605,39.96737],[141.85921,39.96714],[141.86037,39.968],[141.86085,39.97272],[141.86297,39.9746],[141.86204,39.97541],[141.85892,39.97572],[141.85751,39.97692],[141.85689,39.97897],[141.85865,39.9817],[141.8639,39.98287],[141.86449,39.98515],[141.86342,39.98745],[141.86395,39.98831],[141.86734,39.98878],[141.86965,39.98825],[141.87298,39.99036],[141.87847,39.99152],[141.88342,39.99601],[141.8825,39.99842],[141.88242,40.00246],[141.8856,40.00801],[141.8836,40.00999],[141.88131,40.00958],[141.88069,40.01021],[141.88415,40.01261],[141.88461,40.01401],[141.88172,40.02049],[141.87936,40.02204],[141.87765,40.0249],[141.87603,40.02994],[141.86856,40.04006],[141.8687,40.04185],[141.87083,40.04429],[141.87008,40.04675],[141.86694,40.04938],[141.86218,40.04951],[141.85441,40.05508],[141.85065,40.05515],[141.84815,40.05987],[141.84568,40.06124],[141.84315,40.06458],[141.84112,40.06582],[141.83971,40.06853],[141.82589,40.07695],[141.82519,40.08487],[141.82654,40.08871],[141.82905,40.09099],[141.82935,40.09297],[141.82845,40.09505],[141.82592,40.09664],[141.82574,40.09947],[141.82361,40.10161],[141.82503,40.10629],[141.82258,40.11291],[141.81892,40.11559],[141.81393,40.11679],[141.77515,40.13467],[141.77313,40.14143],[141.77071,40.14307],[141.76583,40.14418],[141.76236,40.14942],[141.76238,40.15068],[141.76798,40.15726],[141.76922,40.16005],[141.77342,40.16552],[141.77634,40.16784],[141.77777,40.17219],[141.77903,40.18144],[141.78087,40.18284],[141.78586,40.18452],[141.789,40.18782],[141.78051,40.20027],[141.78144,40.2025],[141.78737,40.20533],[141.78874,40.20766],[141.78809,40.21357],[141.78371,40.21854]],[[141.78783,40.18693],[141.78767,40.1892],[141.78072,40.19972]],[[141.06955,38.40017],[141.07626,38.40146],[141.07907,38.40407],[141.08483,38.40615],[141.09263,38.40402],[141.10236,38.40655],[141.10773,38.41005],[141.11472,38.40916],[141.11813,38.40971],[141.12363,38.41135],[141.12759,38.4144],[141.13433,38.41673],[141.139,38.41544],[141.14493,38.4106],[141.14703,38.40591],[141.15357,38.40029],[141.15537,38.39566],[141.16344,38.39738],[141.17419,38.39667],[141.18963,38.40188],[141.19282,38.40556],[141.20796,38.41891],[141.22597,38.42491],[141.2348,38.42701],[141.23697,38.42907],[141.24403,38.43129],[141.26644,38.43056],[141.28453,38.43966],[141.28578,38.44154],[141.28572,38.44549],[141.28386,38.44893],[141.28384,38.45199],[141.28247,38.45629],[141.28275,38.45878],[141.28514,38.46436],[141.28369,38.47459],[141.28473,38.47773],[141.29151,38.48666],[141.29147,38.48966],[141.28902,38.49771],[141.29062,38.49936],[141.30007,38.50211],[141.30276,38.50606],[141.30302,38.50994],[141.31042,38.51621],[141.31042,38.51976],[141.31233,38.5231],[141.30894,38.53083],[141.30825,38.53499],[141.30383,38.54145],[141.30446,38.54893],[141.30699,38.55244],[141.30789,38.55535],[141.30475,38.5592],[141.30022,38.56164],[141.29952,38.56291],[141.30125,38.56975],[141.30077,38.57374],[141.30201,38.57988],[141.30431,38.58363],[141.30492,38.59411],[141.30234,38.60313],[141.30512,38.60789],[141.31309,38.61209],[141.31644,38.61272],[141.32089,38.61635],[141.32383,38.61672],[141.32857,38.62192],[141.33802,38.62561],[141.34976,38.62828],[141.35139,38.63094],[141.3602,38.63443],[141.36352,38.63661],[141.36667,38.63739],[141.37349,38.64189],[141.38868,38.64228],[141.39927,38.64655],[141.40589,38.64606],[141.41053,38.64445],[141.41592,38.64526],[141.42211,38.64769],[141.4296,38.64672],[141.44206,38.6483],[141.44539,38.65405],[141.44878,38.65759],[141.44544,38.66258],[141.44452,38.66568],[141.4413,38.66756],[141.44075,38.67051],[141.44419,38.67547],[141.45154,38.67798],[141.45159,38.68269],[141.45266,38.68448],[141.4595,38.68913],[141.4622,38.689],[141.47284,38.69206],[141.47386,38.69311],[141.47389,38.69559],[141.47644,38.69741],[141.48395,38.69349],[141.49081,38.69164],[141.49162,38.69247],[141.49177,38.69585],[141.49384,38.69779],[141.49962,38.69776],[141.50219,38.69966],[141.50528,38.69904],[141.50757,38.70033],[141.51064,38.70801],[141.51041,38.71152],[141.5128,38.71201],[141.51731,38.7152],[141.52192,38.71707],[141.52955,38.7182],[141.5331,38.72239],[141.53846,38.72337],[141.5407,38.72465],[141.54106,38.7261],[141.53849,38.7292],[141.53883,38.7326],[141.53657,38.73356],[141.53346,38.73314],[141.53088,38.73578],[141.53135,38.7399],[141.52669,38.74105],[141.52696,38.74576],[141.52881,38.74964],[141.52817,38.75278],[141.52116,38.75852],[141.51517,38.76054],[141.5121,38.76073],[141.51008,38.7628],[141.50864,38.76666],[141.50929,38.77142],[141.50781,38.775],[141.50877,38.77732],[141.51235,38.77899],[141.51039,38.78271],[141.51047,38.7853],[141.51418,38.79072],[141.52345,38.79169],[141.52685,38.7929],[141.52914,38.79491],[141.53257,38.79553],[141.53608,38.79767],[141.5419,38.80314],[141.54579,38.80425],[141.55356,38.80826],[141.55872,38.81368],[141.57261,38.81443],[141.57339,38.81587],[141.57301,38.82128],[141.57693,38.82775],[141.57899,38.8377],[141.58133,38.84405],[141.58039,38.8614],[141.57807,38.87105],[141.57585,38.87342],[141.5689,38.87655],[141.56765,38.87849],[141.56752,38.8825],[141.56666,38.88448],[141.56492,38.88592],[141.55909,38.88827],[141.55395,38.89424],[141.54902,38.90387],[141.54756,38.90975],[141.54824,38.91295],[141.55171,38.91586],[141.55725,38.91708],[141.57514,38.92014],[141.58598,38.92099],[141.58994,38.9206],[141.59385,38.92453],[141.5976,38.92641],[141.60286,38.92597],[141.61523,38.93088],[141.61646,38.93181],[141.61585,38.93377],[141.6196,38.92987],[141.62375,38.9282],[141.62914,38.92994],[141.63337,38.93323],[141.63662,38.93324],[141.63929,38.93561],[141.63809,38.93805],[141.63998,38.94032],[141.63771,38.94194],[141.63363,38.9482],[141.6311,38.94894],[141.62912,38.951],[141.62966,38.95388],[141.63129,38.95653],[141.63166,38.96429],[141.63412,38.96673],[141.63135,38.96909],[141.63067,38.97385],[141.62844,38.97603],[141.625,38.97711],[141.62187,38.98004],[141.62094,38.98478],[141.61941,38.98596],[141.61621,38.9867],[141.61422,38.99058],[141.61456,38.99191],[141.6173,38.99319],[141.62186,38.99706],[141.62178,38.99832],[141.61901,39.00158],[141.61875,39.00296],[141.62781,39.00867],[141.63247,39.00953],[141.64944,39.00852],[141.66091,39.015],[141.6671,39.01543],[141.6739,39.02103],[141.67362,39.02338],[141.67631,39.02376],[141.67727,39.02653],[141.67852,39.02725],[141.68015,39.02682],[141.68197,39.02813],[141.68454,39.02558],[141.69047,39.02651],[141.69021,39.02499],[141.69608,39.02413],[141.69643,39.02473],[141.69507,39.02552],[141.69624,39.02849],[141.70204,39.02802],[141.70489,39.02906],[141.71003,39.02856],[141.71257,39.03087],[141.71576,39.03202],[141.72185,39.0424],[141.72022,39.05089],[141.72124,39.05505],[141.71849,39.06064],[141.71695,39.06835],[141.71251,39.0744],[141.71258,39.07635],[141.70819,39.08355],[141.70619,39.09147],[141.70801,39.09901],[141.71196,39.1064],[141.71423,39.1087],[141.72007,39.11821],[141.72945,39.12077],[141.73518,39.12108],[141.74089,39.1239],[141.74704,39.12383],[141.75456,39.12536],[141.76313,39.12466],[141.7612,39.12577],[141.76327,39.12569],[141.76631,39.1269],[141.76611,39.12583],[141.76756,39.12487],[141.77756,39.1229],[141.78238,39.12307],[141.7831,39.12433],[141.7858,39.1229],[141.78942,39.12265],[141.7907,39.12388],[141.79321,39.12379],[141.79521,39.12472],[141.79828,39.12334],[141.79976,39.12061],[141.79957,39.11928],[141.80184,39.11688],[141.80322,39.11732],[141.80454,39.11536],[141.8057,39.11528],[141.80679,39.11583],[141.80755,39.11774],[141.80704,39.11914],[141.80916,39.12098],[141.80892,39.12331],[141.81168,39.12604],[141.81332,39.12493],[141.81459,39.12655],[141.81661,39.12709],[141.81819,39.12587],[141.81983,39.12698],[141.82267,39.12669],[141.82072,39.12799],[141.8217,39.1291],[141.82327,39.13454],[141.81891,39.13796],[141.81978,39.13842],[141.82214,39.13763],[141.82576,39.13882],[141.82662,39.13979],[141.82289,39.14116],[141.82246,39.14318],[141.82608,39.14599],[141.82891,39.14691],[141.83337,39.15212],[141.83646,39.15299],[141.84209,39.15747],[141.85301,39.16202],[141.85298,39.18463],[141.8494,39.18658],[141.84973,39.18948],[141.84615,39.18982],[141.84554,39.19087],[141.84647,39.19151],[141.85667,39.19118],[141.86106,39.19359],[141.86121,39.20094],[141.86446,39.20374],[141.86463,39.21063],[141.8661,39.21121],[141.86836,39.2093],[141.87162,39.20871],[141.87589,39.21303],[141.87579,39.21444],[141.87329,39.21649],[141.87306,39.21802],[141.87451,39.22084],[141.88418,39.23244],[141.88822,39.24342],[141.88739,39.24771],[141.88821,39.25212],[141.89012,39.25308],[141.89126,39.25487],[141.8944,39.25471],[141.89551,39.25586],[141.89589,39.25978],[141.89384,39.26313],[141.88463,39.26586],[141.88687,39.27167],[141.8863,39.27761],[141.88693,39.27981],[141.88254,39.29341],[141.88431,39.30094],[141.8894,39.30508],[141.89013,39.30699],[141.88974,39.30848],[141.88691,39.31143],[141.88564,39.31221],[141.88382,39.31195],[141.88474,39.31321],[141.88342,39.31765],[141.88348,39.3203],[141.88645,39.32605],[141.88506,39.3305],[141.89212,39.33634],[141.89362,39.33934],[141.89282,39.35597],[141.89476,39.35833],[141.90699,39.36671],[141.90885,39.36654],[141.91512,39.3627],[141.91792,39.36246],[141.92925,39.36646],[141.93427,39.36597],[141.94157,39.36902],[141.94299,39.37077],[141.94319,39.37258],[141.94054,39.37851],[141.93762,39.38183],[141.93821,39.38669],[141.94212,39.38915],[141.94604,39.39458],[141.95489,39.40251],[141.95679,39.4062],[141.96037,39.40888],[141.9633,39.41329],[141.96636,39.41547],[141.9719,39.42153],[141.97084,39.42502],[141.97262,39.42783],[141.97386,39.43552],[141.97151,39.44273],[141.96943,39.44595],[141.96262,39.44942],[141.96033,39.45439],[141.95632,39.45727],[141.95592,39.46022],[141.95245,39.46577],[141.95228,39.46774],[141.95392,39.47421],[141.9565,39.47605]],[[141.8863,39.27761],[141.88685,39.27937]],[[141.62469,39.03043],[141.63781,39.03154],[141.66903,39.02651],[141.6962,39.02648],[141.70558,39.0285],[141.70966,39.03093],[141.71249,39.03377]],[[141.43503,40.56255],[141.43506,40.55807],[141.43667,40.55189],[141.43814,40.54952],[141.45732,40.53546],[141.46477,40.52844],[141.4807,40.52198],[141.49699,40.51991],[141.49687,40.51593]],[[141.55068,38.91531],[141.5476,38.91129]],[[141.01637,38.30189],[141.008,38.2881],[141.00337,38.2853],[140.9941,38.28398],[140.98984,38.2814],[140.98417,38.27966],[140.9653,38.27136],[140.9586,38.27172],[140.95544,38.27058],[140.941,38.26856],[140.93502,38.26917]],[[141.58868,40.47445],[141.57529,40.4828],[141.5699,40.48438],[141.56361,40.48388],[141.55111,40.47951],[141.54322,40.48012],[141.55109,40.4796],[141.56446,40.48421],[141.57268,40.48389],[141.60212,40.46659],[141.60674,40.46526],[141.61511,40.46511],[141.61951,40.46397],[141.62815,40.45813],[141.64385,40.45003]],[[140.87605,38.26661],[140.87148,38.26608]],[[141.88373,39.29967],[141.88365,39.29732]],[[141.55658,40.48353],[141.56249,40.48228]],[[141.45764,40.46805],[141.46096,40.4687],[141.45762,40.46787]],[[141.51786,40.48013],[141.50594,40.47883],[141.51434,40.4795],[141.53152,40.48256],[141.53631,40.48213],[141.54322,40.48012]],[[141.9585,39.63815],[141.95563,39.63967],[141.95686,39.64225],[141.96267,39.64055]],[[140.74136,40.8236],[140.74532,40.82301],[140.76119,40.82428],[140.77299,40.82569],[140.78619,40.82856],[140.80012,40.82669],[140.81384,40.82962],[140.81906,40.83212],[140.82749,40.84191],[140.83558,40.84629]],[[141.60149,40.46696],[141.60412,40.46584]],[[141.58957,40.47391],[141.60021,40.46773]],[[141.50594,40.47883],[141.48684,40.47916],[141.48275,40.47771],[141.47382,40.4714],[141.46096,40.4687]],[[141.41536,40.6001],[141.42364,40.59846],[141.43045,40.60018]],[[141.96271,39.64066],[141.96282,39.6408]],[[141.19964,40.64438],[141.19819,40.64572]],[[140.86142,40.90259],[140.86036,40.89769],[140.86116,40.89229],[140.86075,40.88937],[140.85815,40.88655],[140.85401,40.88528]],[[141.66903,39.02651],[141.64946,39.02968]],[[141.64339,40.45026],[141.63722,40.45369]]]}}]}