{"type":"FeatureCollection","features":[{"type":"Feature","properties":{"route_id":"472","route_number":472,"name":"国道472号","source":"OpenStreetMap contributors (ODbL)","osm_relations":[3796341]},"geometry":{"type":"MultiLineString","coordinates":[[[137.05838,36.00424],[137.05636,36.00476],[137.05444,36.00671],[137.05211,36.00587],[137.0447,36.00667],[137.02593,36.01071],[137.02344,36.01719],[137.02116,36.0195],[137.02092,36.02193],[137.01832,36.0239],[137.01244,36.02443],[137.00904,36.0282],[137.00407,36.0295],[136.99372,36.02872],[136.98788,36.03482],[136.98506,36.03899],[136.98266,36.04595],[136.98527,36.04842],[136.98847,36.04904],[137.00617,36.0449],[137.0127,36.04432],[137.02204,36.05049],[137.02425,36.05325],[137.02787,36.05572],[137.02866,36.05758],[137.02775,36.06043],[137.02865,36.0618],[137.03591,36.06058],[137.04593,36.06214],[137.05022,36.06671],[137.05242,36.06789],[137.05533,36.07228],[137.06255,36.0756],[137.06678,36.07641],[137.0677,36.07754],[137.0671,36.08018],[137.06919,36.0829],[137.07025,36.08811],[137.07236,36.09077],[137.07077,36.09505],[137.07282,36.0987],[137.0739,36.10268],[137.07595,36.10575],[137.07635,36.10696],[137.07563,36.10898],[137.07723,36.11093],[137.07899,36.11541],[137.0786,36.1191],[137.0775,36.12047],[137.07655,36.12419],[137.07708,36.12962],[137.07585,36.13222],[137.07692,36.13571],[137.08032,36.1397],[137.08209,36.1399],[137.08848,36.13812],[137.09639,36.13968],[137.10029,36.13911],[137.10361,36.13979],[137.10785,36.13732],[137.11385,36.13871],[137.11696,36.14012],[137.12112,36.14361],[137.12438,36.14448],[137.12885,36.14893],[137.13349,36.14951],[137.13418,36.15312],[137.13568,36.15382],[137.13789,36.15233],[137.13625,36.14444],[137.14371,36.13922],[137.14601,36.13821],[137.14985,36.13821],[137.15745,36.13516],[137.17575,36.13274],[137.18488,36.12806],[137.18384,36.12828]],[[136.94825,35.74413],[136.95443,35.74674],[136.95955,35.74676],[136.96229,35.74786],[136.96506,35.75165],[136.9641,35.75331],[136.96947,35.75673],[136.97763,35.75994],[136.98636,35.76941],[136.99513,35.77596],[136.99872,35.78027],[137.00678,35.78378],[137.01198,35.79393],[137.01471,35.7973],[137.01609,35.8032],[137.01872,35.80672],[137.02017,35.81076],[137.02174,35.81218],[137.02411,35.82237],[137.02292,35.82704],[137.02322,35.83174],[137.02713,35.8366],[137.02574,35.84046],[137.02984,35.84863],[137.03311,35.85108],[137.03694,35.85551],[137.04306,35.85922],[137.04706,35.85819],[137.05037,35.85474],[137.05564,35.85492],[137.05997,35.8608],[137.0633,35.86335],[137.06442,35.86619],[137.06313,35.87069],[137.06475,35.87497],[137.06498,35.88086],[137.06901,35.88577],[137.06604,35.89411],[137.06236,35.89827],[137.06027,35.90261],[137.06155,35.91293],[137.06273,35.91492],[137.06268,35.92081],[137.06002,35.92269],[137.05958,35.92568],[137.05673,35.92725],[137.05978,35.92682],[137.0618,35.92497],[137.06506,35.92428],[137.07732,35.92835],[137.07915,35.92983],[137.07889,35.93161],[137.08176,35.9355],[137.08169,35.94267],[137.08336,35.94471],[137.08579,35.95174],[137.08453,35.95675],[137.08569,35.96058],[137.08346,35.96568],[137.08352,35.97],[137.08549,35.97459],[137.08541,35.97669],[137.08395,35.97889],[137.08443,35.98269],[137.08062,35.98639],[137.07019,35.98709],[137.06803,35.98827],[137.06169,35.9949],[137.06105,35.99932],[137.05892,35.99995],[137.05835,36.00219],[137.05752,36.00226],[137.05428,36.00701],[137.05322,36.00642],[137.04814,36.00729],[137.04613,36.0067],[137.04285,36.00694],[137.04334,36.00741],[137.04112,36.00699],[137.03848,36.00927],[137.03314,36.00953],[137.03049,36.01114],[137.029,36.01311],[137.02505,36.01359],[137.02447,36.01492]],[[137.0763,36.6909],[137.07713,36.69249],[137.07758,36.70059],[137.08212,36.7182],[137.08626,36.75462],[137.08903,36.76096],[137.08614,36.75463],[137.08202,36.71824],[137.07743,36.70031],[137.07702,36.69249],[137.07441,36.68622],[137.07633,36.68415],[137.076,36.67959],[137.07781,36.67707],[137.07766,36.67531],[137.08052,36.66835],[137.08067,36.66572],[137.08261,36.6634],[137.0828,36.65857],[137.08774,36.65179],[137.09378,36.6489],[137.09782,36.64934],[137.09761,36.64882],[137.10033,36.64817],[137.10255,36.64662],[137.10561,36.64618],[137.10922,36.64746],[137.11139,36.64696],[137.12219,36.65204],[137.12534,36.64095],[137.12637,36.62879],[137.13438,36.62788],[137.13487,36.62663],[137.14227,36.58809],[137.14067,36.58505],[137.14099,36.58269],[137.1379,36.57976],[137.13799,36.57872],[137.13485,36.57665],[137.12897,36.57464],[137.12762,36.57457],[137.12765,36.57541],[137.12613,36.5738],[137.12494,36.57111],[137.12693,36.56998],[137.12846,36.56095],[137.12717,36.55984],[137.12675,36.55773],[137.12515,36.55714],[137.12236,36.55779],[137.11958,36.55533],[137.11601,36.55415],[137.11573,36.55141],[137.11343,36.54742],[137.11253,36.54254],[137.10995,36.53954],[137.11016,36.53686],[137.10727,36.5332],[137.0984,36.52803],[137.09654,36.52801],[137.09098,36.53051],[137.08754,36.52945],[137.08742,36.52668],[137.08671,36.52599],[137.08561,36.5262],[137.08452,36.52777],[137.08307,36.52757],[137.08127,36.52593],[137.081,36.52255],[137.07743,36.51939],[137.07632,36.51969],[137.07476,36.51865],[137.07566,36.51762],[137.07506,36.51659],[137.07083,36.51552],[137.06939,36.51396],[137.06933,36.51208],[137.0654,36.51151],[137.06615,36.50996],[137.06431,36.50825],[137.06523,36.50754],[137.06451,36.5034],[137.06332,36.50214],[137.06425,36.50113],[137.06418,36.49849],[137.06248,36.49323],[137.06381,36.49082],[137.06369,36.48785],[137.0668,36.4859],[137.06665,36.48431],[137.0691,36.48313],[137.06971,36.48163],[137.07255,36.48168],[137.07538,36.48004],[137.08095,36.4799],[137.08528,36.47565],[137.08604,36.4663],[137.0838,36.46142],[137.08486,36.45184],[137.08339,36.44754],[137.08421,36.44356],[137.08388,36.44241],[137.08073,36.43974],[137.08242,36.43105],[137.08188,36.42768],[137.08382,36.42199],[137.08199,36.42009],[137.08228,36.41913],[137.08141,36.41824],[137.08028,36.41311],[137.0781,36.41052],[137.07616,36.4061],[137.07647,36.40542],[137.07397,36.40211],[137.07506,36.40092],[137.07399,36.39894],[137.0749,36.39659],[137.07756,36.39586],[137.08018,36.39057],[137.08204,36.38957],[137.08226,36.38803],[137.08349,36.38812],[137.08533,36.38368],[137.08274,36.37821],[137.07977,36.37635],[137.07918,36.37336],[137.07512,36.36631],[137.07384,36.36598],[137.07164,36.36396],[137.07078,36.362],[137.06839,36.36049],[137.068,36.35763],[137.06689,36.35615],[137.06449,36.35477],[137.06442,36.35552],[137.06396,36.35454],[137.06235,36.35394],[137.06416,36.35371],[137.06383,36.35116],[137.06484,36.35024],[137.06476,36.34754],[137.06531,36.34793],[137.06577,36.34699],[137.06764,36.34749],[137.07186,36.34558],[137.06942,36.34557],[137.0707,36.34464],[137.07277,36.34446],[137.07291,36.34523],[137.07463,36.34449],[137.07301,36.34371],[137.07359,36.34381],[137.07316,36.34347],[137.0756,36.33984],[137.07484,36.34044],[137.07606,36.33737],[137.07529,36.33769],[137.07464,36.33539],[137.07582,36.33314],[137.07528,36.33339],[137.07512,36.33136],[137.07802,36.32936],[137.08006,36.32434],[137.08095,36.32329],[137.08139,36.32407],[137.08239,36.32265],[137.08505,36.31404],[137.08861,36.31247],[137.08932,36.31345],[137.09043,36.31346],[137.08996,36.31385],[137.0909,36.3137],[137.09342,36.31192],[137.09389,36.30977],[137.09217,36.30618],[137.09703,36.3048],[137.10966,36.30466],[137.11281,36.30187],[137.11354,36.30243],[137.11476,36.30144],[137.11588,36.29857],[137.1156,36.29659],[137.11721,36.29521],[137.12237,36.29695],[137.12364,36.29814],[137.12886,36.29644],[137.13009,36.29422],[137.12866,36.291],[137.1285,36.28696],[137.13101,36.28218],[137.13787,36.27532],[137.13816,36.27174],[137.13747,36.26956],[137.13955,36.26356],[137.16187,36.25317],[137.16373,36.24786],[137.17069,36.24497],[137.18092,36.2305],[137.1873,36.22666],[137.19471,36.21956],[137.20387,36.21592],[137.21164,36.20912],[137.21487,36.20866],[137.22739,36.20393],[137.23393,36.19967],[137.23573,36.19754],[137.23631,36.19531],[137.23582,36.1929],[137.22543,36.1774],[137.2248,36.17314],[137.22598,36.1704],[137.22864,36.1679],[137.23555,36.1637],[137.2422,36.16193],[137.2438,36.16068],[137.24375,36.15698],[137.24519,36.15044],[137.24282,36.14226],[137.24471,36.13795],[137.23422,36.1366],[137.22802,36.13728],[137.22211,36.13667],[137.20881,36.13992],[137.20336,36.13875],[137.19864,36.13304],[137.19264,36.13167],[137.18488,36.12806]],[[137.2446,36.13794],[137.24275,36.14224],[137.2451,36.15044],[137.24365,36.15699],[137.24371,36.16053],[137.24237,36.16173],[137.23755,36.16275],[137.23256,36.16523],[137.22707,36.16902],[137.22527,36.1716]],[[137.08848,36.76228],[137.08903,36.76096]],[[137.22991,36.20225],[137.23293,36.20033]],[[137.02386,36.01598],[137.02215,36.01727],[137.02116,36.0195]],[[137.02087,36.02086],[137.01965,36.02235]],[[137.01718,36.02398],[137.01836,36.02344]],[[137.00424,36.02923],[136.99773,36.0292]],[[137.06347,36.49127],[137.06381,36.49082]],[[137.06596,36.51175],[137.06545,36.51238],[137.06499,36.51126],[137.06554,36.51101]]]}}]}