{"type":"FeatureCollection","features":[{"type":"Feature","properties":{"route_id":"499","route_number":499,"name":"国道499号","source":"OpenStreetMap contributors (ODbL)","osm_relations":[9365393]},"geometry":{"type":"MultiLineString","coordinates":[[[129.84981,32.70605],[129.84974,32.70485],[129.84791,32.70367],[129.8472,32.70183],[129.84934,32.69915],[129.84948,32.69774],[129.8478,32.69547],[129.84753,32.6892],[129.84625,32.68679],[129.84305,32.68399],[129.83982,32.67712],[129.83896,32.67046],[129.83545,32.66406],[129.83514,32.66123],[129.83595,32.665],[129.83905,32.67043],[129.83991,32.6771],[129.84313,32.68397],[129.8464,32.68686],[129.84767,32.68944],[129.84792,32.69559],[129.84955,32.69774],[129.84939,32.69926],[129.84727,32.70183],[129.84798,32.70363],[129.8498,32.70482],[129.85099,32.70933],[129.85046,32.71242],[129.85118,32.71909],[129.85338,32.72137],[129.85821,32.7201],[129.86118,32.72163],[129.86264,32.72692],[129.86107,32.72848],[129.86274,32.72922],[129.86651,32.73308],[129.87239,32.74066],[129.87164,32.74387],[129.87205,32.7459]],[[129.83514,32.66123],[129.83335,32.65856],[129.83293,32.65635],[129.82951,32.65181],[129.82516,32.65275],[129.8211,32.65235],[129.81851,32.6504],[129.81013,32.64836],[129.80988,32.64321],[129.80861,32.64084],[129.80487,32.63867],[129.80215,32.63575],[129.80002,32.63576],[129.79757,32.63449],[129.79619,32.63303],[129.79565,32.63009],[129.79149,32.62628],[129.79207,32.62174],[129.79084,32.62025],[129.79044,32.6117],[129.78702,32.60591],[129.7841,32.60374],[129.77833,32.60306],[129.77661,32.60183],[129.77581,32.59998],[129.7738,32.5995],[129.76805,32.59508],[129.76264,32.59375],[129.76413,32.5901],[129.76125,32.58258],[129.7646,32.58342],[129.76861,32.58314],[129.77854,32.58072],[129.77881,32.57822],[129.78007,32.57674],[129.7893,32.5811],[129.82613,32.55897],[129.95436,32.14219],[130.19254,32.02358],[130.19571,32.02301]],[[129.87225,32.74585],[129.87183,32.74393],[129.87268,32.74068],[129.86794,32.73537]],[[130.19571,32.02291],[130.1941,32.02305]],[[129.83435,32.65969],[129.83313,32.6571]],[[129.82905,32.65171],[129.83221,32.65562]]]}}]}