{"type":"FeatureCollection","features":[{"type":"Feature","properties":{"route_id":"387","route_number":387,"name":"国道387号","source":"OpenStreetMap contributors (ODbL)","osm_relations":[9609322,9611552,9615764,9615824]},"geometry":{"type":"MultiLineString","coordinates":[[[131.34491,33.52475],[131.33954,33.51628],[131.33884,33.51023],[131.3331,33.50748],[131.32493,33.49878],[131.32899,33.49082],[131.33362,33.48917],[131.3347,33.48668],[131.33479,33.4805],[131.33077,33.4765],[131.32778,33.47129],[131.32831,33.46654],[131.33101,33.46406],[131.33094,33.46004],[131.32879,33.45604],[131.32908,33.45293],[131.33354,33.44504],[131.33286,33.44258],[131.32866,33.4383],[131.31849,33.42298],[131.31722,33.41748],[131.30995,33.40462],[131.30757,33.40191],[131.30869,33.39799],[131.30662,33.39451],[131.3068,33.39194],[131.30112,33.38797],[131.2975,33.38723],[131.29145,33.38855],[131.28889,33.38704],[131.28512,33.38786],[131.2757,33.38513],[131.27082,33.38557],[131.26757,33.38681],[131.2671,33.38565],[131.26944,33.38385],[131.26948,33.3827],[131.26357,33.37981],[131.26297,33.37881],[131.26476,33.37586],[131.26771,33.37594],[131.26803,33.37439],[131.26533,33.37405],[131.26235,33.37252],[131.26035,33.36828],[131.25897,33.36745],[131.25792,33.36766],[131.25712,33.36943],[131.25275,33.37113],[131.25051,33.37112],[131.24672,33.36814],[131.24274,33.36664],[131.24167,33.36375],[131.24204,33.36131],[131.24511,33.35658],[131.24274,33.35319],[131.24239,33.3469],[131.24052,33.34451],[131.24199,33.3404],[131.24555,33.337],[131.24493,33.33406],[131.23738,33.33247],[131.2346,33.33411],[131.23063,33.33374],[131.22834,33.33552],[131.22571,33.335],[131.2229,33.33608],[131.22046,33.33513],[131.21891,33.33351],[131.21588,33.33312],[131.21312,33.33493],[131.20991,33.33428],[131.20711,33.33226],[131.20119,33.3321],[131.19702,33.32912],[131.1937,33.32882],[131.19014,33.32674],[131.1874,33.32635],[131.1818,33.32727],[131.17882,33.32612],[131.17574,33.32625],[131.1741,33.32544],[131.17036,33.32122],[131.16926,33.31534],[131.16158,33.30797],[131.16066,33.3004],[131.15883,33.2988],[131.15778,33.29012],[131.15813,33.28765],[131.16087,33.28161],[131.15896,33.27278],[131.16545,33.26799],[131.16689,33.26167],[131.16612,33.25858],[131.16687,33.2559],[131.16632,33.25323],[131.16683,33.25045],[131.17123,33.23975],[131.17556,33.23535],[131.17628,33.23245],[131.17499,33.22867],[131.1757,33.22353],[131.17264,33.21976],[131.17107,33.21013],[131.17174,33.20762],[131.16909,33.2052],[131.16627,33.19883],[131.16438,33.19638],[131.15046,33.19116],[131.14958,33.18919],[131.14748,33.18813],[131.14693,33.18535],[131.14474,33.18186],[131.14224,33.1805],[131.1349,33.18137],[131.13235,33.18057],[131.1266,33.1823],[131.12118,33.18135],[131.1172,33.1784],[131.11582,33.1733],[131.11232,33.17053],[131.11348,33.16575],[131.10966,33.16192],[131.10909,33.15863],[131.11055,33.1557],[131.10976,33.15216],[131.10641,33.14825],[131.10716,33.14616],[131.10644,33.14285],[131.1012,33.13976],[131.09373,33.14044],[131.09091,33.13935],[131.08899,33.13687],[131.08889,33.13488],[131.0864,33.13367],[131.08785,33.13014],[131.08351,33.12658],[131.08214,33.12432],[131.07866,33.12616],[131.0744,33.12568],[131.07205,33.1238],[131.06984,33.1233],[131.06645,33.12487],[131.06401,33.12285],[131.05968,33.12656],[131.05701,33.12528],[131.04154,33.12371],[131.03436,33.12738],[131.02914,33.12357],[131.02082,33.12251],[131.01824,33.12147],[131.00553,33.12444],[131.00213,33.12624],[130.99738,33.12675],[130.99543,33.12975],[130.98877,33.13288],[130.98358,33.13796],[130.9775,33.13746],[130.97552,33.1397],[130.97401,33.13972],[130.97198,33.13887],[130.96905,33.13544],[130.96686,33.13555],[130.96466,33.13454],[130.96551,33.13141],[130.96458,33.12767],[130.96602,33.12592],[130.96603,33.12269],[130.96728,33.12118],[130.96403,33.11598],[130.9639,33.11409],[130.96194,33.11166],[130.96204,33.11021],[130.9605,33.10769],[130.96087,33.10209],[130.95858,33.10016],[130.96079,33.09846],[130.96087,33.09749],[130.95709,33.09699],[130.95556,33.09312],[130.95584,33.09186],[130.95364,33.0881],[130.94993,33.08609],[130.94833,33.0843],[130.93284,33.07881],[130.92924,33.07552],[130.92842,33.07308],[130.92697,33.07355],[130.92215,33.07179],[130.9182,33.07263],[130.91575,33.0709],[130.91238,33.07151],[130.91031,33.07072],[130.90464,33.07187],[130.90613,33.0691],[130.90486,33.0596],[130.90557,33.05757],[130.90449,33.0572],[130.90402,33.05926],[130.90312,33.05933],[130.90222,33.05485],[130.89997,33.05461],[130.89945,33.05219],[130.89619,33.0497],[130.89597,33.04763],[130.89671,33.0465],[130.89447,33.04364],[130.89404,33.04007],[130.89176,33.03788],[130.89036,33.035],[130.89218,33.03249],[130.89292,33.02788],[130.89595,33.02116],[130.89629,33.01953],[130.89526,33.01701],[130.8855,33.01345],[130.88048,33.01487],[130.87819,33.0164],[130.87028,33.01517],[130.86654,33.01662],[130.86339,33.01529],[130.8608,33.01531],[130.85755,33.01267],[130.85483,33.01295],[130.85346,33.01164],[130.8474,33.00939],[130.84124,33.00893],[130.836,33.00573],[130.83373,33.00289],[130.83274,33.00017],[130.83061,32.99827],[130.82733,32.99192],[130.82073,32.99005],[130.81918,32.98756],[130.81613,32.98664],[130.81704,32.98591],[130.81416,32.98452],[130.81561,32.98249],[130.80265,32.97695],[130.80152,32.97021],[130.79327,32.95527],[130.79311,32.95065],[130.78746,32.94853],[130.78687,32.94374],[130.78412,32.93732],[130.78134,32.93387],[130.77619,32.93259],[130.77275,32.92963],[130.77017,32.92451],[130.7693,32.91655],[130.76806,32.91289],[130.75145,32.88761],[130.74392,32.8743],[130.73835,32.86653],[130.7328,32.86288],[130.72736,32.85646],[130.71887,32.85159],[130.71597,32.84545]],[[131.345,33.52471],[131.34002,33.51717]]]}}]}