{"type":"FeatureCollection","features":[{"type":"Feature","properties":{"route_id":"320","route_number":320,"name":"国道320号","source":"OpenStreetMap contributors (ODbL)","osm_relations":[1061405,10831712,10831713]},"geometry":{"type":"MultiLineString","coordinates":[[[132.71991,32.93344],[132.71686,32.9371],[132.72028,32.94761],[132.71904,32.95057],[132.71469,32.95202],[132.71238,32.95411],[132.71152,32.95782],[132.71309,32.96009],[132.71282,32.96165],[132.70914,32.96238],[132.70723,32.95921],[132.70519,32.95924],[132.70002,32.96203],[132.70033,32.96528],[132.69625,32.96628],[132.69407,32.96809],[132.68929,32.96982],[132.68517,32.96984],[132.67824,32.97213],[132.67258,32.9724],[132.6708,32.97206],[132.6694,32.97067],[132.66517,32.97034],[132.66316,32.97177],[132.66074,32.97195],[132.65919,32.9691],[132.65348,32.96572],[132.64522,32.96326],[132.64437,32.96203],[132.64414,32.95872],[132.64239,32.95698],[132.63183,32.95501],[132.61926,32.95009],[132.60704,32.95252],[132.59214,32.9525],[132.58697,32.95431],[132.58412,32.95424],[132.57518,32.95837],[132.56047,32.95941],[132.55932,32.96034],[132.55805,32.96377],[132.54601,32.96677],[132.54468,32.96828],[132.54506,32.97027],[132.54406,32.97174],[132.5422,32.97238],[132.54047,32.972],[132.53867,32.97319],[132.53744,32.97557],[132.53109,32.978],[132.52955,32.98053],[132.52683,32.98047],[132.52543,32.98139],[132.52455,32.98336],[132.52123,32.9861],[132.51945,32.98877],[132.51364,32.99333],[132.51316,32.99872],[132.51416,33.00133],[132.5127,33.00401],[132.5058,33.00604],[132.50401,33.00743],[132.50364,33.00895],[132.49641,33.01266],[132.4962,33.01454],[132.49781,33.01704],[132.4966,33.02165],[132.48589,33.02392],[132.48231,33.02765],[132.48216,33.03022],[132.48389,33.03216],[132.48476,33.03597],[132.48795,33.03985],[132.48761,33.04153],[132.48576,33.04372],[132.48521,33.04668],[132.48228,33.05009],[132.48513,33.05518],[132.48291,33.06159],[132.48405,33.06407],[132.48821,33.06441],[132.48909,33.06568],[132.4869,33.06762],[132.48412,33.06795],[132.48206,33.07022],[132.48204,33.07285],[132.48715,33.07679],[132.4997,33.08083],[132.50096,33.08458],[132.50969,33.08563],[132.51549,33.08786],[132.51652,33.08935],[132.51657,33.09415],[132.51577,33.09606],[132.5113,33.09943],[132.51173,33.10664],[132.51944,33.11556],[132.51941,33.11982],[132.52271,33.1275],[132.52521,33.13746],[132.52529,33.14143],[132.53057,33.14893],[132.54325,33.1541],[132.54652,33.15637],[132.5479,33.15924],[132.54831,33.16466],[132.55314,33.17182],[132.55313,33.17331],[132.54878,33.18247],[132.54782,33.19098],[132.546,33.19772],[132.54621,33.19864],[132.55118,33.20113],[132.55803,33.2087],[132.5602,33.21673],[132.56227,33.21642],[132.56263,33.21826],[132.56557,33.2177],[132.56736,33.2189],[132.56405,33.22402],[132.55929,33.22217]],[[132.5674,33.225],[132.56405,33.22402],[132.56875,33.2259],[132.57636,33.22619],[132.57958,33.2273],[132.58395,33.23392],[132.589,33.23736],[132.58962,33.24065],[132.59298,33.24221],[132.59549,33.24108],[132.60051,33.24148],[132.6072,33.23831],[132.61265,33.24047],[132.61998,33.2397],[132.62189,33.2412],[132.62646,33.24232],[132.63446,33.24614],[132.6437,33.24607],[132.64759,33.24496],[132.65218,33.24761],[132.65765,33.24807],[132.66647,33.24651],[132.67893,33.24893],[132.6868,33.25268],[132.68888,33.255],[132.69316,33.25356],[132.6959,33.25119],[132.70593,33.25084],[132.70718,33.25219],[132.70732,33.25578],[132.70844,33.25771],[132.71031,33.25896],[132.71147,33.26142],[132.72317,33.26489],[132.72627,33.26834],[132.7259,33.26973],[132.72281,33.27179],[132.71923,33.28262],[132.71847,33.28694],[132.72135,33.28927],[132.7222,33.29104],[132.71618,33.29875],[132.71677,33.30257],[132.71796,33.30465],[132.72077,33.30656],[132.72434,33.30569],[132.7261,33.30445],[132.72741,33.30132],[132.72933,33.30052],[132.73098,33.30125],[132.73548,33.3065],[132.73841,33.30809],[132.7442,33.30627],[132.75079,33.30737],[132.75533,33.30607],[132.76128,33.30583],[132.76343,33.30664],[132.76572,33.31129],[132.76748,33.31218],[132.76972,33.31088],[132.77063,33.30828],[132.77399,33.30766],[132.77721,33.30567],[132.77899,33.30573],[132.78222,33.30794],[132.7883,33.30899],[132.79227,33.31137],[132.79413,33.32308],[132.79573,33.32731],[132.79814,33.33086],[132.79789,33.33247]],[[132.71979,32.93335],[132.71678,32.93679],[132.71827,32.94008]]]}}]}