{"type":"FeatureCollection","features":[{"type":"Feature","properties":{"route_id":"39","route_number":39,"name":"国道39号","source":"OpenStreetMap contributors (ODbL)","osm_relations":[2864639]},"geometry":{"type":"MultiLineString","coordinates":[[[142.39072,43.78347],[142.42242,43.80331],[142.38806,43.78171],[142.37768,43.76404],[142.3595,43.76932]],[[142.42242,43.80331],[142.5063,43.85569],[142.51009,43.85874],[142.51462,43.86355],[142.52858,43.88653],[142.52794,43.88883],[142.52126,43.89347],[142.52187,43.89511],[142.52933,43.89824],[142.53572,43.89968],[142.54167,43.8996],[142.55245,43.89791],[142.56068,43.90142],[142.57099,43.90152],[142.57986,43.90556],[142.58808,43.90697],[142.59444,43.90712],[142.60088,43.90942],[142.60303,43.90947],[142.65789,43.89389],[142.67114,43.88233],[142.67188,43.88082],[142.67176,43.87682],[142.67271,43.87481],[142.68878,43.85722],[142.69659,43.84676],[142.70332,43.84233],[142.7097,43.84159],[142.71691,43.84342],[142.72578,43.8438],[142.72803,43.84483],[142.73095,43.84808],[142.73346,43.84909],[142.74842,43.84866],[142.76742,43.84324],[142.77963,43.8427],[142.79164,43.83576],[142.80737,43.82841],[142.83977,43.82177],[142.84862,43.8175],[142.85899,43.81756],[142.86642,43.81413],[142.87137,43.81388],[142.87471,43.81106],[142.8811,43.8031],[142.89004,43.79915],[142.8989,43.78862],[142.90308,43.77991],[142.90375,43.77489],[142.90634,43.77155],[142.90723,43.76817],[142.91816,43.76178],[142.92246,43.75782],[142.93098,43.75206],[142.93503,43.74674],[142.93569,43.74193],[142.94257,43.73445],[142.94235,43.73119],[142.94306,43.72996],[142.9491,43.7266],[142.95376,43.72744],[142.9582,43.72576],[142.96551,43.72642],[142.97487,43.72234],[142.99686,43.71828],[143.00108,43.7168],[143.00364,43.71448],[143.00643,43.7081],[143.01545,43.69857],[143.01594,43.69616],[143.01924,43.69334],[143.01959,43.68815],[143.03225,43.68451],[143.03757,43.6804],[143.04346,43.67376],[143.0491,43.67216],[143.05649,43.67323],[143.06216,43.67558],[143.06557,43.67599],[143.07294,43.67514],[143.07528,43.67565],[143.07768,43.67385],[143.08466,43.67431],[143.08732,43.67338],[143.09154,43.66938],[143.09412,43.66804],[143.09865,43.66726],[143.10344,43.66758],[143.10665,43.66653],[143.10865,43.66468],[143.11261,43.65717],[143.11704,43.65362],[143.12262,43.65416],[143.13247,43.65374],[143.13635,43.65268],[143.13949,43.65308],[143.14624,43.65047],[143.15264,43.64989],[143.15835,43.65153],[143.16205,43.65468],[143.16615,43.65508],[143.16472,43.65852],[143.16585,43.6609],[143.16495,43.66386],[143.16766,43.66689],[143.17357,43.66524],[143.17929,43.66486],[143.173,43.669],[143.1729,43.66971],[143.17387,43.66994],[143.1751,43.66865],[143.17943,43.66689],[143.18359,43.66682],[143.18833,43.66213],[143.19358,43.66342],[143.19825,43.66108],[143.20777,43.66039],[143.21881,43.65741],[143.21972,43.65613],[143.21958,43.65359],[143.22552,43.65074],[143.2274,43.64874],[143.22699,43.64779],[143.22237,43.64536],[143.22228,43.64452],[143.22342,43.64396],[143.23655,43.64903],[143.25127,43.6508],[143.25366,43.65257],[143.26149,43.65507],[143.26429,43.65715],[143.27563,43.66227],[143.28063,43.66248],[143.29677,43.66698],[143.3018,43.66746],[143.32132,43.68679],[143.3353,43.69261],[143.33998,43.69571],[143.34642,43.69687],[143.35633,43.70127],[143.39771,43.716],[143.40935,43.72139],[143.42591,43.7331],[143.51444,43.75645],[143.52362,43.75804],[143.53275,43.7609],[143.54773,43.76413],[143.56167,43.7711],[143.57124,43.77277],[143.59884,43.78228],[143.61847,43.7808],[143.63224,43.78315],[143.64302,43.78847],[143.65187,43.78827],[143.70943,43.79189],[143.73008,43.79498],[143.74501,43.79532],[143.75779,43.79756],[143.76744,43.8003],[143.81307,43.80352],[143.82901,43.79931],[143.81329,43.80345],[143.78762,43.80167],[143.78392,43.8007],[143.78001,43.80117]],[[143.95046,43.86854],[143.95206,43.88254],[143.95543,43.88457],[143.9642,43.88628],[143.97888,43.88611],[143.98911,43.88783],[143.99252,43.88769],[144.00202,43.88458],[144.00483,43.87923],[144.00924,43.87541],[144.00465,43.87922],[144.00164,43.88473],[143.99179,43.88774],[143.97945,43.88606],[143.96429,43.88619],[143.95449,43.88413],[143.9516,43.88141],[143.95113,43.87072],[143.94717,43.8577],[143.89165,43.80024],[143.83903,43.79677],[143.82901,43.79931]],[[144.2681,44.01972],[144.26754,44.02249],[144.26458,44.02697],[144.25646,44.02405],[144.2538,44.02053],[144.24877,44.02],[144.23902,44.01455],[144.23135,44.01307],[144.23194,44.0084],[144.23137,44.00535],[144.22296,44.00044],[144.22269,43.99926],[144.22389,43.99664],[144.22349,43.99424],[144.2189,43.99042],[144.22059,43.98445],[144.21711,43.98065],[144.21625,43.97789],[144.21842,43.97375],[144.21772,43.96768],[144.21813,43.95854],[144.21737,43.95558],[144.21433,43.95101],[144.20067,43.94415],[144.19773,43.94027],[144.2002,43.94396],[144.21379,43.95076],[144.21658,43.9541]],[[144.00924,43.87541],[144.01246,43.87456],[144.02058,43.87434],[144.02454,43.87184],[144.03057,43.87001],[144.03683,43.87051],[144.04523,43.87452],[144.05038,43.87415],[144.05802,43.87653],[144.0612,43.87586],[144.06529,43.87103],[144.07049,43.86741],[144.07324,43.86418],[144.07965,43.86008],[144.08653,43.85265],[144.09382,43.8492],[144.10426,43.83573],[144.10443,43.83367],[144.12004,43.82881],[144.12294,43.82897],[144.12451,43.83007],[144.12494,43.83172],[144.11779,43.84663],[144.11778,43.8481],[144.12928,43.86763],[144.13347,43.8722],[144.13569,43.87805],[144.15696,43.91452],[144.1604,43.91605],[144.16781,43.91322],[144.17247,43.91482],[144.17996,43.91255],[144.18337,43.91331],[144.18933,43.91944],[144.19773,43.94027]],[[143.16874,43.66704],[143.1732,43.66536],[143.17911,43.66494],[143.17331,43.6685],[143.17269,43.66943],[143.17355,43.67004],[143.17943,43.66689]]]}}]}