{"type":"FeatureCollection","features":[{"type":"Feature","properties":{"route_id":"467","route_number":467,"name":"国道467号","source":"OpenStreetMap contributors (ODbL)","osm_relations":[2695918]},"geometry":{"type":"MultiLineString","coordinates":[[[139.48717,35.30822],[139.48932,35.31084],[139.48662,35.31228],[139.48561,35.31893],[139.49043,35.33931],[139.48612,35.34632],[139.48218,35.34776],[139.47842,35.34765],[139.47874,35.37154],[139.46969,35.39956],[139.46993,35.41468],[139.46812,35.43093],[139.46685,35.43463],[139.46766,35.45057],[139.46679,35.45388],[139.4675,35.46172],[139.46382,35.48737]]]}}]}