{"type":"FeatureCollection","features":[{"type":"Feature","properties":{"route_id":"406","route_number":406,"name":"国道406号","source":"OpenStreetMap contributors (ODbL)","osm_relations":[4085924]},"geometry":{"type":"MultiLineString","coordinates":[[[138.22803,36.6544],[138.22728,36.65418],[138.24598,36.65597],[138.25149,36.65759],[138.25732,36.66068],[138.26628,36.66399],[138.27645,36.66028],[138.28176,36.65676],[138.28733,36.65486],[138.30837,36.65425],[138.31352,36.65488],[138.32237,36.64051],[138.32308,36.63812],[138.32226,36.63631],[138.32299,36.63434],[138.33615,36.61366],[138.33559,36.60956],[138.33688,36.60042],[138.33393,36.59402],[138.32762,36.58874],[138.32778,36.58443],[138.3301,36.58297],[138.33094,36.58141],[138.33029,36.57854],[138.33157,36.57442],[138.33077,36.57239],[138.33193,36.56928],[138.33001,36.56395],[138.3289,36.56309],[138.32936,36.56111],[138.32825,36.56036],[138.32952,36.56065],[138.33081,36.56325],[138.33017,36.56228],[138.33083,36.5604],[138.32989,36.55927],[138.33161,36.5576],[138.32899,36.55774],[138.32732,36.55657],[138.32892,36.55713],[138.32996,36.55571],[138.33093,36.55573],[138.32874,36.55571],[138.33063,36.55315],[138.33341,36.55084],[138.33314,36.55199],[138.33402,36.55129],[138.33498,36.54894],[138.33436,36.54587],[138.33909,36.54175],[138.34365,36.53221],[138.34269,36.53131],[138.33509,36.52909],[138.33334,36.52978],[138.3314,36.52781],[138.33092,36.52611],[138.33164,36.52301],[138.33401,36.52064],[138.33915,36.51894],[138.34053,36.51671],[138.34017,36.51359],[138.34121,36.51301],[138.34067,36.51195],[138.34206,36.50898],[138.34333,36.50836],[138.34543,36.50348],[138.3489,36.5017],[138.3496,36.4994],[138.35442,36.49379],[138.35499,36.49394],[138.35387,36.49547],[138.35436,36.49634],[138.35748,36.4964],[138.35874,36.49539],[138.36191,36.49604],[138.36139,36.49519],[138.36232,36.49408],[138.35947,36.48896],[138.36209,36.49262],[138.36226,36.49175],[138.36474,36.49091],[138.36866,36.491],[138.37248,36.48883],[138.37824,36.48787],[138.38279,36.49059],[138.38899,36.49644],[138.38873,36.49307],[138.39281,36.49343],[138.39484,36.49247],[138.39295,36.49178],[138.39245,36.48972],[138.39595,36.49096],[138.39962,36.48952],[138.40152,36.49018],[138.41611,36.4888],[138.42802,36.48544],[138.44031,36.48802],[138.44663,36.48651],[138.4503,36.48672],[138.45681,36.48481],[138.46298,36.4852],[138.47156,36.48437],[138.47442,36.48446],[138.47764,36.48572],[138.4831,36.4852],[138.48628,36.48697],[138.48633,36.48888],[138.48822,36.49069],[138.49481,36.49501],[138.49703,36.49524],[138.49984,36.49854],[138.50025,36.50098],[138.5122,36.50705],[138.515,36.51084],[138.51812,36.51291],[138.5289,36.51535],[138.5309,36.51677],[138.5322,36.51937],[138.53672,36.51942],[138.54071,36.52083],[138.54302,36.52426],[138.54245,36.52653],[138.5431,36.52782],[138.55063,36.53164],[138.5549,36.53588],[138.55511,36.53897],[138.5581,36.54088],[138.56096,36.54493],[138.56925,36.5444],[138.57205,36.54814],[138.57372,36.54862],[138.57899,36.54626],[138.58255,36.54677],[138.58421,36.5474],[138.58553,36.55032],[138.587,36.55146],[138.58875,36.55068],[138.59236,36.54686],[138.59347,36.54719],[138.59492,36.54962],[138.59652,36.55026],[138.60024,36.54799],[138.60282,36.54784],[138.60973,36.55226],[138.61255,36.55252],[138.61405,36.55386],[138.6203,36.55429],[138.62297,36.55371],[138.62534,36.55481],[138.62836,36.55497],[138.63328,36.55282],[138.64341,36.55045],[138.64751,36.54634],[138.64723,36.54441],[138.64917,36.54333],[138.65649,36.54347],[138.65925,36.54207],[138.65795,36.54183],[138.65859,36.54085],[138.65809,36.54031],[138.65432,36.54145],[138.65447,36.5406],[138.65602,36.54009],[138.6541,36.53927],[138.65606,36.53582],[138.65371,36.53777],[138.65284,36.5375],[138.65756,36.53215],[138.66007,36.53313],[138.6577,36.53084],[138.65387,36.53185],[138.65589,36.53091],[138.65705,36.52829],[138.65992,36.52657],[138.65919,36.52509],[138.66074,36.52634],[138.66,36.52527],[138.66043,36.52302],[138.65941,36.52201],[138.66082,36.52292],[138.66084,36.52209],[138.65917,36.5208],[138.66157,36.52113],[138.66303,36.51931],[138.66413,36.51932],[138.6641,36.51837],[138.66668,36.51813],[138.66612,36.51771],[138.66897,36.51601],[138.66773,36.5161],[138.67203,36.51388],[138.6733,36.51089],[138.67466,36.50974],[138.67571,36.51007],[138.67517,36.50881],[138.67847,36.50605],[138.67777,36.50524],[138.68052,36.50293],[138.68418,36.50132],[138.6897,36.50227],[138.69647,36.50524],[138.70365,36.50696],[138.71152,36.50749],[138.71759,36.50531],[138.72822,36.50505],[138.73922,36.50688],[138.74268,36.50625],[138.74602,36.5078],[138.75242,36.50851],[138.75852,36.51177],[138.76511,36.51339],[138.7715,36.51394],[138.7744,36.51318],[138.7771,36.50323],[138.77649,36.50203],[138.77716,36.49573],[138.77538,36.49488],[138.77549,36.49345],[138.77434,36.49262],[138.77573,36.49118],[138.774,36.4903],[138.77249,36.4871],[138.77518,36.48404],[138.77542,36.48139],[138.77725,36.47955],[138.77898,36.47508],[138.77821,36.47223],[138.77858,36.47065],[138.78029,36.4699],[138.78039,36.46853],[138.77929,36.46709],[138.78037,36.46547],[138.78053,36.46173],[138.78029,36.45942],[138.77805,36.45685],[138.77374,36.45543],[138.77327,36.45173],[138.77045,36.45048],[138.77075,36.44767],[138.77855,36.44089],[138.78133,36.43437],[138.79845,36.41916],[138.80094,36.41327],[138.80371,36.40959],[138.81725,36.3982],[138.82304,36.39062],[138.82468,36.38989],[138.83181,36.38988],[138.83794,36.38863],[138.84269,36.38991],[138.84614,36.38985],[138.84978,36.38829],[138.85305,36.38932],[138.85854,36.38553],[138.86393,36.38389],[138.88166,36.38377],[138.88406,36.37992],[138.89966,36.37327],[138.91626,36.36145],[138.92777,36.35558],[138.93864,36.35137],[138.95068,36.34845],[138.97691,36.33961],[138.9825,36.33484],[138.98636,36.33281],[138.98853,36.33256]],[[137.8524,36.51305],[137.85021,36.51989],[137.85289,36.52121],[137.84256,36.54028],[137.84546,36.5459],[137.84276,36.55225],[137.8444,36.56225],[137.83854,36.57017],[137.8382,36.57696],[137.83932,36.58106],[137.84062,36.58292],[137.84169,36.58826],[137.84603,36.59482],[137.84802,36.60006],[137.84966,36.60201],[137.85693,36.60699],[137.86165,36.61475],[137.86132,36.61796],[137.85908,36.62127],[137.85348,36.6233],[137.85129,36.62522],[137.84708,36.62483],[137.8442,36.62542],[137.8435,36.62742],[137.84478,36.63108],[137.84437,36.64642],[137.84811,36.65696],[137.84903,36.66646],[137.85072,36.67003],[137.85024,36.67247],[137.86419,36.69849],[137.87319,36.69624],[137.87196,36.6915],[137.87355,36.68825],[137.87319,36.68642],[137.8751,36.68657],[137.87688,36.68518],[137.87771,36.68335],[137.8814,36.68091],[137.88239,36.67631],[137.88192,36.67146],[137.88137,36.67219],[137.88142,36.67112],[137.88002,36.6694],[137.881,36.66666],[137.8805,36.66545],[137.88121,36.66492],[137.87964,36.66339],[137.8808,36.66129],[137.88034,36.65816],[137.88482,36.65834],[137.88577,36.65766],[137.88686,36.65815],[137.88622,36.65879],[137.8872,36.65893],[137.88684,36.65954],[137.89128,36.65964],[137.89242,36.66039],[137.89245,36.66121],[137.89154,36.66042],[137.89217,36.66144],[137.89319,36.66164],[137.89511,36.66109],[137.89611,36.65939],[137.89709,36.65949],[137.89773,36.65863],[137.90131,36.65918],[137.9022,36.65786],[137.90327,36.65772],[137.90395,36.65887],[137.90498,36.65757],[137.90453,36.65683],[137.90564,36.65655],[137.90533,36.65534],[137.90645,36.65551],[137.90616,36.65361],[137.9075,36.65358],[137.90732,36.65264],[137.90935,36.65016],[137.91038,36.65084],[137.90981,36.65185],[137.911,36.65232],[137.91155,36.6514],[137.91421,36.65306],[137.91445,36.65447],[137.91363,36.65499],[137.91514,36.65652],[137.91646,36.65661],[137.91651,36.65757],[137.91913,36.65982],[137.92199,36.66114],[137.92446,36.66485],[137.92585,36.665],[137.92631,36.66723],[137.92983,36.66951],[137.93041,36.67153],[137.93365,36.67283],[137.93549,36.67467],[137.93443,36.67686],[137.93602,36.67819],[137.93692,36.68073],[137.94012,36.68478],[137.94208,36.68639],[137.94148,36.68819],[137.94648,36.69],[137.95141,36.68761],[137.95561,36.6888],[137.95869,36.68872],[137.96052,36.68736],[137.96177,36.68744],[137.96325,36.68595],[137.96702,36.6852],[137.96941,36.68277],[137.97093,36.68322],[137.97206,36.68176],[137.97428,36.68085],[137.97578,36.68077],[137.97735,36.68225],[137.97979,36.68109],[137.98086,36.68225],[137.98334,36.68265],[137.98438,36.68175],[137.98446,36.67957],[137.99093,36.67689],[137.99202,36.67703],[137.99347,36.67886],[137.9993,36.67993],[138.00097,36.6815],[138.00294,36.6809],[138.0043,36.68168],[138.00657,36.68059],[138.01111,36.68108],[138.01412,36.68031],[138.0263,36.67374],[138.03812,36.6723],[138.04257,36.67322],[138.04501,36.67138],[138.0474,36.67129],[138.04933,36.6722],[138.05458,36.66953],[138.05851,36.67041],[138.06412,36.66899],[138.0771,36.67158],[138.08114,36.67036],[138.08402,36.67124],[138.08697,36.66863],[138.09265,36.67088],[138.09604,36.6707],[138.09826,36.67274],[138.10172,36.6729],[138.10763,36.67087],[138.10847,36.66972],[138.11358,36.66945],[138.11486,36.6675],[138.11802,36.66806],[138.12542,36.66485],[138.12711,36.66509],[138.1311,36.66264],[138.13815,36.66418],[138.14184,36.66706],[138.14593,36.66882],[138.14893,36.66887],[138.15095,36.66587],[138.16229,36.66561],[138.16682,36.66155],[138.16278,36.66164]],[[137.85684,36.51358],[137.85248,36.51306],[137.8503,36.51992],[137.85289,36.52121]],[[138.16682,36.66155],[138.17249,36.66075],[138.17545,36.65822],[138.17554,36.65721],[138.1892,36.65587],[138.19266,36.65456],[138.22728,36.65418]],[[138.28102,36.65724],[138.27653,36.66014],[138.26644,36.66388],[138.25441,36.65911]],[[138.98736,36.33247],[138.98766,36.3322]],[[138.50173,36.50167],[138.50035,36.50105]],[[138.20149,36.65402],[138.19324,36.65452]]]}}]}