{"type":"FeatureCollection","features":[{"type":"Feature","properties":{"route_id":"393","route_number":393,"name":"国道393号","source":"OpenStreetMap contributors (ODbL)","osm_relations":[6596106]},"geometry":{"type":"MultiLineString","coordinates":[[[141.00691,43.18251],[140.99311,43.16917],[140.99898,43.16204],[141.00069,43.16301],[140.99939,43.16495],[140.99974,43.16563],[141.00165,43.16564],[141.00212,43.1669],[141.00574,43.16878],[141.0083,43.16356],[141.01314,43.16286],[141.01697,43.16355],[141.02018,43.16137],[141.02117,43.1598],[141.01629,43.15925],[141.01652,43.15857],[141.01978,43.15758],[141.01959,43.15676],[141.01432,43.15685],[141.01723,43.15415],[141.01301,43.1555],[141.01719,43.15241],[141.01194,43.15438],[141.01097,43.1541],[141.01552,43.15188],[141.01618,43.14995],[141.01417,43.14793],[141.01419,43.14633],[141.01231,43.14495],[141.01178,43.14337],[141.01324,43.14078],[141.01486,43.13966],[141.01148,43.13256],[141.01317,43.12855],[141.01039,43.11889],[141.00907,43.11686],[141.00931,43.11298],[141.00756,43.11054],[141.00523,43.10908],[141.00483,43.10461],[141.00247,43.1029],[141.00179,43.10045],[140.99703,43.09961],[140.99281,43.09617],[140.99284,43.09463],[140.99508,43.09259],[140.99026,43.08967],[140.98987,43.08693],[140.988,43.08639],[140.98331,43.08657],[140.97577,43.09195],[140.97491,43.0916],[140.97376,43.08824],[140.97279,43.08772],[140.9714,43.08888],[140.96748,43.08834],[140.96241,43.08957],[140.95577,43.08959],[140.95092,43.09095],[140.94075,43.09065],[140.93255,43.08889],[140.92596,43.08851],[140.9044,43.08156],[140.89506,43.08109],[140.88437,43.07871],[140.88308,43.07735],[140.88318,43.07451],[140.88123,43.06773],[140.87909,43.06578],[140.87501,43.06412],[140.87416,43.06142],[140.87012,43.06037],[140.85927,43.05274],[140.84416,43.0505],[140.85123,43.0455],[140.85703,43.04387],[140.85927,43.0417],[140.85999,43.03866],[140.86292,43.03635],[140.86568,43.03016],[140.86652,43.02602],[140.86618,43.0236],[140.86782,43.0212],[140.86791,43.0141],[140.86889,43.01148],[140.87656,43.00688],[140.88008,43.00659],[140.88084,43.00588],[140.8791,42.99682],[140.87577,42.99089],[140.87226,42.9875],[140.87261,42.98463],[140.87177,42.98203],[140.87965,42.96437],[140.87932,42.96246],[140.87752,42.96107],[140.87189,42.9597],[140.86852,42.95639],[140.86176,42.95327],[140.8548,42.95176],[140.85117,42.94845],[140.84235,42.94599],[140.83984,42.94603],[140.83055,42.94908],[140.8234,42.94858],[140.82243,42.94772],[140.82226,42.94578],[140.81315,42.93666],[140.80897,42.93634],[140.8046,42.93477],[140.80156,42.93189],[140.77594,42.93303],[140.77326,42.90296]]]}}]}