{"type":"FeatureCollection","features":[{"type":"Feature","properties":{"route_id":"162","route_number":162,"name":"国道162号","source":"OpenStreetMap contributors (ODbL)","osm_relations":[8602705,9143479,9143480,10033451]},"geometry":{"type":"MultiLineString","coordinates":[[[136.08053,35.63337],[136.07389,35.63179],[136.05272,35.63352],[136.00558,35.63333],[136.00162,35.63217],[135.99715,35.62967],[135.99432,35.62686],[135.99289,35.62245],[135.99077,35.61992],[135.9779,35.61289],[135.96178,35.61404],[135.95804,35.61061],[135.95033,35.60768],[135.93802,35.60416],[135.92926,35.60292],[135.92201,35.59776],[135.9182,35.59298],[135.91195,35.58856],[135.9105,35.58635],[135.91042,35.57916],[135.90926,35.57562],[135.90879,35.56694],[135.91095,35.55466],[135.90918,35.55194],[135.90651,35.55226],[135.90385,35.55377],[135.90272,35.55538],[135.90068,35.55554],[135.89899,35.55793],[135.89649,35.55826],[135.89468,35.5595],[135.89188,35.55924],[135.89031,35.5602],[135.88978,35.56206],[135.88741,35.56107],[135.88646,35.55882],[135.88469,35.55812],[135.88302,35.55815],[135.87961,35.56016],[135.87666,35.55952],[135.87486,35.55799],[135.87192,35.55796],[135.87046,35.55886],[135.86983,35.56073],[135.86635,35.56436],[135.8642,35.5643],[135.86096,35.56671],[135.85321,35.56981],[135.85062,35.56993],[135.84931,35.57106],[135.84384,35.57065],[135.84099,35.56787],[135.84067,35.56574],[135.84249,35.56438],[135.83975,35.56204],[135.83477,35.56076],[135.82779,35.55311],[135.83043,35.54915],[135.83002,35.54641],[135.83413,35.54357],[135.83858,35.53828],[135.83848,35.53694],[135.83684,35.53591],[135.8297,35.53383],[135.81277,35.52622],[135.80208,35.52582],[135.79887,35.52356],[135.7961,35.52615],[135.79521,35.5306],[135.79393,35.53076],[135.79214,35.52969],[135.78904,35.53056],[135.78627,35.53348],[135.78341,35.53434],[135.77338,35.53259],[135.77017,35.53309],[135.76485,35.53252],[135.76301,35.53061],[135.75935,35.52984],[135.75554,35.53119],[135.75366,35.53095],[135.75264,35.52989],[135.75125,35.52398],[135.75147,35.52172],[135.75343,35.51876],[135.75294,35.51269],[135.74736,35.50415],[135.7456,35.49714],[135.74556,35.49223],[135.75627,35.49037],[135.7563,35.48945],[135.75461,35.48924],[135.7579,35.48829],[135.7508,35.48456],[135.74558,35.47712],[135.73929,35.47424],[135.73121,35.4687],[135.72176,35.45684],[135.71902,35.45571],[135.7155,35.45187],[135.70937,35.45114],[135.7017,35.44602],[135.70042,35.44426],[135.70079,35.44224],[135.69978,35.43861],[135.69297,35.43534],[135.69283,35.43175],[135.69402,35.42907],[135.69072,35.42757],[135.6869,35.4223],[135.6807,35.41727],[135.68207,35.41101],[135.68763,35.40712],[135.68939,35.40369],[135.68907,35.40191],[135.68449,35.39943],[135.67998,35.39912],[135.6718,35.40077],[135.66573,35.4043],[135.65381,35.40711],[135.64334,35.40639],[135.63889,35.40886],[135.63266,35.40833],[135.6309,35.40745],[135.62863,35.4046],[135.6283,35.40084],[135.62713,35.39984],[135.62502,35.39994],[135.62029,35.40255],[135.61876,35.40204],[135.61674,35.39878],[135.61127,35.39952],[135.60854,35.39699],[135.60163,35.39762],[135.59899,35.39531],[135.59642,35.39493],[135.59283,35.3963],[135.58927,35.3951],[135.58712,35.39654],[135.58407,35.39514],[135.58337,35.39195],[135.58432,35.39074],[135.58267,35.38835],[135.58214,35.38467],[135.58373,35.38339],[135.58287,35.38563],[135.58537,35.38723],[135.58565,35.38879],[135.58693,35.38889],[135.58787,35.38656],[135.59414,35.38293],[135.59729,35.37924],[135.59872,35.35834],[135.59564,35.35333],[135.59505,35.34936],[135.59143,35.34817],[135.59154,35.34656],[135.58963,35.34452],[135.58999,35.34289],[135.58851,35.34143],[135.58552,35.34157],[135.57981,35.33688],[135.57267,35.33421],[135.56914,35.33378],[135.56697,35.3314],[135.56714,35.32852],[135.56524,35.32618],[135.56476,35.32262],[135.55731,35.32188],[135.55626,35.32117],[135.55718,35.31406],[135.5542,35.3113],[135.55597,35.30788],[135.55591,35.30504],[135.5578,35.30392],[135.55879,35.30185],[135.55696,35.29955],[135.5566,35.29771],[135.5577,35.29116],[135.55223,35.28751],[135.55458,35.28379],[135.55502,35.27902],[135.55701,35.27767],[135.56625,35.27595],[135.56547,35.27677],[135.56797,35.27724],[135.57188,35.27604],[135.57361,35.27675],[135.57671,35.27566],[135.57732,35.27633],[135.57817,35.27501],[135.58769,35.27781],[135.59334,35.27217],[135.59487,35.26816],[135.59831,35.26584],[135.61245,35.2595],[135.61461,35.25743],[135.61842,35.25733],[135.62141,35.2563],[135.62514,35.25663],[135.64329,35.24888],[135.64638,35.24909],[135.65031,35.24757],[135.6523,35.24482],[135.65349,35.23881],[135.66196,35.23231],[135.66564,35.23144],[135.66505,35.22858],[135.66016,35.22777],[135.65232,35.22368],[135.64875,35.2186],[135.64126,35.21237],[135.6414,35.20569],[135.63888,35.19539],[135.63583,35.18981],[135.63186,35.17696],[135.62906,35.17289],[135.6294,35.16681],[135.63106,35.16484],[135.63311,35.16007],[135.63551,35.14786],[135.64077,35.14458],[135.64376,35.14417],[135.64685,35.14258],[135.64992,35.13908],[135.65002,35.13534],[135.64588,35.12818],[135.6465,35.12349],[135.64877,35.12185],[135.65458,35.12017],[135.66683,35.11364],[135.67135,35.11414],[135.67311,35.11359],[135.67426,35.11111],[135.68008,35.1068],[135.6793,35.10554],[135.67755,35.1049],[135.67777,35.10345],[135.67637,35.10217],[135.67625,35.10047],[135.67734,35.09832],[135.67939,35.09752],[135.68187,35.09779],[135.68469,35.10034],[135.6855,35.09884],[135.68695,35.09966],[135.6891,35.09936],[135.69101,35.09665],[135.68663,35.09298],[135.68534,35.09023],[135.68708,35.07982],[135.68525,35.07345],[135.6858,35.07139],[135.68379,35.07017],[135.68412,35.0684],[135.68243,35.06725],[135.68328,35.06416],[135.68111,35.06337],[135.68061,35.06167],[135.67666,35.05727],[135.67651,35.05559],[135.67413,35.05649],[135.67392,35.05592],[135.67557,35.05525],[135.67592,35.05305],[135.67733,35.05374],[135.67836,35.05195],[135.67919,35.05184],[135.68037,35.04938],[135.68021,35.04725],[135.68115,35.04742],[135.68195,35.04591],[135.68297,35.04658],[135.68486,35.0449],[135.68821,35.03833],[135.69357,35.037],[135.70259,35.03294],[135.70449,35.03088],[135.70881,35.0289],[135.70951,35.02538],[135.71164,35.02297],[135.71665,35.01347],[135.71664,34.99613],[135.73224,34.99625]],[[135.73225,34.99617],[135.71987,34.99611]],[[136.08053,35.63331],[136.07458,35.6317],[136.05283,35.63342],[136.02301,35.63358],[136.00502,35.63278],[136.00041,35.63133],[135.99633,35.62866],[135.99421,35.62609],[135.99271,35.62197],[135.99026,35.61936],[135.9779,35.61289]],[[135.71676,35.00803],[135.7166,35.01347],[135.71529,35.01643]]]}}]}