{"type":"FeatureCollection","features":[{"type":"Feature","properties":{"route_id":"101","route_number":101,"name":"国道101号","source":"OpenStreetMap contributors (ODbL)","osm_relations":[2974949,2974950,2974952,10220240,10220241,14369652]},"geometry":{"type":"MultiLineString","coordinates":[[[139.84641,39.92007],[139.84377,39.9201],[139.84165,39.92151],[139.84148,39.92251],[139.83978,39.92219],[139.83743,39.92333],[139.83568,39.92815],[139.83546,39.93252],[139.8365,39.93561],[139.82305,39.9377],[139.82097,39.94054],[139.81962,39.94483],[139.81587,39.94624],[139.81656,39.94719],[139.8107,39.95407],[139.81171,39.95528],[139.81473,39.95675],[139.81687,39.95927],[139.83032,39.96417],[139.83154,39.96394],[139.83455,39.96578],[139.83912,39.96667],[139.84319,39.96432],[139.84738,39.96551],[139.84968,39.96823],[139.85341,39.97058],[139.85427,39.97296],[139.85688,39.97431],[139.86574,39.97387],[139.87194,39.97075],[139.8762,39.97135],[139.87268,39.97627],[139.87087,39.9813],[139.8717,39.98432],[139.87524,39.98497],[139.87776,39.98605],[139.87951,39.98811],[139.88185,39.988],[139.88574,39.98994],[139.88689,39.99369],[139.88819,39.99531],[139.8902,39.99682],[139.89577,39.99843],[139.89834,40.0018],[139.89907,40.00456],[139.90316,40.00644],[139.90417,40.00831],[139.90397,40.00989],[139.90652,40.01246],[139.91176,40.01158],[139.91376,40.01166],[139.91485,40.01261],[139.91704,40.01235],[139.9187,40.01473],[139.92554,40.01823],[139.92386,40.02513],[139.92419,40.02859],[139.92566,40.03115],[139.93952,40.03557],[139.95012,40.0458],[139.95433,40.05505],[139.95426,40.05684],[139.95678,40.05935],[139.95466,40.06114],[139.95456,40.06213],[139.95881,40.06501],[139.95953,40.06645],[139.95921,40.06778],[139.96222,40.06947],[139.96745,40.07841],[139.96936,40.08031],[139.97272,40.08131],[139.97415,40.08282],[139.97538,40.08736],[139.97833,40.09064],[139.97992,40.0941],[139.98498,40.09402],[139.98971,40.09598],[140.00188,40.09609],[140.00559,40.10798],[140.0047,40.11061],[140.00841,40.13049],[140.01881,40.15695],[140.01404,40.16075],[140.01186,40.16418],[140.01095,40.17667],[140.01157,40.18349],[140.01271,40.18726],[140.01479,40.18966],[140.01726,40.19059],[140.02282,40.19083],[140.02249,40.20429],[140.02605,40.21684],[140.02427,40.22687],[140.02464,40.23094],[140.02562,40.23292],[140.03133,40.23779],[140.03211,40.24076],[140.03148,40.24811],[140.03308,40.25167],[140.02963,40.26047],[140.02888,40.27116],[140.03313,40.28672],[140.03682,40.29103],[140.03715,40.29263],[140.03499,40.29587],[140.03595,40.29992],[140.03158,40.32573],[140.03147,40.33408],[140.02758,40.34928],[140.02422,40.35601],[140.02442,40.35958],[140.01886,40.36635],[140.0193,40.36988],[140.01834,40.37247],[140.01319,40.37751],[140.00498,40.3781],[139.9997,40.38251],[139.99578,40.38302],[139.98483,40.38794],[139.98167,40.39098],[139.9826,40.39297],[139.98334,40.39896],[139.97977,40.402],[139.97396,40.40209],[139.95699,40.41157],[139.95569,40.41377],[139.95127,40.41593],[139.94759,40.42321],[139.94031,40.42883],[139.94138,40.43054],[139.94087,40.43254],[139.94189,40.43524],[139.94092,40.43702],[139.94177,40.43817],[139.94055,40.43963],[139.93967,40.44629],[139.94305,40.4495],[139.94214,40.45208],[139.94284,40.45746],[139.94447,40.46019],[139.94446,40.46243],[139.94633,40.46485],[139.94502,40.46791],[139.94682,40.47027],[139.95124,40.49559],[139.9499,40.5047],[139.95068,40.50768],[139.95112,40.51993],[139.9481,40.53112],[139.94673,40.54022],[139.9447,40.5462],[139.94484,40.54802],[139.93974,40.55598],[139.93572,40.55889],[139.93328,40.57052],[139.93109,40.5742],[139.93059,40.57727],[139.92793,40.58071],[139.92454,40.5822],[139.92241,40.58441],[139.91924,40.5861],[139.91495,40.58701],[139.91098,40.58651],[139.90723,40.58706],[139.90083,40.58469],[139.89292,40.58514],[139.88747,40.58676],[139.88259,40.58664],[139.88078,40.58886],[139.87433,40.59121],[139.87272,40.59383],[139.87369,40.59873],[139.8682,40.60309],[139.86695,40.606],[139.86782,40.60812],[139.87072,40.61058],[139.87181,40.61439],[139.87142,40.61619],[139.8729,40.6193],[139.87833,40.62403],[139.88741,40.62863],[139.88926,40.62875],[139.89571,40.63175],[139.89611,40.63463],[139.90043,40.63861],[139.90159,40.64088],[139.90469,40.64293],[139.91411,40.64094],[139.91877,40.64364],[139.92271,40.64368],[139.92514,40.64156],[139.92885,40.64186],[139.9304,40.64502],[139.92806,40.64685],[139.92961,40.65252],[139.93501,40.65415],[139.93661,40.6535],[139.93798,40.65407],[139.93835,40.65581],[139.93728,40.65827],[139.9384,40.66023],[139.93828,40.66171],[139.94376,40.66584],[139.95183,40.67046],[139.95326,40.67263],[139.95537,40.67355],[139.95919,40.67877],[139.96453,40.68247],[139.96992,40.68058],[139.97318,40.6818],[139.97384,40.68411],[139.97231,40.686],[139.97552,40.68691],[139.9751,40.68905],[139.97648,40.68932],[139.97787,40.69549],[139.98356,40.70174],[139.98386,40.70763],[139.9878,40.71441],[139.9882,40.71691],[139.98753,40.71996],[139.98991,40.7223],[139.99353,40.72819],[139.99564,40.73377],[139.99812,40.73483],[140.00119,40.73863],[140.00123,40.73985],[139.99916,40.74261],[140.00168,40.74413],[140.00586,40.74346],[140.01668,40.74766],[140.02022,40.75002],[140.02668,40.74995],[140.02875,40.7535],[140.03661,40.76046],[140.03768,40.76252],[140.04373,40.76373],[140.05654,40.76861],[140.06096,40.7677],[140.06828,40.76464],[140.0739,40.76025],[140.08057,40.75749],[140.08361,40.75704],[140.08509,40.75588],[140.0878,40.7494],[140.09507,40.74426],[140.10181,40.74083],[140.11565,40.7402],[140.12551,40.74166],[140.14006,40.7477],[140.15535,40.7583],[140.15756,40.75795],[140.16113,40.75902],[140.16962,40.76908],[140.17624,40.77269],[140.18676,40.77571],[140.19023,40.7814],[140.19651,40.78361],[140.20059,40.78273],[140.2045,40.78422],[140.20681,40.77989],[140.21307,40.77802],[140.21655,40.7782],[140.2213,40.77689],[140.2231,40.77936],[140.23714,40.78528],[140.24358,40.78965],[140.25004,40.78958],[140.25558,40.79066],[140.27172,40.79071],[140.27582,40.79208],[140.28336,40.79266],[140.30138,40.79059],[140.31203,40.78692],[140.31907,40.78546],[140.35982,40.78172],[140.3914,40.8006],[140.42318,40.80641],[140.42922,40.80874],[140.4424,40.81043],[140.44422,40.80785],[140.44418,40.80477],[140.44642,40.794],[140.44889,40.79088],[140.45483,40.78885],[140.47582,40.77792],[140.48177,40.77684],[140.4914,40.77874],[140.5045,40.77969],[140.51314,40.77591],[140.52634,40.76784],[140.53367,40.76555],[140.53627,40.7658],[140.53974,40.76371],[140.56467,40.7642],[140.56734,40.76205],[140.56951,40.76152],[140.57079,40.75944],[140.57931,40.75737],[140.58253,40.75893],[140.59192,40.76007],[140.59363,40.76588],[140.5978,40.76971],[140.59974,40.77491],[140.60177,40.77676],[140.60368,40.77733],[140.60731,40.77651],[140.61453,40.77737],[140.62415,40.78122],[140.62621,40.7842],[140.62672,40.78788],[140.6259,40.79162],[140.6222,40.79748],[140.62214,40.79968],[140.623,40.80136],[140.62491,40.80299],[140.63238,40.80646],[140.63719,40.81238],[140.64574,40.81523],[140.65304,40.82442],[140.66346,40.83197],[140.67671,40.83521],[140.68768,40.83368],[140.69733,40.83333],[140.70261,40.83176],[140.70958,40.82689],[140.71587,40.82726],[140.74136,40.8236]],[[140.23714,40.78528],[140.2379,40.78173],[140.23322,40.77876],[140.22962,40.77824],[140.22243,40.77419],[140.21977,40.77045],[140.2177,40.76928],[140.21416,40.7696],[140.20562,40.77404],[140.19122,40.77626],[140.1834,40.77183],[140.16974,40.7697],[140.16344,40.7638],[140.15535,40.7583]],[[140.74133,40.82349],[140.71581,40.82718],[140.70998,40.82673],[140.70751,40.82791]],[[139.90704,40.01253],[139.90837,40.01489],[139.9081,40.01599],[139.91011,40.01737],[139.91151,40.02109],[139.9131,40.02159],[139.91357,40.02374],[139.92148,40.03034],[139.92356,40.03381],[139.92785,40.03474],[139.92977,40.0377],[139.93198,40.0385],[139.93417,40.04513],[139.93339,40.04614],[139.94118,40.05153],[139.94024,40.05478],[139.94508,40.06267],[139.94413,40.06391],[139.96006,40.08858],[139.96221,40.09379],[139.96452,40.09434],[139.96681,40.09792],[139.97649,40.09432],[139.97992,40.0941]],[[140.08738,39.71863],[140.08752,39.72437],[140.08525,39.72682],[140.0806,39.72914],[140.07763,39.73519],[140.07081,39.74108],[140.06752,39.74756],[140.06687,39.75315],[140.06896,39.76982],[140.06909,39.77674],[140.06573,39.78427],[140.06031,39.80078],[140.05573,39.80802],[140.05459,39.82904],[140.05021,39.84252],[140.05237,39.84863],[140.06705,39.85559],[140.05231,39.86475],[140.04395,39.86727],[140.03876,39.86714],[140.03029,39.86506],[140.0206,39.8639],[140.00902,39.86051],[139.99665,39.87205],[139.98031,39.88392],[139.96993,39.88575],[139.96127,39.89111],[139.93781,39.90257],[139.91795,39.90763],[139.90388,39.90749],[139.89853,39.90625],[139.89425,39.90262],[139.88822,39.90015],[139.86606,39.89786],[139.86416,39.89894],[139.85918,39.90468],[139.85504,39.91453],[139.84967,39.9192],[139.84662,39.92009]],[[140.05208,39.84835],[140.05294,39.85128],[140.06184,39.86453],[140.06218,39.86861],[140.05813,39.8663],[140.05559,39.8679],[140.05078,39.86638],[140.04545,39.86743],[140.03809,39.86551],[140.03218,39.86849],[140.01916,39.86885],[140.01597,39.86676],[140.01236,39.86724],[140.00642,39.86321]],[[139.89986,39.9069],[139.89922,39.90798],[139.89969,39.91274],[139.89848,39.91486],[139.88961,39.91654],[139.87978,39.90886],[139.87841,39.9091],[139.8777,39.90832],[139.87628,39.90912],[139.87338,39.90565],[139.87195,39.90556],[139.8713,39.90344],[139.86775,39.90273],[139.8672,39.89986],[139.86416,39.89894],[139.86769,39.89763],[139.881,39.89944],[139.88753,39.89927],[139.89133,39.90063],[139.89859,39.90619],[139.90797,39.90774],[139.91793,39.90756],[139.93712,39.90269],[139.96048,39.89142],[139.96989,39.88567],[139.98025,39.88385],[139.99763,39.87115],[140.00902,39.86051]],[[139.88689,39.99369],[139.88248,39.99122],[139.87872,39.99034],[139.87497,39.98737],[139.86927,39.98552],[139.86743,39.9825],[139.8631,39.97971],[139.85905,39.97525],[139.85688,39.97431]],[[140.08721,39.71861],[140.08733,39.72447],[140.08515,39.72678],[140.08051,39.72907],[140.07701,39.73582],[140.07089,39.7408],[140.06851,39.74439],[140.06706,39.74974]],[[140.69037,40.83345],[140.67649,40.8351],[140.66377,40.83197],[140.65315,40.82436],[140.6504,40.82007],[140.64584,40.81515],[140.64215,40.81396]],[[140.16962,40.76908],[140.16913,40.76936]],[[139.84645,39.92012],[139.84645,39.92012]],[[139.84642,39.92003],[139.84631,39.92004]],[[139.84673,39.92006],[139.84663,39.92004]]]}}]}