{"type":"FeatureCollection","features":[{"type":"Feature","properties":{"route_id":"458","route_number":458,"name":"国道458号","source":"OpenStreetMap contributors (ODbL)","osm_relations":[9383269]},"geometry":{"type":"MultiLineString","coordinates":[[[140.25953,38.12857],[140.25593,38.13393],[140.25892,38.13685],[140.26191,38.14198],[140.2679,38.15677],[140.26962,38.15842],[140.28221,38.16493],[140.28312,38.16857],[140.28089,38.16969],[140.28467,38.17149],[140.28613,38.17605],[140.28279,38.17782],[140.27943,38.18404],[140.2752,38.19772],[140.27533,38.20244],[140.27928,38.21487],[140.27351,38.22058],[140.27431,38.23109],[140.27012,38.2437],[140.26709,38.24731],[140.26661,38.25757],[140.26484,38.26108],[140.26473,38.27414],[140.26785,38.28124],[140.26684,38.28687],[140.26799,38.29381],[140.26918,38.29381],[140.26948,38.30233],[140.26275,38.30498],[140.26296,38.31291],[140.25619,38.32415],[140.25617,38.32787],[140.266,38.32751],[140.26562,38.33976],[140.26277,38.34347],[140.262,38.35116],[140.26007,38.35444],[140.25602,38.35831],[140.24202,38.36315],[140.23491,38.36612],[140.23253,38.36793],[140.22312,38.37081],[140.21535,38.37925],[140.205,38.38069],[140.20609,38.38224],[140.20395,38.38744],[140.20426,38.38864],[140.20624,38.3893],[140.20822,38.38761],[140.21116,38.3879],[140.20806,38.39216],[140.20885,38.39483],[140.21095,38.39773],[140.20776,38.40158],[140.20287,38.40461],[140.20401,38.41154],[140.19602,38.41379],[140.20175,38.43382],[140.19959,38.43928],[140.19971,38.44273],[140.20187,38.44997],[140.20125,38.45196],[140.20606,38.46482],[140.2049,38.46947],[140.20603,38.47479],[140.20521,38.47679],[140.20032,38.48128],[140.19758,38.48676],[140.1923,38.49014],[140.189,38.49131],[140.18786,38.49352],[140.18378,38.4961],[140.18346,38.49724],[140.1792,38.49888],[140.17871,38.49998],[140.17686,38.50078],[140.1764,38.50209],[140.17299,38.50347],[140.17165,38.50482],[140.17249,38.50741],[140.1712,38.50566],[140.16808,38.50556],[140.16596,38.5065],[140.16899,38.50707],[140.16843,38.50791],[140.1663,38.50724],[140.16839,38.50881],[140.16632,38.50851],[140.16352,38.51068],[140.16058,38.51032],[140.16088,38.5126],[140.1582,38.51226],[140.1578,38.5144],[140.15611,38.51568],[140.15858,38.51602],[140.15996,38.51706],[140.15965,38.51988],[140.1581,38.52078],[140.15967,38.52277],[140.15889,38.52523]],[[140.15891,38.52534],[140.15969,38.5277],[140.16065,38.52815],[140.15986,38.5287],[140.16118,38.52987],[140.15921,38.53098],[140.16053,38.53158],[140.16054,38.53399],[140.16222,38.5333],[140.1629,38.53524],[140.16409,38.53517],[140.16709,38.53216],[140.16763,38.53365],[140.16712,38.53424],[140.16875,38.53493],[140.16764,38.53603],[140.16653,38.53592],[140.16514,38.53874],[140.1699,38.53929],[140.17214,38.53656],[140.17255,38.53893],[140.17337,38.53783],[140.17471,38.53785],[140.17392,38.53954],[140.17549,38.54016],[140.17862,38.53836],[140.17996,38.54098],[140.18151,38.54008],[140.18251,38.53796],[140.18311,38.53991],[140.18232,38.54227],[140.18291,38.54346],[140.18393,38.54347],[140.18251,38.54414],[140.17984,38.54365],[140.17963,38.54547],[140.17799,38.54737],[140.17844,38.54896],[140.17772,38.55115],[140.1785,38.55331],[140.18002,38.5549],[140.18212,38.55481],[140.18044,38.55628],[140.17808,38.55536],[140.17873,38.55881],[140.1776,38.5604],[140.17861,38.56159],[140.17867,38.56416],[140.1779,38.56857],[140.17623,38.57186],[140.18298,38.57787],[140.18251,38.57887],[140.18446,38.57906],[140.18298,38.57954],[140.18356,38.58299],[140.18186,38.58368],[140.1821,38.58527],[140.1803,38.5893],[140.18216,38.58837],[140.18269,38.58894],[140.17955,38.59121],[140.18002,38.59314],[140.18116,38.59376],[140.17951,38.59381],[140.17884,38.59523],[140.17862,38.59696],[140.17978,38.59887],[140.17801,38.59833],[140.17456,38.60025],[140.17424,38.60291],[140.17275,38.60343],[140.17303,38.60455],[140.17205,38.60456],[140.1711,38.60826],[140.176,38.61177],[140.18065,38.61308],[140.18241,38.61148],[140.18216,38.61064],[140.18423,38.61158],[140.18659,38.60997],[140.19188,38.61487],[140.1926,38.61902],[140.20321,38.62473],[140.20467,38.63005],[140.2031,38.63214],[140.20335,38.63591],[140.202,38.63952],[140.20213,38.64218],[140.20499,38.64265],[140.20587,38.64408],[140.20714,38.64404],[140.20757,38.64536],[140.20983,38.64627],[140.20973,38.64893],[140.21293,38.6533],[140.2114,38.65468],[140.21245,38.65638],[140.21068,38.66014],[140.20956,38.66801],[140.21122,38.67076],[140.21609,38.67326],[140.2178,38.67605],[140.22229,38.68016],[140.22329,38.68268],[140.22818,38.68867],[140.22929,38.69112],[140.23181,38.69353],[140.23382,38.69764],[140.23347,38.70357],[140.22868,38.71014],[140.22957,38.71479],[140.22838,38.72215],[140.22518,38.72483],[140.22841,38.7278],[140.22912,38.7304],[140.23368,38.73528],[140.23561,38.73989],[140.23841,38.74051],[140.24193,38.73964],[140.24146,38.7492],[140.23994,38.75458],[140.23226,38.76691],[140.22957,38.76977],[140.22498,38.77162],[140.22409,38.77289],[140.223,38.77187],[140.22327,38.77395],[140.22694,38.78118],[140.2265,38.78236],[140.22243,38.78427],[140.2207,38.786],[140.21979,38.78857],[140.22028,38.79532],[140.23469,38.78476],[140.24483,38.78196],[140.24912,38.77917],[140.25403,38.78048],[140.25692,38.77985],[140.26484,38.78057],[140.2673,38.77805],[140.27097,38.77758],[140.27998,38.7714],[140.28738,38.76852],[140.29044,38.76999],[140.29645,38.76898],[140.29902,38.77343],[140.30484,38.77103],[140.3106,38.77143]]]}}]}