{"type":"FeatureCollection","features":[{"type":"Feature","properties":{"route_id":"29","route_number":29,"name":"国道29号","source":"OpenStreetMap contributors (ODbL)","osm_relations":[2773842,2829088,7437141,9051808,9051809]},"geometry":{"type":"MultiLineString","coordinates":[[[134.60462,34.85087],[134.60787,34.85591],[134.61749,34.86134],[134.61925,34.87101],[134.6174,34.87359],[134.61369,34.87659],[134.60648,34.87962],[134.60466,34.88216],[134.60423,34.88423],[134.60487,34.88743],[134.60358,34.89075],[134.59817,34.89305],[134.59107,34.89194],[134.5854,34.89646],[134.58405,34.89971],[134.58581,34.90873],[134.58502,34.90945],[134.58095,34.91],[134.57979,34.91098],[134.57817,34.92367],[134.5763,34.92872],[134.58032,34.93818],[134.58413,34.96054],[134.58369,34.96293],[134.58054,34.96659],[134.57943,34.96934],[134.58335,34.9738],[134.5864,34.97881],[134.59113,34.98251],[134.59292,34.98498],[134.58721,34.99061],[134.57944,34.9914],[134.5723,34.99381],[134.54953,34.99591],[134.54792,34.99674],[134.54706,34.99852],[134.54879,35.01335],[134.55307,35.02714],[134.55116,35.03308],[134.55389,35.03668],[134.56069,35.04306],[134.57363,35.05093],[134.57586,35.05597],[134.57287,35.05964],[134.57411,35.06522],[134.57614,35.06659],[134.58305,35.06624],[134.58648,35.06871],[134.5893,35.08441],[134.58605,35.09018],[134.58458,35.09755],[134.58117,35.10528],[134.58111,35.10727],[134.57368,35.11235],[134.56844,35.11776],[134.56916,35.12075],[134.56744,35.12856],[134.56081,35.1317],[134.55582,35.13844],[134.55317,35.14018],[134.54146,35.14278],[134.53979,35.14404],[134.53905,35.14601],[134.53941,35.14812],[134.54571,35.15656],[134.54422,35.16078],[134.54452,35.16671],[134.54388,35.16961],[134.54453,35.17159],[134.53663,35.17827],[134.53349,35.18576],[134.52742,35.18672],[134.52552,35.18787],[134.52686,35.19329],[134.52622,35.19572],[134.52487,35.19786],[134.52129,35.1998],[134.52181,35.20256],[134.51807,35.20551],[134.5182,35.20685],[134.51996,35.20899],[134.52323,35.21144],[134.52329,35.21324],[134.52124,35.2148],[134.52384,35.21688],[134.5239,35.21889],[134.5296,35.2211],[134.52938,35.2224],[134.53065,35.22396],[134.52984,35.22783],[134.53522,35.22883],[134.53714,35.23074],[134.53988,35.22901],[134.54342,35.23086],[134.54456,35.23294],[134.54817,35.23623],[134.54976,35.24104],[134.54897,35.24488],[134.55073,35.24796],[134.54551,35.25279],[134.54657,35.25638],[134.54472,35.25892],[134.5452,35.26156],[134.54338,35.26338],[134.54411,35.26503],[134.54373,35.2679],[134.54047,35.27123],[134.54045,35.27518],[134.54814,35.28231],[134.54613,35.28423],[134.5466,35.28536],[134.54602,35.28817],[134.54367,35.29087],[134.54411,35.29383],[134.54231,35.29538],[134.54304,35.29622],[134.54284,35.29869],[134.5406,35.29834],[134.53543,35.29988],[134.53038,35.29949],[134.52446,35.29589],[134.50656,35.29667],[134.50013,35.29775],[134.4975,35.29709],[134.49436,35.29856],[134.49131,35.29796],[134.49293,35.29732],[134.49088,35.29703],[134.48855,35.2954],[134.48625,35.29588],[134.48502,35.29456],[134.48407,35.29673],[134.4818,35.29786],[134.48085,35.29683],[134.47893,35.29698],[134.4784,35.29559],[134.47574,35.2936],[134.47329,35.29399],[134.47301,35.29595],[134.47126,35.2961],[134.47057,35.29795],[134.46562,35.29941],[134.45913,35.29773],[134.45713,35.29614],[134.45002,35.29411],[134.44653,35.2923],[134.441,35.29428],[134.4358,35.29991],[134.43165,35.30108],[134.42893,35.30821],[134.42411,35.31074],[134.41818,35.31607],[134.41753,35.32446],[134.41374,35.32746],[134.40794,35.33],[134.40648,35.33543],[134.40368,35.33856],[134.40012,35.34501],[134.39668,35.34786],[134.38978,35.34996],[134.38501,35.35338],[134.3807,35.35797],[134.37845,35.36079],[134.37789,35.36588],[134.37653,35.36751],[134.37266,35.36772],[134.36912,35.36549],[134.36552,35.36175],[134.35878,35.3612],[134.34503,35.36317],[134.33858,35.36646],[134.3278,35.36752],[134.32427,35.3664],[134.31601,35.36656],[134.31269,35.36799],[134.30736,35.37283],[134.29222,35.37949],[134.29047,35.3827],[134.28701,35.38633],[134.28225,35.38933],[134.27589,35.39519],[134.27013,35.39698],[134.2654,35.40083],[134.26044,35.40171],[134.25441,35.40765],[134.25379,35.4092],[134.25624,35.4166],[134.26184,35.42206],[134.2623,35.42345],[134.25717,35.43471],[134.25576,35.44072],[134.25583,35.4464],[134.25356,35.44884],[134.24596,35.45229],[134.2436,35.45489],[134.24309,35.46847],[134.24171,35.4714],[134.23784,35.47285],[134.2293,35.47319],[134.22257,35.47666],[134.22896,35.47316],[134.2395,35.47241]],[[134.60452,34.85089],[134.60766,34.85585],[134.61579,34.85994],[134.61759,34.86165],[134.61924,34.86948],[134.61863,34.87214]],[[134.24792,35.4511],[134.24507,35.45283],[134.24314,35.45575],[134.24292,35.46936]],[[134.21634,35.52183],[134.20714,35.51933],[134.20248,35.51939],[134.20142,35.50161],[134.20568,35.4831],[134.20416,35.48275],[134.20238,35.48015],[134.19915,35.47924]],[[134.20568,35.4831],[134.20666,35.48118],[134.20859,35.47984],[134.21583,35.47833],[134.2083,35.47987],[134.20557,35.48308],[134.20414,35.48263],[134.20257,35.48022],[134.19914,35.47919]],[[134.22257,35.47666],[134.21583,35.47833]],[[134.20557,35.48308],[134.20131,35.50167],[134.20237,35.5195],[134.20707,35.51941],[134.21619,35.52215]],[[134.60641,34.87975],[134.61014,34.87835]]]}}]}