{"type":"FeatureCollection","features":[{"type":"Feature","properties":{"route_id":"497","route_number":497,"name":"国道497号","source":"OpenStreetMap contributors (ODbL)","osm_relations":[9361962]},"geometry":{"type":"MultiLineString","coordinates":[[[130.18407,33.5304],[130.19187,33.53356],[130.1987,33.54022],[130.20617,33.54501],[130.2234,33.55337],[130.23552,33.56319],[130.24562,33.5671],[130.25166,33.57171],[130.26075,33.57483],[130.26364,33.57488],[130.27127,33.57241],[130.28514,33.57314],[130.29035,33.57015],[130.29326,33.56935],[130.31538,33.56868],[130.31667,33.56932],[130.31696,33.57049]],[[130.31688,33.57098],[130.31659,33.56914],[130.31485,33.56826],[130.29398,33.56915],[130.29031,33.57008],[130.28522,33.57304],[130.2718,33.57229],[130.26362,33.5748],[130.26077,33.57475],[130.25168,33.5716],[130.24568,33.567],[130.23559,33.5631],[130.22276,33.55285],[130.20627,33.54494],[130.19878,33.54014],[130.19194,33.53349],[130.1844,33.53041]],[[130.3188,33.56202],[130.31695,33.56772],[130.31078,33.56847]],[[130.31256,33.56855],[130.31584,33.56838],[130.31755,33.56724],[130.31981,33.55799]]]}}]}