{"type":"FeatureCollection","features":[{"type":"Feature","properties":{"route_id":"340","route_number":340,"name":"国道340号","source":"OpenStreetMap contributors (ODbL)","osm_relations":[7259555,11109834,11109835,11109836,11109837,11109838,11109839]},"geometry":{"type":"MultiLineString","coordinates":[[[141.67562,39.45556],[141.66703,39.44306],[141.66435,39.43538],[141.663,39.43392],[141.66351,39.43485],[141.66286,39.43643],[141.66463,39.43702],[141.66335,39.44061],[141.66545,39.43895],[141.66693,39.43986],[141.66553,39.44458],[141.66853,39.44368],[141.67306,39.44583],[141.67497,39.44558],[141.67618,39.44632],[141.67765,39.44491],[141.67836,39.44628],[141.67983,39.44579],[141.67828,39.44848],[141.68103,39.44904],[141.67701,39.4521],[141.67653,39.45318],[141.67813,39.4541],[141.67587,39.45431],[141.67562,39.45556],[141.67882,39.46022],[141.68332,39.46023],[141.68733,39.46256],[141.69112,39.47059],[141.68986,39.47385],[141.68993,39.47676],[141.68877,39.47877],[141.68407,39.48131],[141.68253,39.48388],[141.68332,39.49213],[141.68173,39.49333],[141.6802,39.49744],[141.67746,39.49976],[141.67209,39.50889],[141.66837,39.51986],[141.66236,39.52364],[141.66221,39.5287],[141.65776,39.53614],[141.66051,39.54001],[141.65647,39.54675],[141.65866,39.54848],[141.65893,39.55082],[141.66111,39.5538],[141.65975,39.55788],[141.66256,39.56174],[141.66257,39.56717],[141.66595,39.57101],[141.66636,39.57887],[141.66183,39.58286],[141.66194,39.58464],[141.66772,39.587],[141.66887,39.58925],[141.66855,39.59061],[141.67488,39.59341],[141.67772,39.59822],[141.6793,39.59934],[141.6852,39.59985],[141.68959,39.60218],[141.69253,39.60187],[141.69621,39.60502],[141.69703,39.60518],[141.70396,39.60113],[141.71095,39.60127],[141.71257,39.60048],[141.71502,39.59723],[141.71971,39.59597],[141.7322,39.60093],[141.74091,39.59785],[141.75647,39.59842],[141.75976,39.59751],[141.76082,39.59806],[141.76095,39.59995],[141.7636,39.60206],[141.76656,39.60292],[141.77256,39.60305],[141.77303,39.6043],[141.77197,39.60612],[141.77428,39.61062],[141.77681,39.61071],[141.78153,39.60732],[141.78613,39.60621],[141.78822,39.60993],[141.78884,39.61527],[141.79075,39.618],[141.7934,39.61874],[141.7981,39.61575],[141.80069,39.61916],[141.79323,39.62233],[141.79231,39.62481],[141.78964,39.62657],[141.78819,39.62958],[141.78578,39.63199],[141.78026,39.6338],[141.7685,39.64227],[141.7608,39.64533],[141.75832,39.64937],[141.74872,39.65403],[141.74206,39.65983],[141.73639,39.6619],[141.73378,39.66672],[141.72873,39.66969],[141.72622,39.67457],[141.71764,39.6772],[141.71396,39.68628],[141.71132,39.68862],[141.71005,39.69111],[141.70743,39.70039],[141.70435,39.70585],[141.69977,39.70721],[141.69394,39.71112],[141.69354,39.71219],[141.69553,39.71328],[141.6934,39.71368],[141.69286,39.71437],[141.69386,39.71533],[141.69167,39.7162],[141.69299,39.71737],[141.6951,39.72203],[141.68985,39.73087],[141.69019,39.73242],[141.68877,39.73386],[141.67966,39.76072],[141.67762,39.76372],[141.68073,39.77305],[141.68385,39.77457],[141.68331,39.77566],[141.68518,39.77924],[141.68433,39.78053],[141.68551,39.78238],[141.68458,39.78331],[141.6841,39.78601],[141.68473,39.78728],[141.68297,39.79093],[141.68281,39.79699],[141.68573,39.79902],[141.68478,39.80181],[141.68686,39.80343],[141.68727,39.80571],[141.69435,39.80819],[141.69496,39.81054],[141.69791,39.81181],[141.69896,39.81322],[141.70302,39.81182],[141.70473,39.81346],[141.70721,39.81373],[141.70807,39.81477],[141.7079,39.81721],[141.70931,39.81817],[141.71278,39.81834],[141.71676,39.81678],[141.7195,39.81928],[141.72135,39.81992],[141.72323,39.81786],[141.72464,39.81792],[141.72776,39.82182],[141.72926,39.82205],[141.72879,39.82595],[141.72388,39.82936],[141.72245,39.83219],[141.71017,39.8341],[141.70416,39.83651],[141.70349,39.83742],[141.70406,39.8393],[141.70299,39.84612],[141.70208,39.84758],[141.70008,39.8477],[141.69528,39.84529],[141.68919,39.84676],[141.68343,39.85253],[141.68024,39.85815],[141.6782,39.85956],[141.67588,39.85983],[141.66775,39.86713],[141.66239,39.86901],[141.65837,39.87184],[141.65494,39.87285],[141.65119,39.8752],[141.64558,39.87601],[141.64338,39.88028],[141.63984,39.88106],[141.63853,39.88304],[141.63449,39.88391],[141.63075,39.88748],[141.6265,39.889],[141.62255,39.88929],[141.61264,39.88545],[141.60999,39.88741],[141.61015,39.8895],[141.60923,39.8904],[141.6053,39.88926],[141.60391,39.89199],[141.60203,39.89274],[141.60177,39.8944],[141.59644,39.89702],[141.59311,39.90023],[141.59,39.90557],[141.58733,39.90675],[141.58503,39.91201],[141.58256,39.91535],[141.57934,39.91889],[141.57433,39.92256],[141.57213,39.92623],[141.5726,39.93106],[141.57169,39.93122],[141.57081,39.93001],[141.56887,39.93165],[141.56829,39.93038],[141.56407,39.93023],[141.55789,39.93469],[141.55826,39.93538],[141.56097,39.9357],[141.5606,39.93645],[141.55159,39.93659],[141.54938,39.93797],[141.54362,39.93854],[141.53563,39.93699],[141.53123,39.93735],[141.52745,39.93967],[141.52526,39.94384],[141.51766,39.95115],[141.5144,39.95557],[141.51003,39.95815],[141.509,39.96748],[141.49588,39.9889],[141.49164,39.99139],[141.48851,39.99574],[141.48933,39.99877],[141.46934,40.01197],[141.46443,40.01461],[141.46071,40.01542],[141.45758,40.01956],[141.45979,40.02111],[141.45912,40.02664],[141.45779,40.02871],[141.45794,40.03114],[141.45944,40.03328],[141.45737,40.03583],[141.45495,40.03657],[141.45555,40.04258],[141.45807,40.04441],[141.45845,40.0489],[141.45934,40.05019],[141.45766,40.05354],[141.45672,40.05863],[141.45974,40.06609],[141.45816,40.0715],[141.45557,40.07656],[141.45574,40.07827],[141.45765,40.08045],[141.45731,40.08326],[141.45628,40.08473],[141.45649,40.0864],[141.45423,40.08863],[141.4531,40.09173],[141.45112,40.09426],[141.45238,40.0976],[141.45022,40.09976],[141.44755,40.10759],[141.44493,40.11139],[141.43969,40.11272],[141.43388,40.12825],[141.43275,40.13016],[141.42959,40.13262],[141.42956,40.13409],[141.42758,40.13623],[141.42792,40.1379],[141.42676,40.14076],[141.4233,40.14437],[141.42252,40.14643],[141.4226,40.14805],[141.42368,40.14926],[141.42599,40.15023],[141.42868,40.15274],[141.4301,40.15826],[141.42738,40.16629],[141.42209,40.1758],[141.42322,40.17783],[141.42293,40.18061],[141.42918,40.18926],[141.42662,40.19112],[141.42638,40.2008],[141.42548,40.20301],[141.41962,40.21071],[141.41603,40.21135],[141.41469,40.21398],[141.41611,40.21594],[141.41933,40.22449],[141.41921,40.22634],[141.4173,40.22983],[141.41843,40.23203],[141.41932,40.23789],[141.41784,40.24033],[141.41287,40.24427],[141.41044,40.24918],[141.41049,40.25176],[141.41209,40.25411],[141.41158,40.25648],[141.41221,40.25794],[141.41074,40.26051],[141.41145,40.2621],[141.40887,40.26334],[141.40651,40.2668],[141.40708,40.26964],[141.40947,40.2726],[141.4099,40.27598],[141.40729,40.27866],[141.40686,40.28491],[141.40389,40.29402],[141.39706,40.30112],[141.39799,40.30421],[141.38805,40.30815],[141.38643,40.31188],[141.38425,40.31401],[141.38462,40.31683],[141.3815,40.32188],[141.38997,40.32384],[141.39106,40.3286],[141.39452,40.33352],[141.40358,40.33701],[141.41437,40.33819],[141.41535,40.33945],[141.42213,40.34332],[141.43237,40.34337],[141.43632,40.33954],[141.44101,40.3389],[141.44317,40.33656],[141.44166,40.33633],[141.44256,40.33392],[141.44193,40.33297],[141.44232,40.33112],[141.44803,40.33349],[141.45316,40.33373],[141.45565,40.33233],[141.45662,40.33341],[141.45464,40.33597],[141.4447,40.34086],[141.43907,40.34493],[141.44069,40.34879],[141.44301,40.34969],[141.44045,40.35471],[141.44229,40.35656],[141.44365,40.36017],[141.44125,40.36196],[141.44292,40.36141],[141.4425,40.36411],[141.44436,40.36429],[141.44494,40.36535],[141.44011,40.36963],[141.43818,40.37342],[141.43579,40.37436],[141.43758,40.37919],[141.43802,40.38718],[141.43788,40.38815],[141.43625,40.38914],[141.43669,40.39043],[141.43508,40.39195],[141.43591,40.39661],[141.43381,40.39946],[141.43785,40.40668],[141.43687,40.41324],[141.4444,40.42031],[141.4491,40.43033],[141.45414,40.43374],[141.46073,40.43635],[141.4636,40.43927],[141.46791,40.44109],[141.47253,40.44679],[141.47841,40.45044],[141.47924,40.45512],[141.47646,40.45816],[141.47934,40.4692],[141.47859,40.47358],[141.4804,40.48072],[141.47902,40.48784],[141.47902,40.49229],[141.48144,40.49578],[141.48201,40.50604],[141.48585,40.50695],[141.49852,40.51396]],[[141.61901,39.00341],[141.61786,39.00442],[141.61647,39.00854],[141.61626,39.01744],[141.62206,39.02145],[141.62423,39.02393],[141.62589,39.02666],[141.62561,39.02921],[141.62233,39.03145],[141.61704,39.03172],[141.61321,39.0334],[141.60556,39.03417],[141.60287,39.03522],[141.60073,39.03906],[141.60101,39.0421],[141.5954,39.04934],[141.59561,39.05169],[141.59039,39.05838],[141.58722,39.06744],[141.5818,39.07024],[141.57865,39.07761],[141.5783,39.08147],[141.58029,39.08526],[141.59014,39.09138],[141.58988,39.09667],[141.59116,39.0993],[141.5902,39.10186],[141.58711,39.10429],[141.58079,39.11306],[141.58094,39.11474],[141.58353,39.11813],[141.58372,39.11992],[141.58123,39.12824],[141.57864,39.13177],[141.577,39.13521],[141.57718,39.13655],[141.57514,39.13787],[141.57375,39.14171],[141.56577,39.14652],[141.55909,39.14591],[141.55508,39.14427],[141.54915,39.14409],[141.54717,39.14578],[141.54571,39.14884],[141.53928,39.15233],[141.54051,39.15593],[141.54309,39.15811],[141.54402,39.1602],[141.54365,39.1652],[141.54498,39.1693],[141.54477,39.17545],[141.54549,39.17717],[141.55152,39.18255],[141.55542,39.18463],[141.56596,39.1925],[141.5689,39.19366],[141.57601,39.19291],[141.57936,39.19335],[141.58586,39.19621],[141.5899,39.19948],[141.5906,39.2016],[141.59012,39.20349],[141.59196,39.20755],[141.59527,39.21007],[141.59495,39.21417],[141.59619,39.2186],[141.59529,39.22201],[141.59682,39.22598],[141.59656,39.23366],[141.59939,39.23486],[141.59907,39.23721],[141.6007,39.24076],[141.59941,39.25208],[141.59828,39.25462],[141.58781,39.26422],[141.58656,39.27039],[141.57896,39.27441],[141.57531,39.27825],[141.57466,39.28138],[141.57814,39.28934],[141.57882,39.29787],[141.57054,39.31116],[141.56265,39.32936],[141.5599,39.33146],[141.53949,39.33906],[141.54244,39.34365],[141.54665,39.34821],[141.55069,39.35051],[141.55945,39.35285],[141.56639,39.35201],[141.57144,39.35251],[141.59846,39.36551],[141.60597,39.37829],[141.60971,39.38689],[141.60961,39.38997],[141.61235,39.39356],[141.61021,39.39646],[141.61177,39.40015],[141.61098,39.40227],[141.61116,39.40567],[141.61595,39.41228],[141.61605,39.4141],[141.62024,39.41758],[141.6252,39.41927],[141.62734,39.42409],[141.63256,39.42407],[141.63678,39.42569],[141.64673,39.42645],[141.65703,39.43018],[141.6601,39.43274],[141.663,39.43392]],[[141.45132,40.43186],[141.44973,40.43076]],[[141.70852,39.60139],[141.70988,39.60143]],[[141.73301,39.60092],[141.73371,39.60077]],[[141.57109,39.31015],[141.56178,39.33016],[141.53949,39.33906]],[[141.7555,39.59825],[141.75647,39.59842]]]}}]}