{"type":"FeatureCollection","features":[{"type":"Feature","properties":{"route_id":"105","route_number":105,"name":"国道105号","source":"OpenStreetMap contributors (ODbL)","osm_relations":[2937948,3066586,3066587,10220314,10220315,10220316,10220318]},"geometry":{"type":"MultiLineString","coordinates":[[[140.0726,39.44345],[140.07699,39.44467],[140.07828,39.444],[140.0749,39.44163],[140.07401,39.43704],[140.06972,39.42993],[140.06915,39.42669],[140.06972,39.42225],[140.06789,39.41898],[140.06765,39.4162],[140.06019,39.39815],[140.05597,39.39217],[140.06326,39.38864],[140.05911,39.37881],[140.04751,39.38335],[140.04608,39.3849],[140.0427,39.38601],[140.032,39.38641]],[[140.07828,39.444],[140.08888,39.4443],[140.09891,39.44933],[140.10281,39.44585],[140.11608,39.44509],[140.1248,39.44023],[140.13047,39.44077],[140.13697,39.43985],[140.1411,39.43782],[140.14717,39.4381],[140.15069,39.44043],[140.15221,39.45016],[140.15439,39.45265],[140.16588,39.45376],[140.17632,39.45053],[140.18677,39.45247],[140.19743,39.44833],[140.21301,39.44433],[140.21632,39.44172],[140.22121,39.434],[140.22962,39.4315],[140.23302,39.42704],[140.23516,39.42671],[140.2397,39.42773],[140.24369,39.42689],[140.25142,39.42014],[140.25999,39.418],[140.26271,39.41871],[140.26952,39.41839],[140.27157,39.41441],[140.27408,39.41365],[140.27906,39.41551],[140.2852,39.41545],[140.28905,39.41401],[140.29458,39.41357],[140.29631,39.41507],[140.29709,39.41936],[140.30338,39.42064],[140.30603,39.42293],[140.30786,39.42889],[140.31049,39.43135],[140.31261,39.43518],[140.32457,39.4382],[140.33187,39.43906],[140.3356,39.44097],[140.34172,39.44209],[140.35477,39.44087],[140.36716,39.43668],[140.36967,39.43505],[140.37493,39.43463],[140.37869,39.43292],[140.38197,39.43399],[140.3866,39.43382],[140.39084,39.43587],[140.39265,39.4385],[140.39481,39.43883],[140.40028,39.43708],[140.40857,39.43102],[140.42001,39.4286],[140.42714,39.43057],[140.43824,39.42413],[140.44272,39.42369],[140.44406,39.42493],[140.44544,39.4325],[140.44851,39.44031],[140.44807,39.44619],[140.45244,39.45279],[140.45154,39.46262],[140.45245,39.46499],[140.4545,39.46654],[140.46614,39.47097],[140.46869,39.46937],[140.49693,39.49013],[140.50482,39.50323],[140.51169,39.50773],[140.51338,39.51698],[140.51994,39.52062],[140.52563,39.52692],[140.52732,39.532],[140.53231,39.53872],[140.53885,39.54171],[140.55762,39.56028],[140.56219,39.57223],[140.57663,39.59418],[140.57448,39.59806],[140.57445,39.60145],[140.56778,39.60588],[140.56816,39.60835],[140.57036,39.60961],[140.56987,39.61223],[140.57109,39.61454],[140.57199,39.61944],[140.57013,39.63282],[140.57276,39.6378],[140.57041,39.64466],[140.57097,39.65428],[140.56876,39.66631],[140.5647,39.67762],[140.56078,39.68135],[140.55725,39.68257],[140.55524,39.68452],[140.55539,39.68997],[140.55626,39.6924],[140.55769,39.69328],[140.56388,39.69193],[140.56837,39.69406],[140.57363,39.69498],[140.57543,39.69688],[140.58008,39.69847],[140.58214,39.70173],[140.58504,39.70357],[140.58659,39.70567],[140.58796,39.71136],[140.58707,39.71658],[140.58242,39.72291],[140.58252,39.72497],[140.58461,39.72783],[140.58278,39.73281],[140.58092,39.73501],[140.59184,39.74315],[140.59401,39.74565],[140.59829,39.74658],[140.60205,39.74981],[140.60298,39.75301],[140.59753,39.75905],[140.59699,39.7607],[140.59818,39.76409],[140.5998,39.76544],[140.5999,39.7692],[140.60339,39.77489],[140.60126,39.7773],[140.59455,39.77991],[140.5942,39.78195],[140.59797,39.78323],[140.59913,39.78622],[140.59882,39.78824],[140.59662,39.78853],[140.59449,39.79113],[140.59118,39.79057],[140.58655,39.79235],[140.58603,39.79914],[140.58493,39.80134],[140.58313,39.80275],[140.58455,39.8051],[140.58668,39.80668],[140.58682,39.80864],[140.58285,39.82144],[140.58106,39.82457],[140.58093,39.82748],[140.57837,39.83323],[140.57958,39.83997],[140.58105,39.8413],[140.58164,39.8443],[140.58068,39.85104],[140.57942,39.85276],[140.58006,39.85513],[140.5784,39.86176],[140.57423,39.86468],[140.56643,39.86618],[140.56476,39.87055],[140.56036,39.87341],[140.55668,39.87217],[140.55378,39.87228],[140.55118,39.87087],[140.54815,39.87247],[140.54493,39.87293],[140.54762,39.87114],[140.54604,39.86982],[140.5383,39.87252],[140.53649,39.87088],[140.53362,39.87125],[140.53028,39.86983],[140.52587,39.86975],[140.51628,39.86716],[140.51249,39.86961],[140.50538,39.8709],[140.5007,39.8694],[140.49442,39.87048],[140.49178,39.86994],[140.48394,39.87191],[140.47845,39.8773],[140.47673,39.87747],[140.47045,39.88384],[140.45672,39.90123],[140.45425,39.90349],[140.44736,39.90692],[140.43985,39.91245],[140.43837,39.91513],[140.43547,39.91719],[140.43561,39.919],[140.43373,39.92003],[140.42835,39.92042],[140.42787,39.92189],[140.42498,39.92387],[140.41457,39.9268],[140.41137,39.9297],[140.41106,39.93286],[140.4133,39.93727],[140.41425,39.94144],[140.41353,39.94721],[140.41508,39.94871],[140.41476,39.95159],[140.41768,39.9546],[140.41777,39.95556],[140.41678,39.95843],[140.41048,39.96166],[140.4037,39.97501],[140.40316,39.9821],[140.40607,39.98657],[140.40602,39.99069],[140.40725,39.9944],[140.40594,39.99919],[140.40641,40.00567],[140.40433,40.00776],[140.40012,40.00801],[140.39602,40.00969],[140.39743,40.01965],[140.39919,40.02305],[140.39472,40.03012],[140.39388,40.04229],[140.39473,40.0495],[140.39928,40.05629],[140.40145,40.05757],[140.40539,40.05802],[140.40964,40.05959],[140.4105,40.06081],[140.41032,40.06967],[140.41238,40.07626],[140.40969,40.08329],[140.4102,40.08673],[140.40963,40.09492],[140.41112,40.09781],[140.41024,40.10075],[140.40721,40.10438],[140.39808,40.10435],[140.39289,40.10643],[140.39284,40.11291],[140.38864,40.11796],[140.37871,40.11972],[140.3825,40.13529],[140.39152,40.14705],[140.39538,40.15433],[140.39467,40.16111],[140.39314,40.16379],[140.39504,40.16874],[140.39952,40.1698],[140.40088,40.17699],[140.40071,40.19175],[140.39643,40.19576],[140.39597,40.20257],[140.39167,40.20665],[140.39,40.21435],[140.3839,40.22238],[140.3823,40.2264],[140.38086,40.23915],[140.3827,40.24624],[140.38119,40.25199]],[[140.50316,39.44103],[140.50537,39.44168],[140.49355,39.43862],[140.43392,39.42872]],[[140.42787,39.92189],[140.43285,39.92019]]]}}]}