{"type":"FeatureCollection","features":[{"type":"Feature","properties":{"route_id":"46","route_number":46,"name":"国道46号","source":"OpenStreetMap contributors (ODbL)","osm_relations":[443923,9111856,9111857,9111858]},"geometry":{"type":"MultiLineString","coordinates":[[[141.10137,39.70876],[141.1012,39.71026],[141.09064,39.70877],[141.08621,39.70669],[141.07752,39.70546],[141.07138,39.7025],[141.05917,39.69928],[141.05571,39.69942],[141.04637,39.70187],[141.0314,39.70185],[141.0226,39.69792],[141.01379,39.69222],[141.00483,39.69126],[141.00085,39.68946],[140.99729,39.68885],[140.99041,39.68977],[140.98243,39.69268],[140.97418,39.70162],[140.97066,39.70299],[140.96623,39.70295],[140.95181,39.69803],[140.93841,39.69712],[140.93362,39.69269],[140.92497,39.69087],[140.92191,39.68893],[140.91151,39.68556],[140.9052,39.68449],[140.90209,39.68596],[140.88928,39.69535],[140.88608,39.69652],[140.88269,39.70159],[140.879,39.70419],[140.87542,39.70439],[140.87234,39.70837],[140.87061,39.70913],[140.86095,39.70923],[140.85888,39.70994],[140.85613,39.71368],[140.84682,39.71674],[140.84094,39.72249],[140.84006,39.72436],[140.839,39.72468],[140.83303,39.72011],[140.82821,39.72015],[140.82594,39.72117],[140.8219,39.72027],[140.82069,39.71778],[140.81801,39.71603],[140.80064,39.69722],[140.79831,39.69598],[140.79656,39.69052],[140.79369,39.6882],[140.78505,39.69279],[140.77928,39.69413],[140.77759,39.69612],[140.77203,39.69882],[140.76,39.70283],[140.75609,39.70251],[140.74698,39.70396],[140.74294,39.70138],[140.73377,39.70022],[140.72897,39.69527],[140.71671,39.69232],[140.70915,39.68838],[140.70733,39.68616],[140.70775,39.68468],[140.70684,39.6827],[140.70407,39.68135],[140.70302,39.6788],[140.70038,39.67796],[140.69939,39.67583],[140.68984,39.66668],[140.68607,39.66535],[140.68484,39.66336],[140.67632,39.66222],[140.6722,39.6597],[140.67187,39.65356],[140.66732,39.65073],[140.66408,39.64507],[140.66064,39.64257],[140.66067,39.63912],[140.65785,39.63671],[140.65486,39.6354],[140.65335,39.63316],[140.6408,39.62856],[140.63762,39.62797],[140.63461,39.6284],[140.62877,39.62676],[140.61896,39.62043],[140.60918,39.61562],[140.59294,39.61276],[140.57839,39.6138],[140.56995,39.61192],[140.56063,39.61127],[140.55631,39.60847],[140.54893,39.59742],[140.54508,39.59523],[140.53999,39.59441],[140.5285,39.59642],[140.51904,39.60283],[140.51216,39.61012],[140.50601,39.61296],[140.50259,39.61343],[140.49834,39.61284],[140.48736,39.61519],[140.48322,39.61745],[140.47642,39.61922],[140.47033,39.61919],[140.4617,39.62353],[140.44129,39.61809],[140.43663,39.61417],[140.42979,39.61326],[140.42009,39.60912],[140.41686,39.60913],[140.41231,39.61165],[140.41163,39.61619],[140.40358,39.62669],[140.40319,39.62996],[140.40052,39.63142],[140.38868,39.6272],[140.3837,39.6242],[140.37924,39.62399],[140.37546,39.62122],[140.37162,39.62156],[140.36881,39.61917],[140.36252,39.61801],[140.35424,39.61845],[140.35075,39.6177],[140.34749,39.61585],[140.34271,39.61068],[140.32896,39.60607],[140.32591,39.61165],[140.32532,39.61584],[140.31902,39.62451],[140.31267,39.62684],[140.30803,39.63139],[140.30782,39.63413],[140.30612,39.63556],[140.30113,39.63769],[140.29645,39.63789],[140.29482,39.64185],[140.2894,39.64477],[140.28442,39.64628],[140.28122,39.64872],[140.27635,39.64898],[140.2702,39.65125],[140.26711,39.65148],[140.25798,39.65507],[140.25173,39.65277],[140.24526,39.6553],[140.24045,39.65595],[140.22862,39.65224],[140.2175,39.65453],[140.20779,39.65472],[140.1863,39.66267],[140.17708,39.66376],[140.16975,39.66564],[140.14883,39.67659],[140.13835,39.67677],[140.13189,39.67558],[140.12894,39.67618],[140.12636,39.67862],[140.12575,39.68372],[140.12382,39.68904],[140.11855,39.69701],[140.09441,39.70787],[140.08817,39.71334],[140.08738,39.71863]],[[141.16202,39.65833],[141.15849,39.65729],[141.15141,39.65696],[141.13393,39.65733],[141.13543,39.6848],[141.12307,39.68522],[141.11881,39.6864],[141.10545,39.69325],[141.10347,39.6954],[141.10261,39.6979]],[[141.0226,39.69792],[141.02992,39.70155],[141.03364,39.70219],[141.04639,39.70198],[141.05575,39.69952],[141.05917,39.69939],[141.07178,39.70275],[141.07742,39.70555],[141.0856,39.70664],[141.09095,39.70892],[141.10136,39.71038],[141.10294,39.69701],[141.10577,39.69315],[141.12134,39.68569],[141.13573,39.68491],[141.13402,39.65745],[141.15067,39.65701],[141.15811,39.65734],[141.16199,39.65841]],[[140.1388,39.6768],[140.14909,39.67664],[140.16992,39.66576],[140.17739,39.66384],[140.18653,39.66273],[140.20781,39.65482],[140.21761,39.65463],[140.22878,39.65237],[140.23984,39.65588]],[[140.10544,39.70315],[140.09532,39.70723],[140.08979,39.71122],[140.08748,39.71448],[140.08721,39.71861]]]}}]}