{"type":"FeatureCollection","features":[{"type":"Feature","properties":{"route_id":"222","route_number":222,"name":"国道222号","source":"OpenStreetMap contributors (ODbL)","osm_relations":[9712245,10143514]},"geometry":{"type":"MultiLineString","coordinates":[[[131.13184,31.70052],[131.12297,31.70508],[131.11871,31.70943],[131.10973,31.70915],[131.0955,31.71188],[131.08245,31.71112],[131.07495,31.71318],[131.07728,31.70133],[131.08285,31.6921],[131.08446,31.69095],[131.08267,31.68803],[131.08281,31.68703],[131.08562,31.68287],[131.08888,31.68148],[131.08786,31.67926],[131.0882,31.67762],[131.08979,31.67583],[131.08765,31.67016],[131.08854,31.66767],[131.0861,31.66466],[131.08701,31.66427],[131.0885,31.6652],[131.09117,31.66152],[131.09175,31.65549],[131.09308,31.65264],[131.09239,31.65047],[131.09737,31.64642],[131.1011,31.64549],[131.10322,31.64259],[131.10582,31.64136],[131.10827,31.63843],[131.10966,31.63835],[131.1115,31.63634],[131.11296,31.63619],[131.11371,31.63315],[131.1164,31.6319],[131.11855,31.62898],[131.12115,31.62783],[131.12468,31.62475],[131.12685,31.62506],[131.128,31.6274],[131.1297,31.62856],[131.12841,31.63281],[131.1285,31.63541],[131.13794,31.64184],[131.14362,31.64431],[131.14879,31.64436],[131.15024,31.64654],[131.15198,31.64647],[131.15533,31.64795],[131.15681,31.64715],[131.15799,31.64813],[131.15938,31.648],[131.16072,31.64923],[131.15952,31.65072],[131.15996,31.65144],[131.16255,31.6509],[131.16287,31.6521],[131.16831,31.65548],[131.17329,31.65429],[131.19031,31.65901],[131.19642,31.65805],[131.19913,31.65835],[131.20123,31.65986],[131.2022,31.66562],[131.20329,31.66643],[131.20438,31.66586],[131.20598,31.66183],[131.20592,31.65985],[131.20776,31.65809],[131.20945,31.65426],[131.21365,31.65215],[131.21642,31.65229],[131.21813,31.65102],[131.22448,31.64976],[131.22714,31.64826],[131.23134,31.64788],[131.23455,31.64442],[131.23769,31.64296],[131.23915,31.64056],[131.24141,31.63944],[131.24663,31.63986],[131.25263,31.63742],[131.25769,31.63711],[131.26456,31.63956],[131.26569,31.64165],[131.26735,31.64273],[131.27202,31.64171],[131.27211,31.64311],[131.26903,31.64676],[131.2707,31.64721],[131.27473,31.64178],[131.27837,31.64188],[131.28063,31.63982],[131.28402,31.63895],[131.28707,31.63458],[131.28668,31.63184],[131.28774,31.62652],[131.29082,31.6234],[131.29368,31.61873],[131.29534,31.61782],[131.30437,31.61903],[131.31044,31.6161],[131.31463,31.6171],[131.31797,31.61963],[131.32545,31.61402],[131.33198,31.61229],[131.33596,31.61469],[131.33946,31.62021],[131.34466,31.62497],[131.34808,31.62396],[131.35983,31.62595],[131.36272,31.62866],[131.36527,31.62886],[131.36751,31.62764],[131.37423,31.61238],[131.38068,31.60244],[131.39231,31.59015],[131.4009,31.58793],[131.40285,31.58566]],[[131.0638,31.7252],[131.06797,31.72339],[131.07358,31.72317],[131.07346,31.71877],[131.07495,31.71318]]]}}]}