{"type":"FeatureCollection","features":[{"type":"Feature","properties":{"route_id":"296","route_number":296,"name":"国道296号","source":"OpenStreetMap contributors (ODbL)","osm_relations":[9885666,10543437,10543438,10543439]},"geometry":{"type":"MultiLineString","coordinates":[[[140.21562,35.72667],[140.21378,35.7221],[140.2173,35.71815],[140.21832,35.71331],[140.23184,35.71373],[140.24103,35.71204],[140.24791,35.71582],[140.25316,35.71691],[140.25486,35.71932],[140.25664,35.72037],[140.26596,35.72047],[140.27314,35.72161],[140.27661,35.72101],[140.2835,35.72571],[140.28722,35.7303],[140.29151,35.73264],[140.30995,35.7374],[140.31312,35.73707],[140.31479,35.738],[140.31896,35.73792],[140.33651,35.73458],[140.34398,35.73011],[140.364,35.72456],[140.37183,35.72442],[140.37667,35.7258],[140.37952,35.72565],[140.39305,35.72946],[140.39866,35.73198],[140.40059,35.73445],[140.40435,35.73658],[140.41005,35.73696],[140.41685,35.74141],[140.42492,35.74258],[140.43542,35.73859],[140.4447,35.73962],[140.4481,35.7377],[140.45403,35.73783],[140.45427,35.73525],[140.45919,35.72965],[140.4611,35.7285],[140.4725,35.73163],[140.49072,35.72461],[140.49319,35.72273],[140.51035,35.70233],[140.52232,35.69937],[140.5312,35.70156],[140.54116,35.69604]],[[140.23058,35.71374],[140.22782,35.71731],[140.22721,35.72085],[140.22461,35.72531],[140.21913,35.72704],[140.21535,35.72666],[140.21263,35.72728],[140.19772,35.73338],[140.19696,35.73478],[140.1947,35.73562],[140.18847,35.73592],[140.18453,35.73376],[140.18083,35.73604],[140.17926,35.73513],[140.17497,35.7289],[140.17052,35.73113],[140.16201,35.72989],[140.15986,35.72856],[140.1583,35.72427],[140.15629,35.72241],[140.1512,35.72104],[140.14793,35.71914],[140.1411,35.71755],[140.11552,35.71571],[140.08872,35.72375],[140.07605,35.72371],[140.07118,35.72165],[140.06168,35.71555],[140.04911,35.71118],[140.03722,35.7082],[140.02474,35.69755],[140.01469,35.69598],[140.01382,35.6948],[140.0088,35.69565],[140.0023,35.68668],[140.00069,35.68724],[139.9994,35.68899]],[[140.0022,35.68673],[140.0088,35.69565]],[[139.99997,35.68834],[140.00034,35.68869]],[[140.16054,35.72912],[140.1524,35.72611],[140.14604,35.7291],[140.14371,35.73149],[140.14145,35.73888]]]}}]}