{"type":"FeatureCollection","features":[{"type":"Feature","properties":{"route_id":"349","route_number":349,"name":"国道349号","source":"OpenStreetMap contributors (ODbL)","osm_relations":[6603804,11321003,11321004,11321005,11321006,11321007,11321008,11321009,11321010,11321011,11321012,11521486,11536919]},"geometry":{"type":"MultiLineString","coordinates":[[[140.53392,36.55775],[140.5327,36.54123],[140.53405,36.52515],[140.53352,36.5222],[140.52384,36.50643],[140.52256,36.50135],[140.51579,36.49849],[140.51116,36.49341],[140.50559,36.47499],[140.50421,36.46375],[140.50196,36.45721],[140.5016,36.44115],[140.50078,36.43762],[140.49439,36.42139],[140.48064,36.40585],[140.47721,36.39193],[140.47101,36.38509],[140.4693,36.38179],[140.47069,36.38488],[140.4771,36.39195],[140.48037,36.40563],[140.4943,36.42144],[140.50087,36.43816],[140.50186,36.45723],[140.50407,36.46349],[140.50538,36.47458],[140.51104,36.4934],[140.51569,36.49855],[140.52256,36.5015],[140.52376,36.50646],[140.53358,36.52279],[140.53258,36.54103],[140.53374,36.55704],[140.53513,36.56254],[140.54019,36.57495],[140.53887,36.58087],[140.54017,36.58522],[140.54001,36.59066],[140.54159,36.59747],[140.54452,36.60007],[140.54295,36.60371],[140.5429,36.60638],[140.54685,36.61087],[140.54677,36.6135],[140.54412,36.61816],[140.54684,36.62243],[140.55054,36.62591],[140.55076,36.62795],[140.54768,36.63511],[140.53914,36.63806],[140.53575,36.64129],[140.5336,36.64516],[140.52921,36.64991],[140.52654,36.65749],[140.52352,36.66225],[140.52328,36.6668],[140.52419,36.66991],[140.52317,36.67229],[140.52326,36.67676],[140.51852,36.69023],[140.51424,36.69506],[140.5135,36.70032],[140.5116,36.70411],[140.49771,36.71795],[140.49472,36.72301],[140.49491,36.72567],[140.49329,36.73303],[140.48869,36.73733],[140.48866,36.74598],[140.4859,36.74999],[140.48689,36.75321],[140.48494,36.75819],[140.48558,36.76228],[140.4837,36.76864],[140.48329,36.77571],[140.47908,36.78308],[140.47857,36.78843],[140.4767,36.7928],[140.47364,36.79716],[140.47304,36.80006],[140.47019,36.80343],[140.46947,36.80832],[140.4649,36.81269],[140.46093,36.81817],[140.45889,36.82129],[140.45834,36.82445],[140.4555,36.83003],[140.45276,36.83338],[140.44841,36.83732],[140.44026,36.8385],[140.43738,36.84059],[140.43646,36.84391],[140.43389,36.8461],[140.43301,36.84845],[140.43132,36.85015],[140.42926,36.85801],[140.42712,36.86205],[140.42461,36.86453],[140.42474,36.86604],[140.43316,36.86813],[140.44529,36.86944],[140.45154,36.87296],[140.45393,36.87868],[140.45238,36.88565],[140.45416,36.88441],[140.45346,36.88712],[140.45449,36.88639],[140.45675,36.8879],[140.45682,36.88661],[140.45827,36.88555],[140.45959,36.88079],[140.46426,36.87899],[140.46503,36.88024],[140.47255,36.88073],[140.47546,36.8858],[140.47891,36.8869],[140.48183,36.88672],[140.48256,36.88793],[140.48633,36.88969],[140.49069,36.88919],[140.4969,36.89043],[140.50088,36.88971],[140.50469,36.89034],[140.50665,36.89184],[140.50213,36.89687],[140.50397,36.89769],[140.50306,36.89993],[140.50401,36.90213],[140.50626,36.90134],[140.5113,36.90166],[140.51552,36.90393],[140.5183,36.90303],[140.52091,36.91188],[140.52344,36.91305],[140.52556,36.91253],[140.5252,36.9154],[140.5274,36.91631],[140.52847,36.91782],[140.52782,36.92026],[140.52932,36.92158],[140.5316,36.92076],[140.53231,36.91919],[140.53395,36.9203],[140.53748,36.91953],[140.54313,36.92079],[140.54301,36.92456],[140.54137,36.92967],[140.54358,36.93503],[140.54362,36.93869],[140.54244,36.94189],[140.54235,36.94554],[140.5401,36.95074],[140.54021,36.95873],[140.54824,36.95728],[140.54917,36.95944],[140.54574,36.96267],[140.54459,36.96517],[140.54227,36.96678],[140.54214,36.97087],[140.54138,36.9723],[140.54647,36.97697],[140.54576,36.97978],[140.54693,36.9832],[140.54466,36.99171],[140.54556,36.99375],[140.54324,36.99619],[140.54466,36.99906],[140.5444,37.00037],[140.5419,37.00556],[140.53999,37.00673],[140.53788,37.01049],[140.53467,37.01055],[140.53408,37.01154],[140.53501,37.01247],[140.534,37.01414],[140.53284,37.01445],[140.53331,37.01726],[140.52984,37.01897],[140.52876,37.02091],[140.52631,37.02234],[140.52306,37.02211],[140.52032,37.02063],[140.51959,37.01886],[140.51739,37.01886],[140.51397,37.02024],[140.51262,37.02307],[140.50962,37.02327],[140.50962,37.02573],[140.50788,37.02643],[140.50942,37.03793],[140.50544,37.0408],[140.50271,37.04491],[140.50241,37.04881],[140.50366,37.05034],[140.50803,37.0522],[140.50999,37.05435],[140.51059,37.05634],[140.50995,37.05791],[140.50634,37.05946],[140.50809,37.06181],[140.51034,37.0628],[140.51154,37.06528],[140.51053,37.07015],[140.51316,37.07123],[140.51652,37.07517],[140.5202,37.07627],[140.51845,37.07924],[140.52088,37.08051],[140.52046,37.08329],[140.52692,37.0875],[140.52912,37.09318],[140.54211,37.0949],[140.55494,37.09109],[140.55925,37.08603],[140.56161,37.08493],[140.56442,37.09121],[140.56504,37.09534],[140.56441,37.09955],[140.56652,37.1057],[140.56554,37.10827],[140.56899,37.11104],[140.5671,37.11588],[140.56764,37.11975],[140.57028,37.12151],[140.57151,37.12479],[140.57876,37.12713],[140.58367,37.12477],[140.58598,37.12468],[140.5868,37.12645],[140.59015,37.12814],[140.59021,37.1295],[140.59316,37.13394],[140.59376,37.13669],[140.59808,37.13846],[140.59984,37.14277],[140.59741,37.14778],[140.59553,37.1483],[140.59607,37.15013],[140.59552,37.15102],[140.5964,37.1519],[140.59612,37.154],[140.59773,37.15579],[140.59921,37.15595],[140.59828,37.15667],[140.59854,37.15785],[140.60009,37.15878],[140.59239,37.16367],[140.59349,37.16653],[140.59162,37.17491],[140.59199,37.17865],[140.59383,37.17888],[140.59693,37.1755],[140.60015,37.17579],[140.60488,37.17678],[140.60798,37.17946],[140.61272,37.1802],[140.6158,37.18283],[140.62008,37.18336],[140.62136,37.18958],[140.62789,37.19699],[140.62554,37.2148],[140.62766,37.21783],[140.62959,37.21889],[140.63028,37.22052],[140.62846,37.22553],[140.63017,37.23149],[140.62766,37.2385],[140.63214,37.24127],[140.63467,37.24811],[140.63776,37.25167],[140.6382,37.25581],[140.6359,37.2599],[140.63134,37.26095],[140.6298,37.26395],[140.62944,37.26973],[140.62809,37.27415],[140.61972,37.28276],[140.61729,37.28809],[140.61745,37.29211],[140.6162,37.29555],[140.61877,37.29858],[140.61868,37.30357],[140.61655,37.30895],[140.61276,37.3134],[140.61198,37.31804],[140.61332,37.32002],[140.6144,37.32572],[140.61228,37.32775],[140.61219,37.32976],[140.60727,37.33998],[140.6064,37.35232],[140.60476,37.35606],[140.60493,37.35872],[140.60649,37.36079],[140.60677,37.36306],[140.60401,37.36651],[140.60094,37.36856],[140.60004,37.3738],[140.5955,37.37745],[140.59559,37.38257],[140.59372,37.38366],[140.59151,37.38342],[140.59088,37.38483],[140.59193,37.39636],[140.59291,37.39834],[140.59219,37.40051],[140.59348,37.40247],[140.59177,37.40602],[140.58875,37.40832],[140.58781,37.41205],[140.58614,37.41295],[140.58299,37.41991],[140.58469,37.4219],[140.58645,37.42607],[140.5879,37.42773],[140.59162,37.4296],[140.59385,37.43261],[140.59395,37.43401],[140.59029,37.43731],[140.58381,37.44698],[140.5763,37.45426],[140.57437,37.46296],[140.5721,37.46376],[140.57057,37.46654],[140.57264,37.46959],[140.57217,37.47136],[140.57448,37.47474],[140.57413,37.48518],[140.57517,37.49048],[140.57857,37.49283],[140.57818,37.49992],[140.57972,37.50252],[140.57672,37.51048],[140.57738,37.5153],[140.58425,37.51855],[140.5891,37.52302],[140.5889,37.52714],[140.58739,37.52918],[140.59088,37.53549],[140.58943,37.53716],[140.58712,37.53778],[140.58739,37.54263],[140.58854,37.5445],[140.58844,37.54598],[140.58536,37.55115],[140.58122,37.55295],[140.57909,37.5565],[140.57751,37.56783],[140.57931,37.57637],[140.5772,37.57861],[140.57937,37.58216],[140.57656,37.58668],[140.57777,37.59305],[140.58033,37.59604],[140.58202,37.6036],[140.58149,37.60749],[140.58467,37.61103],[140.5881,37.61193],[140.58976,37.61318],[140.59277,37.6258],[140.59508,37.63004],[140.59522,37.63435],[140.59638,37.63807],[140.60245,37.64821],[140.60287,37.6502],[140.60482,37.65295],[140.60717,37.65404],[140.60748,37.66111],[140.6133,37.66647],[140.61313,37.67334],[140.61601,37.67759],[140.61606,37.68142],[140.61795,37.6835],[140.61851,37.68575],[140.61587,37.68976],[140.61168,37.69026],[140.60933,37.69237],[140.60689,37.70117],[140.60746,37.70444],[140.6112,37.70963],[140.61063,37.71104],[140.60584,37.71452],[140.60684,37.71932],[140.6048,37.72147],[140.60423,37.72352],[140.60478,37.72914],[140.60342,37.73445],[140.60768,37.74059],[140.60658,37.75381],[140.60514,37.75502],[140.60123,37.75573],[140.59744,37.75867],[140.59699,37.76385],[140.59529,37.76659],[140.5973,37.77134],[140.59549,37.77461],[140.59298,37.77591],[140.59026,37.77876],[140.58966,37.78469],[140.58291,37.78803],[140.57633,37.78925],[140.5745,37.79099],[140.573,37.797],[140.57437,37.80295],[140.57281,37.80597],[140.55548,37.81742],[140.55258,37.81783],[140.55568,37.82658],[140.56809,37.83234],[140.57378,37.83691],[140.58307,37.84137],[140.59165,37.84779],[140.59381,37.8549],[140.60093,37.85911],[140.60863,37.86596],[140.60837,37.87193],[140.61154,37.87641],[140.61808,37.87941],[140.62389,37.88492],[140.64186,37.8866],[140.64262,37.88751],[140.64218,37.89138],[140.64524,37.8981],[140.64764,37.89944],[140.65922,37.90117],[140.6614,37.90649],[140.66138,37.90928],[140.6633,37.91257],[140.66793,37.91423],[140.67117,37.91389],[140.66693,37.91496],[140.66352,37.91388],[140.65887,37.90651],[140.64637,37.90076],[140.6431,37.89345]],[[140.67229,37.91371],[140.67854,37.91304],[140.68605,37.91532],[140.69168,37.92756],[140.69031,37.92562],[140.67413,37.91427],[140.67117,37.91389]],[[140.51673,36.50402],[140.51729,36.50569],[140.51989,36.50788],[140.52899,36.51992],[140.52926,36.52459],[140.52833,36.53134],[140.52915,36.53595]],[[140.46793,36.37948],[140.47092,36.38513]],[[140.4693,36.38179],[140.46536,36.37574],[140.46665,36.37323]],[[140.46658,36.37315],[140.46529,36.37537]],[[140.69145,37.92767],[140.69496,37.93649],[140.69665,37.93765],[140.69934,37.93786],[140.70866,37.93517],[140.71616,37.93462],[140.72703,37.93163],[140.73667,37.93104],[140.73878,37.92852],[140.74124,37.92715],[140.75661,37.92625],[140.75869,37.92566],[140.76303,37.92242],[140.7664,37.92141],[140.77376,37.92864],[140.77966,37.94144],[140.78005,37.94845],[140.78199,37.95082],[140.78352,37.96021],[140.78587,37.96691],[140.7868,37.96764],[140.78736,37.97444],[140.78896,37.97724],[140.78338,37.98015],[140.78773,37.98564],[140.79636,38.01711],[140.80092,38.01939],[140.80338,38.02205],[140.80444,38.03168],[140.80587,38.03477],[140.80605,38.0425],[140.80731,38.04641],[140.80817,38.05788],[140.80819,38.06378],[140.8061,38.06559],[140.80537,38.0675],[140.80547,38.06685]],[[140.80968,38.07028],[140.806,38.06948],[140.80537,38.0675]],[[140.80584,38.06933],[140.81014,38.07055]],[[140.51634,36.49896],[140.51696,36.50135]],[[140.61716,37.28979],[140.61741,37.29224]],[[140.47101,36.38509],[140.47065,36.38471]],[[140.54637,36.98026],[140.54693,36.98074],[140.54648,36.98128]]]}}]}