{"type":"FeatureCollection","features":[{"type":"Feature","properties":{"route_id":"469","route_number":469,"name":"国道469号","source":"OpenStreetMap contributors (ODbL)","osm_relations":[8838236]},"geometry":{"type":"MultiLineString","coordinates":[[[138.90977,35.3236],[138.9072,35.32166],[138.90672,35.31619],[138.90471,35.31135],[138.90596,35.30306],[138.90798,35.29931],[138.89094,35.29005],[138.88438,35.28501],[138.88342,35.28314],[138.88108,35.28236],[138.87864,35.27926],[138.87554,35.2779],[138.87103,35.27043],[138.86909,35.26556],[138.86126,35.26013],[138.85673,35.25351],[138.85264,35.25203],[138.84915,35.25254],[138.84709,35.25112],[138.84347,35.253],[138.8395,35.25144],[138.83607,35.25156],[138.8346,35.2528],[138.83325,35.25229],[138.83358,35.25299],[138.83105,35.25319],[138.83065,35.25486],[138.82509,35.25742],[138.82509,35.25816],[138.81599,35.2611],[138.8142,35.26054],[138.81388,35.25944],[138.81208,35.25853],[138.80788,35.25816],[138.80479,35.25689],[138.79218,35.25585],[138.78517,35.25689],[138.77615,35.24994],[138.76952,35.24788],[138.76212,35.24424],[138.76073,35.24232],[138.75413,35.23923],[138.74813,35.24139],[138.74359,35.24459],[138.7389,35.24582],[138.73592,35.24774],[138.73249,35.24801],[138.72797,35.24595],[138.71812,35.24413],[138.71412,35.24669],[138.70804,35.24885],[138.69938,35.24923],[138.69359,35.25327],[138.68926,35.25293],[138.68701,35.25424],[138.68356,35.25431],[138.6685,35.25969],[138.66216,35.26032],[138.65872,35.26315],[138.65369,35.26468],[138.64568,35.26369],[138.64011,35.26497],[138.63283,35.26485],[138.63052,35.2681],[138.61995,35.27051],[138.61282,35.2748],[138.60594,35.27549],[138.59808,35.27778],[138.59478,35.27662],[138.59004,35.2774],[138.58769,35.27605],[138.57866,35.27644],[138.57642,35.27695],[138.574,35.27894],[138.56862,35.27452],[138.56477,35.26613],[138.55744,35.25519],[138.55201,35.2588],[138.55161,35.26071],[138.54968,35.25901],[138.55019,35.26112],[138.54907,35.26165],[138.54776,35.25942],[138.54794,35.26008],[138.54613,35.26074],[138.54497,35.26059],[138.545,35.25986],[138.54177,35.25982],[138.53716,35.25662],[138.5414,35.25836],[138.53681,35.25499],[138.5349,35.25487],[138.53421,35.25837],[138.53219,35.25841],[138.53254,35.25205],[138.52889,35.24793],[138.52829,35.24316],[138.53088,35.23826],[138.53368,35.23909],[138.53486,35.23869],[138.53534,35.23764],[138.53468,35.23466],[138.53594,35.23329],[138.53578,35.23117],[138.53702,35.22967],[138.53518,35.22961],[138.53414,35.23099],[138.53456,35.22931],[138.53385,35.22893],[138.53264,35.23041],[138.52721,35.22958],[138.52313,35.23097],[138.52221,35.22891],[138.51795,35.22947],[138.51815,35.22512]]]}}]}