{"type":"FeatureCollection","features":[{"type":"Feature","properties":{"route_id":"420","route_number":420,"name":"国道420号","source":"OpenStreetMap contributors (ODbL)","osm_relations":[3527404]},"geometry":{"type":"MultiLineString","coordinates":[[[137.16111,35.08387],[137.16358,35.09551],[137.1674,35.09972],[137.17523,35.10423],[137.18122,35.10421],[137.1808,35.10609],[137.18503,35.10779],[137.1874,35.1098],[137.18882,35.11422],[137.19617,35.11681],[137.19566,35.11922],[137.19604,35.11689],[137.19429,35.11606]],[[137.19566,35.11922],[137.20352,35.12382],[137.20876,35.12942],[137.21224,35.13071],[137.21481,35.13408],[137.21724,35.13495],[137.21932,35.13714],[137.21895,35.13888],[137.22521,35.1418],[137.23968,35.13921],[137.25501,35.13835],[137.25906,35.1369],[137.26448,35.13169],[137.27297,35.1278],[137.29027,35.1265],[137.29444,35.12502],[137.29842,35.12641],[137.308,35.13391],[137.31811,35.13443],[137.31972,35.1332],[137.31969,35.13157],[137.32198,35.12911],[137.32158,35.12747],[137.3181,35.12417],[137.31772,35.11989],[137.32111,35.1148],[137.32914,35.11094],[137.33118,35.11135],[137.33228,35.11051],[137.33485,35.11149],[137.33877,35.10915],[137.34705,35.10635],[137.35384,35.10709],[137.35559,35.10362],[137.35765,35.103],[137.35832,35.10099],[137.35747,35.09892],[137.35899,35.09809],[137.35971,35.09645],[137.36568,35.09042],[137.3695,35.09044],[137.37086,35.08898],[137.3735,35.08877],[137.37544,35.08765],[137.37789,35.09084],[137.38011,35.0911],[137.38658,35.08772],[137.38963,35.08732],[137.39265,35.08563],[137.397,35.08588],[137.39612,35.08308],[137.39747,35.07978],[137.40988,35.07761],[137.41982,35.07828],[137.42311,35.07971],[137.43137,35.07954],[137.44997,35.08391],[137.45791,35.08051],[137.45885,35.08207],[137.46213,35.0799],[137.46754,35.08022],[137.46942,35.07787],[137.46918,35.07625],[137.47055,35.07433],[137.47494,35.07225],[137.47322,35.06902],[137.47108,35.06706],[137.47191,35.06529],[137.47531,35.0624],[137.48455,35.06424],[137.48597,35.06287],[137.48762,35.06372],[137.49351,35.06219],[137.49531,35.05954],[137.49818,35.05895],[137.50204,35.05615],[137.5041,35.05589],[137.50679,35.05677],[137.50938,35.05624],[137.5124,35.05791],[137.51568,35.05706],[137.51691,35.05482],[137.51998,35.05214],[137.5192,35.0509],[137.5199,35.04983],[137.52385,35.04825],[137.52386,35.04632],[137.52552,35.04565],[137.52563,35.04334],[137.5289,35.04271],[137.5282,35.04178],[137.52812,35.03781],[137.52543,35.03577],[137.52476,35.03358],[137.52102,35.03131],[137.52141,35.02895],[137.52416,35.02631],[137.51912,35.02385],[137.51722,35.02147],[137.51997,35.01277],[137.52439,35.00767],[137.52361,35.00261],[137.52517,34.99901],[137.52469,34.99827],[137.51899,34.99771],[137.51915,34.99345],[137.52444,34.98849],[137.5269,34.98397],[137.52797,34.98378],[137.5289,34.98476],[137.52782,34.98693],[137.52894,34.98767],[137.52869,34.98944],[137.52983,34.99108],[137.53129,34.99139],[137.53406,34.99046],[137.53498,34.98713],[137.53417,34.98371],[137.53563,34.98181],[137.5417,34.98151],[137.543,34.98103],[137.54425,34.97873],[137.54638,34.97924],[137.55109,34.97792],[137.55164,34.97696],[137.55013,34.97518],[137.55043,34.9727],[137.55442,34.96705],[137.55382,34.96446],[137.55006,34.96213],[137.55011,34.95669],[137.5455,34.94761],[137.54815,34.93889],[137.5517,34.93091],[137.5522,34.9282],[137.55138,34.92533]],[[137.16101,35.08389],[137.16358,35.09551]]]}}]}