{"type":"FeatureCollection","features":[{"type":"Feature","properties":{"route_id":"40","route_number":40,"name":"国道40号","source":"OpenStreetMap contributors (ODbL)","osm_relations":[2865301,9077198,16357714]},"geometry":{"type":"MultiLineString","coordinates":[[[142.36256,43.77442],[142.36226,43.77488],[142.36256,43.77442]],[[142.36236,43.77493],[142.35774,43.7827],[142.44554,43.84612],[142.44893,43.84724],[142.45742,43.84721],[142.46035,43.84859],[142.48391,43.86734],[142.48452,43.86866],[142.48416,43.87403],[142.48519,43.87577],[142.51269,43.89809],[142.51097,43.90016],[142.47794,43.9221],[142.47378,43.92753],[142.47138,43.93285],[142.46771,43.93517],[142.44698,43.96184],[142.44635,43.96344],[142.44683,43.96542],[142.45306,43.96969],[142.45526,43.97446],[142.45291,43.98539],[142.44453,43.99616],[142.42955,44.00829],[142.4268,44.01224],[142.42191,44.01659],[142.40928,44.03418],[142.40881,44.03552],[142.40979,44.03849],[142.40879,44.04504],[142.40254,44.06186],[142.39936,44.06437],[142.39086,44.0762],[142.39123,44.09129],[142.38856,44.09963],[142.39017,44.1064],[142.38872,44.11709],[142.389,44.12359],[142.38975,44.12594],[142.39285,44.13003],[142.39317,44.13407],[142.40027,44.14958],[142.38922,44.18612],[142.39493,44.19476],[142.39467,44.26853],[142.39598,44.2706],[142.41566,44.28754],[142.41729,44.29029],[142.42535,44.29735],[142.42841,44.29867],[142.43638,44.30542],[142.45697,44.31465],[142.45718,44.36139],[142.43618,44.36141],[142.43614,44.37644],[142.43553,44.37768],[142.42637,44.3809],[142.42282,44.38349],[142.41838,44.38491],[142.41423,44.38568],[142.40163,44.38557],[142.39843,44.38648],[142.39772,44.38983],[142.39444,44.39331],[142.39392,44.39529],[142.3992,44.40791],[142.40209,44.41844],[142.39979,44.42754],[142.40355,44.43694],[142.365,44.44584],[142.36359,44.44659],[142.36207,44.44895],[142.32621,44.52385],[142.32446,44.53057],[142.32253,44.55208],[142.30573,44.58883],[142.3061,44.59026],[142.31063,44.59582],[142.30988,44.60073],[142.31045,44.60964],[142.29839,44.62494],[142.29629,44.6258],[142.28803,44.62635],[142.26397,44.64722],[142.26463,44.6499],[142.27191,44.65777],[142.27238,44.65918],[142.26801,44.66563],[142.26952,44.67189],[142.26702,44.68782],[142.27266,44.69912],[142.27503,44.70913],[142.26908,44.7228],[142.25718,44.72859],[142.2493,44.72272],[142.2448,44.72186],[142.23293,44.72598],[142.23028,44.72636],[142.22406,44.72524],[142.21639,44.72621],[142.20875,44.73091],[142.19259,44.73303],[142.18687,44.73843],[142.18494,44.7379],[142.18059,44.7328],[142.1782,44.72607],[142.1757,44.72407],[142.17218,44.72379],[142.16634,44.72544],[142.1646,44.72686],[142.16279,44.73053],[142.15771,44.73257],[142.15124,44.73462],[142.14166,44.73422],[142.13852,44.73481],[142.13564,44.73748],[142.13228,44.74485],[142.12257,44.74781],[142.11863,44.74703],[142.11681,44.74462],[142.11612,44.74055],[142.1188,44.73359],[142.11677,44.73105],[142.11343,44.72959],[142.10296,44.72961],[142.09265,44.73096],[142.06488,44.72879],[142.05521,44.73145],[142.05099,44.73129],[142.04868,44.732],[142.04475,44.73633],[142.04055,44.73851],[142.03976,44.7399],[142.04359,44.74423],[142.04467,44.75067],[142.04572,44.75282],[142.06148,44.77425],[142.06104,44.77629],[142.05719,44.77914],[142.05673,44.78049],[142.06264,44.78674],[142.06715,44.7947],[142.068,44.7998],[142.06596,44.8119],[142.06766,44.82004],[142.05725,44.83418],[142.05771,44.83595],[142.0608,44.83944],[142.06207,44.84795],[142.04693,44.86777],[142.0392,44.87156],[142.03181,44.87391],[142.02724,44.87754],[141.98972,44.8959],[141.95301,44.89654],[141.93573,44.89997],[141.92682,44.89688],[141.91769,44.89723],[141.90371,44.90567],[141.88664,44.91996],[141.86905,44.92992],[141.86313,44.93113],[141.84281,44.92982],[141.83629,44.93313],[141.83425,44.9369],[141.82893,44.97293],[141.82923,44.97909],[141.82548,44.98663],[141.82649,44.98966],[141.83251,44.99654],[141.81648,44.99578],[141.81643,45.00086],[141.81225,45.00471],[141.80897,45.00524],[141.78947,45.00395],[141.77845,45.00959],[141.77683,45.01159],[141.77565,45.0169],[141.77194,45.02107],[141.77039,45.02807],[141.76135,45.03467],[141.75271,45.04672],[141.74939,45.05493],[141.74852,45.05834],[141.74824,45.06758],[141.75374,45.07428],[141.75339,45.07917],[141.75442,45.08126],[141.77716,45.09467],[141.77805,45.09615],[141.77613,45.10659],[141.7713,45.1087],[141.76617,45.11337],[141.76355,45.11937],[141.75907,45.12377],[141.75451,45.13526],[141.75176,45.14521],[141.75055,45.16084],[141.74268,45.17953],[141.73897,45.19776],[141.73446,45.20799],[141.73483,45.21551],[141.73794,45.22157],[141.73943,45.22301],[141.74648,45.22773],[141.75416,45.22458],[141.7562,45.22276],[141.74662,45.22763],[141.74707,45.22853],[141.74718,45.22752]],[[141.83254,44.99659],[141.83964,45.00469],[141.84078,45.00742],[141.84039,45.00965],[141.83685,45.01644],[141.83561,45.0233],[141.83604,45.02788],[141.83543,45.0299],[141.82643,45.04028],[141.82504,45.04767],[141.82232,45.05171],[141.81044,45.05881],[141.80238,45.06158],[141.79868,45.06419],[141.79721,45.06669],[141.79594,45.07346],[141.78788,45.0843],[141.78815,45.08875],[141.79441,45.09633],[141.79672,45.10174],[141.79665,45.10692],[141.7936,45.1147],[141.79682,45.10689],[141.79694,45.10216],[141.79499,45.09697],[141.78831,45.08888],[141.78764,45.0861],[141.78819,45.08368],[141.79612,45.07351],[141.79741,45.06674],[141.79957,45.06359],[141.80249,45.06171],[141.81052,45.05886],[141.82003,45.05357],[141.82324,45.05085],[141.82538,45.04697],[141.82648,45.04039],[141.83098,45.03582],[141.836,45.02873],[141.83571,45.02338],[141.83695,45.01645],[141.84047,45.00968],[141.84083,45.00708],[141.83971,45.00466],[141.82637,44.98929],[141.82561,44.98627],[141.82703,44.98295]],[[142.3595,43.76932],[142.36233,43.77446]],[[142.45728,44.32628],[142.44809,44.32627]],[[141.77893,45.16828],[141.785,45.16183],[141.79033,45.15369],[141.79159,45.14975],[141.79113,45.14537],[141.79142,45.15013],[141.79019,45.15366],[141.78534,45.16118],[141.77944,45.16744],[141.77777,45.17114],[141.77761,45.17877],[141.77477,45.18814],[141.77658,45.19682],[141.77584,45.20136],[141.76488,45.21503],[141.7562,45.22276]],[[141.67636,45.41723],[141.67584,45.40542],[141.67706,45.4035],[141.68419,45.39956],[141.69082,45.3975],[141.70609,45.3954],[141.70668,45.38553],[141.71211,45.37635],[141.72696,45.36856],[141.73057,45.36099],[141.73673,45.35277],[141.73613,45.34943],[141.72105,45.3347],[141.7194,45.32017],[141.7255,45.29938],[141.72535,45.2968],[141.72328,45.29123],[141.72349,45.28959],[141.72776,45.28452],[141.7324,45.28086],[141.7343,45.27227],[141.73823,45.2683],[141.7527,45.24034],[141.75239,45.23581],[141.74707,45.22853]],[[141.75273,45.23675],[141.75274,45.2399],[141.7508,45.24414],[141.73811,45.2683],[141.73405,45.27257],[141.73228,45.28085],[141.72746,45.2847],[141.72312,45.29039],[141.7254,45.29887],[141.71924,45.32012],[141.72057,45.33377],[141.72176,45.3358],[141.7357,45.3491],[141.73669,45.35079],[141.73652,45.35294],[141.73062,45.36064],[141.72701,45.36837],[141.71199,45.37642],[141.70655,45.38547],[141.70597,45.39532],[141.69114,45.39732],[141.68115,45.40085],[141.67589,45.40434],[141.67535,45.40547],[141.67627,45.41723]],[[141.7936,45.1147],[141.79049,45.12358],[141.79101,45.13044],[141.7895,45.13745],[141.79113,45.14537]],[[141.83045,44.99685],[141.83261,44.99655]],[[141.7491,45.23128],[141.74712,45.22861]]]}}]}