{"type":"FeatureCollection","features":[{"type":"Feature","properties":{"route_id":"186","route_number":186,"name":"国道186号","source":"OpenStreetMap contributors (ODbL)","osm_relations":[4544619]},"geometry":{"type":"MultiLineString","coordinates":[[[132.22417,34.22187],[132.21803,34.22106],[132.20865,34.22468],[132.20471,34.22907],[132.20085,34.22937],[132.19672,34.23125],[132.19297,34.23076],[132.19228,34.22965],[132.1928,34.22784],[132.19184,34.2272],[132.18575,34.22806],[132.18105,34.23023],[132.17348,34.22784],[132.17166,34.2291],[132.17173,34.23183],[132.17246,34.23331],[132.17544,34.23388],[132.17526,34.23487],[132.17064,34.23541],[132.168,34.23754],[132.16525,34.23828],[132.15966,34.23509],[132.15431,34.23496],[132.14876,34.23995],[132.14804,34.24242],[132.1484,34.25498],[132.14743,34.25793],[132.14517,34.26076],[132.14049,34.26093],[132.13994,34.26271],[132.13743,34.265],[132.13623,34.27023],[132.13436,34.27284],[132.1349,34.27478],[132.14365,34.28654],[132.13997,34.28585],[132.13813,34.2892],[132.13126,34.29318],[132.12841,34.29694],[132.12641,34.29709],[132.12611,34.29805],[132.12953,34.30202],[132.12989,34.30489],[132.12686,34.30649],[132.12863,34.30831],[132.1261,34.3078],[132.12573,34.30911],[132.12464,34.30815],[132.12396,34.30965],[132.12473,34.31147],[132.12378,34.31136],[132.12563,34.31461],[132.12484,34.31923],[132.12647,34.31929],[132.13016,34.32254],[132.12902,34.32539],[132.13138,34.32897],[132.12827,34.33183],[132.12875,34.33473],[132.1312,34.33656],[132.1322,34.33893],[132.13347,34.3393],[132.13309,34.34137],[132.1366,34.34314],[132.13455,34.34487],[132.13363,34.34756],[132.13609,34.3507],[132.13651,34.35419],[132.13851,34.35944],[132.13617,34.36258],[132.13334,34.36401],[132.13317,34.36512],[132.13763,34.37231],[132.13697,34.37663],[132.13377,34.38012],[132.13602,34.38323],[132.1329,34.38358],[132.1304,34.3858],[132.12361,34.38382],[132.1179,34.38337],[132.11588,34.38435],[132.11369,34.38402],[132.11253,34.38489],[132.11398,34.38622],[132.11406,34.38773],[132.11202,34.38808],[132.11091,34.38988],[132.10695,34.38988],[132.10542,34.38907],[132.10454,34.39016],[132.10063,34.39118],[132.10083,34.3921],[132.10384,34.39301],[132.10135,34.39933],[132.09902,34.40098],[132.1019,34.40219],[132.09912,34.40327],[132.09782,34.40516],[132.09418,34.40431],[132.09242,34.40499],[132.09237,34.40828],[132.08898,34.41107],[132.08749,34.41502],[132.08975,34.41659],[132.09035,34.41819],[132.08821,34.42462],[132.08958,34.42637],[132.08961,34.42789],[132.0882,34.43031],[132.09268,34.44037],[132.09448,34.4422],[132.0944,34.44372],[132.09308,34.44543],[132.09471,34.44985],[132.10329,34.45539],[132.10383,34.45837],[132.10547,34.45887],[132.11786,34.46973],[132.1183,34.47459],[132.1201,34.47685],[132.12747,34.4801],[132.13732,34.48043],[132.14557,34.48503],[132.14646,34.48631],[132.15327,34.49051],[132.15457,34.49289],[132.15697,34.49501],[132.16519,34.49844],[132.16663,34.50138],[132.17092,34.50439],[132.17251,34.50701],[132.1759,34.51012],[132.17721,34.51467],[132.18505,34.51731],[132.18898,34.52034],[132.19267,34.52169],[132.19379,34.52309],[132.19683,34.52457],[132.19808,34.52651],[132.19987,34.52668],[132.20095,34.5284],[132.20379,34.52896],[132.20513,34.52805],[132.20765,34.52897],[132.20842,34.53087],[132.20754,34.53275],[132.20849,34.53424],[132.21245,34.53547],[132.21553,34.53476],[132.2172,34.53657],[132.2195,34.53672],[132.22055,34.53959],[132.22236,34.53851],[132.22379,34.53886],[132.22529,34.53817],[132.22754,34.53904],[132.22865,34.54022],[132.22869,34.54308],[132.23219,34.54629],[132.23029,34.54787],[132.23688,34.55121],[132.24765,34.56244],[132.25654,34.56589],[132.2586,34.56743],[132.26144,34.56795],[132.26398,34.5667],[132.26679,34.56677],[132.26863,34.56907],[132.27117,34.57021],[132.26986,34.57258],[132.27103,34.57573],[132.27822,34.58055],[132.28152,34.58057],[132.28804,34.58542],[132.29447,34.58873],[132.29485,34.59122],[132.29599,34.59226],[132.30178,34.59356],[132.3017,34.59492],[132.2994,34.5963],[132.30065,34.59942],[132.30653,34.60262],[132.31069,34.60777],[132.3148,34.61046],[132.31515,34.61211],[132.31439,34.61247],[132.31531,34.61451],[132.31931,34.618],[132.32019,34.6197],[132.31283,34.6285],[132.30934,34.62487],[132.3052,34.62236],[132.30296,34.62184],[132.30047,34.62303],[132.29751,34.62772],[132.29723,34.6308],[132.29554,34.63501],[132.29196,34.63898],[132.29206,34.64735],[132.29316,34.64963],[132.30018,34.65622],[132.30306,34.66155],[132.30336,34.66484],[132.30522,34.66918],[132.30322,34.67208],[132.30138,34.67714],[132.30359,34.67864],[132.30422,34.68245],[132.30747,34.68322],[132.3071,34.68636],[132.30917,34.68854],[132.30725,34.69097],[132.30824,34.69199],[132.31053,34.69238],[132.30996,34.695],[132.31212,34.70023],[132.31325,34.70047],[132.31364,34.70301],[132.31596,34.70334],[132.31543,34.70566],[132.3164,34.70729],[132.31605,34.70858],[132.3179,34.7102],[132.32229,34.71093],[132.31976,34.71729],[132.32082,34.7186],[132.31899,34.72076],[132.31405,34.72239],[132.31522,34.72444],[132.31418,34.72635],[132.31452,34.72781],[132.31157,34.7304],[132.30719,34.73217],[132.3002,34.72838],[132.2971,34.73208],[132.29376,34.73437],[132.289,34.73571],[132.28535,34.73382],[132.28201,34.72901],[132.27441,34.72677],[132.27249,34.72792],[132.26663,34.72672],[132.25937,34.72838],[132.25588,34.72729],[132.25276,34.7288],[132.24338,34.72676],[132.23915,34.72915],[132.23721,34.73346],[132.23144,34.73813],[132.22871,34.74176],[132.22294,34.74458],[132.21931,34.74981],[132.21709,34.75097],[132.21716,34.75387],[132.21513,34.75443],[132.21261,34.75716],[132.20996,34.75817],[132.21015,34.75955],[132.20855,34.76198],[132.21111,34.76243],[132.21224,34.76389],[132.20806,34.76633],[132.20946,34.76777],[132.20797,34.77016],[132.20923,34.77128],[132.20863,34.77375],[132.20376,34.77218],[132.19848,34.77744],[132.19754,34.77976],[132.19856,34.78411],[132.20065,34.78856],[132.20327,34.7911],[132.20053,34.79557],[132.19618,34.79644],[132.19173,34.79915],[132.18892,34.7993],[132.18438,34.80468],[132.18259,34.80538],[132.17927,34.80949],[132.17907,34.81174],[132.17754,34.81325],[132.17009,34.81443],[132.16294,34.81698],[132.15807,34.81899],[132.15628,34.82127],[132.15675,34.82397],[132.16171,34.83037],[132.1624,34.83451],[132.16528,34.83659],[132.16504,34.83937],[132.16357,34.84166],[132.164,34.84507],[132.16317,34.84626],[132.15906,34.84841],[132.1581,34.86111],[132.1543,34.8648],[132.15069,34.86592],[132.14426,34.87476],[132.14382,34.88194],[132.13697,34.88487],[132.1358,34.88688],[132.13035,34.8911],[132.12638,34.88994],[132.12056,34.89069],[132.11805,34.8889],[132.11295,34.88794],[132.10806,34.88906],[132.10611,34.89058],[132.10426,34.8944],[132.0989,34.89624],[132.09154,34.89662],[132.08942,34.89731],[132.08906,34.89812],[132.08292,34.89764],[132.07984,34.896],[132.07854,34.89653],[132.07868,34.89985],[132.08318,34.90028],[132.0863,34.90443],[132.09803,34.90568],[132.1017,34.9075],[132.10349,34.91146],[132.10888,34.9168],[132.10877,34.9181],[132.10691,34.91912],[132.10668,34.92042],[132.10989,34.92332],[132.10898,34.93019],[132.11107,34.93601],[132.11357,34.93776],[132.11853,34.93822],[132.12106,34.9397],[132.12538,34.94658],[132.1298,34.94801],[132.13173,34.95133],[132.13456,34.95319],[132.13574,34.95552],[132.14475,34.96128],[132.14909,34.96621],[132.15016,34.96864],[132.15514,34.97152],[132.15948,34.97231],[132.16412,34.97472],[132.175,34.97782],[132.18378,34.98329],[132.18819,34.98834],[132.18954,34.99216],[132.19483,34.99851],[132.20646,35.00354],[132.21958,35.01077],[132.22064,35.01239],[132.23306,35.01686]],[[132.16805,34.81582],[132.1711,34.81464]],[[132.10746,34.91881],[132.10654,34.9195],[132.107,34.9212]],[[132.10818,34.91575],[132.10505,34.91326]],[[132.07868,34.89985],[132.07885,34.89614]]]}}]}