{"type":"FeatureCollection","features":[{"type":"Feature","properties":{"route_id":"382","route_number":382,"name":"国道382号","source":"OpenStreetMap contributors (ODbL)","osm_relations":[9364397]},"geometry":{"type":"MultiLineString","coordinates":[[[129.46945,34.65663],[129.46694,34.65503],[129.46134,34.65396],[129.45609,34.6543],[129.45525,34.65611],[129.45059,34.6609],[129.44591,34.66281],[129.44044,34.663],[129.43928,34.66518],[129.43898,34.66827],[129.43362,34.67097],[129.43276,34.67421],[129.43081,34.6738],[129.42578,34.6716],[129.41849,34.66617],[129.41784,34.66402],[129.4156,34.66211],[129.41515,34.65723],[129.41165,34.65757],[129.41012,34.65685],[129.40661,34.65074],[129.40452,34.6502],[129.40071,34.64609],[129.40163,34.64423],[129.40136,34.64295],[129.3994,34.64047],[129.39805,34.64025],[129.39713,34.63815],[129.39312,34.63811],[129.38912,34.63394],[129.382,34.63235],[129.3766,34.62801],[129.37701,34.62556],[129.37584,34.62192],[129.37374,34.62121],[129.37081,34.6221],[129.36896,34.62091],[129.36803,34.61799],[129.36679,34.6169],[129.36812,34.61583],[129.36667,34.61282],[129.36779,34.61149],[129.36752,34.61063],[129.36528,34.61071],[129.36486,34.60865],[129.36407,34.60824],[129.36242,34.60871],[129.36053,34.60814],[129.3613,34.61052],[129.35866,34.61372],[129.35577,34.60983],[129.3549,34.60716],[129.35595,34.60466],[129.35556,34.6012],[129.36017,34.59673],[129.35995,34.59334],[129.36532,34.59002],[129.36597,34.58857],[129.36354,34.58355],[129.36406,34.57788],[129.35937,34.56745],[129.35878,34.56007],[129.3562,34.5538],[129.35636,34.55199],[129.35538,34.55008],[129.35594,34.54843],[129.35487,34.54749],[129.35394,34.54263],[129.3545,34.54072],[129.35314,34.5386],[129.35278,34.53556],[129.34889,34.53294],[129.34948,34.53141],[129.35111,34.53029],[129.3513,34.52864],[129.34998,34.52744],[129.34756,34.52773],[129.34306,34.52676],[129.34128,34.52425],[129.33992,34.52391],[129.34034,34.52148],[129.3429,34.52035],[129.3423,34.51909],[129.34419,34.51559],[129.34288,34.51186],[129.34384,34.50563],[129.33981,34.50158],[129.34004,34.49352],[129.33845,34.49094],[129.34129,34.48928],[129.34069,34.4847],[129.34164,34.48209],[129.34083,34.47881],[129.34011,34.477],[129.33836,34.47549],[129.33079,34.4722],[129.32918,34.47276],[129.33035,34.47476],[129.32938,34.47592],[129.3274,34.47677],[129.3239,34.47676],[129.32347,34.47575],[129.32409,34.47406],[129.3233,34.47324],[129.31891,34.47309],[129.32053,34.47167],[129.32059,34.47034],[129.31754,34.47076],[129.3134,34.46776],[129.31345,34.46635],[129.31451,34.46587],[129.31442,34.46406],[129.30892,34.4592],[129.30698,34.4553],[129.31076,34.45578],[129.31139,34.45463],[129.31053,34.45299],[129.31397,34.45283],[129.3167,34.44863],[129.3192,34.44771],[129.32012,34.44586],[129.31878,34.4433],[129.31641,34.44303],[129.31444,34.44042],[129.31691,34.43691],[129.31641,34.43234],[129.3128,34.43088],[129.31093,34.42873],[129.30842,34.42838],[129.30505,34.42586],[129.31247,34.41845],[129.31158,34.41581],[129.31358,34.41036],[129.3153,34.40826],[129.317,34.40139],[129.31909,34.39716],[129.32294,34.39643],[129.32489,34.39751],[129.3317,34.39467],[129.33172,34.39074],[129.33239,34.38977],[129.3307,34.38492],[129.33159,34.38222],[129.33339,34.38042],[129.33534,34.38007],[129.33772,34.38196],[129.34324,34.38334],[129.34989,34.38265],[129.35584,34.38031],[129.35611,34.37917],[129.35488,34.37659],[129.35881,34.37261],[129.36294,34.37304],[129.36763,34.37096],[129.3691,34.36929],[129.36879,34.36834],[129.3654,34.3669],[129.36353,34.36455],[129.36432,34.36213],[129.36333,34.35931],[129.36354,34.35645],[129.36591,34.35364],[129.36647,34.35134],[129.36517,34.34938],[129.36488,34.34467],[129.3633,34.34344],[129.3639,34.34108],[129.36207,34.33918],[129.3636,34.33786],[129.36383,34.33592],[129.36628,34.33209],[129.36464,34.332],[129.36328,34.33092],[129.36465,34.32409],[129.36326,34.3225],[129.3581,34.32038],[129.35807,34.31572],[129.35519,34.31183],[129.35699,34.30921],[129.3556,34.30698],[129.35612,34.30281],[129.35533,34.2986],[129.35828,34.29358],[129.36091,34.29135],[129.36083,34.28832],[129.36465,34.28252],[129.36425,34.28097],[129.36498,34.27904],[129.36138,34.27871],[129.36057,34.2774],[129.35729,34.27667],[129.35452,34.2791],[129.35089,34.27931],[129.34376,34.28256],[129.33744,34.28334],[129.3331,34.28019],[129.32641,34.28089],[129.32318,34.27702],[129.32037,34.2753],[129.31564,34.26799],[129.31617,34.26491],[129.31554,34.26219],[129.31349,34.2586],[129.31097,34.25657],[129.31524,34.2511],[129.31611,34.24625],[129.31225,34.24314],[129.31004,34.24],[129.30844,34.23337],[129.29675,34.22635],[129.28717,34.21764],[129.28727,34.21534],[129.28941,34.21383],[129.29049,34.20955],[129.28987,34.20544],[129.29095,34.20387],[129.29128,34.19915],[129.28951,34.19879],[129.2914,34.19317],[129.30013,34.19002],[129.67154,33.86055],[129.67907,33.8563],[129.69012,33.85961],[129.69454,33.8561],[129.6935,33.85461],[129.69396,33.85009],[129.69477,33.84901],[129.69349,33.84972],[129.69166,33.84814],[129.69508,33.84413],[129.6954,33.84109],[129.69846,33.83897],[129.70014,33.83652],[129.69903,33.83157],[129.69714,33.82846],[129.69937,33.82295],[129.69883,33.82076],[129.70046,33.81953],[129.70108,33.81779],[129.69983,33.81617],[129.70002,33.81479],[129.70201,33.81205],[129.70108,33.80741],[129.70171,33.80554],[129.70065,33.80216],[129.70194,33.79936],[129.7018,33.79677],[129.70461,33.79551],[129.70531,33.79389],[129.7042,33.7921],[129.70528,33.78758],[129.70272,33.78499],[129.7017,33.78161],[129.70285,33.77731],[129.70135,33.77351],[129.70171,33.77141],[129.69965,33.7624],[129.70072,33.7596],[129.70034,33.75692],[129.6975,33.75215],[129.70255,33.75254],[129.70574,33.75088],[129.71141,33.74978],[129.72163,33.75308],[129.72475,33.75239],[129.72719,33.75381],[129.73138,33.75277],[129.73593,33.75447],[129.74055,33.75373],[129.74686,33.7478],[129.75098,33.74777],[129.75091,33.74544],[129.75179,33.74443],[129.75682,33.74381],[129.75455,33.73841],[129.79415,33.73429],[129.87369,33.61762],[129.89689,33.5529],[129.88969,33.54888],[129.89196,33.54648],[129.89581,33.54797],[129.89893,33.54636],[129.89944,33.54344],[129.90141,33.53987],[129.89881,33.538],[129.89846,33.53554],[129.8997,33.53501],[129.90276,33.53682],[129.91204,33.53666],[129.91702,33.53559],[129.91779,33.53436],[129.92079,33.53335],[129.92358,33.53128],[129.92883,33.53303],[129.93281,33.53058],[129.93381,33.53092],[129.93403,33.53346],[129.93548,33.53362],[129.94796,33.52629],[129.95263,33.52609],[129.95661,33.52191],[129.95571,33.51945],[129.95717,33.51317],[129.95648,33.50708],[129.95328,33.50476],[129.95145,33.5002],[129.94961,33.49804],[129.94391,33.49343],[129.94371,33.49051],[129.94144,33.48929],[129.94003,33.48535],[129.93524,33.47951],[129.93407,33.47283],[129.93595,33.47015],[129.93702,33.46642],[129.94045,33.46344],[129.94013,33.45718],[129.942,33.45371],[129.94501,33.45197],[129.95348,33.44999],[129.95488,33.44674],[129.9617,33.44066],[129.97879,33.43548],[129.98273,33.42861]],[[129.98264,33.42847],[129.97887,33.4353],[129.96162,33.4406],[129.95495,33.44652],[129.95455,33.44824]],[[129.95226,33.45047],[129.9446,33.45199],[129.94139,33.45416],[129.94,33.4575],[129.94039,33.46352]],[[129.93596,33.48074],[129.93415,33.4737],[129.93513,33.47125]]]}}]}