{"type":"FeatureCollection","features":[{"type":"Feature","properties":{"route_id":"126","route_number":126,"name":"国道126号","source":"OpenStreetMap contributors (ODbL)","osm_relations":[7540512,9066606,12086754]},"geometry":{"type":"MultiLineString","coordinates":[[[140.12544,35.60788],[140.12312,35.61648],[140.11765,35.62038],[140.1109,35.63569],[140.11772,35.62041],[140.12319,35.61651],[140.12544,35.60788],[140.14376,35.61037],[140.15403,35.60792],[140.15805,35.60912],[140.16727,35.60729],[140.1765,35.60895],[140.18402,35.60906],[140.19211,35.60753],[140.19554,35.60517],[140.20042,35.6036],[140.2087,35.59676],[140.21189,35.59712],[140.21696,35.59454],[140.2207,35.59467],[140.22283,35.59256],[140.22375,35.5877],[140.22814,35.58404],[140.23326,35.58147],[140.23794,35.58165],[140.24886,35.58413],[140.25274,35.5826],[140.25806,35.58327],[140.26215,35.58139],[140.27052,35.57509],[140.28069,35.57395],[140.29203,35.57411],[140.29813,35.57567],[140.30398,35.57557],[140.30562,35.57376],[140.30812,35.57309],[140.31258,35.57438],[140.32675,35.57461],[140.33022,35.57271],[140.35033,35.55011],[140.35181,35.54928],[140.36125,35.55117],[140.3645,35.55299],[140.37293,35.56107],[140.38146,35.57625],[140.37299,35.56098],[140.36459,35.55293],[140.36134,35.55111],[140.35205,35.54914],[140.35034,35.54997],[140.3426,35.55929],[140.34027,35.56079],[140.32863,35.57378],[140.32536,35.5747],[140.31996,35.57401],[140.31468,35.5744],[140.30755,35.57268],[140.31583,35.57452],[140.31619,35.57555],[140.31502,35.57971],[140.31524,35.57586],[140.31323,35.57459],[140.30827,35.57289],[140.30106,35.57323],[140.29254,35.57096],[140.27912,35.57203],[140.27201,35.5734],[140.25061,35.5688],[140.23967,35.57011],[140.23156,35.56984],[140.221,35.57245],[140.20604,35.5736],[140.19859,35.57518],[140.1829,35.58329],[140.16854,35.59535],[140.15813,35.60111],[140.15139,35.60335],[140.15031,35.60279],[140.14963,35.6006]],[[140.38146,35.57625],[140.38334,35.5794],[140.39094,35.58785],[140.41307,35.60579],[140.41561,35.60996],[140.41886,35.61108],[140.4241,35.61125],[140.42964,35.61294],[140.43994,35.62357],[140.44931,35.63061],[140.45117,35.63402],[140.45831,35.64165],[140.46294,35.64484],[140.46591,35.64934],[140.47035,35.65343],[140.47797,35.65632],[140.49158,35.66483],[140.5022,35.66935],[140.50047,35.67123],[140.50777,35.67207],[140.51283,35.67374],[140.53168,35.68587],[140.54561,35.69149]],[[140.5022,35.66935],[140.50473,35.67067],[140.5212,35.68698],[140.52846,35.69102],[140.54826,35.69882],[140.56448,35.7071],[140.56913,35.70819],[140.58636,35.71701],[140.59053,35.71819],[140.59502,35.71763],[140.60137,35.71818],[140.62103,35.72376],[140.63429,35.7234],[140.66842,35.72667],[140.67149,35.7257],[140.67881,35.71952],[140.687,35.72296],[140.6897,35.72308],[140.72144,35.70871],[140.73206,35.70024],[140.73448,35.69957],[140.73743,35.69994],[140.73478,35.69947],[140.73201,35.70017],[140.72137,35.70862],[140.69014,35.72286],[140.68705,35.72286],[140.67881,35.71952]],[[140.50047,35.67123],[140.48785,35.67015],[140.47211,35.67123],[140.4655,35.67087],[140.45977,35.66953],[140.4492,35.66484],[140.44134,35.66383],[140.43687,35.66196],[140.43471,35.66245],[140.43035,35.65913],[140.42167,35.65503],[140.41725,35.65198],[140.40545,35.63998],[140.39549,35.63214],[140.38783,35.62228],[140.3813,35.61713],[140.37449,35.61398],[140.35313,35.60777],[140.33801,35.59687],[140.32505,35.59509],[140.3194,35.59261],[140.31683,35.59018],[140.31504,35.5869],[140.31452,35.58414],[140.31502,35.57971]],[[140.15242,35.6082],[140.15145,35.60492],[140.15184,35.60391],[140.16105,35.59938]],[[140.15556,35.60205],[140.15116,35.60417],[140.15221,35.60802]],[[140.15088,35.60248],[140.15289,35.60264],[140.15948,35.60005],[140.15187,35.6031],[140.15078,35.60276],[140.14987,35.6007]],[[140.1144,35.64198],[140.10926,35.63698],[140.11444,35.64218]],[[140.15092,35.6026],[140.1528,35.60279],[140.15635,35.6014]],[[140.30755,35.57268],[140.30108,35.57314],[140.29045,35.57075],[140.27094,35.57323],[140.24853,35.56864],[140.23983,35.56999],[140.232,35.56967],[140.22097,35.57234],[140.20236,35.57405],[140.19736,35.57557],[140.1837,35.58265],[140.16826,35.59541],[140.15948,35.60005]],[[140.31468,35.5744],[140.31155,35.57294],[140.30872,35.57312]],[[140.73743,35.69994],[140.7414,35.70252],[140.74059,35.70638],[140.74218,35.70843],[140.74747,35.71027],[140.75063,35.70953],[140.75374,35.71214],[140.75728,35.7134],[140.76298,35.71262],[140.7717,35.71438],[140.77771,35.71108],[140.78214,35.71085],[140.79046,35.71357],[140.80238,35.71899],[140.80456,35.72099],[140.80916,35.72012],[140.81397,35.72129],[140.8179,35.72332],[140.823,35.72873],[140.82342,35.73253]],[[140.1109,35.63569],[140.10934,35.63692]],[[140.40189,35.63707],[140.41559,35.65047]],[[140.32262,35.59438],[140.32601,35.59539],[140.3357,35.59629],[140.34094,35.5984]],[[140.30755,35.57278],[140.31466,35.57452]],[[140.43637,35.66221],[140.44224,35.66399]],[[140.50267,35.67142],[140.49734,35.67087]]]}}]}