{"type":"FeatureCollection","features":[{"type":"Feature","properties":{"route_id":"144","route_number":144,"name":"国道144号","source":"OpenStreetMap contributors (ODbL)","osm_relations":[965533,9087510]},"geometry":{"type":"MultiLineString","coordinates":[[[138.29418,36.4159],[138.29471,36.4166],[138.29044,36.41404],[138.28938,36.41138],[138.28772,36.40994],[138.29075,36.41128],[138.29418,36.4159],[138.29057,36.41128],[138.28697,36.40947],[138.28233,36.409],[138.2797,36.40696],[138.26884,36.40234],[138.26421,36.40286],[138.26117,36.40457]],[[138.60546,36.54923],[138.60324,36.54795],[138.60068,36.54791],[138.59652,36.55026],[138.59492,36.54962],[138.5925,36.54683],[138.58875,36.55068],[138.58682,36.55145],[138.58421,36.5474],[138.58255,36.54677],[138.57899,36.54626],[138.57372,36.54862],[138.57205,36.54814],[138.56925,36.5444],[138.56096,36.54493],[138.5581,36.54088],[138.55511,36.53897],[138.5549,36.53588],[138.55063,36.53164],[138.5431,36.52782],[138.54245,36.52653],[138.54302,36.52426],[138.54071,36.52083],[138.53672,36.51942],[138.5322,36.51937],[138.5309,36.51677],[138.5289,36.51535],[138.51812,36.51291],[138.515,36.51084],[138.5122,36.50705],[138.50025,36.50098],[138.49984,36.49854],[138.49703,36.49524],[138.49481,36.49501],[138.48822,36.49069],[138.48633,36.48888],[138.48628,36.48697],[138.48334,36.48527],[138.47764,36.48572],[138.47442,36.48446],[138.47181,36.48438],[138.46298,36.4852],[138.45681,36.48481],[138.4503,36.48672],[138.44663,36.48651],[138.44031,36.48802],[138.42802,36.48544],[138.41611,36.4888],[138.40152,36.49018],[138.39962,36.48952],[138.39595,36.49096],[138.39245,36.48972],[138.39295,36.49178],[138.39484,36.49247],[138.39281,36.49343],[138.38873,36.49307],[138.38931,36.49609],[138.38879,36.49642],[138.38279,36.49059],[138.37824,36.48787],[138.37248,36.48883],[138.36866,36.491],[138.36474,36.49091],[138.36226,36.49175],[138.36189,36.49257],[138.35962,36.48904],[138.35551,36.48762],[138.3526,36.48543],[138.35075,36.48074],[138.3459,36.4774],[138.34441,36.47218],[138.33942,36.46435],[138.33982,36.46275],[138.34002,36.46507]],[[138.33982,36.46275],[138.33914,36.46057],[138.33331,36.45619],[138.32779,36.44947],[138.32136,36.44782],[138.31922,36.44585],[138.29973,36.43584],[138.298,36.42863],[138.29928,36.42097],[138.29471,36.4166]],[[138.28787,36.40978],[138.2824,36.40892],[138.27963,36.4068],[138.27263,36.40392]]]}}]}