{"type":"FeatureCollection","features":[{"type":"Feature","properties":{"route_id":"12","route_number":12,"name":"国道12号","source":"OpenStreetMap contributors (ODbL)","osm_relations":[2097430,2097431,2097432,8907967]},"geometry":{"type":"MultiLineString","coordinates":[[[142.28112,43.76521],[142.27987,43.76254],[142.27363,43.75497],[142.27989,43.76236],[142.28221,43.76718],[142.28468,43.76857],[142.28972,43.7691],[142.29834,43.76859],[142.30813,43.77043],[142.32239,43.76838],[142.34222,43.77427],[142.34896,43.77236],[142.34242,43.77418],[142.32386,43.76844],[142.31915,43.76833],[142.30809,43.77034],[142.29833,43.76853],[142.30301,43.76928],[142.30635,43.77212],[142.30723,43.7782],[142.31271,43.78432],[142.31313,43.79118],[142.31497,43.79372],[142.32166,43.79603],[142.34029,43.79966],[142.34719,43.80408],[142.35568,43.80652],[142.38644,43.82345],[142.39102,43.82296],[142.40304,43.81439],[142.4106,43.81161],[142.42139,43.8026]],[[141.38096,43.06425],[141.37949,43.0659],[141.38078,43.0643],[141.44774,43.02819],[141.47323,43.04216],[141.48515,43.05262],[141.48554,43.05437],[141.4843,43.06012],[141.48633,43.06403],[141.49515,43.07125],[141.50364,43.07409],[141.51421,43.0813],[141.51529,43.08344],[141.51427,43.08122],[141.50374,43.07404],[141.50127,43.0731]],[[141.37949,43.0659],[141.35164,43.06203]],[[142.29567,43.76876],[142.30019,43.76906],[142.30538,43.77208],[142.30692,43.77815],[142.31277,43.7848],[142.31298,43.79117],[142.31499,43.79388],[142.32077,43.79594],[142.34021,43.79973],[142.34627,43.80403],[142.3556,43.80662],[142.3865,43.82357],[142.39101,43.82308],[142.40343,43.81429],[142.4108,43.81166],[142.4215,43.80265]],[[142.24261,43.73859],[142.24043,43.73653],[142.24293,43.73912],[142.24573,43.74851],[142.24831,43.75099],[142.25548,43.75323],[142.26838,43.75286],[142.27363,43.75497]],[[142.17897,43.71694],[142.18162,43.71873],[142.18819,43.72839],[142.19263,43.72951],[142.18798,43.72794],[142.18071,43.71776],[142.17169,43.71345],[142.15852,43.7128],[142.14377,43.71011],[142.1249,43.70912],[142.08452,43.70312],[142.07814,43.70304],[142.07373,43.70092],[142.07085,43.69852],[142.05881,43.69372],[142.04549,43.68417],[141.95024,43.64239],[141.94806,43.63971],[141.92317,43.58816],[141.93737,43.58449],[141.93931,43.58222],[141.92553,43.55337],[141.9216,43.5407],[141.90708,43.55486],[141.92317,43.58816],[141.93886,43.58369],[141.93925,43.58142],[141.92568,43.55339],[141.90947,43.49945],[141.9216,43.5407]],[[142.19263,43.72951],[142.19903,43.73003],[142.21168,43.72668],[142.21691,43.72612],[142.22929,43.73219],[142.24043,43.73653]],[[142.05157,43.68846],[142.05872,43.69378],[142.07024,43.69835],[142.07435,43.70129]],[[141.8984,43.46167],[141.88966,43.43183],[141.90947,43.49945]],[[141.66755,43.15725],[141.72516,43.18645],[141.73463,43.1874],[141.74395,43.18677],[141.75537,43.18954],[141.76653,43.19503],[141.75581,43.18962],[141.74434,43.18675],[141.72948,43.18716],[141.72425,43.18592],[141.65163,43.14895],[141.64017,43.1402],[141.62908,43.13792],[141.60911,43.12763],[141.60234,43.12597],[141.60035,43.12409],[141.59703,43.11719],[141.5953,43.11586],[141.58027,43.11551],[141.57077,43.11305],[141.56634,43.11354],[141.55939,43.1158],[141.55335,43.11462],[141.55951,43.11586],[141.57028,43.11316],[141.58031,43.1156],[141.59503,43.11586],[141.59689,43.11719],[141.60031,43.12427],[141.60207,43.12595],[141.60915,43.12776],[141.62901,43.13801],[141.64012,43.14041],[141.65061,43.14849],[141.66755,43.15725]],[[141.76653,43.19503],[141.77787,43.20086],[141.78479,43.20599],[141.7855,43.20825],[141.78419,43.21183],[141.78471,43.21496],[141.79321,43.22744],[141.80053,43.23278],[141.80495,43.25271],[141.81245,43.26034],[141.80507,43.25268],[141.8006,43.23264],[141.79366,43.22775],[141.78782,43.21961]],[[141.78445,43.21407],[141.78446,43.21106]],[[141.81948,43.26694],[141.84302,43.28896],[141.81245,43.26034]],[[141.84302,43.28896],[141.84965,43.29565],[141.84981,43.29812],[141.85128,43.30073],[141.88966,43.43183]],[[141.8605,43.33254],[141.85941,43.32881]],[[141.88528,43.41695],[141.86196,43.33751]],[[141.55142,43.11281],[141.55004,43.11191],[141.55335,43.11462]],[[141.51529,43.08344],[141.51654,43.08804],[141.55004,43.11191]],[[142.20475,43.72882],[142.21171,43.72677],[142.21687,43.72625],[142.23233,43.73348]],[[142.34896,43.77236],[142.3595,43.76932]],[[141.91282,43.54934],[141.92176,43.5408]],[[142.29833,43.76853],[142.29421,43.76883]],[[141.92317,43.58816],[141.92664,43.59531]]]}}]}