{"type":"FeatureCollection","features":[{"type":"Feature","properties":{"route_id":"142","route_number":142,"name":"国道142号","source":"OpenStreetMap contributors (ODbL)","osm_relations":[6518912,7426357,9087439,9087440,9087441]},"geometry":{"type":"MultiLineString","coordinates":[[[138.56682,36.34332],[138.57025,36.34301],[138.57306,36.34386],[138.57027,36.34275],[138.56559,36.34345],[138.55671,36.3429]],[[138.55332,36.34148],[138.53834,36.3366],[138.53092,36.33568],[138.51604,36.32887],[138.50633,36.32771],[138.50343,36.32628],[138.49719,36.32065],[138.48324,36.32013],[138.4809,36.32082],[138.47609,36.31675],[138.47391,36.31597],[138.46804,36.31438],[138.45708,36.31392],[138.45689,36.30751],[138.46701,36.3003],[138.47077,36.29174],[138.47451,36.28663],[138.47386,36.28466],[138.46816,36.27873],[138.46571,36.27436],[138.46794,36.25855],[138.46754,36.24495],[138.46689,36.24317],[138.46396,36.24076]],[[138.45933,36.23688],[138.45653,36.23204],[138.42754,36.24151],[138.45662,36.23191],[138.45933,36.23688],[138.46719,36.24384],[138.46783,36.25855],[138.46559,36.27424],[138.46813,36.27886],[138.47379,36.28475],[138.47437,36.28681],[138.47085,36.29136],[138.46692,36.30023],[138.45754,36.30691]],[[138.42754,36.24151],[138.42346,36.24295],[138.40668,36.25372],[138.40286,36.26159],[138.39804,36.26771],[138.39642,36.26872],[138.38771,36.27025],[138.38083,36.26866],[138.37661,36.26858],[138.37231,36.26557],[138.37165,36.26003],[138.36475,36.25732],[138.36121,36.25848],[138.35454,36.26405],[138.35322,36.26717],[138.35131,36.26914],[138.35042,36.27266],[138.34763,36.27423],[138.34409,36.2785],[138.32438,36.27534],[138.31952,36.27594],[138.31089,36.27514],[138.30579,36.26979],[138.2971,36.26664],[138.29405,36.26268],[138.28902,36.2599],[138.28649,36.25688],[138.2865,36.25353],[138.28522,36.25236],[138.2856,36.2509],[138.28359,36.25176],[138.2825,36.25029],[138.28026,36.2496],[138.27986,36.25015],[138.28109,36.25153],[138.27948,36.25226],[138.27771,36.25107],[138.27387,36.2502],[138.27322,36.2506],[138.27337,36.25228],[138.26939,36.25231],[138.26595,36.24876],[138.26305,36.2482],[138.25941,36.2454],[138.25821,36.24349],[138.2549,36.24137],[138.25313,36.23872],[138.2487,36.23576],[138.24588,36.2324],[138.24531,36.22885],[138.24204,36.22505],[138.22991,36.2158],[138.22451,36.21469],[138.21886,36.20936],[138.21283,36.20579],[138.2087,36.19918],[138.20479,36.19736],[138.20124,36.1944],[138.18986,36.18911],[138.18398,36.18023],[138.18039,36.17719],[138.17834,36.17646],[138.17766,36.17402],[138.174,36.17281],[138.17157,36.16879],[138.17379,36.16501],[138.17294,36.1621],[138.17461,36.15885],[138.17385,36.15605],[138.17534,36.15197],[138.17264,36.1485],[138.16765,36.14839],[138.16362,36.14526],[138.15749,36.14336],[138.1428,36.13442],[138.13458,36.13461],[138.1267,36.13279],[138.12278,36.13361],[138.11982,36.13517],[138.11936,36.13447],[138.12018,36.13341],[138.12294,36.13272],[138.12308,36.13195],[138.1123,36.12958],[138.10751,36.12517],[138.10365,36.12419],[138.10148,36.11973],[138.10182,36.1179],[138.09991,36.11497],[138.09956,36.10977],[138.09253,36.10107],[138.08647,36.09688],[138.08645,36.09532],[138.08526,36.09362],[138.08318,36.08215],[138.08887,36.0785],[138.09027,36.07566],[138.0899,36.07487],[138.08653,36.0746]],[[138.094,36.10326],[138.09057,36.1021],[138.08776,36.09805],[138.08597,36.09678],[138.06927,36.08898],[138.06627,36.08561]],[[138.14402,36.1454],[138.14328,36.14232],[138.14368,36.14074],[138.14222,36.13804],[138.14015,36.13809],[138.13931,36.13713],[138.13798,36.1375],[138.13744,36.13628],[138.13466,36.13615],[138.135,36.13795],[138.13065,36.13636],[138.13244,36.13666],[138.13253,36.13528],[138.1358,36.13448]],[[138.26191,36.24706],[138.26086,36.24639]],[[138.5917,36.34861],[138.57743,36.34584],[138.57306,36.34386]],[[138.45708,36.31392],[138.45693,36.31257]],[[138.17077,36.1687],[138.17281,36.17085],[138.17215,36.17276],[138.17218,36.1709],[138.1699,36.16931],[138.16848,36.1687],[138.16516,36.16902],[138.16463,36.16981],[138.16087,36.16913],[138.15725,36.16668],[138.15704,36.16542]]]}}]}