{"type":"FeatureCollection","features":[{"type":"Feature","properties":{"route_id":"367","route_number":367,"name":"国道367号","source":"OpenStreetMap contributors (ODbL)","osm_relations":[8736759]},"geometry":{"type":"MultiLineString","coordinates":[[[135.75966,34.99632],[135.75926,35.0437],[135.77645,35.04419],[135.77948,35.04254],[135.79089,35.05315],[135.79155,35.06037],[135.79163,35.05659]],[[135.79155,35.06037],[135.79629,35.06352],[135.80144,35.06388],[135.80758,35.06635],[135.81033,35.06869],[135.8123,35.07255],[135.81466,35.07326],[135.81739,35.07636],[135.81696,35.08309],[135.81943,35.08649],[135.82234,35.08862],[135.82305,35.09045],[135.82038,35.09681],[135.8239,35.09959],[135.82475,35.10402],[135.8238,35.1069],[135.82421,35.10913],[135.82933,35.12013],[135.83386,35.12331],[135.83331,35.12937],[135.83568,35.13575],[135.83614,35.14098],[135.84238,35.14667],[135.84554,35.15248],[135.85184,35.15873],[135.85341,35.1632],[135.86069,35.16758],[135.86041,35.17147],[135.85702,35.17381],[135.85706,35.17591],[135.8577,35.17588],[135.85764,35.17466],[135.85834,35.17496],[135.85742,35.1794],[135.85807,35.17937],[135.85855,35.17742],[135.8592,35.1776],[135.85845,35.18069],[135.85919,35.18244],[135.85665,35.18546],[135.85639,35.1886],[135.85664,35.19055],[135.86044,35.19357],[135.86142,35.1965],[135.8573,35.20536],[135.85617,35.2122],[135.85726,35.21489],[135.86139,35.21694],[135.86232,35.2191],[135.86109,35.22411],[135.86243,35.22624],[135.86221,35.22936],[135.86365,35.23186],[135.86323,35.23485],[135.86501,35.23747],[135.86489,35.24008],[135.86976,35.25126],[135.87056,35.25647],[135.87283,35.2597],[135.87374,35.26331],[135.87802,35.27161],[135.87753,35.2745],[135.87978,35.27898],[135.87941,35.28082],[135.88022,35.28264],[135.88297,35.28353],[135.88487,35.28686],[135.88475,35.28808],[135.88298,35.29004],[135.88669,35.29474],[135.88626,35.30001],[135.88834,35.30248],[135.88987,35.30681],[135.89132,35.30764],[135.89588,35.31426],[135.89697,35.32171],[135.89969,35.32676],[135.89842,35.32825],[135.90956,35.345],[135.91186,35.34662],[135.91892,35.35535],[135.91828,35.36166],[135.92025,35.36408],[135.91959,35.36778],[135.92197,35.37142],[135.92334,35.37943],[135.92517,35.38108],[135.92751,35.39146],[135.93301,35.40013],[135.93415,35.40781],[135.93546,35.41041],[135.93897,35.41345],[135.94308,35.41377],[135.94666,35.41123],[135.94987,35.41738],[135.94884,35.4228],[135.93828,35.4269],[135.93677,35.43087],[135.93491,35.43197],[135.92976,35.43435],[135.92624,35.43511],[135.9218,35.43483],[135.91146,35.43757],[135.89981,35.44499],[135.89664,35.44805],[135.88239,35.45028],[135.86226,35.4627]],[[135.77948,35.04254],[135.77644,35.04411],[135.75934,35.04362],[135.75977,34.99632]]]}}]}