{"type":"FeatureCollection","features":[{"type":"Feature","properties":{"route_id":"136","route_number":136,"name":"国道136号","source":"OpenStreetMap contributors (ODbL)","osm_relations":[8822215,9077398,9077402,9077403]},"geometry":{"type":"MultiLineString","coordinates":[[[138.86562,34.65084],[138.86359,34.65029],[138.86209,34.64884],[138.85665,34.64949]],[[138.84257,34.6492],[138.84006,34.64625],[138.83303,34.64861],[138.83056,34.64626],[138.82878,34.64632],[138.8257,34.64323],[138.82404,34.64318],[138.81754,34.64021],[138.81737,34.64207],[138.82016,34.64525],[138.81731,34.64858],[138.81777,34.65021],[138.81722,34.65223],[138.81197,34.65292],[138.80779,34.65246],[138.80348,34.6507],[138.79473,34.65152],[138.79435,34.65313],[138.79217,34.65367],[138.79279,34.65542],[138.7918,34.65664],[138.7898,34.65575],[138.78929,34.65684],[138.79057,34.65761],[138.79072,34.6594],[138.79344,34.66199],[138.79256,34.66423],[138.79092,34.665],[138.79166,34.66866],[138.78978,34.66982],[138.79016,34.67144],[138.79167,34.67187],[138.79195,34.6728],[138.78872,34.67309],[138.78729,34.67233],[138.78451,34.67305],[138.78295,34.67225],[138.78157,34.67309],[138.78027,34.67244],[138.78131,34.67376],[138.78262,34.67317],[138.7833,34.67368],[138.78078,34.67455],[138.78011,34.67352],[138.77938,34.67377],[138.78094,34.67673],[138.78059,34.67797],[138.78214,34.67974],[138.77963,34.67979],[138.77788,34.68103],[138.77845,34.68488],[138.77279,34.68783],[138.77276,34.69054],[138.77158,34.6918],[138.77143,34.6934],[138.76874,34.69435],[138.76601,34.694],[138.75937,34.69711],[138.7608,34.69952],[138.7592,34.7004],[138.75838,34.70257],[138.75841,34.70805],[138.76032,34.71193],[138.76133,34.71714],[138.7606,34.7173],[138.76094,34.71611],[138.76028,34.71575],[138.76009,34.71787],[138.75915,34.71864],[138.75722,34.71895],[138.75398,34.72103],[138.74825,34.721],[138.74664,34.72312],[138.74719,34.72152],[138.74663,34.72118],[138.74631,34.72231],[138.74293,34.725],[138.74318,34.72576],[138.74518,34.72618],[138.74552,34.72784],[138.74872,34.72763],[138.7472,34.73038],[138.74747,34.73241],[138.7501,34.73161],[138.75014,34.73338],[138.75143,34.73427],[138.75528,34.7323],[138.75855,34.7342],[138.75716,34.73494],[138.75795,34.73637],[138.76302,34.73711],[138.76211,34.74133],[138.76275,34.74246],[138.76113,34.74423],[138.76192,34.74679],[138.76161,34.74878],[138.76388,34.7505],[138.76669,34.74938],[138.76748,34.75096],[138.76907,34.75084],[138.77101,34.7528],[138.77316,34.75334],[138.77432,34.75156],[138.77364,34.75035],[138.77493,34.74864],[138.78197,34.75188],[138.7781,34.75972],[138.77583,34.76228],[138.77566,34.76373],[138.77817,34.76717],[138.7757,34.7702],[138.77139,34.77266],[138.77124,34.77445],[138.76839,34.77968],[138.76832,34.78208],[138.76338,34.78787],[138.7638,34.79243],[138.76585,34.79664],[138.77106,34.80001],[138.77104,34.80184],[138.77264,34.80476],[138.77514,34.80588],[138.77622,34.80759],[138.77308,34.8107],[138.77165,34.81378],[138.77208,34.81791],[138.77051,34.81974],[138.77024,34.82185],[138.77218,34.82567],[138.76763,34.83087],[138.76929,34.84363],[138.77065,34.84471],[138.77638,34.84574],[138.77689,34.8548],[138.77882,34.85654],[138.77807,34.85771],[138.76873,34.862],[138.76722,34.86405],[138.76299,34.86491],[138.76127,34.87008],[138.76295,34.8721],[138.763,34.87344],[138.76033,34.87456],[138.75957,34.87656],[138.76356,34.87952],[138.76283,34.88231],[138.76383,34.88404],[138.76153,34.88782],[138.7648,34.88932],[138.76469,34.8921],[138.76669,34.8955],[138.76929,34.89385],[138.77141,34.89113],[138.77448,34.89202],[138.78356,34.90423],[138.78601,34.90566],[138.78882,34.9051],[138.79139,34.90774],[138.79163,34.91229],[138.79953,34.9088],[138.80315,34.90636],[138.80872,34.90442],[138.81094,34.90582],[138.81259,34.90505],[138.81509,34.9062],[138.81914,34.90597],[138.82445,34.90749],[138.82418,34.90848],[138.8217,34.90772],[138.81822,34.90829],[138.81655,34.91225],[138.81525,34.91228],[138.81317,34.91058],[138.81195,34.91258],[138.81363,34.91394],[138.82052,34.91348],[138.8236,34.91487],[138.82511,34.91721],[138.82367,34.92143],[138.82821,34.92363],[138.83487,34.92266],[138.83929,34.92085],[138.84612,34.92018],[138.85061,34.92081],[138.85548,34.92003],[138.85859,34.92044],[138.85856,34.9195],[138.85607,34.91942],[138.85752,34.91855],[138.86025,34.91979],[138.86448,34.9202],[138.87272,34.91895],[138.87743,34.91534],[138.88266,34.91417],[138.88465,34.91515],[138.88696,34.91503],[138.88868,34.91434],[138.88988,34.91223],[138.8961,34.91079],[138.90202,34.91589],[138.90723,34.919],[138.91702,34.92145],[138.92177,34.92376],[138.92772,34.92364],[138.9302,34.92278],[138.93233,34.9252],[138.93337,34.9344],[138.93075,34.94063],[138.93233,34.94585],[138.93444,34.94735],[138.93519,34.94912],[138.93931,34.96742],[138.93925,34.97086],[138.93689,34.97572],[138.94174,34.97954],[138.94763,34.97993],[138.9494,34.98565],[138.9488,34.98873],[138.94734,34.99009],[138.9375,34.99039],[138.93273,34.99314],[138.93231,34.99407],[138.93906,34.99987],[138.94322,35.01027],[138.94613,35.02246],[138.94872,35.02838],[138.94937,35.03181],[138.94817,35.03611],[138.94562,35.04054],[138.94238,35.0441],[138.94078,35.05956],[138.9428,35.06665],[138.94142,35.07263],[138.93922,35.07598],[138.93283,35.08248],[138.92063,35.10609],[138.92,35.11187]],[[138.9468,34.67711],[138.94392,34.67874],[138.94222,34.67854],[138.93902,34.67344],[138.93525,34.67199],[138.9316,34.6679],[138.93095,34.66425],[138.92956,34.66323],[138.92777,34.66349],[138.92557,34.66123],[138.91845,34.66097],[138.91594,34.66407],[138.91056,34.66736],[138.90718,34.6672],[138.90192,34.6653],[138.89912,34.66575],[138.89542,34.66499],[138.89062,34.66177],[138.88899,34.65503],[138.88594,34.65363],[138.88429,34.65187],[138.88447,34.64858]],[[138.94142,35.07255],[138.93919,35.0759],[138.9327,35.08254],[138.92067,35.10583],[138.91994,35.11184]],[[138.94623,35.09495],[138.94535,35.08573],[138.93652,35.0831],[138.92904,35.07986]],[[138.92913,35.07999],[138.93612,35.08313],[138.94527,35.08579],[138.94606,35.09492]]]}}]}