{"type":"FeatureCollection","features":[{"type":"Feature","properties":{"route_id":"481","route_number":481,"name":"国道481号","source":"OpenStreetMap contributors (ODbL)","osm_relations":[3786630]},"geometry":{"type":"MultiLineString","coordinates":[[[135.25326,34.44277],[135.25746,34.44258],[135.26087,34.44108],[135.27,34.43278],[135.30732,34.40528],[135.31554,34.39705]],[[135.3153,34.3968],[135.30838,34.40402],[135.29778,34.41123],[135.26759,34.43432],[135.25956,34.44138]],[[135.33634,34.37016],[135.33427,34.37046],[135.33316,34.37423],[135.32937,34.38055],[135.32346,34.38521],[135.3153,34.3968],[135.30964,34.40296]],[[135.30997,34.40302],[135.31504,34.39773],[135.32355,34.38565],[135.32905,34.38135],[135.33335,34.37438],[135.33457,34.37043]],[[135.32869,34.38112],[135.32917,34.3808]],[[135.33158,34.37689],[135.33106,34.37749]],[[135.32806,34.3817],[135.32762,34.38223]],[[135.32156,34.38854],[135.32435,34.38495]],[[135.32387,34.38463],[135.32125,34.38822]]]}}]}