{"type":"FeatureCollection","features":[{"type":"Feature","properties":{"route_id":"478","route_number":478,"name":"国道478号","source":"OpenStreetMap contributors (ODbL)","osm_relations":[10070984,18588803]},"geometry":{"type":"MultiLineString","coordinates":[[[135.74393,34.89745],[135.7368,34.90012],[135.73034,34.89981],[135.72442,34.89617],[135.71876,34.894],[135.71411,34.89066],[135.70782,34.89039],[135.70443,34.8923],[135.69799,34.90146],[135.69753,34.90521],[135.69788,34.90405]],[[135.71336,34.89038],[135.71878,34.89426],[135.72561,34.89699],[135.72997,34.90001],[135.7376,34.9003],[135.74393,34.89772]],[[135.74409,34.89762],[135.7372,34.90025],[135.73071,34.90007],[135.71894,34.89427],[135.71385,34.89081],[135.70813,34.89038],[135.70529,34.89128],[135.69968,34.89945],[135.69287,34.90449],[135.69052,34.91103],[135.68755,34.91445],[135.6771,34.92025],[135.67059,34.92209],[135.66793,34.92457],[135.664,34.94684],[135.66033,34.95253],[135.65519,34.95587],[135.65387,34.95812],[135.65448,34.96303],[135.65903,34.96942],[135.66026,34.9737],[135.65941,34.97643],[135.65438,34.98252],[135.64009,34.9877],[135.63095,34.98962],[135.61079,34.99072],[135.59898,34.98917],[135.57985,34.99269],[135.57685,34.9939],[135.5719,35.00077],[135.56438,35.00587],[135.5596,35.01062],[135.54917,35.02412],[135.5402,35.03959],[135.53567,35.04328],[135.53483,35.04564],[135.53392,35.05772],[135.52809,35.06402],[135.51996,35.07061],[135.51275,35.08013],[135.50467,35.0867],[135.49439,35.10029],[135.488,35.10374],[135.4827,35.10855],[135.48003,35.11516],[135.48013,35.12172],[135.47763,35.12519],[135.47196,35.12739],[135.46094,35.12835],[135.45792,35.13072],[135.45522,35.13544],[135.44202,35.14381],[135.43506,35.14505],[135.42205,35.15207],[135.40531,35.15864],[135.40018,35.16013],[135.39151,35.16126],[135.38326,35.16647],[135.37481,35.16854],[135.37081,35.17105],[135.36904,35.17355],[135.3665,35.18057],[135.36025,35.18748],[135.35722,35.19676],[135.34637,35.20898],[135.34265,35.21619],[135.34241,35.21954],[135.34491,35.22747],[135.34563,35.23475],[135.34179,35.25437],[135.34518,35.26298],[135.34549,35.26573],[135.3442,35.26943],[135.33833,35.27712],[135.33622,35.28948],[135.3344,35.29477],[135.32649,35.30842],[135.31919,35.31678],[135.30842,35.3367],[135.30429,35.34092],[135.29266,35.34895],[135.28969,35.35215]],[[135.28966,35.35219],[135.28902,35.35463],[135.28925,35.36044],[135.28724,35.36448],[135.28479,35.36695],[135.27404,35.37417],[135.26375,35.37655],[135.24317,35.38523],[135.23993,35.39127],[135.23507,35.39605],[135.22516,35.41093],[135.2132,35.42016],[135.20985,35.42929],[135.20477,35.43416],[135.20047,35.43634],[135.20487,35.4342],[135.20996,35.42933],[135.21139,35.42678],[135.21299,35.42064],[135.218,35.41641]],[[135.20047,35.43634],[135.19466,35.4385],[135.18742,35.44427],[135.18476,35.44829],[135.17956,35.45271],[135.17319,35.46474],[135.17592,35.47268],[135.17215,35.4895],[135.17285,35.49416],[135.17501,35.49828],[135.18235,35.50419],[135.1897,35.50708],[135.19209,35.50897],[135.19337,35.51295],[135.19188,35.5162]],[[135.64432,34.98582],[135.63779,34.988],[135.62808,34.98982],[135.61068,34.99063],[135.59828,34.98915],[135.57966,34.99249],[135.57642,34.99386],[135.5715,35.00089],[135.56473,35.00545],[135.55954,35.01052],[135.54937,35.02363],[135.54011,35.03954],[135.53558,35.04324],[135.53473,35.04559],[135.53437,35.05542],[135.53337,35.05789],[135.52798,35.06393],[135.51964,35.07052],[135.51231,35.08032],[135.50458,35.08665],[135.49432,35.10025],[135.48793,35.10367],[135.4825,35.10861],[135.48002,35.11471],[135.48022,35.12056],[135.47915,35.1236]],[[135.74408,34.89752],[135.73694,34.90021],[135.73042,34.89992],[135.71901,34.8942],[135.71413,34.8908],[135.70654,34.89053],[135.70434,34.892],[135.69923,34.89977],[135.69295,34.90421],[135.69043,34.911],[135.68726,34.91457],[135.67705,34.92017],[135.67128,34.9216],[135.66861,34.92321],[135.66693,34.92644],[135.66373,34.94712],[135.66024,34.95249],[135.65511,34.9558],[135.65374,34.95817],[135.65433,34.96307],[135.65952,34.97081],[135.65991,34.97522],[135.65403,34.98265],[135.64603,34.98502]],[[135.4176,35.15392],[135.41004,35.15681]],[[135.35964,35.18905],[135.36134,35.18591],[135.3666,35.18061],[135.36852,35.17491]],[[135.34322,35.27067],[135.33837,35.27672],[135.33713,35.2843]]]}}]}