{"type":"FeatureCollection","features":[{"type":"Feature","properties":{"route_id":"229","route_number":229,"name":"国道229号","source":"OpenStreetMap contributors (ODbL)","osm_relations":[6595831]},"geometry":{"type":"MultiLineString","coordinates":[[[140.84661,43.19784],[140.84445,43.19791],[140.84631,43.19823],[140.84828,43.19691],[140.84661,43.19784]],[[140.99601,43.19508],[140.99272,43.20256],[140.98612,43.20225],[140.98304,43.20541],[140.97804,43.20745],[140.97159,43.20656],[140.96661,43.20756],[140.95404,43.21861],[140.94974,43.22005],[140.93412,43.21091],[140.92674,43.20865],[140.92245,43.20882],[140.91717,43.21084],[140.90283,43.20878],[140.89508,43.20877],[140.88813,43.20579],[140.87318,43.20354],[140.86481,43.199],[140.85834,43.19858],[140.85032,43.19655],[140.84828,43.19691]],[[140.59118,43.29213],[140.5895,43.29072],[140.58608,43.29267],[140.58501,43.28962],[140.58341,43.28974],[140.58043,43.28839],[140.57879,43.28872],[140.58039,43.28846],[140.58346,43.28983],[140.58501,43.28971],[140.58572,43.29064],[140.58542,43.29218],[140.58618,43.29276],[140.59001,43.29087],[140.59748,43.29829],[140.60188,43.29548],[140.61105,43.29509],[140.61918,43.29649],[140.62327,43.29471],[140.62994,43.29347],[140.63163,43.29178],[140.63766,43.28061],[140.63867,43.27738],[140.63658,43.27617],[140.63535,43.27432],[140.63958,43.26634],[140.63895,43.26571],[140.64752,43.26165],[140.66048,43.25879],[140.66542,43.2565],[140.67938,43.25493],[140.68842,43.25297],[140.6934,43.24947],[140.69908,43.24974],[140.70973,43.24716],[140.71709,43.24664],[140.72007,43.24564],[140.72553,43.24211],[140.73081,43.24054],[140.73262,43.23898],[140.73584,43.23264],[140.73453,43.22553],[140.73615,43.22225],[140.74091,43.21979],[140.74357,43.21629],[140.74713,43.2144],[140.75065,43.21127],[140.76367,43.20964],[140.76687,43.20795],[140.77126,43.20795],[140.77162,43.20354],[140.7739,43.20207],[140.78271,43.19899],[140.78467,43.19719],[140.78478,43.19515],[140.78636,43.19202],[140.79221,43.18727],[140.79314,43.18711],[140.79273,43.18956],[140.7941,43.19252],[140.81851,43.19193],[140.83779,43.19526],[140.84445,43.19791]],[[140.539,42.9982],[140.52027,42.98306],[140.51485,42.9812],[140.50297,42.98082],[140.49291,42.97753],[140.48798,42.97366],[140.47697,42.96956],[140.45621,42.95832],[140.45068,42.95395],[140.425,42.94332],[140.41698,42.94176],[140.41545,42.93535],[140.40983,42.93179],[140.40356,42.92628],[140.40169,42.92375],[140.39955,42.91845],[140.38055,42.9034],[140.37392,42.8883],[140.37303,42.88337],[140.37176,42.88125],[140.36962,42.87926],[140.36445,42.8769],[140.35904,42.87304],[140.34613,42.85685],[140.33747,42.85145],[140.33357,42.84747],[140.32954,42.84502],[140.32634,42.8445],[140.32318,42.83962],[140.31815,42.83784],[140.30898,42.83071],[140.30676,42.82788],[140.30527,42.82477],[140.30521,42.81722],[140.30411,42.81183],[140.30758,42.80103],[140.31039,42.79687],[140.31051,42.79505],[140.30824,42.79106],[140.30863,42.78481],[140.30698,42.78181],[140.30479,42.77323],[140.29692,42.76829],[140.29328,42.75768],[140.26923,42.7561],[140.26488,42.75868],[140.25518,42.76252],[140.25072,42.76629],[140.2466,42.76732],[140.24077,42.77371],[140.23229,42.79156],[140.22459,42.79839],[140.22162,42.8026],[140.21039,42.80686],[140.20589,42.80769],[140.20148,42.81038],[140.19356,42.81698],[140.19107,42.82259],[140.18909,42.82309],[140.18694,42.82219],[140.18299,42.81711],[140.17992,42.80993],[140.16121,42.7909],[140.14866,42.77322],[140.14718,42.77044],[140.14797,42.7688],[140.1506,42.76732],[140.15129,42.76288],[140.14676,42.75537],[140.14254,42.75091],[140.13872,42.74902],[140.13414,42.74973],[140.13318,42.74732],[140.13141,42.74599],[140.12609,42.74701],[140.11822,42.74595],[140.11584,42.74437],[140.11433,42.74056],[140.11055,42.73928],[140.10508,42.73597],[140.10952,42.73915],[140.11218,42.7398]],[[140.08638,42.04077],[140.08654,42.03918],[140.09033,42.03666],[140.0865,42.03973],[140.08651,42.04212],[140.0845,42.04655],[140.07791,42.05042],[140.07545,42.05333],[140.07447,42.06414],[140.07244,42.06765],[140.06801,42.07116],[140.06342,42.07182],[140.06288,42.07404],[140.05979,42.07707],[140.0574,42.08258],[140.05457,42.08509],[140.05128,42.09067],[140.04828,42.09203],[140.04473,42.09715],[140.0254,42.11406],[140.02168,42.11673],[140.01763,42.1183],[140.01547,42.12047],[140.00942,42.12144],[140.00525,42.12041],[140.00304,42.12202],[139.99882,42.12274],[139.99238,42.12771],[139.98815,42.12934],[139.98384,42.1285],[139.98152,42.12933],[139.97434,42.12859],[139.97086,42.13069],[139.96469,42.131],[139.95949,42.12942],[139.95042,42.12961],[139.93946,42.13163],[139.93588,42.13132],[139.93372,42.13404],[139.93244,42.13452],[139.92829,42.13301],[139.9227,42.13336],[139.91866,42.13953],[139.91838,42.14321],[139.91446,42.14821],[139.91229,42.15416],[139.90779,42.15946],[139.90451,42.16631],[139.90176,42.16887],[139.90027,42.17155],[139.89713,42.17412],[139.89775,42.17702],[139.89548,42.17939],[139.89627,42.18154],[139.89589,42.18347],[139.89253,42.18396],[139.89169,42.18662],[139.88749,42.18677],[139.88528,42.19036],[139.88245,42.19156],[139.88056,42.1979],[139.88215,42.20421],[139.88081,42.20843],[139.86672,42.21869],[139.86614,42.22089],[139.8775,42.23003],[139.88803,42.23361],[139.8887,42.23476],[139.88822,42.23745],[139.8896,42.24023],[139.88877,42.24369],[139.89044,42.24458],[139.89538,42.24511],[139.89794,42.24739],[139.89847,42.25026],[139.90074,42.25254],[139.9052,42.26283],[139.90743,42.26582],[139.90802,42.26798],[139.90747,42.26959],[139.90908,42.27253],[139.90867,42.27542],[139.90999,42.28129],[139.90799,42.28382],[139.90877,42.28677],[139.90697,42.28978],[139.90711,42.29311],[139.90322,42.29815],[139.90607,42.30199],[139.90495,42.30948],[139.90678,42.31228],[139.90715,42.31966],[139.91013,42.32417],[139.90842,42.32798],[139.91546,42.33521],[139.91675,42.34294],[139.91292,42.34612],[139.90995,42.35061],[139.9066,42.35246],[139.90881,42.3593],[139.90762,42.36116],[139.90743,42.36413],[139.89691,42.36956],[139.89802,42.37899],[139.89288,42.38348],[139.89193,42.38562],[139.88918,42.38827],[139.88744,42.39279],[139.88487,42.39556],[139.88594,42.40291],[139.88085,42.41229],[139.87861,42.41245],[139.87522,42.41492],[139.87048,42.41671],[139.86537,42.41687],[139.86175,42.41796],[139.85957,42.42007],[139.85652,42.4272],[139.85353,42.42908],[139.85192,42.43241],[139.85474,42.44614],[139.85126,42.45358],[139.84912,42.45615],[139.85278,42.46055],[139.85373,42.46398],[139.85326,42.46691],[139.85155,42.46927],[139.852,42.47149],[139.84925,42.47452],[139.84871,42.47823],[139.84684,42.48094],[139.84827,42.48398],[139.84797,42.49051],[139.8494,42.49317],[139.84561,42.49579],[139.84294,42.49901],[139.84338,42.50059],[139.84585,42.50158],[139.84653,42.5042],[139.84644,42.50669],[139.84398,42.51427],[139.84714,42.52556],[139.84728,42.52835],[139.84071,42.53917],[139.84007,42.54236],[139.84088,42.54767],[139.83733,42.55242],[139.83506,42.56104],[139.83652,42.56331],[139.83573,42.56566],[139.83597,42.56857],[139.82878,42.5818],[139.82791,42.58819],[139.8259,42.59044],[139.82557,42.59361],[139.83189,42.59724],[139.83496,42.6005],[139.8368,42.60478],[139.84051,42.62383],[139.85143,42.63503],[139.85315,42.6394],[139.85797,42.64211],[139.86095,42.65177],[139.86523,42.6545],[139.87618,42.66691],[139.8801,42.6695],[139.88369,42.67053],[139.88881,42.67435],[139.89834,42.67941],[139.90848,42.68103],[139.91739,42.68352],[139.9256,42.68789],[139.93426,42.68766],[139.94283,42.68893],[139.95667,42.68775],[139.96113,42.68923],[139.96795,42.6896],[139.97151,42.69063],[139.97466,42.69045],[139.98356,42.6878],[139.99038,42.69151],[139.99377,42.69092],[139.99828,42.68834],[140.00053,42.68599],[140.01138,42.68517],[140.01732,42.68799],[140.02916,42.68726],[140.03856,42.68941],[140.04293,42.69104],[140.04703,42.69428],[140.05945,42.69974],[140.06198,42.70164],[140.06408,42.70564],[140.06577,42.7071],[140.06505,42.71311],[140.07123,42.71839],[140.07511,42.7241],[140.07857,42.72597],[140.08073,42.72977],[140.08569,42.73018],[140.09436,42.7352],[140.09687,42.73564],[140.10036,42.73505],[140.10508,42.73597]],[[140.09033,42.03666],[140.09554,42.03418],[140.09661,42.03015],[140.09956,42.02859],[140.10077,42.02475],[140.1008,42.02077],[140.10334,42.01979],[140.10364,42.01798],[140.10563,42.01684],[140.10807,42.0137],[140.10646,42.01049],[140.10688,42.00941],[140.11012,42.00755],[140.11869,42.00507],[140.12073,42.00314],[140.12511,41.99429],[140.12444,41.99081],[140.12661,41.98284],[140.13069,41.97852],[140.13943,41.97396],[140.13945,41.97271],[140.13738,41.96973],[140.13006,41.96649],[140.12861,41.9648],[140.13466,41.95649],[140.13443,41.95277],[140.13516,41.95056],[140.14365,41.94391],[140.15114,41.9332],[140.15147,41.92061]],[[140.57879,43.28872],[140.57434,43.29044],[140.5734,43.2927],[140.56859,43.29634],[140.56427,43.30338],[140.55786,43.30527],[140.54101,43.31536],[140.52972,43.31746],[140.52212,43.31984],[140.51729,43.32153],[140.51092,43.32532],[140.50429,43.32437],[140.49179,43.32909],[140.48411,43.32951],[140.47958,43.33082],[140.4691,43.33136],[140.46416,43.33598],[140.4594,43.33895],[140.45718,43.34279],[140.45446,43.3419],[140.45322,43.33896],[140.4493,43.33788],[140.44481,43.33401],[140.43567,43.33168],[140.42735,43.32842],[140.42148,43.32914],[140.41021,43.33248],[140.39749,43.32974],[140.39289,43.33147],[140.38882,43.33161],[140.38019,43.32811],[140.37509,43.33068],[140.36935,43.33057],[140.36562,43.32861],[140.36171,43.31768],[140.35921,43.31418],[140.35845,43.30849],[140.355,43.30419],[140.35521,43.30166],[140.35398,43.29882],[140.35127,43.29658],[140.35038,43.29098],[140.34764,43.28522],[140.3452,43.28199],[140.34411,43.27381],[140.34164,43.26812],[140.33996,43.25889],[140.33769,43.253],[140.33422,43.24824],[140.33431,43.24596],[140.33355,43.24385],[140.33175,43.24209],[140.33046,43.23654],[140.32744,43.23346],[140.32659,43.23113],[140.3275,43.22633],[140.32595,43.22227],[140.32768,43.21862],[140.33384,43.21419],[140.34071,43.21089],[140.34699,43.20169],[140.34651,43.19777],[140.3481,43.196],[140.34846,43.19324],[140.35306,43.18829],[140.35721,43.1853],[140.36038,43.18099],[140.37078,43.1767],[140.38134,43.16949],[140.38511,43.16523],[140.38762,43.16367],[140.39987,43.1595],[140.40361,43.15739],[140.41598,43.14922],[140.42105,43.14675],[140.4244,43.14327],[140.43232,43.14403],[140.43424,43.14192],[140.42989,43.13771],[140.43045,43.13564],[140.43637,43.1305],[140.44181,43.12761],[140.44367,43.1229],[140.45104,43.11707],[140.45168,43.11423],[140.45042,43.11087],[140.45293,43.10764],[140.45821,43.10624],[140.45958,43.10518],[140.4612,43.10118],[140.46101,43.09889],[140.46349,43.09434],[140.46354,43.09181],[140.46532,43.08959],[140.48017,43.07949],[140.48662,43.07683],[140.48988,43.07171],[140.49673,43.06634],[140.4984,43.06403],[140.49733,43.06189],[140.49829,43.05699],[140.50054,43.05512],[140.50509,43.04556],[140.5101,43.04204],[140.53424,43.03267],[140.548,43.02614],[140.54863,43.0247],[140.54782,43.02091],[140.54386,43.01546],[140.54237,43.00494],[140.53873,42.99907],[140.53907,42.99814],[140.53773,42.99717]],[[140.99278,43.20244],[140.98565,43.20224],[140.98296,43.20535],[140.97799,43.20736],[140.97227,43.20623],[140.96796,43.20677],[140.96365,43.20904],[140.96135,43.21225],[140.95786,43.21456],[140.95395,43.21856],[140.95021,43.21993],[140.94813,43.2195],[140.9342,43.21082],[140.92731,43.20868],[140.92241,43.20872],[140.91769,43.21071],[140.91187,43.21016]]]}}]}