{"type":"FeatureCollection","features":[{"type":"Feature","properties":{"route_id":"19","route_number":19,"name":"国道19号","source":"OpenStreetMap contributors (ODbL)","osm_relations":[964699,6409725,6415970,6415974,9039442,9039443,9039444,9039445,9039447,9039448,9039449,9039450]},"geometry":{"type":"MultiLineString","coordinates":[[[137.38892,35.4477],[137.39208,35.44964],[137.3947,35.44998],[137.40111,35.44759],[137.41061,35.44599],[137.41942,35.44915],[137.42508,35.45293],[137.42831,35.45333],[137.43083,35.45475],[137.43427,35.4548],[137.44072,35.4592],[137.46178,35.46453],[137.46753,35.46895],[137.47123,35.4704],[137.48478,35.47853],[137.49406,35.4798],[137.50334,35.48349],[137.5127,35.4911],[137.51332,35.50063],[137.51767,35.51004],[137.52042,35.51167],[137.5278,35.51232],[137.53079,35.51412],[137.53157,35.5163],[137.53074,35.51419],[137.52774,35.51239],[137.52037,35.51174],[137.51771,35.51022],[137.51319,35.50053],[137.5126,35.4911],[137.50321,35.48352],[137.49371,35.4798],[137.48474,35.4786],[137.471,35.47038],[137.46734,35.46895],[137.46193,35.46468],[137.44065,35.45927],[137.43426,35.45488],[137.43085,35.45485],[137.42827,35.45342],[137.42503,35.45299],[137.41936,35.44923],[137.41055,35.44608],[137.40113,35.44763],[137.39625,35.4497],[137.39354,35.44999],[137.37985,35.44376],[137.37669,35.44338],[137.36965,35.44034],[137.36679,35.43983],[137.36075,35.44096],[137.35708,35.44074],[137.35133,35.43648],[137.34802,35.43641],[137.34343,35.43389],[137.33535,35.43215],[137.32834,35.42546],[137.32434,35.42334],[137.32196,35.42071],[137.30653,35.41372],[137.30366,35.41057],[137.29288,35.40413],[137.28542,35.40118],[137.27874,35.40028],[137.27221,35.39058],[137.27038,35.38365],[137.26772,35.37956],[137.26652,35.37496],[137.26408,35.37157],[137.26416,35.3646],[137.26101,35.36013],[137.25634,35.35779],[137.2498,35.35657],[137.24563,35.35692],[137.23574,35.36126],[137.22782,35.3632],[137.22457,35.3662],[137.22077,35.36772],[137.21381,35.36631],[137.20271,35.36814],[137.19379,35.36742],[137.18744,35.36605],[137.178,35.36079],[137.17215,35.35329],[137.17192,35.34964],[137.16137,35.34503],[137.15888,35.34324],[137.15367,35.34332],[137.13284,35.34053],[137.12686,35.34118],[137.12171,35.34284],[137.10781,35.33275],[137.09841,35.33226],[137.08838,35.32875],[137.08457,35.3291],[137.08048,35.33082],[137.06541,35.32719],[137.06017,35.32754],[137.05291,35.32137],[137.04383,35.31997],[137.04028,35.31859],[137.03003,35.31077],[137.02105,35.30159],[137.01983,35.29866],[137.01827,35.2852],[137.0159,35.28106],[136.9924,35.26551],[136.97568,35.25223],[136.9568,35.23477],[136.95311,35.23379],[136.94801,35.2284],[136.94679,35.22552],[136.94698,35.214],[136.94297,35.20414],[136.94009,35.20218],[136.93836,35.19791],[136.93408,35.19371],[136.93374,35.19151],[136.93029,35.19012],[136.92407,35.18382],[136.91959,35.17414],[136.89712,35.17294],[136.89927,35.13991],[136.89999,35.13739],[136.9067,35.12804],[136.90738,35.12193]],[[136.90716,35.12202],[136.90648,35.128],[136.89979,35.13733],[136.89905,35.13988],[136.89689,35.17308],[136.91942,35.17431],[136.92366,35.18365],[136.9303,35.19035],[136.93365,35.1916],[136.93392,35.19379],[136.93825,35.19794],[136.94003,35.20231],[136.94284,35.20418],[136.94682,35.21402],[136.94669,35.22553],[136.94791,35.22842],[136.95303,35.23393],[136.9567,35.23489],[136.97744,35.25391],[136.9923,35.2656],[137.01581,35.28113],[137.01812,35.28524],[137.01977,35.29902],[137.02094,35.30164],[137.02997,35.31083],[137.039,35.31784],[137.04296,35.31986],[137.05282,35.32142],[137.06005,35.32768],[137.06585,35.32748],[137.07031,35.32931],[137.08049,35.33092],[137.08441,35.32923],[137.08787,35.32884],[137.09849,35.33238],[137.10784,35.33285],[137.12171,35.34295],[137.12687,35.34127],[137.13251,35.34062],[137.15439,35.34347],[137.15885,35.34334],[137.17185,35.34968],[137.17213,35.35344],[137.17795,35.36087],[137.18756,35.36619],[137.1945,35.36763],[137.20294,35.3682],[137.21411,35.36639],[137.22077,35.36779],[137.22438,35.36642],[137.22792,35.36324],[137.23585,35.3613],[137.24548,35.35704],[137.24914,35.35661],[137.25555,35.35756],[137.26094,35.36018],[137.26408,35.36469],[137.26384,35.37125],[137.26644,35.37503],[137.26773,35.37982],[137.27022,35.38348],[137.27205,35.39047],[137.27477,35.39385]],[[137.95732,36.17089],[137.9538,36.16622],[137.95036,36.15638],[137.95041,36.14608],[137.95061,36.15675],[137.9548,36.16773],[137.96084,36.17417],[137.96479,36.1913],[137.9672,36.19792],[137.96063,36.2109],[137.95948,36.227],[137.95646,36.23033],[137.95643,36.23699],[137.95267,36.24497],[137.95106,36.2533],[137.9479,36.26131],[137.94481,36.26585],[137.94548,36.27101],[137.94739,36.27574],[137.94725,36.27964],[137.94348,36.29223],[137.94161,36.29523],[137.94033,36.30487],[137.93961,36.30649],[137.93661,36.30867],[137.93245,36.31552],[137.93084,36.32303],[137.922,36.34578],[137.92315,36.3486],[137.93135,36.35643],[137.93088,36.36217],[137.93182,36.3658],[137.92803,36.36881],[137.92151,36.37705],[137.92205,36.38047],[137.92591,36.38365],[137.92465,36.39274],[137.92589,36.40056],[137.92478,36.40449],[137.92583,36.40695],[137.92802,36.40956],[137.93319,36.41111],[137.93642,36.41305],[137.93863,36.41728],[137.944,36.42134],[137.94476,36.42304],[137.94271,36.42774],[137.93797,36.43228],[137.93688,36.43456],[137.93698,36.43648],[137.93839,36.438],[137.94036,36.44445],[137.94519,36.44897],[137.94619,36.45086],[137.94638,36.45381],[137.94281,36.46112],[137.94743,36.46284],[137.95079,36.46585],[137.95658,36.46487],[137.95852,36.46528],[137.95839,36.47128],[137.95529,36.47637],[137.95065,36.47907],[137.94879,36.48263],[137.94933,36.48557],[137.95325,36.48593],[137.955,36.48809],[137.95394,36.49488],[137.94918,36.49949],[137.94931,36.5015],[137.95073,36.50255],[137.95758,36.50269],[137.96031,36.50404],[137.96127,36.50562],[137.96069,36.50912],[137.96322,36.51086],[137.96544,36.51398],[137.96339,36.51813],[137.96303,36.52061],[137.95857,36.52377],[137.95796,36.52584],[137.96338,36.52967],[137.96548,36.5321],[137.9654,36.53471],[137.97095,36.54661],[137.97491,36.54841],[137.97671,36.55039],[137.97904,36.55011],[137.98191,36.54779],[137.98485,36.54666],[137.98941,36.54904],[137.99018,36.55404],[137.99404,36.55674],[137.99325,36.55857],[137.99112,36.55929],[137.99021,36.56193],[137.99132,36.56307],[137.99622,36.56411],[137.99833,36.56612],[138.00428,36.56635],[138.00954,36.5706],[138.01736,36.57328],[138.02048,36.57217],[138.02639,36.5731],[138.02714,36.57254],[138.02737,36.57031],[138.03183,36.571],[138.03758,36.56972],[138.03955,36.56803],[138.04238,36.56984],[138.04326,36.5732],[138.0455,36.57412],[138.04903,36.57346],[138.05137,36.57417],[138.05259,36.57775],[138.04996,36.58043],[138.05238,36.58468],[138.05095,36.5882],[138.04805,36.59122],[138.04649,36.59553],[138.05008,36.59889],[138.05334,36.59885],[138.05548,36.59983],[138.05876,36.60335],[138.07524,36.60905],[138.08135,36.61323],[138.08942,36.6173],[138.09245,36.61775],[138.09909,36.61619],[138.10115,36.61642],[138.10406,36.618],[138.10525,36.62132],[138.11184,36.61984],[138.11951,36.62012],[138.12325,36.61879],[138.12497,36.61922],[138.12708,36.62159],[138.13471,36.62184],[138.13775,36.62435],[138.14435,36.625],[138.15136,36.62781],[138.15667,36.62892],[138.16743,36.63349],[138.17616,36.64054],[138.18186,36.64114],[138.18205,36.65013],[138.21989,36.64739]],[[137.9043,36.07026],[137.90335,36.06822],[137.90765,36.07488],[137.92157,36.0882],[137.92294,36.09402],[137.92776,36.09835],[137.93563,36.11507],[137.94797,36.11909],[137.96006,36.11916],[137.95466,36.13094],[137.95421,36.13871],[137.95041,36.14608]],[[137.61589,35.64283],[137.61364,35.64055],[137.61523,35.6379],[137.61373,35.64072],[137.61766,35.6449],[137.61824,35.64977],[137.62086,35.65198],[137.62203,35.6574],[137.62678,35.66476],[137.63338,35.66931],[137.63807,35.67123],[137.64349,35.67738],[137.64896,35.67953],[137.65477,35.68317],[137.65794,35.68306],[137.66486,35.68491],[137.67227,35.6921],[137.67804,35.69288],[137.68552,35.69653],[137.68915,35.69636],[137.69339,35.6975],[137.70141,35.70533],[137.70254,35.71015],[137.70716,35.7139],[137.71042,35.7198],[137.71514,35.72253],[137.71538,35.72502],[137.71204,35.73017],[137.71275,35.73191],[137.7163,35.73567],[137.71621,35.74143],[137.71442,35.74475],[137.71372,35.74841],[137.70907,35.75456],[137.70935,35.75792],[137.70813,35.76022],[137.70572,35.7631],[137.70037,35.76655],[137.70195,35.76913],[137.70242,35.77182],[137.697,35.77983],[137.69803,35.78723],[137.69489,35.79096],[137.68704,35.79328],[137.68536,35.7951],[137.6859,35.80093],[137.68374,35.8078],[137.68257,35.82046],[137.68146,35.82338],[137.68364,35.82709],[137.68215,35.83013],[137.68234,35.83127],[137.68627,35.83361],[137.68817,35.83653],[137.69306,35.83975],[137.69724,35.84438],[137.70548,35.84621],[137.70802,35.85242],[137.7139,35.85749],[137.71991,35.85878],[137.72238,35.86117],[137.72839,35.86175],[137.73219,35.86379],[137.73471,35.86412],[137.7445,35.87082],[137.75427,35.87535],[137.7592,35.87984],[137.76709,35.89201],[137.76784,35.89604],[137.77347,35.90036],[137.77387,35.90411],[137.76913,35.90776],[137.77156,35.91681],[137.77079,35.91887],[137.77163,35.92063],[137.77675,35.9218],[137.77854,35.92382],[137.78291,35.92655],[137.78643,35.93031],[137.78748,35.93828],[137.7889,35.9419],[137.80845,35.95251],[137.80921,35.95454],[137.80863,35.95738],[137.8102,35.95973],[137.80987,35.96227],[137.81604,35.96708],[137.81948,35.97182],[137.82463,35.97253],[137.8279,35.97721],[137.83271,35.97913],[137.83665,35.98399],[137.83917,35.98566],[137.84189,35.98558],[137.84375,35.98645],[137.85026,35.99217],[137.8514,35.99462],[137.85088,35.99661],[137.85252,36.00011],[137.85503,36.00135],[137.85527,36.00614],[137.8569,36.00932],[137.85928,36.01135],[137.86178,36.01623],[137.86605,36.02113],[137.87004,36.02395],[137.87309,36.03124],[137.88191,36.03847],[137.88666,36.03989],[137.89217,36.04636],[137.89486,36.04789],[137.89712,36.05071],[137.89813,36.05366],[137.90239,36.06028],[137.90335,36.06822]],[[138.12561,36.62002],[138.12591,36.62092]],[[137.53143,35.51649],[137.52977,35.51913],[137.53372,35.52113],[137.53342,35.52448],[137.53635,35.52677],[137.53751,35.53111],[137.53806,35.53637],[137.53905,35.53808],[137.53713,35.5409],[137.54159,35.54291],[137.54329,35.54448],[137.54555,35.54913],[137.54396,35.55254],[137.5426,35.5603],[137.53998,35.56289],[137.53726,35.56746],[137.54017,35.57147],[137.53931,35.57852],[137.53726,35.58133],[137.53724,35.58324],[137.54727,35.58661],[137.55123,35.58669],[137.55555,35.58545],[137.56237,35.58492],[137.57521,35.589],[137.58781,35.58913],[137.59257,35.58599],[137.59712,35.58707],[137.59894,35.5937],[137.60047,35.59477],[137.60585,35.5953],[137.60738,35.59817],[137.60808,35.60403],[137.61006,35.60902],[137.6143,35.61506],[137.61433,35.62067],[137.61696,35.62347],[137.61749,35.627],[137.61523,35.6379]],[[137.70863,35.853],[137.70794,35.85228]],[[137.71204,35.72995],[137.71267,35.73191],[137.71601,35.73511]],[[137.29489,35.40529],[137.29288,35.40413]],[[137.95897,36.12245],[137.96006,36.11916]],[[137.27368,35.3926],[137.28109,35.39381],[137.28606,35.39703],[137.29463,35.39954],[137.29994,35.40414],[137.30358,35.4057],[137.31073,35.41284],[137.3211,35.41807],[137.33654,35.42864],[137.34164,35.42991],[137.34667,35.43245],[137.35037,35.43296],[137.35573,35.4361],[137.35868,35.4369],[137.36439,35.43451],[137.36696,35.4346],[137.37658,35.43852],[137.38181,35.44391],[137.3867,35.44699]],[[137.38688,35.44704],[137.38184,35.4439],[137.37557,35.43774],[137.36702,35.43452],[137.36438,35.43445],[137.35869,35.43682],[137.35582,35.43606],[137.35041,35.43292],[137.34675,35.43239],[137.34169,35.42986],[137.33659,35.42854],[137.32107,35.41797],[137.31087,35.41286],[137.30377,35.40571],[137.30006,35.40406],[137.29464,35.39939],[137.28613,35.39695],[137.2811,35.39376],[137.27611,35.39334],[137.27344,35.39215]]]}}]}