{"type":"FeatureCollection","features":[{"type":"Feature","properties":{"route_id":"476","route_number":476,"name":"国道476号","source":"OpenStreetMap contributors (ODbL)","osm_relations":[8596419]},"geometry":{"type":"MultiLineString","coordinates":[[[136.3053,35.81767],[136.30336,35.81716],[136.30493,35.81644],[136.30189,35.81606],[136.30063,35.81474],[136.29372,35.80253],[136.29384,35.80105],[136.29502,35.80035],[136.28864,35.79592],[136.27859,35.79454],[136.26642,35.79469],[136.26349,35.79348],[136.25445,35.79608],[136.24629,35.79517],[136.22966,35.79573],[136.22587,35.79452],[136.21742,35.79348],[136.21477,35.78925],[136.21178,35.78833],[136.20939,35.78658],[136.20709,35.78689],[136.20308,35.78441],[136.19864,35.78365],[136.19654,35.77842],[136.20191,35.77269],[136.20175,35.76705],[136.20322,35.76124],[136.20108,35.75451],[136.20147,35.75038],[136.19356,35.74577],[136.18704,35.74675],[136.18397,35.74543],[136.17593,35.74428],[136.17536,35.74334],[136.17302,35.74267],[136.17159,35.73939],[136.16846,35.73668],[136.16469,35.73495],[136.16292,35.73498],[136.155,35.73051],[136.15401,35.72899],[136.15463,35.72743],[136.15324,35.72549],[136.15348,35.71789],[136.1528,35.71648],[136.13751,35.70663],[136.13379,35.70579],[136.13145,35.70657],[136.13237,35.70532],[136.13199,35.70349],[136.12928,35.70187],[136.12726,35.6978],[136.12734,35.69566],[136.12529,35.69287],[136.119,35.69287],[136.11638,35.69015],[136.11471,35.68139],[136.11728,35.677],[136.11682,35.66926],[136.1136,35.664],[136.11021,35.66233],[136.10319,35.66297],[136.10034,35.66237],[136.09855,35.66015],[136.09785,35.65517],[136.09567,35.65258],[136.09339,35.65162],[136.08813,35.65098],[136.08528,35.65343],[136.07816,35.65579],[136.07639,35.65833]],[[136.51113,35.98029],[136.50956,35.98084],[136.49907,35.98043],[136.49446,35.98371],[136.4875,35.98431],[136.4874,35.98491],[136.48165,35.98416],[136.4812,35.98649],[136.47441,35.98818],[136.47527,35.98703],[136.47248,35.98733],[136.46957,35.98646],[136.46825,35.98409],[136.46074,35.98226],[136.4592,35.98028],[136.46278,35.9778],[136.45898,35.97881],[136.45823,35.97854],[136.46059,35.97715],[136.45547,35.97769],[136.45501,35.97911],[136.45604,35.98008],[136.45559,35.98202],[136.45427,35.97852],[136.45345,35.97934],[136.4534,35.97748],[136.44955,35.97616],[136.44864,35.97373],[136.4418,35.97224],[136.44107,35.97036],[136.44614,35.96934],[136.44394,35.96699],[136.44296,35.96692],[136.44288,35.9678],[136.44234,35.96717],[136.43706,35.9677],[136.43102,35.96721],[136.4238,35.96508],[136.41749,35.96175],[136.41259,35.9625],[136.40212,35.96205],[136.39947,35.96325],[136.39358,35.96252],[136.3845,35.96435],[136.38259,35.96202],[136.38054,35.96132],[136.37914,35.95911],[136.37365,35.95977],[136.37249,35.96192],[136.37143,35.96219],[136.36961,35.95914],[136.36635,35.95928],[136.36163,35.95302],[136.35902,35.95157],[136.35284,35.95109],[136.35289,35.94957],[136.35692,35.94505],[136.35945,35.94397],[136.35942,35.94159],[136.36107,35.93911],[136.35854,35.93565],[136.35692,35.93152],[136.35085,35.92726],[136.35153,35.92592],[136.35198,35.91775],[136.35281,35.91533],[136.35669,35.90992],[136.35731,35.90344],[136.3564,35.9013],[136.34914,35.89547],[136.34338,35.88622],[136.33458,35.88083],[136.3307,35.87429],[136.32762,35.87095],[136.32397,35.86921],[136.32012,35.86368],[136.31178,35.85821],[136.30749,35.85741],[136.30895,35.85515],[136.3118,35.85433],[136.31394,35.85194],[136.31405,35.84823],[136.3163,35.84702],[136.31826,35.84323],[136.31863,35.84117],[136.31725,35.8372],[136.31638,35.83066]],[[136.36105,35.93876],[136.36361,35.93454],[136.36333,35.9336]]]}}]}