{"type":"FeatureCollection","features":[{"type":"Feature","properties":{"route_id":"246","route_number":246,"name":"国道246号","source":"OpenStreetMap contributors (ODbL)","osm_relations":[30840,10218259,10218260,10218261,10218269]},"geometry":{"type":"MultiLineString","coordinates":[[[139.62302,35.60814],[139.61849,35.61008],[139.61644,35.60926],[139.62674,35.61511],[139.63131,35.6212],[139.64621,35.6279],[139.65868,35.63185],[139.6653,35.63619],[139.67118,35.64365],[139.68607,35.65161],[139.69314,35.654],[139.69496,35.65572],[139.70429,35.65837],[139.71061,35.66322],[139.71693,35.6702],[139.73107,35.67496],[139.73695,35.67849],[139.74574,35.67987],[139.74012,35.67889]],[[139.74494,35.6706],[139.74313,35.67754],[139.74019,35.67872],[139.73693,35.67838],[139.73112,35.6748],[139.71706,35.67009],[139.71073,35.66314],[139.70607,35.66014],[139.70435,35.65807],[139.69495,35.65549],[139.69324,35.65385],[139.68681,35.65169],[139.67108,35.64335],[139.66553,35.63616],[139.6612,35.63309],[139.65808,35.63139],[139.64498,35.62721],[139.63137,35.62116],[139.62679,35.61505],[139.60721,35.60397],[139.60272,35.59523],[139.59789,35.58291],[139.58948,35.5789]],[[139.58796,35.57843],[139.57023,35.57435],[139.55879,35.56107],[139.51394,35.53944],[139.50004,35.52846],[139.49287,35.52596],[139.4844,35.51937],[139.46766,35.50031],[139.46355,35.49145],[139.46366,35.48745],[139.46056,35.48523],[139.44321,35.47836],[139.42173,35.47884],[139.41857,35.4783],[139.41573,35.47653],[139.40573,35.46581],[139.40176,35.46388],[139.39167,35.46374],[139.36518,35.4652],[139.36175,35.46428],[139.35967,35.46141],[139.35698,35.43236],[139.35144,35.42741],[139.34839,35.42233],[139.34119,35.41611],[139.30733,35.40153],[139.2937,35.39753],[139.28175,35.3909],[139.26558,35.38908],[139.25575,35.38465],[139.24269,35.38317],[139.23583,35.37964],[139.22881,35.38128],[139.21748,35.37979],[139.19588,35.37152],[139.18244,35.37681],[139.17433,35.3786],[139.16987,35.37823],[139.16464,35.3747],[139.1632,35.37495],[139.16177,35.37398],[139.16412,35.37511],[139.16536,35.37448],[139.1636,35.37374]],[[139.35075,35.42653],[139.35671,35.43229],[139.35951,35.4612],[139.36148,35.46423],[139.36518,35.4653],[139.39168,35.46382],[139.40173,35.46396],[139.40564,35.46587],[139.41565,35.4766],[139.41852,35.47838],[139.42149,35.47892],[139.44318,35.47843],[139.4605,35.4853],[139.46355,35.48749],[139.46344,35.49148],[139.46747,35.50023],[139.48461,35.51971],[139.49335,35.52633],[139.50026,35.52871],[139.51388,35.53951],[139.55879,35.56115],[139.56668,35.57051]],[[139.56779,35.57181],[139.57016,35.5744],[139.5744,35.57549]],[[139.57557,35.57581],[139.58881,35.57873],[139.59741,35.58252],[139.60682,35.60364],[139.6091,35.60562],[139.61644,35.60926]],[[139.16506,35.37492],[139.1635,35.37355],[139.16153,35.36666],[139.15883,35.36402],[139.15815,35.3608],[139.15949,35.35831],[139.15783,35.3571],[139.15726,35.35518],[139.15422,35.3545],[139.14987,35.35123],[139.14833,35.34826],[139.14286,35.34884],[139.1485,35.34838]],[[139.62897,35.61854],[139.627,35.61266],[139.62352,35.60834]],[[139.61881,35.60996],[139.61706,35.6093]],[[138.88088,35.12139],[138.87973,35.12436],[138.87412,35.13255],[138.88525,35.13981],[138.88758,35.14683],[138.89407,35.15156],[138.90085,35.16149],[138.90147,35.16352],[138.90134,35.17139],[138.89911,35.17554],[138.90054,35.18301],[138.90259,35.18701],[138.90878,35.19262],[138.90969,35.19785],[138.91536,35.20457],[138.91747,35.20883],[138.91681,35.21603],[138.91126,35.22885],[138.90983,35.23524],[138.91069,35.23888],[138.90907,35.24316],[138.9106,35.24821],[138.91092,35.25263],[138.91297,35.25633],[138.9133,35.26084],[138.91234,35.27269],[138.91319,35.27454],[138.91746,35.27819],[138.91847,35.27997],[138.92068,35.29867],[138.92968,35.31704],[138.93183,35.32532],[138.93173,35.32856],[138.93546,35.33622],[138.94588,35.34048],[138.95442,35.35404],[138.95706,35.35448],[138.95856,35.35607],[138.96415,35.3566],[138.95835,35.35594],[138.9571,35.35442],[138.95464,35.35402],[138.94597,35.34043],[138.93563,35.33628],[138.93188,35.32872],[138.93192,35.32532],[138.92994,35.31745],[138.92071,35.29842],[138.91859,35.27995],[138.91249,35.27283],[138.91309,35.25633],[138.91101,35.25255],[138.91074,35.24839],[138.90917,35.2431],[138.91082,35.23889],[138.90994,35.23525],[138.91138,35.22885],[138.91683,35.21639],[138.91757,35.20882],[138.9154,35.20448],[138.90979,35.19783],[138.90875,35.19239],[138.90257,35.1868],[138.90063,35.18299],[138.89924,35.17548],[138.90146,35.17141],[138.9012,35.16192],[138.89442,35.15177],[138.88769,35.14681],[138.88535,35.13977],[138.87432,35.13246],[138.87986,35.12437],[138.88129,35.12094]],[[138.96415,35.3566],[138.96584,35.35607],[138.9734,35.35796],[138.97609,35.36192],[138.97729,35.36603],[138.98045,35.36763],[138.99282,35.36471],[138.99772,35.3649],[138.99914,35.3631],[139.00673,35.35817],[139.00813,35.35796],[139.01785,35.36253],[139.01806,35.36607],[139.02159,35.36897],[139.02215,35.37035],[139.02775,35.37203],[139.03488,35.37028],[139.03791,35.36801],[139.0402,35.36404],[139.04673,35.36133],[139.05745,35.36013],[139.06226,35.35828],[139.06742,35.35802],[139.08311,35.35932],[139.09014,35.3607],[139.09366,35.36315],[139.09916,35.36369],[139.10113,35.36298],[139.11192,35.35512],[139.12495,35.35139],[139.14286,35.34884]],[[139.03167,35.37093],[139.02745,35.37195],[139.02265,35.37062],[139.02144,35.36849],[139.01807,35.36592],[139.01811,35.36264],[139.00814,35.3578],[138.99909,35.36306],[138.99801,35.36469],[138.99388,35.36466]],[[139.62656,35.6121],[139.62884,35.61862]],[[139.74019,35.67872],[139.74318,35.67764],[139.74423,35.67379]],[[139.16371,35.37388],[139.16389,35.37473],[139.15947,35.37307]],[[139.16468,35.37416],[139.16532,35.37432],[139.16476,35.37487]],[[139.61686,35.60924],[139.6165,35.60918]],[[139.15947,35.37319],[139.16177,35.37398]]]}}]}