{"type":"FeatureCollection","features":[{"type":"Feature","properties":{"route_id":"165","route_number":165,"name":"国道165号","source":"OpenStreetMap contributors (ODbL)","osm_relations":[8360680]},"geometry":{"type":"MultiLineString","coordinates":[[[135.87736,34.52188],[135.86906,34.51856],[135.86825,34.51758],[135.87966,34.52281],[135.90004,34.52676],[135.90227,34.52821],[135.9107,34.53094],[135.9322,34.53151],[135.94239,34.53373],[135.94876,34.53319],[135.95367,34.53448],[135.95699,34.53287],[135.9587,34.53083],[135.9619,34.5319],[135.96363,34.53307],[135.96752,34.53908],[135.97656,34.54345],[135.98085,34.54778],[135.98293,34.54887],[135.9849,34.55214],[135.98943,34.55473],[135.99587,34.55606],[136.00195,34.55994],[136.00648,34.56119],[136.00883,34.56071],[136.01207,34.56182],[136.01617,34.56073],[136.01879,34.5615],[136.01998,34.56292],[136.02594,34.56455],[136.02683,34.566],[136.02576,34.56866],[136.03478,34.57724],[136.03698,34.57847],[136.0393,34.57808],[136.04149,34.57972],[136.04733,34.58175],[136.04762,34.5839],[136.05171,34.58543],[136.05296,34.58742],[136.05747,34.5876],[136.05948,34.58848],[136.06101,34.59898],[136.06776,34.60374],[136.07417,34.60975],[136.08218,34.61452],[136.09934,34.61553],[136.10184,34.6166],[136.10572,34.6229],[136.11247,34.62979],[136.11404,34.63353],[136.12366,34.64228],[136.13121,34.64413],[136.14,34.64895],[136.14731,34.64868],[136.1495,34.64578],[136.15208,34.64553],[136.16083,34.65229],[136.16173,34.6571],[136.16425,34.66003],[136.16467,34.66592],[136.17197,34.66742],[136.18051,34.67195],[136.19484,34.67429],[136.20013,34.67658],[136.20188,34.67895],[136.20596,34.68163],[136.20842,34.68139],[136.21246,34.67885],[136.21739,34.67838],[136.21976,34.67628],[136.23209,34.67855],[136.24071,34.67562],[136.24524,34.67215],[136.25298,34.67157],[136.25395,34.66965],[136.26171,34.67021],[136.26725,34.66938],[136.27184,34.67205],[136.28154,34.6702],[136.29298,34.66982],[136.29439,34.66739],[136.29748,34.66955],[136.30034,34.6701],[136.30373,34.66893],[136.30166,34.66704],[136.30363,34.66451],[136.30435,34.66185],[136.30698,34.65876],[136.30766,34.65933],[136.30693,34.66069],[136.30746,34.66272],[136.31305,34.66441],[136.31518,34.66678],[136.31842,34.66708],[136.32023,34.66894],[136.33318,34.66785],[136.33736,34.66857],[136.34783,34.6638],[136.36916,34.66337],[136.37592,34.66733],[136.37831,34.66774],[136.37903,34.67053],[136.38485,34.67452],[136.39369,34.66935],[136.40425,34.67277],[136.4138,34.67192],[136.41583,34.67331],[136.4197,34.67392],[136.42221,34.67587],[136.43092,34.6785],[136.43742,34.6779],[136.44318,34.67907],[136.45933,34.67996],[136.46817,34.68311],[136.4742,34.68292],[136.48606,34.67795],[136.48912,34.67562],[136.49293,34.66998],[136.49595,34.6682],[136.51277,34.66562],[136.51912,34.66598]],[[135.50058,34.69815],[135.50131,34.69615],[135.50033,34.66561],[135.49807,34.66258],[135.49793,34.65517],[135.49812,34.66276]],[[135.63624,34.5677],[135.63638,34.56673],[135.63634,34.57075],[135.63416,34.57107],[135.6324,34.57239],[135.62774,34.5801],[135.62208,34.58188],[135.6199,34.58356],[135.61868,34.59425],[135.61709,34.59816],[135.60886,34.60707],[135.6033,34.61045],[135.59027,34.61293],[135.58639,34.61298],[135.57524,34.61766],[135.5699,34.62092],[135.56472,34.62213],[135.56099,34.62463],[135.55632,34.62498],[135.53488,34.63911],[135.53294,34.6416],[135.52157,34.65066],[135.51848,34.65093],[135.51374,34.6537],[135.50641,34.65431]],[[135.79032,34.50266],[135.78531,34.50277],[135.77676,34.49989],[135.7613,34.49784],[135.76258,34.5006],[135.76832,34.50743],[135.76272,34.50095],[135.76105,34.4975],[135.77659,34.49961],[135.78492,34.5024],[135.79028,34.50242],[135.79153,34.50515],[135.79155,34.50874],[135.81394,34.50886],[135.81967,34.50715],[135.84649,34.50954],[135.84865,34.51092],[135.8532,34.51142],[135.85662,34.51042],[135.86438,34.5135],[135.86825,34.51758]],[[135.76832,34.50743],[135.74947,34.50941],[135.74942,34.52158],[135.75024,34.52428],[135.73631,34.52442],[135.72028,34.53428],[135.7189,34.538],[135.71342,34.54145],[135.70934,34.54199],[135.70598,34.5415],[135.70137,34.54248],[135.68984,34.53913],[135.67037,34.54266],[135.67361,34.54239],[135.68018,34.5395],[135.68511,34.5352],[135.69064,34.53279],[135.70129,34.51916],[135.70204,34.51542]],[[136.51915,34.66585],[136.50903,34.66592],[136.49535,34.66831],[136.49145,34.6714],[136.48946,34.67506],[136.4874,34.67705],[136.47316,34.68306],[136.46623,34.68276],[136.45876,34.67981],[136.4437,34.67903],[136.4373,34.67782],[136.43135,34.67848],[136.42795,34.67748]],[[135.67557,34.54209],[135.67085,34.54213],[135.66422,34.54478],[135.66084,34.54983],[135.66074,34.552],[135.65953,34.55291],[135.65383,34.55381],[135.65379,34.5553],[135.65078,34.5563],[135.64597,34.55556],[135.64335,34.55631],[135.63908,34.5603],[135.63638,34.56673]],[[135.49793,34.65517],[135.50113,34.65463]],[[135.53476,34.63927],[135.54884,34.62972]],[[135.50161,34.65454],[135.5061,34.65438]]]}}]}