{"type":"FeatureCollection","features":[{"type":"Feature","properties":{"route_id":"465","route_number":465,"name":"国道465号","source":"OpenStreetMap contributors (ODbL)","osm_relations":[37650]},"geometry":{"type":"MultiLineString","coordinates":[[[140.05745,35.2665],[140.05891,35.26199],[140.06208,35.26143],[140.064,35.26002],[140.06561,35.25463],[140.07386,35.25088],[140.07145,35.25258],[140.06467,35.25243],[140.06281,35.25172],[140.06077,35.25229],[140.06042,35.25281],[140.06233,35.2553],[140.05985,35.25541],[140.05841,35.2544],[140.05586,35.25826],[140.05313,35.25945],[140.05144,35.25952],[140.04952,35.25746],[140.04536,35.25788],[140.04393,35.25673],[140.04336,35.25441],[140.03927,35.25165],[140.03803,35.24531],[140.03588,35.24309],[140.03379,35.23788],[140.0293,35.23287],[140.02959,35.22879],[140.0289,35.22731],[140.02015,35.22366],[140.01898,35.22463],[140.01696,35.22359],[140.01673,35.22767],[140.01503,35.22886],[140.01021,35.22928],[140.00964,35.23171],[140.00845,35.23244],[140.00475,35.23093],[140.00366,35.23553],[140.00079,35.23635],[140.0004,35.23966],[140.00172,35.24082],[140.00177,35.2419],[140.0044,35.24296],[140.00461,35.24468],[140.0037,35.24585],[140.00415,35.24714],[140.00203,35.24856],[139.99912,35.24877],[139.99501,35.25211],[139.99228,35.25117],[139.99152,35.24967],[139.99319,35.24543],[139.99566,35.24417],[139.99628,35.24161],[139.99356,35.24043],[139.99211,35.23807],[139.98884,35.23633],[139.9871,35.23837],[139.9845,35.23974],[139.98099,35.24008],[139.97951,35.23934],[139.97766,35.23671],[139.97105,35.23625],[139.96615,35.23113],[139.95129,35.22357],[139.9501,35.22129],[139.94752,35.21966],[139.94216,35.21898],[139.93503,35.21953],[139.9292,35.21628],[139.92536,35.21545],[139.91972,35.21647],[139.9186,35.21694],[139.91888,35.2177],[139.9154,35.21963],[139.91042,35.22077],[139.89726,35.21696],[139.89335,35.21676],[139.89021,35.21837],[139.88549,35.21838],[139.88406,35.22306],[139.88646,35.22833],[139.88762,35.23567],[139.8871,35.23629],[139.88811,35.23823],[139.88857,35.24261],[139.88709,35.24555],[139.8874,35.24891],[139.88421,35.25388],[139.88407,35.25816],[139.88513,35.26206],[139.87638,35.26073],[139.87338,35.26586],[139.87123,35.26803],[139.86578,35.26985],[139.86062,35.27792],[139.8571,35.27876],[139.85449,35.28064],[139.85831,35.28538],[139.85683,35.28895],[139.85586,35.28899],[139.85472,35.2946],[139.83747,35.30029],[139.83463,35.30355],[139.82729,35.30921],[139.82744,35.31167],[139.82611,35.31513]],[[140.39043,35.26168],[140.38325,35.26024],[140.37796,35.2606],[140.37237,35.26361],[140.37158,35.26534],[140.36922,35.26656],[140.34995,35.26386],[140.33829,35.26418],[140.33652,35.26733],[140.32682,35.27737],[140.32592,35.27969],[140.32131,35.28195],[140.31999,35.28336],[140.31269,35.28095],[140.30715,35.2813],[140.30438,35.28275],[140.29856,35.28103],[140.28646,35.28268],[140.28085,35.28229],[140.2566,35.2878],[140.25253,35.28644],[140.25215,35.27877],[140.25105,35.27499],[140.25199,35.27297],[140.25543,35.27122],[140.25408,35.26895],[140.2546,35.2652],[140.24983,35.26072],[140.24576,35.25873],[140.24416,35.25699],[140.24493,35.25315],[140.24356,35.24971],[140.24067,35.24681],[140.24328,35.24208],[140.24285,35.24107],[140.23885,35.24124],[140.2377,35.24405],[140.23536,35.24624],[140.22349,35.25366],[140.22162,35.2535],[140.21076,35.24858],[140.20659,35.25008],[140.20314,35.24977],[140.19654,35.25203],[140.19403,35.24758],[140.19413,35.24655],[140.19198,35.2445],[140.18819,35.24465],[140.18194,35.24242],[140.17945,35.24431],[140.17342,35.24421],[140.16202,35.23576],[140.15905,35.23122],[140.15329,35.22817],[140.15146,35.22625],[140.14974,35.22626],[140.14849,35.22536],[140.14565,35.2257],[140.14415,35.22284],[140.13846,35.21893],[140.13476,35.21978],[140.13526,35.22221],[140.13396,35.22426],[140.1294,35.22639],[140.12604,35.23075],[140.11768,35.22827],[140.11494,35.22937],[140.10468,35.23023],[140.09648,35.22723],[140.09036,35.22713],[140.08563,35.235],[140.08595,35.2381],[140.08419,35.23984],[140.08238,35.24385],[140.07921,35.24691],[140.07659,35.24723],[140.07635,35.24967],[140.07386,35.25088]],[[140.04536,35.25788],[140.04785,35.25969],[140.04904,35.2621],[140.0522,35.26512],[140.05299,35.26733],[140.05734,35.2665]],[[140.28739,35.42576],[140.29895,35.42501],[140.31151,35.42029],[140.31345,35.41773],[140.31397,35.41334],[140.3168,35.40598],[140.32018,35.40137],[140.32707,35.3962],[140.33118,35.39496],[140.33445,35.3954],[140.33801,35.39456],[140.34784,35.38849],[140.35471,35.3861],[140.35869,35.38284],[140.36168,35.38152],[140.36338,35.37023],[140.36601,35.36337],[140.36772,35.36238],[140.37101,35.35834],[140.37338,35.35336],[140.37661,35.35116],[140.37914,35.34778],[140.37969,35.34506],[140.38413,35.33817],[140.39578,35.33093],[140.4023,35.32295],[140.40336,35.31901],[140.40209,35.31572],[140.40272,35.31113],[140.40095,35.30804],[140.40082,35.30502],[140.39626,35.2976],[140.39523,35.29272],[140.39207,35.28765],[140.39411,35.27623],[140.39397,35.26699],[140.39355,35.26152],[140.39069,35.26169]]]}}]}