{"type":"FeatureCollection","features":[{"type":"Feature","properties":{"route_id":"376","route_number":376,"name":"国道376号","source":"OpenStreetMap contributors (ODbL)","osm_relations":[9887931,9889643]},"geometry":{"type":"MultiLineString","coordinates":[[[132.0105,34.09126],[132.01063,34.09236],[132.01305,34.0951],[132.00989,34.09621],[132.00778,34.09898],[132.00412,34.11236],[132.00307,34.11285],[131.99883,34.11176],[131.99429,34.11193],[131.99281,34.11451],[131.99379,34.11753],[131.9923,34.1184],[131.99115,34.11678],[131.9892,34.11642],[131.98484,34.11315],[131.98543,34.11127],[131.98456,34.10933],[131.98266,34.10824],[131.98051,34.10826],[131.97899,34.10546],[131.97275,34.10707],[131.968,34.10719],[131.9661,34.1064],[131.96178,34.10782],[131.95702,34.10669],[131.94688,34.1085],[131.94073,34.10761],[131.93822,34.10461],[131.933,34.10354],[131.92712,34.10079],[131.92515,34.10085],[131.92413,34.1018],[131.92167,34.10542],[131.92126,34.10841],[131.91867,34.1099],[131.91665,34.11376],[131.91407,34.11471],[131.90901,34.11483],[131.90668,34.11605],[131.90274,34.11669],[131.90042,34.1176],[131.89816,34.11993],[131.8956,34.12072],[131.89199,34.11849],[131.8846,34.11847],[131.88184,34.11777],[131.87635,34.1136],[131.86898,34.11061],[131.85707,34.10912],[131.85579,34.11748],[131.84974,34.12064],[131.84301,34.126],[131.84031,34.1306],[131.83104,34.13426],[131.8298,34.13646],[131.82274,34.13446],[131.81665,34.13616],[131.81373,34.13526],[131.81316,34.13656],[131.8049,34.14271],[131.7997,34.14399],[131.79748,34.14717],[131.79768,34.1502],[131.79516,34.1523],[131.78983,34.15314],[131.78718,34.15433],[131.78658,34.15572],[131.78515,34.15649],[131.78072,34.15703],[131.77993,34.15858],[131.77637,34.1603],[131.77613,34.16408],[131.77485,34.16513],[131.77513,34.16727],[131.77654,34.16906],[131.77644,34.17066],[131.77417,34.17021],[131.77175,34.16819],[131.77118,34.1655],[131.77276,34.16349],[131.7706,34.1635],[131.769,34.1653],[131.76426,34.16533],[131.75867,34.1683],[131.75655,34.16845],[131.75571,34.1714],[131.75481,34.17164],[131.75343,34.1694],[131.75169,34.16825],[131.75178,34.16424],[131.74676,34.16075],[131.74405,34.16],[131.74263,34.15666],[131.73926,34.15468],[131.73666,34.14819],[131.73003,34.14456],[131.73168,34.13984],[131.73127,34.13802],[131.72987,34.13687],[131.72231,34.13488],[131.71633,34.13638],[131.71255,34.14575],[131.70445,34.15075],[131.70187,34.15391],[131.70196,34.15655],[131.70488,34.16373],[131.7027,34.16751],[131.70094,34.1683],[131.69535,34.1683],[131.69167,34.17061],[131.69093,34.17451],[131.68653,34.17652],[131.68461,34.18106],[131.67877,34.18006],[131.66934,34.18417],[131.66255,34.1886],[131.6533,34.18964],[131.64824,34.1825],[131.64184,34.18143],[131.63784,34.17961],[131.63723,34.17579],[131.63614,34.17414],[131.63048,34.17579],[131.62824,34.17777],[131.62551,34.17806],[131.62382,34.17973],[131.61997,34.17744],[131.6149,34.17968],[131.60923,34.17823],[131.60568,34.18008],[131.59762,34.17957],[131.59293,34.18105],[131.59008,34.18433],[131.58568,34.18723],[131.58424,34.18991],[131.58189,34.19039],[131.58112,34.1921],[131.57654,34.19615],[131.57552,34.20045],[131.57268,34.20184],[131.56969,34.20602],[131.56413,34.20733],[131.56214,34.2094],[131.55903,34.21033],[131.55411,34.21387],[131.54813,34.21359],[131.54302,34.21625],[131.53812,34.21598],[131.53609,34.21465],[131.51482,34.20704]]]}}]}