{"type":"FeatureCollection","features":[{"type":"Feature","properties":{"route_id":"309","route_number":309,"name":"国道309号","source":"OpenStreetMap contributors (ODbL)","osm_relations":[6114814,10056177,10056232,10056269,10056379,10056432,10661168,10661169,10661170,10661171,10661172]},"geometry":{"type":"MultiLineString","coordinates":[[[135.56971,34.51821],[135.5721,34.51162],[135.57813,34.50244],[135.579,34.49638],[135.58068,34.49378],[135.58343,34.49236],[135.60985,34.48698],[135.61426,34.47997],[135.62925,34.47342],[135.62971,34.46769],[135.62907,34.47343],[135.61407,34.48001],[135.60983,34.48691],[135.58344,34.49227],[135.57939,34.4952],[135.5781,34.50232],[135.57215,34.51134],[135.57019,34.51607],[135.56845,34.52541],[135.56667,34.53011],[135.55447,34.5471],[135.55092,34.56019],[135.55016,34.60303],[135.54895,34.60921],[135.54665,34.60931],[135.54918,34.6093],[135.55034,34.6029],[135.55109,34.55987],[135.55512,34.54573],[135.56688,34.52987],[135.56862,34.52515],[135.56971,34.51821]],[[135.62971,34.46769],[135.63054,34.46206],[135.63274,34.46124],[135.63815,34.45633],[135.64635,34.45473],[135.64787,34.45649],[135.65402,34.45658],[135.66146,34.45184],[135.66562,34.44707],[135.67055,34.447],[135.67432,34.44487],[135.6775,34.4443],[135.67885,34.44275],[135.67982,34.44412],[135.68254,34.4437],[135.68526,34.44261],[135.68289,34.44273],[135.68455,34.44062],[135.68599,34.44041],[135.68558,34.43965],[135.68649,34.441],[135.69223,34.43935],[135.69417,34.44054],[135.69643,34.44032],[135.69426,34.44001],[135.6997,34.43966],[135.69958,34.43888],[135.70142,34.43872],[135.70199,34.43771],[135.70061,34.43705],[135.6938,34.43936],[135.67819,34.44661],[135.6678,34.44691]],[[135.6997,34.43966],[135.70184,34.43979],[135.70372,34.43778],[135.70487,34.43976],[135.71142,34.4394],[135.714,34.44249],[135.72429,34.44371],[135.73156,34.44366],[135.73565,34.44474],[135.74738,34.44475],[135.74886,34.4398],[135.75185,34.43777],[135.75288,34.43537],[135.75617,34.43397],[135.75826,34.43175],[135.75715,34.43098],[135.75579,34.42743],[135.75301,34.42363],[135.7503,34.41661],[135.74982,34.41415],[135.75083,34.41222],[135.75091,34.41687],[135.74908,34.41913],[135.74914,34.42209],[135.75453,34.4278],[135.75673,34.43337]],[[135.8096,34.33554],[135.8158,34.33091],[135.81545,34.32872],[135.81256,34.32394],[135.81225,34.32571],[135.81397,34.3265],[135.81497,34.32861],[135.81403,34.32929],[135.81526,34.32912],[135.81487,34.33001],[135.81608,34.33143],[135.81492,34.33451],[135.81235,34.33511],[135.81106,34.33333],[135.80886,34.33344],[135.80971,34.33539],[135.80886,34.33733],[135.80801,34.33662],[135.80754,34.33711],[135.80786,34.33937],[135.80688,34.33957],[135.80698,34.34072],[135.80581,34.33807],[135.8044,34.33937],[135.80315,34.33814],[135.80471,34.33992],[135.80716,34.34581],[135.80877,34.34525],[135.80764,34.34706],[135.80811,34.34924],[135.80665,34.35288],[135.80332,34.35409],[135.80054,34.35357],[135.79957,34.35524],[135.79668,34.35486],[135.79339,34.358],[135.79087,34.36534],[135.79217,34.36605],[135.79135,34.36862],[135.78814,34.37268],[135.78825,34.37625],[135.78694,34.38095],[135.78512,34.38189],[135.78377,34.38493],[135.78145,34.38755],[135.77955,34.39251],[135.77685,34.39301],[135.77343,34.39737],[135.76905,34.39924],[135.76866,34.40104],[135.76328,34.40295],[135.76079,34.40607],[135.75887,34.40641],[135.75106,34.4122]],[[135.81256,34.32394],[135.80945,34.32183],[135.80444,34.31369],[135.80393,34.31095],[135.80734,34.30779],[135.81211,34.30669],[135.81253,34.30444],[135.81536,34.30329],[135.8212,34.30554],[135.82426,34.30415],[135.82396,34.30127],[135.82508,34.29953],[135.82647,34.29906],[135.82632,34.2972],[135.82748,34.29437],[135.83092,34.29073],[135.83013,34.28956],[135.83079,34.28899],[135.83072,34.28639],[135.83324,34.28329],[135.83558,34.28273],[135.83939,34.28001],[135.8287,34.26528],[135.82876,34.26305],[135.85333,34.25207],[135.85511,34.24586],[135.85952,34.24418],[135.86352,34.23783],[135.87472,34.23521],[135.87559,34.23435],[135.87497,34.23383],[135.87572,34.22901],[135.88143,34.22475],[135.88586,34.22648],[135.89097,34.22602],[135.89517,34.2239],[135.89778,34.22352],[135.89861,34.22429],[135.89905,34.22358],[135.89834,34.22175],[135.89975,34.21937],[135.90143,34.21828],[135.90151,34.216],[135.90644,34.2122],[135.9069,34.21043],[135.90946,34.20837],[135.91162,34.20862],[135.91391,34.20726],[135.91894,34.20695],[135.92095,34.20534],[135.92215,34.20647],[135.92349,34.20574],[135.92577,34.2061],[135.92597,34.20474],[135.92732,34.20435],[135.92705,34.20334],[135.92818,34.20298],[135.92795,34.19901],[135.92866,34.19826],[135.92744,34.19458],[135.92398,34.1903],[135.92494,34.19013],[135.92826,34.19234],[135.93072,34.19667],[135.9368,34.1888],[135.9498,34.18549],[135.95142,34.18649],[135.95046,34.18731],[135.95262,34.18914],[135.95705,34.18858],[135.95608,34.19101],[135.9588,34.19083],[135.95846,34.19308],[135.96017,34.19277],[135.96094,34.19391],[135.96191,34.19313],[135.96282,34.19342],[135.96375,34.19139],[135.96496,34.19261],[135.96614,34.19175],[135.96666,34.19363],[135.96933,34.19305],[135.96708,34.19321],[135.96744,34.19174],[135.96638,34.19074],[135.96512,34.19117],[135.96507,34.18892],[135.96275,34.18966],[135.96427,34.18716],[135.96296,34.18693],[135.96196,34.18562],[135.96846,34.18676],[135.96882,34.18785],[135.97027,34.1884],[135.97165,34.18848],[135.97308,34.18666],[135.9736,34.18865],[135.97505,34.18869],[135.97582,34.1897],[135.97364,34.18995],[135.98063,34.1906],[135.98607,34.19332],[135.98767,34.19255],[135.99195,34.19325],[135.99846,34.18579],[136.00306,34.18475],[136.00323,34.18322],[136.00611,34.18214],[136.0022,34.17368],[136.00225,34.1717],[136.00076,34.16967],[135.99474,34.16795],[135.99427,34.16661],[135.99524,34.16443],[135.9953,34.1614],[135.99795,34.15886],[135.99394,34.15556],[135.99379,34.15301],[135.99102,34.15064],[135.99245,34.14702],[135.99443,34.14551],[135.99467,34.14352],[135.99934,34.14097],[136.00135,34.13673],[136.00114,34.13205],[135.99835,34.13199],[135.99724,34.13089],[135.99888,34.12932],[135.99885,34.12732],[136.00109,34.12547],[135.99953,34.12331],[135.99638,34.12131],[135.99704,34.1178],[135.99465,34.1144],[135.99474,34.10889],[135.99131,34.10731],[135.99061,34.10464],[135.9888,34.10215],[135.9854,34.10063],[135.98567,34.09845],[135.98456,34.09672],[135.98035,34.09655],[135.97948,34.09377],[135.97617,34.08995],[135.97554,34.08773],[135.97427,34.08724],[135.97583,34.08481],[135.97955,34.08354],[135.97963,34.0826],[135.97558,34.0801],[135.9732,34.08035],[135.97226,34.07916],[135.97248,34.07509],[135.97129,34.07357],[135.97153,34.07121],[135.96769,34.06936],[135.96754,34.06637],[135.96846,34.06536],[135.9678,34.06411],[135.96651,34.06396],[135.9672,34.06272],[135.96586,34.06107],[135.9671,34.0608],[135.96749,34.05967],[135.97107,34.05898],[135.97074,34.05729],[135.96922,34.05685],[135.96868,34.05319],[135.96927,34.05201],[135.97052,34.05182],[135.97082,34.05016],[135.96559,34.05049],[135.96111,34.04838],[135.95957,34.04644],[135.95866,34.04326],[135.9598,34.0422],[135.96084,34.0378],[135.96334,34.03623],[135.96553,34.0369],[135.96692,34.04182],[135.96839,34.04208],[135.97085,34.04086],[135.97258,34.03567],[135.97315,34.02942],[135.97051,34.02819],[135.97479,34.0259],[135.97419,34.02497],[135.97582,34.02296],[135.97718,34.01889],[135.97886,34.01894],[135.98201,34.01677],[135.98378,34.01942],[135.98607,34.01991],[135.98704,34.01866],[135.98635,34.01662],[135.98887,34.01542],[135.98946,34.01263],[135.99194,34.01276],[135.99541,34.01118],[135.99901,34.01169],[135.99978,34.01058],[136.00687,34.00969],[136.00832,34.00808],[136.00822,34.00579],[136.00959,34.00388],[136.00928,34.00054],[136.01108,33.99923],[136.01342,33.99557],[136.01548,33.99873],[136.01897,33.99749],[136.0218,33.99793],[136.02656,33.99524],[136.02925,33.99496],[136.03212,33.99177],[136.03099,33.98966],[136.03485,33.99],[136.03701,33.98526],[136.04124,33.98394],[136.04599,33.98633],[136.04782,33.98606],[136.04939,33.98079],[136.05544,33.97549],[136.05799,33.97421],[136.06126,33.97023],[136.06077,33.96366],[136.06599,33.96194],[136.0658,33.96084],[136.06386,33.95948],[136.06402,33.95872],[136.06903,33.95807],[136.07009,33.95726],[136.06888,33.9554],[136.06888,33.95179],[136.07157,33.94948],[136.07482,33.94953],[136.07657,33.94878],[136.07651,33.94729],[136.07434,33.94445],[136.07539,33.9419],[136.08073,33.94008],[136.08528,33.94097],[136.08845,33.93729],[136.09204,33.93602]],[[135.81229,34.32352],[135.80928,34.32124]],[[135.54665,34.60931],[135.54686,34.63115]]]}}]}