{"type":"FeatureCollection","features":[{"type":"Feature","properties":{"route_id":"115","route_number":115,"name":"国道115号","source":"OpenStreetMap contributors (ODbL)","osm_relations":[3129174,3129175,3129937,9043479,9043481,9043483,9371687]},"geometry":{"type":"MultiLineString","coordinates":[[[140.92866,37.80151],[140.92494,37.79801],[140.91714,37.79683],[140.91669,37.79565],[140.90835,37.79005],[140.90517,37.78875],[140.90381,37.78573],[140.8999,37.78393],[140.89724,37.77884],[140.89123,37.77664],[140.881,37.77805],[140.87241,37.77695],[140.86311,37.77315],[140.86051,37.76967],[140.85956,37.76602],[140.85842,37.7651],[140.85009,37.76661],[140.84474,37.7698],[140.84191,37.77252],[140.83153,37.77711],[140.82768,37.77782],[140.82227,37.78189],[140.8191,37.7818],[140.8149,37.78376],[140.81386,37.78317],[140.81434,37.78091],[140.81279,37.77908],[140.80817,37.78006],[140.8052,37.77812],[140.80328,37.77887],[140.8005,37.77812],[140.79963,37.77696],[140.80122,37.77729],[140.79688,37.7718],[140.79747,37.76826],[140.79464,37.7669],[140.79061,37.76848],[140.78734,37.7679],[140.78273,37.76988],[140.77902,37.76964],[140.77812,37.77208],[140.77473,37.77092],[140.7719,37.77271],[140.76974,37.77099],[140.76696,37.77281],[140.76714,37.77482],[140.76483,37.77596],[140.76178,37.77463],[140.75954,37.77553],[140.75609,37.77511],[140.75108,37.77623],[140.74866,37.77517],[140.74383,37.76865],[140.73953,37.76473],[140.73558,37.76424],[140.7267,37.7601],[140.7141,37.7561],[140.68578,37.75441],[140.68226,37.75528],[140.68161,37.75653],[140.67939,37.7568],[140.67416,37.75441],[140.66939,37.75641],[140.6683,37.75518],[140.66672,37.75586],[140.66313,37.75524],[140.662,37.75634],[140.66207,37.75958],[140.65845,37.76082],[140.65469,37.76082],[140.65198,37.76211],[140.65003,37.76064],[140.64506,37.75922],[140.63884,37.76122],[140.63298,37.75949],[140.62774,37.76179],[140.62404,37.76134],[140.62115,37.76335],[140.61811,37.76382],[140.61246,37.76666],[140.61069,37.76906],[140.61067,37.77274],[140.60109,37.77864],[140.59966,37.77765],[140.59959,37.77351],[140.59112,37.7704],[140.58783,37.76801],[140.58514,37.76765],[140.58197,37.7687],[140.5756,37.76836],[140.5694,37.76677],[140.56675,37.76502],[140.5613,37.75817],[140.55236,37.75623],[140.54596,37.7563],[140.53755,37.75246],[140.53264,37.74827],[140.52839,37.75019],[140.52278,37.75078],[140.52142,37.75249],[140.52111,37.75649],[140.51903,37.76209],[140.51879,37.76493],[140.50805,37.77199],[140.49661,37.77112],[140.48313,37.77191],[140.47194,37.75381],[140.4721,37.74565],[140.46912,37.74267],[140.46712,37.73843],[140.43948,37.74051],[140.4118,37.7382],[140.40822,37.73693],[140.39623,37.73001],[140.37197,37.71973],[140.36914,37.7145],[140.36107,37.70505],[140.35144,37.70075],[140.34707,37.69577],[140.33691,37.68909],[140.33497,37.68635],[140.33091,37.6834],[140.33049,37.6805],[140.33155,37.67895],[140.33409,37.67857],[140.33769,37.68083],[140.33935,37.68013],[140.33988,37.67865],[140.3389,37.67633],[140.3388,37.67296],[140.3371,37.67049],[140.33782,37.66774],[140.33701,37.6666],[140.33504,37.66625],[140.33285,37.66795],[140.32985,37.66817],[140.32751,37.6702],[140.32536,37.66912],[140.32556,37.66747],[140.33003,37.66387],[140.3292,37.65814],[140.33323,37.65738],[140.33421,37.65642],[140.33294,37.65483],[140.32783,37.65594],[140.3259,37.65514],[140.32636,37.65308],[140.33037,37.6523],[140.3307,37.65129],[140.32998,37.65036],[140.32376,37.6508],[140.32282,37.65158],[140.32259,37.65368],[140.32104,37.65434],[140.31803,37.6529],[140.31229,37.65233],[140.30758,37.64961],[140.30502,37.64955],[140.30262,37.65106],[140.29893,37.65729],[140.29624,37.65896],[140.2938,37.65934],[140.25075,37.65059],[140.24886,37.65093],[140.24767,37.65207],[140.24873,37.65553],[140.24795,37.65729],[140.24311,37.65796],[140.24024,37.65608],[140.2389,37.6523],[140.23901,37.64971],[140.24015,37.64794],[140.23986,37.65052],[140.24089,37.64927],[140.242,37.64951],[140.24347,37.6529],[140.2481,37.65546],[140.24949,37.65533],[140.2525,37.65314],[140.25393,37.6534],[140.25758,37.65631],[140.25852,37.65795],[140.25729,37.65986],[140.2596,37.6591],[140.25693,37.66294],[140.25422,37.66021],[140.25226,37.66281],[140.25288,37.66489],[140.25324,37.66288],[140.25383,37.66478],[140.25594,37.66612],[140.25578,37.66966],[140.26141,37.66889],[140.26492,37.67115],[140.27029,37.66858],[140.27077,37.66686],[140.27169,37.66644],[140.27455,37.66595],[140.27713,37.66736],[140.28039,37.66725],[140.28082,37.66675],[140.27997,37.66509],[140.28516,37.66286],[140.28586,37.66039],[140.28743,37.65846],[140.29084,37.65724],[140.29028,37.65534],[140.29355,37.65636],[140.29538,37.65538],[140.30062,37.65552],[140.30236,37.65421],[140.30148,37.65597],[140.29959,37.65708],[140.30458,37.65642],[140.3019,37.65821],[140.30576,37.6569],[140.30535,37.65335],[140.30906,37.65229],[140.3126,37.653],[140.31483,37.65441],[140.3158,37.65374],[140.31759,37.6548],[140.3189,37.65674],[140.32147,37.65847],[140.3226,37.6613],[140.32505,37.66057],[140.32346,37.66253],[140.32438,37.66366],[140.32422,37.66248],[140.32581,37.66163],[140.32763,37.66228],[140.32796,37.66115],[140.32929,37.6615],[140.32937,37.65942],[140.3305,37.66037],[140.33147,37.66325],[140.33006,37.66581],[140.33154,37.66542],[140.33318,37.6662],[140.33154,37.66811]],[[140.89899,37.78235],[140.90065,37.7845],[140.90381,37.78573],[140.91599,37.78595],[140.9287,37.79251],[140.93968,37.79228],[140.94399,37.79098]],[[140.36889,37.71422],[140.3708,37.71861],[140.37258,37.72032],[140.3947,37.7294],[140.41093,37.73808],[140.4397,37.74061],[140.46698,37.73849],[140.46896,37.7427],[140.47199,37.74576],[140.47176,37.75381],[140.48305,37.77199],[140.49661,37.77119],[140.50135,37.77174]],[[140.22376,37.64216],[140.22113,37.64291],[140.22084,37.64063]],[[140.23901,37.64971],[140.23872,37.64697],[140.23629,37.64527],[140.22974,37.64352],[140.22672,37.64346],[140.22158,37.64144],[140.21852,37.63818],[140.21763,37.6345],[140.20494,37.62116],[140.19378,37.61955],[140.18783,37.6202],[140.18317,37.62178],[140.17272,37.6219],[140.1684,37.62348],[140.16103,37.62205],[140.15121,37.62151],[140.14654,37.61985],[140.14472,37.61489],[140.13796,37.61092],[140.13768,37.60751],[140.13503,37.60251],[140.13555,37.59844],[140.12685,37.58197],[140.12573,37.57106],[140.12272,37.56871],[140.11933,37.5673],[140.11338,37.56024],[140.1131,37.54933],[140.10938,37.54163],[140.10774,37.53465],[140.1093,37.54165],[140.11301,37.54955],[140.11329,37.56026],[140.11923,37.56736],[140.12144,37.56817]],[[140.33056,37.68242],[140.33091,37.68083],[140.33286,37.6821],[140.33098,37.67958],[140.33141,37.67868],[140.33587,37.6766],[140.33493,37.67578],[140.33525,37.67401],[140.33107,37.67281],[140.332,37.67053],[140.33098,37.66977],[140.33013,37.67046],[140.32999,37.66935],[140.33151,37.6676]],[[140.58652,37.76776],[140.58848,37.76632]],[[140.92896,37.79253],[140.91511,37.78562],[140.90378,37.78565]]]}}]}