{"type":"FeatureCollection","features":[{"type":"Feature","properties":{"route_id":"157","route_number":157,"name":"国道157号","source":"OpenStreetMap contributors (ODbL)","osm_relations":[8546711,9140130,9140131,9140132,9140133]},"geometry":{"type":"MultiLineString","coordinates":[[[136.45187,35.8184],[136.45094,35.82074],[136.44945,35.82109],[136.44721,35.82314],[136.44507,35.82655],[136.44493,35.82837],[136.44577,35.82912],[136.44428,35.83],[136.44482,35.8368],[136.44788,35.83738],[136.45244,35.84037],[136.45851,35.85082],[136.4631,35.85215],[136.46346,35.85452],[136.46643,35.85591],[136.46745,35.85786],[136.47129,35.85788],[136.47603,35.86021],[136.47685,35.86157],[136.47958,35.86195],[136.48058,35.86496],[136.48185,35.86588],[136.48188,35.86997],[136.48442,35.87183],[136.48933,35.87155],[136.49056,35.87276],[136.49571,35.87482],[136.50003,35.87522],[136.50215,35.87406],[136.50479,35.87494],[136.50738,35.87786],[136.50486,35.88117],[136.50432,35.88438],[136.50607,35.88807],[136.5072,35.89726],[136.51269,35.90144],[136.51573,35.90189],[136.51801,35.89977],[136.51823,35.89831],[136.51995,35.89617],[136.52213,35.89575],[136.52526,35.8964],[136.52712,35.90052],[136.53203,35.90449],[136.52971,35.9118],[136.53028,35.91353],[136.52695,35.91604],[136.53051,35.91595],[136.53243,35.91697],[136.53621,35.91522],[136.53919,35.91725],[136.54201,35.92219],[136.54518,35.92201],[136.5457,35.925],[136.54664,35.92604],[136.55046,35.92644],[136.56113,35.93328],[136.55326,35.93637],[136.54984,35.94092],[136.54675,35.94278],[136.5408,35.94279],[136.5304,35.94682],[136.52583,35.94677],[136.51842,35.94818],[136.50795,35.96519],[136.50475,35.96739],[136.50473,35.97038],[136.51223,35.97503],[136.50888,36.00024],[136.50936,36.00793],[136.51156,36.0125],[136.51385,36.02182],[136.5203,36.03196],[136.51873,36.04143],[136.51124,36.05663],[136.50915,36.068],[136.5073,36.06945],[136.5154,36.07881],[136.52172,36.08353],[136.52463,36.08483],[136.5266,36.08952],[136.53019,36.09024],[136.53332,36.09201],[136.53699,36.09581],[136.54006,36.09736],[136.54519,36.09847],[136.56043,36.10568],[136.56243,36.10509],[136.57213,36.09796],[136.57641,36.09659],[136.57939,36.09365],[136.58467,36.09171],[136.58724,36.09155],[136.58769,36.09311],[136.58405,36.09493],[136.58254,36.09864],[136.58097,36.10016],[136.58123,36.102],[136.57897,36.10329],[136.5776,36.10608],[136.57558,36.10759],[136.57702,36.10892],[136.58387,36.10988],[136.58416,36.11506],[136.58712,36.1179],[136.58545,36.11918],[136.58362,36.11854],[136.58255,36.11914],[136.58398,36.12309],[136.57982,36.12544],[136.58028,36.12908],[136.58682,36.14216],[136.5867,36.14473],[136.58869,36.14635],[136.59471,36.14828],[136.59783,36.15182],[136.60166,36.15159],[136.60825,36.15263],[136.61324,36.15527],[136.61574,36.15896],[136.61744,36.16377],[136.62053,36.16601],[136.62154,36.16854],[136.62071,36.17152],[136.62379,36.17539],[136.6239,36.18073],[136.62215,36.18505],[136.62498,36.19467],[136.62626,36.1962],[136.62548,36.20057],[136.62829,36.2045],[136.62491,36.21588],[136.62767,36.2208],[136.62785,36.22241],[136.63317,36.22856],[136.63421,36.23194],[136.63305,36.23894],[136.63466,36.24431],[136.63422,36.25123],[136.63616,36.2637],[136.63834,36.26672],[136.64557,36.26889],[136.64631,36.27114],[136.64404,36.2721],[136.64311,36.2772],[136.64446,36.28034],[136.64879,36.28031],[136.64979,36.28123],[136.6447,36.28307],[136.64361,36.28422],[136.64418,36.29445],[136.64195,36.29613],[136.64011,36.29973],[136.64032,36.30173],[136.64365,36.30857],[136.64872,36.3148],[136.64811,36.3165],[136.64872,36.32327],[136.64357,36.3285],[136.64298,36.33485],[136.64202,36.33729],[136.63674,36.34056],[136.63385,36.34382],[136.62772,36.34697],[136.62262,36.35867],[136.62029,36.36122],[136.61355,36.36437],[136.61213,36.36596],[136.61199,36.36789],[136.6137,36.36996],[136.61559,36.37838],[136.61259,36.38474],[136.61264,36.38672],[136.62368,36.39832],[136.62988,36.40159],[136.63272,36.40475],[136.63313,36.40789],[136.63038,36.42745],[136.63247,36.43354],[136.62968,36.43661],[136.63015,36.4401],[136.62958,36.44136],[136.62326,36.44424],[136.62126,36.44983],[136.61881,36.45312],[136.6128,36.45704],[136.60311,36.46616],[136.60026,36.47899],[136.59934,36.48872],[136.59652,36.49757],[136.59527,36.50985],[136.59367,36.51624],[136.59149,36.51932],[136.58336,36.52432],[136.59561,36.53234],[136.58355,36.52431],[136.59114,36.51973],[136.59356,36.51682],[136.59538,36.50987],[136.59695,36.49567]],[[136.75456,35.38823],[136.75518,35.39464],[136.75988,35.40721],[136.76002,35.40991],[136.75851,35.41054],[136.75959,35.41237],[136.76,35.41721],[136.75289,35.41745],[136.74985,35.43166],[136.7416,35.42882],[136.72488,35.43496],[136.71471,35.43769],[136.69724,35.43837],[136.6925,35.44034],[136.68589,35.44012],[136.67568,35.43843],[136.67367,35.44362],[136.67609,35.4587],[136.67514,35.46975],[136.67622,35.47437],[136.67283,35.49147],[136.66639,35.50244],[136.66275,35.51051],[136.64458,35.52112],[136.64383,35.52381],[136.65114,35.52841],[136.65049,35.53099],[136.65113,35.53421],[136.64971,35.53677],[136.6425,35.54192],[136.63851,35.54679],[136.63882,35.54946],[136.64193,35.55044],[136.64414,35.54941],[136.6472,35.55126],[136.64698,35.55332],[136.64495,35.55622],[136.64158,35.55834],[136.63991,35.56101],[136.64011,35.56361],[136.64091,35.5642],[136.64889,35.56356],[136.64766,35.5684],[136.64135,35.57897],[136.63809,35.58096],[136.63644,35.58417],[136.63192,35.58767],[136.62947,35.59091],[136.62815,35.59442],[136.62933,35.6006],[136.62806,35.6063],[136.62644,35.61075],[136.62313,35.61538],[136.62334,35.61948],[136.62237,35.62304],[136.61962,35.62545],[136.61952,35.62762],[136.61837,35.62871],[136.61661,35.63307],[136.6083,35.63533],[136.60481,35.6387],[136.6052,35.64316],[136.60457,35.64444],[136.58981,35.65598],[136.584,35.65848],[136.58283,35.6618],[136.57885,35.66248],[136.5795,35.66275],[136.57729,35.66776],[136.57802,35.66853],[136.57774,35.66965],[136.57115,35.68088],[136.5725,35.68186],[136.57277,35.68341],[136.57027,35.68368],[136.56813,35.6849],[136.56946,35.68583],[136.5685,35.68693],[136.56907,35.6884],[136.56667,35.68883],[136.56546,35.68994],[136.56592,35.69119],[136.57161,35.69328],[136.57185,35.69442],[136.57325,35.69358],[136.57394,35.69182],[136.5761,35.69426],[136.57841,35.69527],[136.57886,35.69398],[136.58196,35.69292],[136.58179,35.691],[136.58455,35.69027],[136.58529,35.69213],[136.58845,35.69289],[136.58955,35.69399],[136.59143,35.69338],[136.59198,35.69552],[136.5939,35.69593],[136.591,35.69897],[136.58971,35.70221],[136.58766,35.70385],[136.5871,35.70666],[136.58265,35.70937],[136.58308,35.71189],[136.58225,35.71258],[136.58435,35.71515],[136.5834,35.71703],[136.58377,35.71852],[136.58035,35.72247],[136.57933,35.72453],[136.57953,35.72685],[136.57825,35.72794],[136.57791,35.72977],[136.57817,35.73242],[136.57973,35.73418],[136.57821,35.73514],[136.57931,35.73554],[136.58046,35.7384],[136.58273,35.73956],[136.58241,35.7419],[136.58406,35.74345],[136.58062,35.74648],[136.57989,35.75076],[136.57278,35.75601],[136.56577,35.75736],[136.5556,35.7613],[136.55247,35.76559],[136.54925,35.76783],[136.54713,35.76802],[136.54047,35.7657],[136.53917,35.76711],[136.53805,35.76612],[136.53576,35.76903],[136.53427,35.76943],[136.53455,35.77113],[136.53193,35.77081],[136.53208,35.7719],[136.52846,35.7733],[136.52701,35.77542],[136.52644,35.77543],[136.52667,35.77459],[136.52477,35.77606],[136.5246,35.77476],[136.52295,35.77717],[136.52195,35.77732],[136.52233,35.77653],[136.51952,35.77877],[136.51901,35.77832],[136.51883,35.77912],[136.51626,35.78008],[136.51724,35.78012],[136.515,35.78075],[136.51633,35.78076],[136.51389,35.7813],[136.51394,35.78225],[136.51288,35.78273],[136.51458,35.78192],[136.51491,35.78262],[136.51347,35.78423],[136.50613,35.78815],[136.50405,35.79061],[136.49707,35.79521],[136.49161,35.79736],[136.48859,35.79724],[136.486,35.79882],[136.48147,35.79952],[136.47922,35.80188],[136.47833,35.80166],[136.465,35.80901],[136.45997,35.81427],[136.45715,35.81566],[136.4569,35.81722],[136.4548,35.81973],[136.45362,35.81909],[136.45231,35.82032],[136.45306,35.81936],[136.45243,35.81863]],[[136.65585,36.57208],[136.65417,36.56793],[136.653,36.56039],[136.64957,36.5578],[136.64139,36.54445],[136.62783,36.54406],[136.61229,36.5333],[136.59561,36.53234]],[[136.52017,36.03137],[136.51865,36.04143],[136.51104,36.05688],[136.50864,36.068],[136.5073,36.06945]],[[136.74985,35.43166],[136.75296,35.41752],[136.76008,35.41728],[136.75964,35.41237],[136.75865,35.41061],[136.75993,35.41026],[136.76022,35.40929],[136.75885,35.40472]],[[136.51223,35.97503],[136.51064,35.98291],[136.50874,36.00071],[136.50926,36.00795],[136.51247,36.01557]],[[136.67613,35.46076],[136.67609,35.4587]]]}}]}