{"type":"FeatureCollection","features":[{"type":"Feature","properties":{"route_id":"280","route_number":280,"name":"国道280号","source":"OpenStreetMap contributors (ODbL)","osm_relations":[6585311,6594518,10408620,10408621,10408622,10408623,10408624]},"geometry":{"type":"MultiLineString","coordinates":[[[140.67986,41.82318],[140.6658,41.82389],[140.65453,41.82281],[140.64723,41.81927],[140.63005,41.81308],[140.62223,41.80648],[140.62119,41.80341],[140.62212,41.80649],[140.62997,41.81317],[140.64702,41.81928],[140.65446,41.82287],[140.66614,41.82398],[140.6797,41.82324],[140.69889,41.81858],[140.71573,41.80979],[140.72306,41.80296],[140.72806,41.79549],[140.73014,41.79011],[140.73189,41.78947]],[[140.72843,40.82535],[140.72844,40.82977],[140.72514,40.83133],[140.72323,40.83327],[140.7243,40.835],[140.71612,40.84078],[140.70498,40.84688],[140.69758,40.85297],[140.69251,40.85832],[140.68119,40.87389],[140.67497,40.88952],[140.67267,40.90763],[140.6601,40.94579],[140.65978,40.94984],[140.65801,40.95432],[140.65701,40.96516],[140.65608,40.96772],[140.65608,40.96984],[140.65687,40.97095],[140.65608,40.97651],[140.65409,40.98129],[140.65366,40.98857],[140.64994,41.00591],[140.65019,41.00827],[140.64706,41.02391],[140.64598,41.03419],[140.64315,41.04505],[140.64378,41.04896],[140.64212,41.0565],[140.63831,41.06272],[140.63669,41.0742],[140.63436,41.07854],[140.63131,41.09719],[140.6329,41.1109],[140.6299,41.11703],[140.6322,41.12665],[140.63145,41.13005],[140.63263,41.13623],[140.63696,41.14693],[140.63601,41.15109],[140.63739,41.16186],[140.64003,41.16561],[140.64135,41.17167],[140.63763,41.18432],[140.63302,41.18989],[140.63081,41.19136],[140.62643,41.19249],[140.61798,41.19657],[140.61197,41.20278],[140.60963,41.20764],[140.60689,41.21107],[140.60359,41.21381],[140.58864,41.21665],[140.58183,41.22079],[140.57615,41.22271],[140.56693,41.22342],[140.56458,41.22472],[140.56204,41.22378],[140.55844,41.22451],[140.55471,41.22382],[140.55178,41.22584],[140.54822,41.22429],[140.54336,41.21999],[140.53841,41.21769],[140.53608,41.21838],[140.53544,41.22003],[140.52799,41.21986],[140.52159,41.21084],[140.52262,41.20802],[140.50902,41.19524],[140.48598,41.18332],[140.47983,41.18211],[140.47646,41.18289],[140.4724,41.18129],[140.46389,41.18209],[140.46109,41.18332],[140.45906,41.18741],[140.44587,41.18923],[140.44238,41.19193],[140.43046,41.19638],[140.43289,41.20055],[140.25949,41.47272],[140.2563,41.47343],[140.25611,41.47969],[140.25504,41.4836],[140.2521,41.48772],[140.25154,41.49604],[140.24184,41.5121],[140.24428,41.51914],[140.25218,41.52659],[140.25933,41.53032],[140.2594,41.53228],[140.25806,41.53443],[140.25702,41.54027],[140.25975,41.54344],[140.26326,41.54565],[140.26458,41.55115],[140.26822,41.55372],[140.27111,41.55805],[140.27589,41.56092],[140.27871,41.56427],[140.28752,41.57025],[140.29075,41.57485],[140.29215,41.58146],[140.29486,41.58709],[140.30009,41.59386],[140.30565,41.59859],[140.31168,41.59939],[140.31762,41.59705],[140.32084,41.59662],[140.33719,41.60106],[140.35931,41.60158],[140.38879,41.59658],[140.39658,41.5933],[140.40662,41.59495],[140.41307,41.59374],[140.416,41.59446],[140.41888,41.59947],[140.42305,41.60234],[140.42699,41.60709],[140.42891,41.6165],[140.43035,41.63513],[140.43184,41.64416],[140.43278,41.65647],[140.43203,41.6614],[140.43497,41.66632],[140.43624,41.67117],[140.44167,41.68221],[140.44842,41.68945],[140.45422,41.69472],[140.45955,41.69728],[140.47287,41.6981],[140.47874,41.70158],[140.48106,41.70139],[140.48572,41.69894],[140.49141,41.69872],[140.4973,41.70081],[140.50621,41.69982],[140.51305,41.70062],[140.51706,41.7025],[140.52506,41.7023],[140.53808,41.71184],[140.54061,41.7153],[140.54642,41.71852],[140.54876,41.72092],[140.55274,41.72096],[140.55847,41.72405],[140.56158,41.72797],[140.57717,41.73177],[140.57869,41.73315],[140.57993,41.73741],[140.58554,41.73811],[140.58882,41.74154],[140.595,41.74022],[140.60088,41.74183],[140.60186,41.74324],[140.60183,41.75011],[140.6048,41.75814],[140.60375,41.76181],[140.60627,41.76473],[140.61169,41.76826],[140.6135,41.77154],[140.61335,41.77746],[140.61483,41.77858],[140.61519,41.78066],[140.6197,41.78764],[140.61788,41.79495],[140.62119,41.80341]],[[140.69037,40.83345],[140.6909,40.83793],[140.69027,40.84038],[140.68341,40.84708],[140.68178,40.85005],[140.68091,40.86246],[140.67821,40.86762],[140.6755,40.87003],[140.67114,40.87861],[140.66703,40.90005],[140.66473,40.90417],[140.65999,40.90984],[140.6529,40.95053],[140.65005,40.97866],[140.64593,40.98708],[140.64471,40.99538],[140.64301,41.00054],[140.64331,41.00812],[140.64099,41.0154],[140.64002,41.02445],[140.64054,41.03318],[140.63653,41.04254],[140.63635,41.04707]],[[140.44587,41.18923],[140.45263,41.1837],[140.46298,41.17982],[140.49056,41.1764],[140.49284,41.17747],[140.49616,41.18168],[140.49757,41.18708],[140.5106,41.19465],[140.51184,41.19788]]]}}]}