{"type":"FeatureCollection","features":[{"type":"Feature","properties":{"route_id":"116","route_number":116,"name":"国道116号","source":"OpenStreetMap contributors (ODbL)","osm_relations":[389055,3132634,9045288,9045289,9045290]},"geometry":{"type":"MultiLineString","coordinates":[[[138.651,37.45238],[138.63463,37.44447],[138.62864,37.43884],[138.60466,37.39783],[138.61666,37.41779],[138.62512,37.43391],[138.62856,37.43891],[138.6337,37.44395],[138.65097,37.45246],[138.6677,37.45534],[138.67598,37.45978],[138.67897,37.46237],[138.68522,37.47362],[138.69762,37.48879],[138.70275,37.506],[138.70282,37.51333],[138.72597,37.54139],[138.727,37.55347],[138.72875,37.55743],[138.73169,37.56097],[138.7461,37.57363],[138.75646,37.57951],[138.77027,37.59248],[138.77529,37.59402],[138.78799,37.59351],[138.79264,37.59449],[138.79657,37.59755],[138.80028,37.60476],[138.80656,37.60837],[138.81332,37.61359],[138.82487,37.61748],[138.83144,37.61758],[138.84641,37.62133],[138.87036,37.63791],[138.87503,37.6547],[138.87851,37.67885],[138.88604,37.69103],[138.88467,37.70434],[138.88829,37.71274],[138.89421,37.72291],[138.89379,37.7363],[138.89819,37.74034],[138.89919,37.74251],[138.90124,37.7538],[138.90212,37.77177],[138.90443,37.77451],[138.92132,37.78615],[138.92327,37.78849],[138.92374,37.7903],[138.92242,37.80719],[138.92513,37.82243],[138.93025,37.83523],[138.93697,37.84455],[138.93886,37.84596],[138.95435,37.84903],[138.98025,37.86301],[138.99332,37.86682],[139.0044,37.86858],[139.00736,37.8716],[139.01284,37.87481],[139.01416,37.878],[139.01334,37.8801],[139.0153,37.87694],[139.01626,37.877],[139.01551,37.87733],[139.01424,37.87616],[139.01505,37.87706]],[[139.01259,37.88149],[139.01913,37.88447],[139.01259,37.88149],[139.01334,37.8801]],[[139.01871,37.90962],[139.02638,37.90301],[139.02139,37.89798],[139.02624,37.90296],[139.01876,37.90948],[139.02034,37.91219],[139.02479,37.91491],[139.02914,37.91625],[139.03457,37.91749],[139.03736,37.91654],[139.04125,37.92256],[139.04684,37.92159]],[[139.01424,37.87616],[139.00692,37.87015],[139.00659,37.86738],[139.0033,37.86816],[138.99488,37.86704],[138.98084,37.86311],[138.97528,37.86077],[138.95441,37.84896],[138.93945,37.84617]],[[139.01284,37.87481],[139.01498,37.87713]],[[139.01913,37.88447],[139.01851,37.89093],[139.02139,37.89798]],[[138.82867,37.61749],[138.82452,37.61729],[138.81342,37.61352],[138.80666,37.60829],[138.80085,37.60505],[138.79888,37.60298]],[[138.84764,37.62207],[138.84555,37.62099]],[[139.0354,37.91728],[139.03286,37.91718]]]}}]}