{"type":"FeatureCollection","features":[{"type":"Feature","properties":{"route_id":"197","route_number":197,"name":"国道197号","source":"OpenStreetMap contributors (ODbL)","osm_relations":[65441,2824306,9483521,9483522,9483523,9483524,9483525,9483526,9483527,9483528,9483529,9718512]},"geometry":{"type":"MultiLineString","coordinates":[[[133.53221,33.55819],[133.54143,33.55975],[133.55499,33.55864],[133.55342,33.5522],[133.55177,33.5496],[133.54266,33.54542],[133.53258,33.5508],[133.52625,33.55108],[133.53417,33.55108],[133.5409,33.54614],[133.54337,33.5456],[133.55166,33.54966],[133.55317,33.55191],[133.55486,33.55849],[133.54129,33.55962],[133.53223,33.55804]],[[133.50744,33.54987],[133.52033,33.55063],[133.50944,33.55022],[133.50647,33.5494],[133.49929,33.54279],[133.49327,33.54131],[133.48829,33.53902],[133.48062,33.53349],[133.47527,33.53099],[133.47439,33.52962],[133.47466,33.52333],[133.47329,33.52039],[133.47429,33.51482],[133.47384,33.51333],[133.46984,33.50894],[133.45866,33.50395],[133.45336,33.4993],[133.44844,33.49269],[133.44566,33.49234],[133.44299,33.49419],[133.43613,33.49677],[133.43261,33.50047],[133.42703,33.50138],[133.42321,33.50065],[133.41615,33.49511],[133.42302,33.50067],[133.42727,33.50147],[133.43265,33.50058],[133.43638,33.49674],[133.44289,33.49437],[133.44582,33.49244],[133.44762,33.49243],[133.45302,33.49924],[133.4586,33.50403],[133.46978,33.50901],[133.47374,33.51336],[133.47416,33.51483],[133.47316,33.52038],[133.47415,33.52328],[133.47457,33.53058],[133.4804,33.53347],[133.48822,33.53909],[133.49323,33.54138],[133.49928,33.54287],[133.50143,33.54547],[133.50744,33.54987]],[[133.41615,33.49511],[133.41365,33.49389],[133.40795,33.49347],[133.39823,33.49061],[133.39379,33.49164],[133.38763,33.4903],[133.38454,33.48788],[133.38176,33.48698],[133.37592,33.48708],[133.36814,33.48201],[133.36143,33.47589],[133.36002,33.47358],[133.35282,33.47065],[133.34952,33.46776],[133.34414,33.4566],[133.34189,33.4537],[133.33645,33.45193],[133.33267,33.44926],[133.32871,33.44943],[133.32326,33.44394],[133.31732,33.44111],[133.31066,33.44179],[133.30682,33.43933],[133.30319,33.43904],[133.30181,33.4371],[133.2973,33.43576],[133.29619,33.43358],[133.29633,33.4285],[133.29809,33.42363],[133.30256,33.41965],[133.30296,33.41791],[133.30198,33.41421],[133.29921,33.41133],[133.29205,33.40734],[133.28736,33.40292],[133.28374,33.39904],[133.28312,33.39631],[133.27693,33.39141],[133.27503,33.38846],[133.24836,33.39701],[133.24439,33.40006],[133.24164,33.4003],[133.2365,33.39853],[133.23244,33.3981],[133.23203,33.39923],[133.23484,33.40368],[133.23914,33.407],[133.23867,33.41164],[133.24132,33.41508],[133.24131,33.41679],[133.24006,33.4187],[133.23445,33.42099],[133.23571,33.42477],[133.2355,33.4304],[133.22734,33.43415],[133.22485,33.43614],[133.22372,33.43838],[133.21743,33.43813],[133.21446,33.43881],[133.20501,33.44667],[133.20211,33.44788],[133.20026,33.44715],[133.19977,33.44447],[133.19766,33.44367],[133.19269,33.44399],[133.1868,33.44696],[133.18391,33.4457],[133.18172,33.44269],[133.17889,33.44325],[133.17523,33.44248],[133.16411,33.43822],[133.15154,33.43976],[133.14306,33.43605],[133.13856,33.43514],[133.13309,33.43565],[133.1294,33.43923],[133.12178,33.4377],[133.11889,33.43871],[133.1172,33.43516],[133.11253,33.43321],[133.11104,33.43117],[133.10507,33.43125],[133.10052,33.4278],[133.10029,33.42475],[133.09403,33.4188],[133.09242,33.41591],[133.08743,33.41094],[133.08037,33.41145],[133.07548,33.41043],[133.07093,33.40801],[133.06555,33.40711],[133.06214,33.40483],[133.05909,33.40514],[133.05613,33.40224],[133.0456,33.40395],[133.04408,33.40229],[133.03931,33.40072],[133.03851,33.39932],[133.03377,33.3962],[133.02874,33.39533],[133.0263,33.394],[133.0245,33.39053],[133.01887,33.39092],[133.01542,33.39223],[133.01346,33.39186],[133.00317,33.39838],[132.99796,33.39982],[132.99465,33.39792],[132.98808,33.39749],[132.97989,33.39427],[132.97762,33.39211],[132.97393,33.39254]],[[133.52033,33.55063],[133.52625,33.55108]],[[131.60236,33.23698],[131.60277,33.23908],[131.62035,33.23897],[131.63136,33.2424],[131.64326,33.24216],[131.66084,33.24524],[131.66626,33.24447],[131.66882,33.24264],[131.67705,33.24083],[131.68724,33.24099],[131.70102,33.2388],[131.7095,33.24485],[131.71251,33.24567],[131.71891,33.24402],[131.72844,33.23727],[131.73469,33.2376],[131.74757,33.23527],[131.75962,33.23511],[131.76874,33.23729],[131.77404,33.23571],[131.77605,33.23626],[131.77912,33.23873],[131.78425,33.23949],[131.79092,33.23998],[131.79845,33.23837],[131.803,33.24117],[131.80762,33.24173],[131.81842,33.24555],[131.82551,33.2463],[131.83128,33.24805],[131.83253,33.24709],[131.83604,33.24705],[131.84099,33.24827],[131.84885,33.25173],[131.86078,33.25113],[131.8645,33.24934],[131.86699,33.25128],[131.86535,33.26038],[131.86628,33.26441],[131.86939,33.27006],[131.87694,33.2785],[131.88488,33.28564],[131.90026,33.29534],[131.91489,33.30219],[131.94743,33.30343],[131.95479,33.30503],[131.99948,33.3172],[132.01683,33.32333],[132.03104,33.33018],[132.04431,33.33813],[132.09533,33.37516],[132.10445,33.38121],[132.1189,33.38901],[132.1206,33.38918],[132.12131,33.38783],[132.12562,33.38637],[132.13158,33.38663],[132.13482,33.38966],[132.13857,33.39542],[132.14155,33.39503],[132.14509,33.39653],[132.15224,33.39507],[132.15561,33.39675],[132.15991,33.39658],[132.16184,33.39801],[132.16454,33.39865],[132.16691,33.40252],[132.17114,33.40426],[132.17314,33.40916],[132.17214,33.4117],[132.17245,33.41349],[132.17389,33.41546],[132.17889,33.41523],[132.18388,33.41895],[132.18646,33.41963],[132.19453,33.42019],[132.19967,33.41951],[132.20195,33.42025],[132.20894,33.42481],[132.21327,33.43221],[132.22458,33.43138],[132.2287,33.43207],[132.23224,33.43566],[132.23756,33.43906],[132.24037,33.44035],[132.24419,33.44069],[132.25235,33.44712],[132.25751,33.44802],[132.26158,33.44651],[132.26602,33.44683],[132.27186,33.45131],[132.2742,33.45578],[132.27419,33.45807],[132.2717,33.46309],[132.2731,33.46534],[132.27698,33.4678],[132.2799,33.4684],[132.28374,33.47052],[132.28808,33.47134],[132.29424,33.47586],[132.30172,33.47942],[132.32169,33.4835],[132.32936,33.48095],[132.33273,33.4821],[132.33706,33.48694],[132.34365,33.49048],[132.35039,33.48954],[132.3528,33.49141],[132.35754,33.49271],[132.36287,33.49259],[132.36694,33.49462],[132.36918,33.49725],[132.37299,33.49782],[132.37693,33.49715],[132.38727,33.4894],[132.39107,33.48898],[132.39362,33.49048],[132.39484,33.49038],[132.39784,33.48805],[132.4,33.4844],[132.40591,33.4835],[132.4094,33.48499],[132.41764,33.48354],[132.41957,33.48048],[132.4191,33.47605],[132.42273,33.47079],[132.42872,33.46754],[132.42948,33.4686],[132.42422,33.46947],[132.42962,33.46821]],[[131.66095,33.24522],[131.64327,33.2421],[131.63151,33.24236],[131.62037,33.23889],[131.60284,33.23898],[131.60247,33.23692]],[[132.95739,33.38987],[132.94903,33.38825],[132.94289,33.38798],[132.93688,33.39026],[132.93441,33.38985],[132.93231,33.39144],[132.92566,33.39063],[132.9247,33.38965],[132.92268,33.38339],[132.91942,33.38071],[132.91685,33.3763],[132.91348,33.37414],[132.89915,33.375],[132.89607,33.37657],[132.89316,33.37933],[132.88802,33.38127],[132.8763,33.37955],[132.8658,33.38088],[132.86238,33.37748],[132.86039,33.37671],[132.84782,33.3767],[132.84166,33.37108],[132.83632,33.37055],[132.83448,33.36934],[132.83036,33.3628],[132.82659,33.35898],[132.82402,33.35289],[132.81462,33.34337],[132.81176,33.33817],[132.80673,33.33617],[132.80019,33.33583],[132.79789,33.33247],[132.79332,33.33675],[132.79088,33.3402],[132.79147,33.34657],[132.79531,33.35377],[132.79811,33.35624],[132.79906,33.35983],[132.79871,33.36284],[132.77899,33.36981],[132.76657,33.36965],[132.75645,33.37051],[132.75128,33.37606],[132.74895,33.38064],[132.73714,33.3803],[132.7355,33.37841],[132.7339,33.37862],[132.73298,33.38065],[132.73104,33.38212],[132.73073,33.38519],[132.73281,33.38932],[132.73706,33.39146],[132.73538,33.39327],[132.73579,33.39625],[132.73485,33.39746],[132.73665,33.40276],[132.73512,33.40436],[132.73438,33.40685],[132.73054,33.40676],[132.72596,33.41229],[132.72285,33.4133],[132.71874,33.41294],[132.71219,33.41033],[132.7053,33.41019],[132.69052,33.41768],[132.68868,33.41985],[132.68919,33.42273],[132.68784,33.42963],[132.68683,33.44544],[132.68489,33.44948],[132.68058,33.45237],[132.67849,33.45719],[132.67844,33.46008],[132.67618,33.46098],[132.67552,33.46305],[132.67757,33.46533],[132.68023,33.46669],[132.68329,33.47122],[132.67938,33.47173],[132.67348,33.47626],[132.67088,33.47643],[132.66298,33.47986],[132.65631,33.47999],[132.65433,33.4813],[132.65399,33.48296],[132.65134,33.48393],[132.64912,33.48351],[132.64261,33.48569],[132.63798,33.48548],[132.63775,33.49194],[132.63505,33.49491],[132.63213,33.49614],[132.63002,33.50044],[132.62659,33.50483],[132.61425,33.50476],[132.61172,33.50542],[132.61044,33.50768],[132.60721,33.50891],[132.59388,33.50987],[132.58785,33.50919],[132.58193,33.51064],[132.57908,33.50971],[132.57781,33.50763],[132.57375,33.50728],[132.57243,33.50572],[132.56225,33.5032],[132.55681,33.50383],[132.55415,33.50326],[132.55283,33.5048],[132.55273,33.5077],[132.55184,33.50897],[132.54552,33.50995],[132.54428,33.50478],[132.54635,33.50172],[132.54597,33.49939],[132.54779,33.49815],[132.5457,33.49681],[132.54601,33.49533],[132.54378,33.49357],[132.538,33.49028],[132.5203,33.4918],[132.51467,33.48979],[132.51349,33.48906],[132.50461,33.4764],[132.48666,33.46628],[132.48379,33.46609],[132.4811,33.4678],[132.47416,33.46668],[132.47092,33.46827],[132.46943,33.47135],[132.46771,33.47151],[132.46367,33.46946],[132.46116,33.46709],[132.45559,33.4647],[132.44615,33.46368],[132.43569,33.45873],[132.43125,33.45776],[132.43151,33.46017],[132.42872,33.46754]],[[132.40513,33.48355],[132.405,33.48243],[132.40932,33.4781],[132.41978,33.47115],[132.42422,33.46947]],[[132.47047,33.46998],[132.46856,33.47089],[132.46482,33.46955],[132.45519,33.47013],[132.4444,33.46814],[132.4365,33.46766],[132.4248,33.46933]],[[131.72926,33.21373],[131.71801,33.20963],[131.71537,33.20715],[131.71273,33.20182],[131.70971,33.19913],[131.69635,33.19401],[131.68517,33.1882],[131.68104,33.18793],[131.67388,33.18935],[131.66964,33.19112],[131.66369,33.1955],[131.65826,33.19709],[131.65039,33.19663],[131.64198,33.19448],[131.64115,33.19276],[131.63915,33.19302]],[[131.67162,33.19021],[131.66368,33.19538],[131.65811,33.19702],[131.65037,33.19653],[131.64229,33.19437],[131.64114,33.19269],[131.63915,33.19298]],[[131.72867,33.21319],[131.72916,33.21367]],[[133.29793,33.42397],[133.29661,33.42762]]]}}]}