{"type":"FeatureCollection","features":[{"type":"Feature","properties":{"route_id":"146","route_number":146,"name":"国道146号","source":"OpenStreetMap contributors (ODbL)","osm_relations":[3846790]},"geometry":{"type":"MultiLineString","coordinates":[[[138.5917,36.34861],[138.59104,36.35274],[138.58952,36.3549],[138.59013,36.3592],[138.58787,36.36223],[138.58724,36.36723],[138.58783,36.37562],[138.58443,36.37982],[138.59114,36.37959],[138.59092,36.38169],[138.59247,36.38168],[138.59102,36.38273],[138.58927,36.38229],[138.58844,36.38293],[138.58786,36.38426],[138.58941,36.38403],[138.59032,36.38518],[138.58601,36.38726],[138.58735,36.38802],[138.58511,36.38888],[138.58241,36.39155],[138.58176,36.39306],[138.58349,36.39332],[138.58349,36.39427],[138.57833,36.39638],[138.57835,36.39702],[138.58119,36.39757],[138.58071,36.39973],[138.57647,36.39872],[138.57391,36.39943],[138.5696,36.40406],[138.57056,36.40896],[138.57014,36.41617],[138.57169,36.4259],[138.57108,36.42762],[138.57166,36.43116],[138.57834,36.44171],[138.5801,36.44745],[138.58394,36.45259],[138.58807,36.46856],[138.58565,36.47146],[138.5871,36.47746],[138.58546,36.48377],[138.58227,36.48757],[138.58519,36.49704],[138.58694,36.5003],[138.58963,36.50145],[138.59518,36.51177],[138.59922,36.51517],[138.59811,36.52024],[138.5993,36.52257],[138.59966,36.52587],[138.60326,36.52714],[138.60416,36.52871],[138.60708,36.53057],[138.61058,36.53123],[138.60882,36.53491],[138.61032,36.53838],[138.61328,36.54054],[138.61227,36.54139],[138.60991,36.53972],[138.60936,36.54147],[138.60721,36.54116],[138.60505,36.5429],[138.60441,36.54114],[138.60326,36.54051],[138.60214,36.54301],[138.60272,36.54488],[138.60039,36.5455],[138.60444,36.54609],[138.60546,36.54923]]]}}]}