{"type":"FeatureCollection","features":[{"type":"Feature","properties":{"route_id":"138","route_number":138,"name":"国道138号","source":"OpenStreetMap contributors (ODbL)","osm_relations":[3908696,9081056]},"geometry":{"type":"MultiLineString","coordinates":[[[138.85082,35.42238],[138.84936,35.42385],[138.84837,35.42723],[138.84522,35.42947],[138.83829,35.43726],[138.83136,35.44201],[138.81735,35.44914],[138.80597,35.45643],[138.80435,35.45832],[138.80374,35.46279],[138.80071,35.46929],[138.79182,35.47506]],[[139.09916,35.23209],[139.10008,35.2319],[139.09652,35.23304],[139.09338,35.23311],[139.09188,35.23228],[139.09012,35.2333],[139.08726,35.23285],[139.08611,35.23471],[139.08266,35.23275],[139.08075,35.23359],[139.0817,35.23454],[139.07896,35.23446],[139.07861,35.23611],[139.0769,35.23656],[139.07683,35.23767],[139.07251,35.24027],[139.07381,35.23823],[139.07141,35.23849],[139.06935,35.23734],[139.06881,35.2387],[139.06716,35.23852],[139.06462,35.24158],[139.05864,35.24537],[139.05764,35.24497],[139.05306,35.24668],[139.05311,35.25009],[139.05221,35.25047],[139.05214,35.25232],[139.04732,35.25658],[139.04054,35.25808],[139.0389,35.25986],[139.03581,35.25902],[139.03133,35.25934],[139.026,35.2623],[139.0247,35.26391],[139.01469,35.26851],[139.01024,35.27409],[139.00104,35.27807],[138.9994,35.27816],[138.9983,35.27686],[138.99445,35.2769],[138.99035,35.27193],[138.99218,35.27845],[138.98404,35.2832],[138.98091,35.28243],[138.98207,35.28399],[138.98022,35.28508],[138.98121,35.28643],[138.97899,35.28942],[138.97836,35.28928],[138.97932,35.28717],[138.9766,35.28789],[138.97592,35.28637],[138.97576,35.28777],[138.9768,35.28898],[138.97397,35.29015],[138.97357,35.29169],[138.97309,35.2891],[138.97034,35.28877],[138.96974,35.28784],[138.96437,35.28884],[138.96249,35.28766],[138.96068,35.28864],[138.95939,35.28612],[138.95722,35.28629],[138.95557,35.28833],[138.95612,35.29272],[138.95118,35.29762],[138.93328,35.31058],[138.90668,35.32218],[138.90118,35.32886],[138.89363,35.33445],[138.88848,35.33989],[138.88001,35.34588],[138.88896,35.33965],[138.8937,35.33452],[138.90129,35.32892],[138.90537,35.32359],[138.91106,35.32022]],[[138.92413,35.31405],[138.93465,35.30991],[138.95155,35.29747],[138.95623,35.29232]],[[138.86465,35.36063],[138.86861,35.35829],[138.86464,35.36082]],[[138.85777,35.41617],[138.86306,35.4094],[138.87324,35.40723],[138.87603,35.40758],[138.87627,35.40671],[138.87586,35.40418],[138.87318,35.40144],[138.86704,35.40039],[138.86707,35.39748],[138.86383,35.39404],[138.86419,35.39188],[138.8654,35.39138],[138.86358,35.39128],[138.85768,35.38407],[138.85512,35.38296],[138.85346,35.38348],[138.85043,35.38266],[138.84967,35.38087],[138.85055,35.37996],[138.85069,35.38163],[138.85322,35.38241],[138.8546,35.3811],[138.85888,35.38177],[138.85842,35.37668],[138.86012,35.37356],[138.86019,35.37116],[138.85803,35.36776],[138.85969,35.36452],[138.86181,35.36254],[138.86486,35.3616],[138.86457,35.36056],[138.86756,35.35908]],[[139.15931,35.25059],[139.15938,35.24821],[139.1458,35.24577],[139.13994,35.24686],[139.13191,35.24676],[139.11828,35.23879],[139.11297,35.23434],[139.10559,35.23384],[139.10208,35.23189],[139.10008,35.2319]],[[139.1122,35.23412],[139.11433,35.23525]],[[138.86861,35.35829],[138.8748,35.35342],[138.88001,35.34588]]]}}]}