{"type":"FeatureCollection","features":[{"type":"Feature","properties":{"route_id":"325","route_number":325,"name":"国道325号","source":"OpenStreetMap contributors (ODbL)","osm_relations":[9599962,9600043,11763695,13400454]},"geometry":{"type":"MultiLineString","coordinates":[[[131.30395,32.71408],[131.30355,32.71642],[131.301,32.71927],[131.29914,32.71979],[131.2978,32.71904],[131.29585,32.7192],[131.29355,32.72181],[131.29552,32.72358],[131.29527,32.72653],[131.29689,32.72786],[131.29845,32.73192],[131.29869,32.73901],[131.29738,32.75013],[131.29846,32.75276],[131.2991,32.75986],[131.30089,32.76396],[131.29814,32.76429],[131.28978,32.76313],[131.28746,32.76432],[131.28452,32.76803],[131.27968,32.76926],[131.27786,32.77258],[131.27387,32.7727],[131.27161,32.77077],[131.2676,32.77164],[131.26388,32.77381],[131.25955,32.77242],[131.25582,32.7735],[131.25317,32.77302],[131.25216,32.77209],[131.2508,32.76804],[131.24618,32.76471],[131.24325,32.76472],[131.2429,32.76382],[131.24357,32.76323],[131.24487,32.76389],[131.24374,32.76546],[131.24043,32.76584],[131.23369,32.77307],[131.2267,32.78274],[131.22674,32.78425],[131.22367,32.78957],[131.21914,32.78888],[131.21398,32.78989],[131.20935,32.79393],[131.20715,32.79444],[131.20477,32.79358],[131.20399,32.79145],[131.19965,32.78874],[131.19651,32.7899],[131.19725,32.78793],[131.19845,32.78729],[131.19778,32.78653],[131.19618,32.78741],[131.19518,32.7895],[131.19001,32.79167],[131.18723,32.79497],[131.1798,32.79706],[131.16997,32.80318],[131.16385,32.80602],[131.15994,32.80605],[131.15842,32.80467],[131.15747,32.80189],[131.15391,32.80225],[131.15099,32.8008],[131.14932,32.80209],[131.14766,32.80151],[131.14218,32.80386],[131.13908,32.80725],[131.13922,32.81035],[131.1407,32.81139],[131.13979,32.81371],[131.14094,32.81511],[131.14024,32.81651],[131.13818,32.81679],[131.13919,32.8147],[131.13661,32.81425],[131.13648,32.81151],[131.13431,32.81309],[131.13485,32.815],[131.13379,32.82132],[131.13528,32.82439],[131.13224,32.82721],[131.11324,32.82487],[131.10837,32.82498],[131.10231,32.82821],[131.08111,32.83156],[131.07566,32.83173],[131.07273,32.8334],[131.063,32.83609],[131.05609,32.83908],[131.05116,32.83964],[131.04033,32.84515],[131.03118,32.84724],[131.02168,32.85216],[131.01703,32.85566],[131.00754,32.85752],[131.00176,32.8623],[130.99972,32.86833],[130.99442,32.87126],[130.9916,32.87488],[130.98306,32.87991],[130.97212,32.87765],[130.96279,32.87926],[130.95399,32.87685],[130.94688,32.87624],[130.94364,32.877],[130.93119,32.87539],[130.90931,32.87949],[130.89322,32.88046],[130.88897,32.87986],[130.88028,32.87576],[130.85549,32.87556],[130.85461,32.87473],[130.85429,32.89314],[130.85221,32.90366],[130.84398,32.91148],[130.834,32.92381],[130.82857,32.93698],[130.82264,32.94485],[130.8245,32.95138],[130.82207,32.95397],[130.82103,32.96023],[130.81967,32.96168],[130.81635,32.96268],[130.81453,32.96424],[130.80653,32.9786],[130.80124,32.97666],[130.7826,32.97691],[130.77981,32.97936],[130.76991,32.9811],[130.76342,32.98111],[130.75785,32.98399],[130.75334,32.988],[130.74525,33.00064],[130.71905,33.00525],[130.71118,33.00847],[130.70578,33.00973],[130.70205,33.01275],[130.69894,33.01389],[130.6925,33.01495],[130.68502,33.01416],[130.68341,33.01932],[130.68216,33.02839],[130.68228,33.04296],[130.68419,33.04666],[130.68762,33.0487],[130.68744,33.0528],[130.68995,33.05538],[130.69567,33.0668],[130.69567,33.06779],[130.69297,33.07144],[130.6923,33.07476],[130.69725,33.09042],[130.69621,33.09369],[130.69857,33.09614],[130.70015,33.10335],[130.6961,33.10474],[130.69044,33.10987],[130.68806,33.11594],[130.6815,33.1146],[130.67594,33.11693],[130.67295,33.11701],[130.66491,33.11249],[130.66159,33.11222],[130.65687,33.11326],[130.65233,33.11291],[130.64966,33.11432],[130.64777,33.11754],[130.64349,33.12092],[130.64182,33.12466],[130.63973,33.12475],[130.63651,33.1266],[130.63488,33.12879],[130.62565,33.13013],[130.62082,33.13463],[130.61868,33.13856],[130.61928,33.14638],[130.61813,33.15005],[130.61991,33.15587],[130.61855,33.15826],[130.62138,33.15973],[130.62174,33.16072],[130.61729,33.16383],[130.61969,33.16708],[130.61914,33.16986],[130.61519,33.17099],[130.61293,33.17313],[130.61046,33.19161],[130.60651,33.19295],[130.60425,33.19746],[130.5987,33.19953],[130.59496,33.20203],[130.58332,33.20441],[130.57874,33.20418],[130.57493,33.20677],[130.57696,33.20513]],[[130.5224,33.3134],[130.53094,33.28707],[130.53604,33.27921],[130.53608,33.27431],[130.53783,33.27137],[130.53975,33.26436],[130.54013,33.25525],[130.54414,33.24902],[130.5437,33.24685],[130.55506,33.23257],[130.55589,33.22844],[130.55941,33.21947],[130.56942,33.21396],[130.57227,33.21116],[130.57493,33.20677]],[[130.98306,32.87991],[130.98508,32.88094],[130.98124,32.87921],[130.97206,32.87756],[130.96281,32.87917],[130.95394,32.87674],[130.94714,32.87602],[130.94301,32.87683],[130.93157,32.87531],[130.90896,32.87947],[130.89245,32.88032],[130.88904,32.87979],[130.87993,32.87562],[130.85555,32.87545],[130.85454,32.87463],[130.8542,32.89279],[130.85222,32.90344],[130.84391,32.91144],[130.83393,32.92377],[130.82848,32.93696],[130.82253,32.94485],[130.82438,32.95137],[130.82203,32.95384],[130.82091,32.96028],[130.81929,32.96179],[130.8158,32.96287],[130.81389,32.96516]],[[130.74766,32.99726],[130.75295,32.98861],[130.75805,32.98389]],[[130.98908,32.8763],[130.98948,32.87958],[130.99081,32.88216],[130.99021,32.88329]],[[130.82059,32.95854],[130.81612,32.96181]],[[130.81611,32.9623],[130.81527,32.96312]]]}}]}