{"type":"FeatureCollection","features":[{"type":"Feature","properties":{"route_id":"282","route_number":282,"name":"国道282号","source":"OpenStreetMap contributors (ODbL)","osm_relations":[6583464,9397990,9398005,10411569]},"geometry":{"type":"MultiLineString","coordinates":[[[141.13926,39.7203],[141.13547,39.72265],[141.12504,39.72533],[141.12274,39.72777],[141.12547,39.73706],[141.13183,39.74699],[141.13548,39.75625],[141.13144,39.76438],[141.13059,39.76994],[141.12655,39.77583],[141.12452,39.78478],[141.1212,39.79359],[141.12495,39.7855],[141.12702,39.77569],[141.13056,39.77037],[141.13165,39.765],[141.13555,39.75623],[141.13188,39.74689],[141.12554,39.73703],[141.12286,39.72791],[141.12531,39.72529],[141.13526,39.72281],[141.13931,39.72038]],[[141.1212,39.79359],[141.11839,39.79951],[141.11971,39.81328],[141.1187,39.82561],[141.11246,39.84035],[141.11064,39.85379],[141.09541,39.88623],[141.09558,39.89064],[141.10258,39.89957],[141.10753,39.91021],[141.10578,39.92165],[141.10321,39.9276],[141.10305,39.93425],[141.09695,39.94621],[141.0931,39.94952],[141.0854,39.95291],[141.07877,39.95447],[141.02769,39.97698],[141.0184,39.98646],[141.01357,39.98969],[141.00955,39.99092],[141.00727,39.99366],[141.00148,39.99506],[140.99926,39.99861],[140.9954,39.99933],[140.99301,40.00603],[140.99578,40.00852],[140.99743,40.01131],[140.99677,40.01243],[140.99046,40.0162],[140.98938,40.01904],[140.98644,40.02283],[140.98543,40.02625],[140.98691,40.0324],[140.98954,40.03374],[140.99782,40.04188],[140.99981,40.04522],[141.01502,40.06292],[141.01552,40.06561],[141.02344,40.08035],[141.02674,40.08193],[141.03586,40.08088],[141.03979,40.08227],[141.04264,40.08446],[141.04677,40.09099],[141.04832,40.10167],[141.05446,40.11465],[141.05332,40.11921],[141.03412,40.12961],[141.03105,40.13047],[141.02773,40.13379],[141.0187,40.13758],[141.01269,40.13832],[140.99876,40.13728],[140.99123,40.13479],[140.96812,40.13416],[140.95733,40.13581],[140.93819,40.1409],[140.93015,40.13766],[140.92721,40.13164],[140.92154,40.13208],[140.91632,40.12656],[140.90995,40.12633],[140.90357,40.11956],[140.89991,40.11818],[140.89725,40.11573],[140.89339,40.11639],[140.88568,40.11428],[140.88032,40.11625],[140.86666,40.11657],[140.86577,40.11931],[140.86345,40.12163],[140.85631,40.11944],[140.85021,40.12151],[140.84454,40.12039],[140.83832,40.12431],[140.83216,40.12407],[140.8278,40.12546],[140.82257,40.12553],[140.82163,40.12659],[140.82151,40.13123],[140.81995,40.13247],[140.81641,40.13195],[140.81472,40.13255],[140.81492,40.13676],[140.81255,40.13795],[140.80841,40.13859],[140.80407,40.13664],[140.79903,40.13627],[140.79923,40.14026],[140.79304,40.1503],[140.79278,40.15485],[140.79404,40.15874],[140.78754,40.17249],[140.78726,40.17665],[140.78611,40.17982],[140.78807,40.19084],[140.7879,40.19521],[140.79145,40.19914],[140.79328,40.20322],[140.79079,40.20737],[140.7899,40.21581],[140.78623,40.2247],[140.7865,40.22646],[140.79006,40.23175],[140.79024,40.23443],[140.78014,40.24669],[140.77782,40.25173],[140.77226,40.25922],[140.76932,40.2676],[140.76841,40.27716],[140.76404,40.27903],[140.76308,40.28789],[140.7596,40.29404],[140.75877,40.29728],[140.75347,40.30554],[140.75245,40.3088],[140.74777,40.31311],[140.74257,40.31632],[140.74094,40.32792],[140.73716,40.33467],[140.73397,40.33817],[140.73425,40.34054],[140.73617,40.34426],[140.73436,40.3465],[140.73414,40.34855],[140.7367,40.35191],[140.73713,40.35418],[140.73412,40.3562],[140.73471,40.36029],[140.73407,40.36246],[140.73066,40.36455],[140.72783,40.3676],[140.73073,40.37475],[140.72878,40.37821],[140.72703,40.37945],[140.71154,40.38208],[140.70314,40.38844],[140.6973,40.39424],[140.69583,40.39721],[140.69641,40.4058],[140.69546,40.40756],[140.69217,40.4087],[140.69191,40.41332],[140.68933,40.41752],[140.68693,40.41735],[140.68533,40.42025],[140.68226,40.4198],[140.68176,40.42035],[140.68022,40.41916],[140.67938,40.42001],[140.6784,40.41967],[140.67827,40.42107],[140.67752,40.42011],[140.67595,40.42034],[140.6751,40.42176],[140.6768,40.42326],[140.6741,40.42213],[140.66241,40.42635],[140.65649,40.42576],[140.65371,40.42644],[140.6524,40.42777],[140.64738,40.42844],[140.64426,40.43138],[140.63873,40.43933],[140.63688,40.44002],[140.63491,40.44267]]]}}]}