{"type":"FeatureCollection","features":[{"type":"Feature","properties":{"route_id":"311","route_number":311,"name":"国道311号","source":"OpenStreetMap contributors (ODbL)","osm_relations":[7803946,10074090,10075221,10075547,10691711]},"geometry":{"type":"MultiLineString","coordinates":[[[136.19549,34.05203],[136.1983,34.0527],[136.20108,34.0521],[136.20422,34.04852],[136.20696,34.04677],[136.20962,34.04267],[136.22786,34.0284],[136.23418,34.02546],[136.23496,34.02382],[136.23578,34.02393],[136.23631,34.02553],[136.24456,34.02072],[136.24445,34.01924],[136.24351,34.02044],[136.24194,34.02032],[136.2428,34.01706],[136.24091,34.01599],[136.24068,34.01485],[136.242,34.014],[136.24621,34.01409],[136.2462,34.01286],[136.24985,34.01332],[136.25214,34.01161],[136.25256,34.00989],[136.25388,34.00932],[136.25145,34.00867],[136.25151,34.00727],[136.2506,34.00638],[136.25432,34.0036],[136.25218,34.00141],[136.25387,34.00062],[136.25392,33.99902],[136.2505,33.99104],[136.24887,33.989],[136.24665,33.98796],[136.24253,33.98875],[136.23884,33.98842],[136.23807,33.98917],[136.23725,33.98806],[136.23543,33.98804],[136.22806,33.98945],[136.2277,33.9904],[136.22426,33.99155],[136.2215,33.994],[136.22142,33.99636],[136.21793,33.99728],[136.21876,33.99904],[136.21795,34.00065],[136.2114,34.00246],[136.20875,33.99927],[136.20722,33.99892],[136.20703,33.99789],[136.21074,33.99687],[136.21257,33.99213],[136.21192,33.99006],[136.21481,33.98368],[136.21065,33.98232],[136.20773,33.97959],[136.20647,33.97499],[136.20304,33.97168],[136.20075,33.97137],[136.19099,33.97474],[136.18913,33.97483],[136.18896,33.97271],[136.19866,33.96416],[136.20275,33.96297],[136.20774,33.9634],[136.21325,33.96219],[136.21984,33.95979],[136.22491,33.95624],[136.22586,33.95331],[136.2236,33.94884],[136.22207,33.94855],[136.21878,33.95032],[136.21639,33.94995],[136.21413,33.95076],[136.21497,33.94914],[136.21378,33.94719],[136.21653,33.94467],[136.21677,33.94239],[136.21839,33.9423],[136.21805,33.94025],[136.2147,33.93955],[136.21123,33.94001],[136.20711,33.94138],[136.20341,33.9443],[136.20084,33.94513],[136.2002,33.94231],[136.19469,33.94371],[136.19404,33.94198],[136.18834,33.94152],[136.18447,33.94021],[136.17823,33.94426],[136.17799,33.94285],[136.17938,33.94098],[136.17936,33.93966],[136.17563,33.93868],[136.17671,33.93792],[136.17438,33.93289],[136.17458,33.93026],[136.17295,33.92781],[136.1682,33.92873],[136.15929,33.93202],[136.15446,33.9307],[136.15147,33.9311],[136.15015,33.93248],[136.14922,33.93238],[136.14603,33.92997],[136.14595,33.92676],[136.14819,33.92363],[136.15125,33.92341],[136.15325,33.92103],[136.15003,33.9217],[136.14749,33.92113],[136.14753,33.91991],[136.14614,33.91813],[136.14425,33.91636],[136.14213,33.91599],[136.14208,33.91502],[136.14053,33.91373],[136.13835,33.91295],[136.13598,33.91337],[136.13593,33.91226],[136.13273,33.911],[136.1326,33.90998],[136.13458,33.90905],[136.13442,33.90721],[136.13652,33.90434],[136.13527,33.9031],[136.12976,33.90199],[136.12964,33.89927],[136.1306,33.89616],[136.12697,33.89587],[136.12616,33.89773],[136.12215,33.89845],[136.12061,33.89968],[136.11959,33.89939],[136.11853,33.90096],[136.11577,33.90059],[136.11612,33.89622],[136.10995,33.8916],[136.10518,33.89043],[136.09841,33.88532],[136.09416,33.87996],[136.08401,33.87027],[136.07699,33.87475],[136.07446,33.87539],[136.06844,33.87346],[136.06645,33.87437],[136.0594,33.87452],[136.05685,33.87341],[136.0492,33.87247],[136.04593,33.87041],[136.04173,33.87068],[136.03953,33.86858],[136.03522,33.86998],[136.03128,33.8691],[136.02807,33.86934],[136.02793,33.86777],[136.02914,33.86594],[136.02839,33.86328],[136.03047,33.86109],[136.02936,33.85911],[136.02926,33.85374],[136.02357,33.84843],[136.01702,33.84542],[136.01353,33.84484],[136.00184,33.84668],[135.99369,33.85633],[135.98653,33.85826],[135.98138,33.85831],[135.97928,33.86117],[135.97343,33.86056],[135.96044,33.86392],[135.95713,33.86347],[135.95515,33.86505],[135.95239,33.86458],[135.95011,33.867],[135.94593,33.86434],[135.94145,33.86402],[135.93981,33.86657],[135.93719,33.86656],[135.93522,33.86802],[135.92897,33.8698],[135.92819,33.87295],[135.92564,33.87589],[135.92077,33.87536],[135.91785,33.87642],[135.91009,33.87608],[135.90712,33.87723],[135.90449,33.87573],[135.89769,33.87701],[135.89646,33.87274],[135.89439,33.87057],[135.89305,33.8702],[135.89013,33.87113],[135.88599,33.87398],[135.87809,33.87396],[135.87773,33.87507],[135.8789,33.87576],[135.87681,33.87753],[135.86644,33.87601],[135.86365,33.87786],[135.86035,33.8775],[135.85569,33.87386],[135.85727,33.86924],[135.85645,33.86693],[135.85287,33.86309],[135.8518,33.85875],[135.85325,33.855],[135.85529,33.85227],[135.85827,33.85003],[135.85876,33.84865],[135.85673,33.84364],[135.85526,33.83601],[135.85323,33.83318],[135.84672,33.83483],[135.83936,33.83896],[135.83521,33.8423],[135.8316,33.848],[135.82951,33.84875],[135.82779,33.84713],[135.8288,33.84461],[135.82847,33.84346],[135.82669,33.84252],[135.82289,33.84271],[135.82032,33.84164],[135.81369,33.82878],[135.80874,33.82588],[135.80667,33.82552],[135.80109,33.82665],[135.79488,33.8222],[135.79102,33.82124],[135.77641,33.82623],[135.77575,33.82238],[135.77139,33.82152],[135.76785,33.8192],[135.76666,33.81716],[135.76053,33.81847],[135.75325,33.81424],[135.75214,33.81453],[135.75163,33.8162],[135.75064,33.81653],[135.74853,33.81516],[135.74,33.81348],[135.7396,33.81248],[135.7408,33.81176],[135.74083,33.81083],[135.73667,33.80974],[135.73343,33.80564],[135.73075,33.80708],[135.72762,33.80659],[135.72326,33.80847],[135.71226,33.80672],[135.70329,33.81088],[135.68992,33.81077],[135.68732,33.81277],[135.68318,33.81272],[135.67891,33.81681],[135.67495,33.81821],[135.67148,33.82331],[135.66927,33.825],[135.66838,33.82898],[135.66632,33.8323],[135.66389,33.8334],[135.65447,33.83439],[135.65317,33.8339],[135.64975,33.83004],[135.64595,33.83069],[135.64224,33.82938],[135.63557,33.82544],[135.63206,33.82457],[135.62954,33.8213],[135.62121,33.81859],[135.61707,33.81638],[135.6152,33.8126],[135.60554,33.80696],[135.60217,33.8079],[135.59852,33.81075],[135.59385,33.81266],[135.58361,33.81319],[135.57473,33.81544],[135.57107,33.81531],[135.56559,33.81352],[135.563,33.81363],[135.56116,33.8149],[135.56064,33.81715],[135.55711,33.81684],[135.55541,33.81766],[135.5527,33.81456],[135.55049,33.81359],[135.54955,33.81078],[135.53932,33.81035],[135.53833,33.80898],[135.53857,33.80603],[135.53765,33.80478],[135.53218,33.8038],[135.52959,33.80202],[135.52533,33.8008],[135.5237,33.79888],[135.51984,33.79809],[135.51843,33.79361],[135.51351,33.7881],[135.51161,33.78727],[135.50726,33.78837],[135.50622,33.78764],[135.50515,33.78535],[135.50576,33.7819],[135.50314,33.77815],[135.50274,33.77458],[135.50078,33.77302],[135.49991,33.77096],[135.50048,33.76255],[135.49815,33.75872],[135.50294,33.75009],[135.50408,33.74585],[135.50248,33.74305],[135.50021,33.74278],[135.49767,33.74071],[135.49779,33.73924],[135.4991,33.7376],[135.49675,33.73324],[135.4908,33.73326],[135.48537,33.72992],[135.48159,33.72459],[135.48157,33.72077],[135.47995,33.71861],[135.47248,33.71841],[135.47035,33.71634],[135.46848,33.71581],[135.46019,33.71576],[135.45475,33.71406],[135.44592,33.7132],[135.43627,33.70584],[135.43524,33.70087],[135.43146,33.69395],[135.42705,33.69126],[135.41911,33.68985],[135.41624,33.69048]]]}}]}