{"type":"FeatureCollection","features":[{"type":"Feature","properties":{"route_id":"347","route_number":347,"name":"国道347号","source":"OpenStreetMap contributors (ODbL)","osm_relations":[9246031,11201507,11201508,11201509]},"geometry":{"type":"MultiLineString","coordinates":[[[140.25133,38.39925],[140.25115,38.40352],[140.252,38.4047],[140.26378,38.40823],[140.28062,38.41814],[140.286,38.41867],[140.30681,38.41627],[140.3084,38.42444],[140.30848,38.42895],[140.31968,38.43929],[140.31956,38.44541],[140.31559,38.45264],[140.31511,38.45757],[140.31704,38.46412],[140.3247,38.47449],[140.32689,38.48141],[140.32729,38.49114],[140.32573,38.50678],[140.32701,38.50923],[140.32631,38.51273],[140.32717,38.51559],[140.3298,38.5171],[140.33697,38.51832],[140.33886,38.52191],[140.33808,38.52535],[140.33998,38.52963],[140.33943,38.53153],[140.33691,38.53357],[140.33579,38.53804],[140.33631,38.54053],[140.33931,38.54459],[140.34527,38.54917],[140.35502,38.55245],[140.36491,38.55311],[140.36878,38.55584],[140.37052,38.5623],[140.37717,38.57689],[140.38411,38.58831],[140.38285,38.59956],[140.38135,38.60306],[140.38189,38.6055],[140.38426,38.60747],[140.4021,38.61397],[140.40574,38.61428],[140.4197,38.61276],[140.42823,38.6106],[140.46037,38.60869],[140.4743,38.60927],[140.49311,38.59685],[140.49574,38.59655],[140.4985,38.59752],[140.50289,38.59626],[140.50658,38.5974],[140.51281,38.59553],[140.51488,38.59612],[140.51747,38.59557],[140.51885,38.5945],[140.52184,38.59459],[140.52324,38.59544],[140.52868,38.59527],[140.53401,38.59352],[140.53585,38.59441],[140.53615,38.59709],[140.53965,38.60043],[140.53939,38.60217],[140.54155,38.6038],[140.54257,38.60643],[140.54358,38.6063],[140.54457,38.60391],[140.54696,38.60296],[140.5493,38.60464],[140.55213,38.60482],[140.55808,38.60787],[140.56292,38.6086],[140.56279,38.61063],[140.56384,38.61098],[140.56621,38.607],[140.56571,38.6055],[140.56691,38.60329],[140.56983,38.60257],[140.56976,38.60086],[140.57186,38.60145],[140.57836,38.59981],[140.58292,38.59709],[140.58355,38.59547],[140.58766,38.59188],[140.59144,38.59155],[140.59402,38.59228],[140.59516,38.59343],[140.59789,38.5923],[140.60266,38.59241],[140.60498,38.59325],[140.6071,38.59531],[140.61222,38.59399],[140.613,38.5924],[140.61819,38.58963],[140.62086,38.59119],[140.62936,38.58719],[140.63353,38.58827],[140.6352,38.58789],[140.63785,38.58426],[140.64192,38.5825],[140.64346,38.58348],[140.65062,38.58442],[140.65378,38.5892],[140.65738,38.58961],[140.66754,38.59452],[140.67337,38.59538],[140.67735,38.60225],[140.68263,38.60505],[140.68803,38.60487],[140.70265,38.60213],[140.71769,38.59561],[140.72575,38.59017],[140.7393,38.5857],[140.74346,38.58573],[140.74443,38.58663],[140.75031,38.58575],[140.76021,38.58164],[140.77235,38.57928],[140.78221,38.57333],[140.78249,38.57182],[140.78611,38.57165],[140.79847,38.57614],[140.80617,38.57553],[140.81557,38.57737],[140.81954,38.57655],[140.82783,38.57773],[140.83384,38.5768],[140.84294,38.57908],[140.86012,38.57671],[140.85982,38.57371],[140.86353,38.57336],[140.86652,38.57201],[140.88554,38.57396],[140.91032,38.57163],[140.92441,38.57248],[140.93592,38.56916],[140.94027,38.56658],[140.94762,38.56702],[140.94127,38.56651],[140.9386,38.5675]],[[140.92605,38.57188],[140.92755,38.57276],[140.94641,38.57442]]]}}]}