{"type":"FeatureCollection","features":[{"type":"Feature","properties":{"route_id":"498","route_number":498,"name":"国道498号","source":"OpenStreetMap contributors (ODbL)","osm_relations":[9364396,9527922,9527959]},"geometry":{"type":"MultiLineString","coordinates":[[[129.81157,33.22559],[129.80768,33.22211],[129.8079,33.22133],[129.80558,33.21998],[129.8057,33.21856],[129.80512,33.21924],[129.80556,33.2205],[129.80079,33.21682],[129.79656,33.21694],[129.79535,33.21601],[129.79515,33.21465],[129.79267,33.21524],[129.79481,33.21591],[129.79603,33.2174],[129.79545,33.21897],[129.79255,33.21999],[129.79257,33.22099],[129.79349,33.22143],[129.79846,33.21939],[129.80322,33.2196],[129.81286,33.21698],[129.81647,33.21791],[129.81743,33.22087],[129.82055,33.22435],[129.81912,33.22609],[129.81959,33.22721],[129.81899,33.22838],[129.82128,33.23114],[129.822,33.23428],[129.82341,33.23479],[129.82461,33.23653],[129.82433,33.24096],[129.82597,33.2418],[129.82599,33.24357],[129.82816,33.24469],[129.82957,33.24767],[129.83186,33.2479],[129.83388,33.24945],[129.83569,33.25503],[129.83932,33.2592],[129.83889,33.2609],[129.84294,33.2615],[129.8442,33.26291],[129.85096,33.2604],[129.858,33.26329],[129.86213,33.26339],[129.86958,33.26962],[129.88347,33.2686],[129.89166,33.27378],[129.89475,33.27711],[129.89523,33.27947],[129.89689,33.28171],[129.90314,33.27977],[129.90689,33.27427],[129.90569,33.26901],[129.90652,33.26594],[129.90906,33.2635],[129.91357,33.26136],[129.92027,33.26095],[129.92292,33.25942],[129.92529,33.25916],[129.95392,33.26602],[129.97093,33.2623],[129.97544,33.2578],[129.98318,33.25511],[129.98687,33.25483],[129.99239,33.25067],[130.00011,33.24989],[130.00397,33.24745],[130.00725,33.24283],[130.01067,33.24045],[130.01321,33.23325],[130.0247,33.22644],[130.02647,33.2259],[130.02883,33.22646],[130.03312,33.22436],[130.03942,33.22631],[130.0523,33.22175],[130.05289,33.21944],[130.05121,33.21606],[130.04483,33.21006],[130.04668,33.20726],[130.05217,33.20223],[130.05363,33.20176],[130.05635,33.19606],[130.05624,33.18715],[130.05395,33.18148],[130.0536,33.17752],[130.05474,33.1755],[130.05638,33.16658],[130.05869,33.1659],[130.06107,33.16202],[130.06479,33.152],[130.06321,33.14911],[130.06293,33.14681],[130.06409,33.14315],[130.06347,33.13646],[130.06146,33.13249],[130.06145,33.13082],[130.05878,33.12801],[130.06191,33.12572],[130.0664,33.12602],[130.0837,33.12206],[130.09529,33.12223]],[[129.7159,33.18012],[129.71865,33.18631],[129.71807,33.18774],[129.71858,33.19139],[129.72262,33.19714],[129.72077,33.20185],[129.72127,33.20594],[129.72981,33.20755],[129.74251,33.21141],[129.75733,33.21001],[129.76358,33.20796],[129.76603,33.21],[129.76661,33.2116],[129.76567,33.21275],[129.76779,33.21211],[129.77165,33.21284],[129.77383,33.21236],[129.77718,33.21338],[129.78283,33.21317],[129.78554,33.21462],[129.78957,33.21362],[129.79267,33.21524]],[[129.71576,33.18011],[129.71815,33.18439]],[[129.90229,33.28046],[129.89676,33.28149],[129.89467,33.2768],[129.89202,33.274],[129.88365,33.26857],[129.86963,33.26956],[129.86786,33.26867],[129.86309,33.26367],[129.85917,33.26332]]]}}]}