{"type":"FeatureCollection","features":[{"type":"Feature","properties":{"route_id":"342","route_number":342,"name":"国道342号","source":"OpenStreetMap contributors (ODbL)","osm_relations":[7462562,11124938,11124939,11124940,11124941]},"geometry":{"type":"MultiLineString","coordinates":[[[141.30237,38.60319],[141.30094,38.60399],[141.3005,38.60526],[141.30108,38.60817],[141.2999,38.6154],[141.29903,38.6158],[141.29516,38.6248],[141.2902,38.63329],[141.28685,38.64344],[141.28641,38.64661],[141.28773,38.65256],[141.28324,38.65387],[141.28607,38.65915],[141.2842,38.66267],[141.28272,38.6714],[141.28466,38.67966],[141.28463,38.68445],[141.2835,38.68586],[141.28406,38.68794],[141.28559,38.68966],[141.28464,38.69156],[141.28594,38.70371],[141.2849,38.70513],[141.2824,38.70421],[141.27913,38.70521],[141.27512,38.70424],[141.27156,38.70508],[141.26761,38.70773],[141.26593,38.71067],[141.26273,38.72677],[141.25991,38.7296],[141.25993,38.73222],[141.25541,38.74154],[141.2561,38.74638],[141.2545,38.74825],[141.25408,38.75018],[141.25766,38.7611],[141.25207,38.76436],[141.24626,38.76902],[141.24233,38.77339],[141.23846,38.7747],[141.23492,38.77489],[141.22717,38.77785],[141.22327,38.78054],[141.21721,38.78317],[141.2131,38.78704],[141.20965,38.79089],[141.21005,38.7931],[141.20832,38.80312],[141.20569,38.80579],[141.20287,38.81046],[141.19802,38.81478],[141.19912,38.82189],[141.19877,38.82389],[141.17984,38.84395],[141.17952,38.85128],[141.17499,38.85218],[141.17086,38.85444],[141.16435,38.85647],[141.15694,38.86133],[141.15232,38.86237],[141.15308,38.86684],[141.1482,38.87105],[141.14725,38.87382],[141.14299,38.8797],[141.14258,38.88498],[141.14038,38.88549],[141.1375,38.88466],[141.13501,38.88538],[141.13338,38.88682],[141.13068,38.89965],[141.12926,38.90068],[141.13067,38.90612],[141.13203,38.91982],[141.13558,38.92684],[141.1224,38.93102],[141.11795,38.93141],[141.11895,38.93727],[141.07826,38.94148],[141.0685,38.94012],[141.0624,38.94108],[141.05354,38.94524],[141.03988,38.94958],[141.0266,38.94944],[141.02215,38.95174],[141.02049,38.95392],[141.01359,38.95902],[141.0124,38.96096],[141.00182,38.96564],[140.9974,38.97001],[140.99369,38.97204],[140.98759,38.97407],[140.98433,38.97418],[140.98084,38.9719],[140.97788,38.97127],[140.96965,38.97281],[140.95438,38.97302],[140.93741,38.97492],[140.93339,38.97449],[140.92818,38.97637],[140.92503,38.9766],[140.91254,38.98422],[140.91147,38.98694],[140.90754,38.98876],[140.90666,38.99053],[140.89962,38.99622],[140.89515,39.00665],[140.88951,39.01119],[140.8788,39.01607],[140.86662,39.0127],[140.86553,39.00814],[140.86165,39.00499],[140.8591,39.0041],[140.84598,39.00489],[140.84444,39.00566],[140.84512,39.00448],[140.84365,39.0055],[140.84408,39.00429],[140.84299,39.0052],[140.83987,39.00517],[140.83887,39.00389],[140.83711,39.00369],[140.8354,39.00218],[140.83198,38.99643],[140.83214,38.99561],[140.82784,38.99434],[140.82755,38.99308],[140.82618,38.99309],[140.82187,38.9956],[140.82509,38.99576],[140.82681,38.99691],[140.82769,38.99762],[140.827,38.99917],[140.82223,38.99989],[140.81921,39.00257],[140.81744,39.00124],[140.81498,39.00122],[140.81411,39.00148],[140.81305,39.00353],[140.80976,39.00275],[140.80522,39.00445],[140.80212,39.00405],[140.79985,39.0047],[140.79979,39.003],[140.7972,39.0024],[140.79749,38.99992],[140.79405,38.9989],[140.79224,38.99719],[140.79167,38.99588],[140.79273,38.99402],[140.79122,38.99438],[140.78846,38.99267],[140.78507,38.99222],[140.78306,38.99131],[140.78323,38.99051],[140.78248,38.99157],[140.7852,38.99642],[140.78286,38.99657],[140.78221,38.995],[140.78038,38.99458],[140.77891,38.99281],[140.77911,38.99068],[140.77717,38.99279],[140.77641,38.99029],[140.77458,38.98984],[140.77363,38.98655],[140.77176,38.98504],[140.7729,38.98386],[140.7716,38.98315],[140.77247,38.98205],[140.77208,38.98106],[140.7692,38.97948],[140.76673,38.98103],[140.76662,38.97932],[140.76556,38.97933],[140.76607,38.98026],[140.7641,38.98553],[140.76413,38.98784],[140.76304,38.98911],[140.76549,38.99409],[140.75969,38.9942],[140.75533,38.99654],[140.7532,38.99674],[140.75253,38.99818],[140.75067,38.99817],[140.75176,39.00044],[140.75037,39.0005],[140.75055,39.00258],[140.74605,39.00149],[140.74211,39.00361],[140.73716,39.00873],[140.73484,39.00884],[140.73392,39.008],[140.73399,39.00684],[140.73198,39.0061],[140.72561,39.00916],[140.72523,39.00873],[140.72628,39.00783],[140.72575,39.00762],[140.72314,39.01049],[140.72698,39.01328],[140.72636,39.01505],[140.72796,39.01993],[140.73222,39.02335],[140.73522,39.03459],[140.73435,39.04001],[140.72448,39.04793],[140.72296,39.04991],[140.72266,39.0523],[140.7239,39.05514],[140.7235,39.05791],[140.72166,39.06355],[140.71983,39.06499],[140.72004,39.07015],[140.71857,39.07251],[140.71763,39.07666],[140.71828,39.08508],[140.72007,39.08725],[140.71952,39.08863],[140.71765,39.08959],[140.72012,39.09254],[140.72341,39.09903],[140.72125,39.10535],[140.72094,39.10902],[140.7182,39.11167],[140.71686,39.11524],[140.71692,39.11692],[140.71844,39.11921],[140.71842,39.12547],[140.71575,39.13147],[140.71374,39.13368],[140.7133,39.139],[140.71409,39.1408],[140.71299,39.14368],[140.71393,39.14877],[140.71499,39.1498],[140.71471,39.15447],[140.7137,39.15559],[140.71319,39.15962],[140.71336,39.16348],[140.71677,39.16858],[140.71558,39.17078],[140.70884,39.17479],[140.6995,39.17553],[140.69377,39.17475],[140.69039,39.1754],[140.68227,39.17432],[140.67793,39.17237],[140.66939,39.1732],[140.66494,39.17638],[140.65979,39.17738],[140.64916,39.18206],[140.63752,39.18422],[140.62739,39.18857],[140.62231,39.18859],[140.61912,39.19045],[140.61773,39.19352],[140.61072,39.19751],[140.59828,39.2004],[140.59043,39.20006],[140.58189,39.20205],[140.57634,39.20491],[140.57164,39.20591],[140.56908,39.20566],[140.56411,39.20344],[140.55569,39.20354],[140.55219,39.2017],[140.53765,39.20037],[140.53614,39.20121],[140.52855,39.21282],[140.52444,39.21539],[140.516,39.21854],[140.51795,39.22367],[140.52551,39.23276],[140.53133,39.2382],[140.53255,39.24557],[140.54011,39.25559],[140.54176,39.25942],[140.54574,39.26222],[140.55345,39.27294],[140.55629,39.27546],[140.55831,39.27961],[140.5642,39.29879]],[[140.52122,39.22719],[140.5189,39.22476]],[[141.08269,38.94105],[141.11906,38.93735],[141.11806,38.93138]]]}}]}