{"type":"FeatureCollection","features":[{"type":"Feature","properties":{"route_id":"294","route_number":294,"name":"国道294号","source":"OpenStreetMap contributors (ODbL)","osm_relations":[49515,10543243,10543244,10543245,10543246,10543247,10543248,10543249,10543250,10543251,10543252,10543253,10543254,10543255,10543256]},"geometry":{"type":"MultiLineString","coordinates":[[[140.13652,36.93826],[140.14432,36.94434],[140.15117,36.9518],[140.15628,36.95424],[140.15508,36.95848],[140.15586,36.96389],[140.15821,36.96804],[140.16018,36.97471],[140.15964,36.98655],[140.16275,36.99185],[140.16686,36.99448],[140.1702,36.99874],[140.17515,37.00201],[140.17664,37.00512],[140.17645,37.00866],[140.17767,37.01286],[140.17838,37.02086],[140.17654,37.027],[140.17336,37.03131],[140.17021,37.04261],[140.17033,37.05316],[140.17243,37.05529],[140.17693,37.05733],[140.18326,37.067],[140.18741,37.07038],[140.19075,37.07522],[140.19137,37.07958],[140.19271,37.08201],[140.19607,37.0832],[140.19695,37.08482],[140.19854,37.08551],[140.19897,37.08716],[140.19719,37.09037],[140.19801,37.09243],[140.19691,37.10104],[140.19772,37.10284],[140.19793,37.10739],[140.19706,37.1105],[140.20077,37.11451],[140.20814,37.11105],[140.21479,37.11769],[140.22121,37.13082],[140.21882,37.13871],[140.21819,37.14518],[140.21873,37.14694],[140.2172,37.15078],[140.21863,37.15693],[140.21682,37.16025],[140.21861,37.16584],[140.22109,37.16799],[140.21951,37.17121],[140.21605,37.17451],[140.21646,37.182],[140.22043,37.18383],[140.22367,37.18696],[140.22716,37.18782],[140.22799,37.19478],[140.22957,37.19669],[140.23806,37.1995],[140.24579,37.20078],[140.24985,37.20457],[140.25097,37.20732],[140.24944,37.21656],[140.25163,37.22064],[140.24838,37.22398],[140.24462,37.22424],[140.24378,37.22493],[140.24385,37.22746],[140.24538,37.22852],[140.24676,37.23101],[140.24653,37.23484],[140.24503,37.23713],[140.24598,37.23983],[140.24492,37.24249],[140.246,37.24705],[140.23723,37.25126],[140.23476,37.25521],[140.22487,37.25859],[140.21317,37.25854],[140.19584,37.26125],[140.18674,37.26347],[140.17545,37.26886],[140.16634,37.27987],[140.16661,37.28083],[140.16922,37.2826],[140.17085,37.28861],[140.16631,37.28948],[140.15729,37.3],[140.15391,37.3003],[140.15123,37.30295],[140.14628,37.30538],[140.14473,37.30707],[140.14387,37.30964],[140.14073,37.31042],[140.13887,37.31535],[140.13248,37.32218],[140.1232,37.32713],[140.12136,37.32996],[140.1205,37.33314],[140.12154,37.33777],[140.12049,37.34026],[140.12135,37.34284],[140.12078,37.34483],[140.1182,37.34751],[140.11164,37.35098],[140.10824,37.36087],[140.10862,37.36293],[140.11062,37.3656],[140.1109,37.37082],[140.11214,37.37436],[140.11759,37.38179],[140.11146,37.38368],[140.10976,37.38556],[140.10764,37.3865],[140.1037,37.38573],[140.09251,37.38581],[140.08814,37.39015],[140.08892,37.39268],[140.07876,37.39446],[140.07303,37.39683],[140.07239,37.39943],[140.06856,37.39971],[140.0684,37.40698],[140.06221,37.40791],[140.05262,37.4125],[140.04488,37.41485],[140.02811,37.42616],[140.02285,37.43243],[140.02213,37.43656],[140.01968,37.44243],[140.02061,37.45121],[140.0188,37.4545],[140.01478,37.45652],[140.01371,37.45805],[140.01194,37.4754],[140.0089,37.48727],[140.0083,37.49279],[140.0049,37.49428],[140.00091,37.49828],[139.99648,37.50041],[139.99483,37.50342],[139.99538,37.5056],[139.98829,37.51391],[139.98894,37.51639],[139.98866,37.51992],[139.98301,37.52255],[139.98103,37.52604],[139.97952,37.53181],[139.97982,37.53809],[139.97829,37.53947],[139.97364,37.5408],[139.96887,37.54817],[139.9549,37.55459],[139.95015,37.55456],[139.94587,37.55322],[139.94479,37.5513],[139.94474,37.5407],[139.94339,37.53701],[139.94552,37.52441],[139.94369,37.52056],[139.94146,37.51857],[139.93852,37.51772],[139.93314,37.51784]],[[140.00059,36.42726],[139.99064,36.42799],[139.9862,36.42607],[139.96942,36.39758],[139.98238,36.42049],[139.9866,36.42653],[139.99064,36.42806],[139.99855,36.42714],[140.00152,36.42753],[140.0196,36.4382],[140.02825,36.44205],[140.0318,36.44595],[140.0332,36.45384],[140.03778,36.45649],[140.0409,36.45614],[140.04434,36.45716],[140.05241,36.45697],[140.05537,36.45765],[140.06442,36.45551],[140.06682,36.45575],[140.07296,36.45882],[140.0776,36.45924],[140.07841,36.46267],[140.08584,36.46245],[140.08949,36.46873],[140.09415,36.46848],[140.09772,36.46731],[140.09768,36.47488],[140.09642,36.47725],[140.09797,36.4906],[140.10239,36.49074],[140.10465,36.49267],[140.10475,36.49699],[140.10737,36.50258],[140.11238,36.50733],[140.11901,36.50933],[140.12547,36.51252],[140.12954,36.51749],[140.13293,36.51887],[140.13849,36.5187],[140.14069,36.5226],[140.14753,36.52561],[140.1522,36.52606],[140.15343,36.52964],[140.15775,36.53129],[140.1587,36.53238],[140.15838,36.53488],[140.16065,36.5371],[140.16078,36.53941],[140.16166,36.54063],[140.15892,36.5438],[140.16052,36.54759],[140.15449,36.55151],[140.1526,36.55427],[140.15389,36.5569],[140.14796,36.56732],[140.14476,36.57073],[140.14542,36.57242],[140.14315,36.57457],[140.14493,36.57767],[140.14311,36.58198],[140.14479,36.58288],[140.14743,36.58238],[140.1493,36.58333],[140.15079,36.58806],[140.14784,36.59471],[140.14846,36.59777],[140.15104,36.60119],[140.151,36.60429],[140.15342,36.60748],[140.15557,36.61522],[140.15527,36.61787],[140.15376,36.61946],[140.15301,36.6226],[140.15368,36.62756],[140.15262,36.63092],[140.15134,36.63188],[140.15146,36.63362],[140.15442,36.64309],[140.15437,36.64668],[140.15946,36.65395],[140.16079,36.65871],[140.15856,36.66664],[140.15007,36.67394],[140.14887,36.67651],[140.14989,36.68204],[140.14905,36.68615],[140.15142,36.68775],[140.15263,36.69133],[140.15393,36.69842],[140.15345,36.70142],[140.15506,36.70813],[140.15179,36.71497],[140.14733,36.71845],[140.14651,36.72244],[140.14267,36.7261],[140.13979,36.73362],[140.13283,36.74588],[140.13189,36.75146],[140.13626,36.75062],[140.13625,36.75967],[140.13484,36.76736],[140.13329,36.76821],[140.12701,36.76731],[140.1253,36.7744],[140.11832,36.77851],[140.11691,36.78297],[140.11664,36.78773],[140.11515,36.79147],[140.11618,36.79343],[140.12211,36.7969],[140.12315,36.79957],[140.12225,36.81477],[140.12355,36.82326],[140.12044,36.83408],[140.12101,36.8399],[140.11841,36.84726],[140.11936,36.85119],[140.11655,36.85753],[140.11717,36.86008],[140.11683,36.87018],[140.11999,36.87554],[140.11932,36.8817],[140.11781,36.8848],[140.11847,36.88744],[140.11855,36.90062],[140.12188,36.90562],[140.12215,36.91127],[140.12376,36.91589],[140.13038,36.92402],[140.13309,36.92932],[140.1341,36.93469],[140.13559,36.93741]],[[139.98384,35.97226],[139.98503,35.96415],[139.98874,35.95383],[139.99724,35.93602],[139.99962,35.93425],[140.00498,35.93281],[140.01909,35.927],[140.00472,35.93283],[139.99952,35.93421],[139.99697,35.93626],[139.98888,35.9532],[139.98505,35.96377],[139.98018,35.98904],[139.9797,35.99908],[139.98955,36.00681],[139.99057,36.00884],[139.99049,36.01324],[139.99127,36.01521],[139.99994,36.02211],[140.00108,36.02527],[140.00064,36.02869],[140.00257,36.03226],[140.00278,36.03615],[139.99973,36.04081],[139.99873,36.04632],[139.98987,36.06715],[139.98405,36.08462],[139.98583,36.09182],[139.98202,36.12773],[139.99484,36.15676],[139.99546,36.16094],[139.99208,36.17173],[139.98676,36.19507],[139.98406,36.20145],[139.98639,36.22119],[139.98236,36.25734],[139.98378,36.26345],[139.97821,36.27642],[139.97103,36.28577],[139.97079,36.29438],[139.9667,36.30412],[139.96662,36.30858],[139.97159,36.33733],[139.9687,36.34698],[139.969,36.35474],[139.96591,36.36232],[139.96909,36.35489],[139.96881,36.34695],[139.97168,36.3376],[139.96676,36.30876],[139.9668,36.30413],[139.97091,36.29437],[139.9706,36.28809],[139.9713,36.28537],[139.97824,36.27661],[139.98393,36.26332],[139.98246,36.25754],[139.98651,36.22111],[139.98423,36.20105],[139.98686,36.19509],[139.9922,36.17174],[139.99558,36.16094],[139.99502,36.15692],[139.98218,36.12809],[139.98594,36.09143],[139.98416,36.0846],[139.98976,36.06777],[139.99863,36.04693],[139.99985,36.04085],[140.00292,36.03619],[140.00267,36.03224],[140.00073,36.02867],[140.00115,36.02496],[139.9999,36.02185],[139.99132,36.01511],[139.99059,36.01307],[139.99067,36.00885],[139.98957,36.0067],[139.97967,35.99871],[139.9804,35.98838],[139.98384,35.97226]],[[140.01909,35.927],[140.03,35.92314],[140.04416,35.91655],[140.04786,35.91201],[140.0538,35.90707],[140.05922,35.90544],[140.06408,35.90243],[140.05238,35.88621],[140.03955,35.87939],[140.02721,35.87723],[139.99336,35.87725],[139.9815,35.87511],[139.98716,35.87619]],[[139.99787,35.8774],[140.02721,35.87731],[140.04002,35.87966],[140.0522,35.88618],[140.064,35.90248]],[[139.93314,37.51794],[139.93915,37.5179],[139.94287,37.51977],[139.94553,37.52491],[139.9446,37.52868]],[[139.96591,36.36232],[139.96381,36.37233],[139.96429,36.38546],[139.96552,36.39042],[139.96942,36.39758]],[[139.97501,35.87038],[139.97854,35.87325],[139.97517,35.87024]],[[139.97854,35.87325],[139.9815,35.87511]],[[140.05596,35.90614],[140.0536,35.90713],[140.04786,35.91201]]]}}]}