{"type":"FeatureCollection","features":[{"type":"Feature","properties":{"route_id":"58","route_number":58,"name":"国道58号","source":"OpenStreetMap contributors (ODbL)","osm_relations":[2972060,2972061,2972062,2972063,2972064,2972065,8369985,12439006,13506213]},"geometry":{"type":"MultiLineString","coordinates":[[[127.80525,26.44198],[127.80764,26.44573],[127.80561,26.44332],[127.80432,26.43876],[127.80164,26.43649],[127.79696,26.43562],[127.79272,26.43724],[127.78864,26.43483],[127.78114,26.43323],[127.77544,26.42748],[127.77086,26.41792],[127.76515,26.41512],[127.75978,26.40939],[127.75847,26.39924],[127.7559,26.39457],[127.75474,26.38714],[127.7561,26.38158],[127.75497,26.37741],[127.75597,26.37091],[127.75583,26.36501],[127.75677,26.36288],[127.75376,26.3594],[127.74716,26.35811],[127.74551,26.35524],[127.74726,26.34625],[127.75129,26.33805],[127.75204,26.32908],[127.75902,26.32052],[127.764,26.30871],[127.75987,26.29389],[127.75551,26.28589],[127.75323,26.28315],[127.74203,26.27563],[127.73728,26.26992],[127.72441,26.26642],[127.71841,26.26741],[127.71535,26.26617],[127.71002,26.25807],[127.70362,26.25194],[127.69239,26.24365],[127.68809,26.23855],[127.68574,26.23356],[127.68636,26.22928],[127.68571,26.22629],[127.68227,26.21989],[127.67587,26.21331],[127.67445,26.20778]],[[130.55373,31.59501],[130.574,31.59316],[130.5777,31.59118],[130.71541,31.27453],[130.71958,31.25783],[130.71988,31.24113],[130.71808,31.22858],[130.71078,31.20825],[130.69164,31.17418],[130.64941,31.07617],[130.64667,30.99792],[130.65079,30.98938],[130.98118,30.74784],[130.98885,30.73669],[130.9923,30.73418],[130.9943,30.73537],[130.99562,30.7328],[130.99537,30.72867],[130.99678,30.726],[130.99126,30.72243],[130.98578,30.72153],[130.98168,30.71686],[130.97828,30.71532],[130.97645,30.71155],[130.97671,30.70775],[130.97264,30.70696],[130.97115,30.70544],[130.97006,30.70265],[130.96701,30.69898],[130.96098,30.68667],[130.95344,30.6836],[130.95156,30.68136],[130.95327,30.67755],[130.95147,30.67447],[130.94833,30.67187],[130.94864,30.66832],[130.94779,30.66455],[130.94563,30.66171],[130.94581,30.65744],[130.94355,30.65383],[130.94328,30.64819],[130.94692,30.64257],[130.94757,30.63772],[130.9507,30.63358],[130.95088,30.62886],[130.95003,30.62437],[130.95122,30.61492],[130.94996,30.61025],[130.94989,30.60612],[130.9516,30.60125],[130.95082,30.59706],[130.95327,30.59385],[130.95533,30.58894],[130.95449,30.5853],[130.95815,30.57878],[130.95697,30.57062],[130.9582,30.56849],[130.96136,30.56593],[130.96133,30.56021],[130.96364,30.55382],[130.95978,30.5486],[130.96001,30.5457],[130.95925,30.54372],[130.96003,30.53824],[130.95752,30.53218],[130.95808,30.52694],[130.95143,30.52067],[130.95021,30.51653],[130.94364,30.50749],[130.94425,30.49998],[130.94552,30.49766],[130.94548,30.49409],[130.94145,30.48338],[130.93919,30.47951],[130.93821,30.47556],[130.93311,30.47055],[130.92616,30.46655],[130.92364,30.45991],[130.92197,30.44729],[130.9185,30.44464],[130.91381,30.43812],[130.90699,30.43308],[130.90234,30.42151],[130.90324,30.41804],[130.89878,30.41754],[130.89617,30.41957],[130.89501,30.42213],[130.89315,30.42389],[130.88606,30.42534],[130.88437,30.42931],[130.88644,30.43434],[130.88378,30.43915],[130.87854,30.44051],[130.87284,30.44565],[130.86712,30.44679],[130.86384,30.44895],[130.85887,30.46113],[130.8597,30.46466],[130.86287,30.46759],[130.8662,30.46921],[130.86642,30.47104],[130.86381,30.47171],[130.8499,30.47099],[130.84781,30.46998],[130.84592,30.46754],[129.64502,28.51305],[129.64331,28.50332],[129.64451,28.49713],[129.66878,28.45454],[129.66962,28.45391],[129.67138,28.45439],[129.67358,28.45208],[129.67688,28.45066],[129.67804,28.45186],[129.67335,28.44636],[129.67352,28.44421],[129.67192,28.44103],[129.66813,28.43888],[129.66431,28.43822],[129.66202,28.43597],[129.66145,28.43386],[129.65926,28.43323],[129.65875,28.42979],[129.65744,28.42843],[129.65492,28.42257],[129.65191,28.42171],[129.64992,28.42527],[129.64999,28.42715],[129.64579,28.42746],[129.64399,28.42349],[129.64171,28.42173],[129.64188,28.41885],[129.63928,28.41616],[129.63662,28.41555],[129.63334,28.41298],[129.62552,28.41287],[129.61853,28.40844],[129.61308,28.41043],[129.60793,28.41109],[129.60573,28.41316],[129.60308,28.41306],[129.60095,28.41421],[129.59739,28.41428],[129.59411,28.41253],[129.58981,28.41319],[129.58896,28.41035],[129.58725,28.40828],[129.58719,28.40497],[129.58565,28.40215],[129.58774,28.39826],[129.58444,28.393],[129.5842,28.38933],[129.58531,28.38376],[129.58396,28.38265],[129.57911,28.38142],[129.57069,28.38344],[129.56955,28.38229],[129.5687,28.37771],[129.56603,28.37555],[129.55944,28.37495],[129.55674,28.3739],[129.55035,28.37449],[129.54079,28.38114],[129.54,28.38298],[129.54043,28.38804],[129.53988,28.39003],[129.53567,28.39418],[129.53195,28.39602],[129.52899,28.39276],[129.52478,28.38986],[129.52137,28.38898],[129.50249,28.37779],[129.49708,28.377],[129.50011,28.36544],[129.49973,28.36087],[129.4988,28.35887],[129.49446,28.35566],[129.48952,28.3412],[129.49107,28.33882],[129.49683,28.33616],[129.49711,28.33415],[129.49475,28.33221],[129.4933,28.32791],[129.49337,28.32566],[129.49166,28.32299],[129.48935,28.32151],[129.48558,28.31214],[129.47933,28.30191],[129.47162,28.29543],[129.47009,28.29551],[129.4631,28.29898],[129.45716,28.29585],[129.45014,28.29588],[129.44724,28.29349],[129.44362,28.29197],[129.44342,28.28858],[129.44197,28.28565],[129.43356,28.28021],[129.41881,28.27659],[129.41291,28.27438],[129.41038,28.27128],[129.4095,28.26848],[129.40746,28.26702],[129.40721,28.26256],[129.40818,28.25825],[129.40539,28.25558],[129.40199,28.25455],[129.3982,28.255],[129.39592,28.25399],[129.38794,28.25494],[129.38347,28.25393],[129.37433,28.2458],[129.37054,28.23934],[129.3742,28.236],[129.3723,28.23322],[129.36893,28.23362],[129.36648,28.2306],[129.36643,28.22881],[129.36805,28.22853],[129.36732,28.22707],[129.36789,28.2255],[129.3669,28.22428],[129.36596,28.2243],[129.36436,28.22082],[129.36714,28.21656],[129.36607,28.21096],[129.3697,28.20098],[129.37383,28.18153],[129.37313,28.17851],[129.36823,28.17447],[129.36502,28.17044],[129.35489,28.17448],[129.35158,28.17488],[129.3476,28.17437],[129.3464,28.17338],[129.347,28.17207],[129.34272,28.17001],[129.33618,28.16994],[129.33351,28.16701],[129.32822,28.16384],[129.3242,28.15946],[129.31641,28.15593],[129.31354,28.15292],[129.31369,28.15016],[129.31197,28.14365],[129.3108,28.13331],[129.35595,28.11635],[129.36745,28.09924],[129.36264,28.05017],[129.02344,27.64826],[128.47549,27.00897],[128.29263,26.84752],[128.29209,26.84116],[128.28841,26.83876],[128.28656,26.83597],[128.28711,26.83329],[128.28424,26.83103],[128.28088,26.8324],[128.27834,26.83073],[128.27279,26.83092],[128.26559,26.83882],[128.26206,26.84069],[128.26329,26.84305],[128.26339,26.84651],[128.25854,26.84852],[128.25711,26.8513],[128.2596,26.85421],[128.2612,26.85961],[128.25914,26.864],[128.25608,26.86724],[128.25362,26.86768],[128.24707,26.86315],[128.24526,26.85961],[128.2451,26.85769],[128.24655,26.85621],[128.25103,26.85498],[128.25264,26.85356],[128.25385,26.84929],[128.25338,26.84255],[128.25258,26.83984],[128.24694,26.83244],[128.24555,26.82729],[128.24299,26.82289],[128.2396,26.82015],[128.23426,26.81155],[128.23396,26.80822],[128.23093,26.80396],[128.23102,26.802],[128.23245,26.80002],[128.23234,26.79768],[128.22618,26.79673],[128.22357,26.7885],[128.22091,26.78723],[128.2188,26.78411],[128.21433,26.78164],[128.20949,26.77662],[128.20482,26.77459],[128.20537,26.76984],[128.20381,26.76623],[128.19609,26.76472],[128.18993,26.7608],[128.18772,26.75357],[128.18466,26.74966],[128.17648,26.7428],[128.16814,26.72953],[128.15648,26.7185],[128.14694,26.71354],[128.14536,26.7095]],[[127.67432,26.20781],[127.67581,26.21347],[127.68216,26.21997],[127.68551,26.22618],[127.68621,26.22882],[127.68575,26.23411],[127.68796,26.23852],[127.69217,26.24355],[127.70342,26.25198],[127.71036,26.2586],[127.71619,26.26693],[127.71871,26.26752],[127.7246,26.26656],[127.73782,26.27038],[127.74213,26.27587],[127.75353,26.28357],[127.75975,26.29391],[127.7638,26.30887],[127.75878,26.32067],[127.75191,26.32911],[127.7512,26.33791],[127.7472,26.34601],[127.74537,26.35505],[127.74706,26.3582],[127.75373,26.35953],[127.75665,26.36295],[127.75573,26.36492],[127.75588,26.37058],[127.75476,26.3772],[127.756,26.38149],[127.75458,26.3874],[127.75584,26.39472],[127.75834,26.39913],[127.76021,26.41051],[127.76529,26.41533],[127.77074,26.41793],[127.77543,26.42762],[127.78131,26.43344],[127.7885,26.43488],[127.79251,26.4373],[127.79751,26.4357],[127.80088,26.43626],[127.80326,26.43769],[127.80467,26.43957],[127.80516,26.44206],[127.80425,26.44497],[127.80418,26.44925],[127.80652,26.45323],[127.8108,26.45724],[127.81121,26.4588],[127.81359,26.46131],[127.82295,26.46653],[127.82697,26.46767],[127.83106,26.47067],[127.83551,26.47648],[127.84,26.47736],[127.84523,26.48038],[127.85112,26.48228],[127.85347,26.48505],[127.85339,26.49031],[127.85463,26.49248],[127.86313,26.49941],[127.87096,26.50446],[127.87288,26.50481],[127.87968,26.50362],[127.87878,26.50567],[127.87264,26.50871],[127.86831,26.50922],[127.864,26.50598],[127.85851,26.49982],[127.85089,26.49695],[127.8492,26.49291],[127.84538,26.48788],[127.84636,26.48088],[127.85145,26.48253]],[[127.70696,26.27207],[127.71094,26.27347],[127.71885,26.27344],[127.72328,26.27257],[127.72652,26.27322],[127.73309,26.27825],[127.7409,26.2806],[127.74544,26.28428],[127.75885,26.29252]],[[127.75883,26.29226],[127.75274,26.28794],[127.74616,26.28452],[127.74076,26.28029],[127.7334,26.27821],[127.72695,26.27352],[127.72588,26.27041],[127.72665,26.26696]],[[127.72651,26.26692],[127.72579,26.27041],[127.7267,26.27319]],[[127.6736,26.22293],[127.67265,26.22377],[127.67233,26.22238],[127.66487,26.21967],[127.66041,26.21546],[127.6538,26.21185],[127.6522,26.21225],[127.65376,26.21196],[127.66034,26.21556],[127.66474,26.21971],[127.67015,26.22166],[127.67221,26.22399],[127.67371,26.22299]],[[127.97704,26.5589],[127.98582,26.56516],[127.99038,26.57496],[127.99854,26.58467],[128.00023,26.59622],[127.99913,26.60497],[127.99823,26.60805],[127.99394,26.60869],[127.98926,26.6077],[127.98417,26.60841],[127.96871,26.60083],[127.96681,26.59905],[127.96627,26.59685],[127.96713,26.59427],[127.97751,26.59086],[127.98248,26.5878],[127.98445,26.58418],[127.98528,26.57983],[127.98398,26.57509],[127.98133,26.57179],[127.97978,26.56471],[127.9758,26.55836],[127.9707,26.55298],[127.96734,26.55091],[127.9653,26.54517],[127.96509,26.54189],[127.96257,26.54028],[127.96162,26.54049],[127.96334,26.54046],[127.96474,26.54204],[127.96723,26.55091],[127.9706,26.55305],[127.97268,26.55595],[127.97572,26.55841],[127.97967,26.56475],[127.98123,26.57181],[127.98408,26.57553],[127.98517,26.57981],[127.98413,26.58476],[127.98211,26.58799],[127.97748,26.59078],[127.96677,26.59444],[127.96618,26.59743],[127.96758,26.60015],[127.98382,26.60845],[127.98922,26.6078],[127.99366,26.60877],[127.9995,26.60837],[128.00263,26.61185],[128.00776,26.61538],[128.01494,26.61691],[128.02105,26.62347],[128.0386,26.63574],[128.04093,26.63601],[128.04832,26.63429],[128.05076,26.63443],[128.05916,26.63748],[128.06291,26.64036],[128.07147,26.64417],[128.07924,26.64424],[128.08343,26.64667],[128.0847,26.64955],[128.08783,26.65003],[128.08922,26.65235],[128.09115,26.65326],[128.09606,26.66072],[128.10026,26.66065],[128.10264,26.66262],[128.10521,26.6719],[128.10484,26.67417],[128.10303,26.67593],[128.10094,26.67993],[128.10642,26.68584],[128.10641,26.68899],[128.11296,26.69535],[128.11497,26.69975],[128.11677,26.7018],[128.11886,26.70312],[128.12457,26.70283],[128.12962,26.70442],[128.1335,26.70464],[128.14352,26.70825],[128.14592,26.71092]],[[127.96162,26.54049],[127.95959,26.5416],[127.95865,26.54507],[127.95427,26.54512],[127.95247,26.54432],[127.94925,26.5391],[127.94451,26.53521],[127.94228,26.53466],[127.93945,26.53594],[127.9336,26.53619],[127.93127,26.53413],[127.92997,26.53],[127.92635,26.52658],[127.9225,26.52435],[127.91961,26.51915],[127.91919,26.51683],[127.91755,26.51528],[127.915,26.51636],[127.91095,26.51649],[127.90739,26.51822],[127.89941,26.51158],[127.89469,26.51222],[127.89286,26.51149],[127.8918,26.50752],[127.89011,26.50549],[127.89028,26.5031],[127.88825,26.50125],[127.88602,26.50095],[127.87968,26.50362]],[[128.14239,26.70782],[128.14432,26.70778],[128.14522,26.7096]],[[127.84638,26.48078],[127.84016,26.47763],[127.83904,26.47611],[127.83808,26.47206],[127.82746,26.46422],[127.81786,26.45004],[127.81498,26.44822],[127.80764,26.44573]],[[127.7097,26.27329],[127.70706,26.27202]],[[127.84,26.47736],[127.8384,26.47233],[127.83429,26.46941]],[[127.99822,26.60814],[128.00011,26.60889],[128.00263,26.61185]]]}}]}