{"type":"FeatureCollection","features":[{"type":"Feature","properties":{"route_id":"373","route_number":373,"name":"国道373号","source":"OpenStreetMap contributors (ODbL)","osm_relations":[8428316,10001382]},"geometry":{"type":"MultiLineString","coordinates":[[[134.33473,35.2047],[134.33457,35.20577],[134.33575,35.20609],[134.33464,35.20499],[134.33517,35.19545],[134.33763,35.18695],[134.33535,35.18121],[134.3363,35.17685],[134.3359,35.16651],[134.33217,35.15485],[134.32988,35.15071],[134.32546,35.15022],[134.32222,35.14617],[134.32149,35.14371],[134.32588,35.13403],[134.32681,35.11753],[134.32634,35.11081],[134.32742,35.11051],[134.33129,35.11358],[134.34023,35.11138],[134.34278,35.10997],[134.34773,35.10999],[134.34968,35.10792],[134.35677,35.10767],[134.36208,35.10353],[134.36283,35.09833],[134.36081,35.09442],[134.36237,35.09311],[134.35793,35.08287],[134.36021,35.07962],[134.36005,35.07869],[134.35879,35.07804],[134.35951,35.07457],[134.35724,35.07392],[134.35707,35.07303],[134.3608,35.07094],[134.35971,35.06907],[134.36203,35.06634],[134.36643,35.0579],[134.36538,35.05254],[134.36924,35.04794],[134.36985,35.04457],[134.36927,35.04047],[134.36746,35.03614],[134.36773,35.03331],[134.36598,35.03037],[134.36967,35.0286],[134.37097,35.02562],[134.3715,35.02126],[134.36938,35.01318],[134.36561,35.00838],[134.36326,35.00666],[134.36187,35.00802],[134.35558,35.00752],[134.35336,35.00576],[134.35207,35.00082],[134.35245,34.99345],[134.34321,34.98219],[134.34089,34.98173],[134.33853,34.98228],[134.33074,34.98607],[134.32654,34.98459],[134.32476,34.98199],[134.32759,34.97721],[134.33374,34.97146],[134.33481,34.96919],[134.33905,34.96753],[134.34143,34.96264],[134.34157,34.95656],[134.34276,34.95521],[134.34313,34.95318],[134.34664,34.94902],[134.34591,34.94739],[134.3417,34.94371],[134.3402,34.94107],[134.34049,34.93911],[134.3437,34.93452],[134.34596,34.92919],[134.35401,34.92273],[134.35647,34.91972],[134.35565,34.91342],[134.36099,34.91098],[134.36329,34.90797],[134.36232,34.90599],[134.35731,34.90548],[134.35616,34.90199],[134.358,34.89712],[134.35746,34.89484],[134.35507,34.89199],[134.3549,34.88951],[134.35767,34.88442],[134.35715,34.87792],[134.35786,34.87558],[134.3651,34.86424],[134.37593,34.85461],[134.38391,34.84354],[134.38414,34.83685],[134.38627,34.83225],[134.3862,34.82844]],[[134.19504,35.31537],[134.19454,35.3163],[134.20104,35.30851],[134.202,35.30523],[134.20815,35.30183],[134.21056,35.298],[134.22743,35.29025],[134.23027,35.28476],[134.2307,35.28213],[134.22993,35.28017],[134.22425,35.27561],[134.22412,35.27297],[134.23013,35.26775],[134.23599,35.265],[134.24389,35.26367],[134.25088,35.26083],[134.25394,35.26146],[134.25793,35.2594],[134.26223,35.26099],[134.26631,35.25964],[134.27088,35.26156],[134.27448,35.26125],[134.28142,35.25588],[134.28432,35.2509],[134.28639,35.24962],[134.28534,35.24493],[134.28717,35.24062],[134.28706,35.23558],[134.28832,35.23386],[134.29163,35.23201],[134.29252,35.23068],[134.29517,35.23153],[134.30135,35.22999],[134.30446,35.22785],[134.30888,35.22686],[134.31489,35.22272],[134.32322,35.22006],[134.32761,35.21606],[134.33457,35.20577]],[[134.20709,35.42485],[134.20457,35.43403],[134.20529,35.43644],[134.20501,35.43496],[134.20735,35.42652],[134.20518,35.41972],[134.20688,35.40903],[134.20039,35.38678],[134.20261,35.38241],[134.20985,35.37857],[134.21435,35.37501],[134.21528,35.37263],[134.21549,35.36847],[134.21272,35.36091],[134.20955,35.35903],[134.20425,35.35215],[134.2042,35.35035],[134.20593,35.34766],[134.20583,35.34528],[134.19997,35.33819],[134.20076,35.33415],[134.19942,35.33284],[134.19731,35.32532],[134.19452,35.32043],[134.19454,35.3163]],[[134.2147,35.46467],[134.2151,35.46688],[134.21731,35.47033],[134.21695,35.475],[134.21778,35.4781],[134.20949,35.47951],[134.2063,35.48166],[134.20139,35.50284],[134.20248,35.51939],[134.20733,35.51937],[134.21619,35.52215],[134.20707,35.51941],[134.20237,35.5195],[134.20131,35.50167],[134.20566,35.48275],[134.20696,35.48071],[134.20888,35.47962],[134.21772,35.47793],[134.21683,35.47506],[134.21724,35.47055],[134.21466,35.46563],[134.21527,35.45689],[134.2144,35.45055],[134.21079,35.44489],[134.20934,35.43991],[134.20529,35.43644]],[[134.2218,35.51689],[134.21785,35.51908],[134.21634,35.52183],[134.21789,35.51915],[134.22959,35.51063],[134.23724,35.5033],[134.22832,35.49604],[134.22475,35.49663],[134.22308,35.49514],[134.22288,35.49045],[134.22166,35.4891],[134.21778,35.4781]],[[134.32387,35.21918],[134.3224,35.21907],[134.32138,35.22029]]]}}]}