{"type":"FeatureCollection","features":[{"type":"Feature","properties":{"route_id":"483","route_number":483,"name":"国道483号","source":"OpenStreetMap contributors (ODbL)","osm_relations":[11821992]},"geometry":{"type":"MultiLineString","coordinates":[[[135.11636,35.16449],[135.10057,35.16351],[135.09699,35.16213],[135.10038,35.16359],[135.11638,35.16462]],[[135.09699,35.16213],[135.094,35.16181],[135.0804,35.16562],[135.07653,35.16501],[135.06187,35.15874],[135.05786,35.15772],[135.05198,35.15841],[135.04752,35.16094],[135.04438,35.16515],[135.042,35.17283],[135.03646,35.18025],[135.03676,35.18213],[135.0426,35.19336],[135.04171,35.20288],[135.037,35.20967],[135.03438,35.22033],[135.03232,35.22457],[135.02299,35.23085],[135.01434,35.24042],[135.01277,35.24499],[135.01264,35.25346],[135.01349,35.24245],[135.01551,35.23892],[135.01958,35.23451]],[[134.92356,35.30311],[134.9211,35.30316],[134.92708,35.30342],[134.93182,35.30266],[134.95355,35.29617],[134.95941,35.29204],[134.97089,35.29136],[134.97393,35.29047],[134.9781,35.287],[134.9841,35.28442],[134.98742,35.27947],[134.99373,35.27394],[134.99943,35.26758],[135.01015,35.26249],[135.01246,35.25894],[135.01264,35.25346]],[[134.91176,35.30363],[134.91653,35.30424],[134.9087,35.30298],[134.89892,35.30274],[134.89148,35.30521],[134.88119,35.30586],[134.87318,35.30998],[134.86094,35.30994],[134.87318,35.31002],[134.88076,35.30604],[134.89183,35.30521],[134.89854,35.30284],[134.91176,35.30363]],[[135.0398,35.17637],[135.0425,35.17214],[135.04509,35.1641],[135.04733,35.16122],[135.05075,35.15891]],[[134.80405,35.51966],[134.8049,35.51299],[134.80191,35.50696],[134.78635,35.49622],[134.77875,35.48891],[134.77165,35.48504],[134.76756,35.48032],[134.76388,35.47227],[134.76316,35.46882],[134.76419,35.45724],[134.76784,35.43781],[134.76638,35.42564],[134.76482,35.4227],[134.76165,35.42001],[134.74776,35.41494],[134.74523,35.41324],[134.74381,35.41085],[134.74117,35.40063],[134.74177,35.3979],[134.74409,35.39463],[134.75415,35.3844],[134.75541,35.38103],[134.75656,35.37102],[134.75814,35.3658],[134.7621,35.35898],[134.76775,35.35213],[134.77178,35.3492],[134.77702,35.34722],[134.80219,35.3449],[134.80836,35.34296],[134.81591,35.33912],[134.80276,35.34477]],[[134.81591,35.33912],[134.82616,35.33297],[134.83641,35.32896],[134.84706,35.31504],[134.84944,35.31298],[134.85356,35.31119],[134.86094,35.30994]],[[134.84669,35.31552],[134.8508,35.31232],[134.85657,35.31058]],[[134.76788,35.43518],[134.76702,35.42872]],[[134.9211,35.30316],[134.91653,35.30424]],[[134.77298,35.48591],[134.78099,35.49092]]]}}]}