{"type":"FeatureCollection","features":[{"type":"Feature","properties":{"route_id":"49","route_number":49,"name":"国道49号","source":"OpenStreetMap contributors (ODbL)","osm_relations":[2939532,2939533,9315170,9315171,9315172,9315175,9315177,9315178,9315179,15343584]},"geometry":{"type":"MultiLineString","coordinates":[[[139.06961,37.91861],[139.07243,37.91242],[139.07491,37.90415],[139.07117,37.89909],[139.07109,37.89708],[139.08288,37.8788],[139.09324,37.86013],[139.09586,37.85859],[139.10499,37.85625],[139.11499,37.85876],[139.121,37.85832],[139.13885,37.85125],[139.14276,37.84685],[139.1445,37.84263],[139.1416,37.8484],[139.13879,37.85118],[139.12104,37.8582],[139.11502,37.85868],[139.10507,37.85616],[139.09636,37.85833],[139.09314,37.86008],[139.08277,37.87876],[139.07098,37.89705],[139.07099,37.89899],[139.07419,37.90409],[139.0717,37.91361],[139.06948,37.91855]],[[140.8914,37.0209],[140.88445,37.02409],[140.87959,37.02993],[140.87808,37.03271],[140.87725,37.03903],[140.87465,37.04268],[140.86599,37.05074],[140.86228,37.05523],[140.85086,37.06346],[140.84714,37.06713],[140.8404,37.07047],[140.82953,37.07126],[140.82463,37.07555],[140.82036,37.07606],[140.81403,37.08075],[140.81052,37.08158],[140.80038,37.08106],[140.79849,37.07817],[140.7916,37.07465],[140.78634,37.07598],[140.78417,37.07774],[140.78123,37.08278],[140.78254,37.08913],[140.78197,37.09171],[140.77906,37.09694],[140.774,37.10108],[140.76872,37.10837],[140.7574,37.11268],[140.75271,37.11646],[140.73787,37.12207],[140.73459,37.12464],[140.72224,37.1275],[140.71729,37.131],[140.70637,37.13656],[140.69722,37.1382],[140.69353,37.13785],[140.68132,37.14416],[140.67508,37.14458],[140.66556,37.14867],[140.65866,37.15491],[140.65741,37.16019],[140.65721,37.16316],[140.65819,37.16519],[140.65718,37.16922],[140.65411,37.17084],[140.65051,37.17486],[140.64844,37.18196],[140.64224,37.19095],[140.63718,37.19123],[140.62974,37.19415],[140.62707,37.19401],[140.62349,37.19226],[140.62077,37.19318],[140.61308,37.19933],[140.61097,37.20238],[140.6069,37.21169],[140.60371,37.21324],[140.59832,37.21821],[140.5925,37.21888],[140.58959,37.22113],[140.58446,37.22203],[140.58204,37.22818],[140.57675,37.23343],[140.57146,37.23577],[140.56854,37.24466],[140.5612,37.24943],[140.55448,37.26667],[140.54941,37.27208],[140.55006,37.27596],[140.54704,37.27831],[140.54467,37.28186],[140.54242,37.29059],[140.53856,37.2919],[140.53681,37.28982],[140.53549,37.28948],[140.52692,37.29285],[140.52316,37.29328],[140.51876,37.29536],[140.51437,37.2995],[140.50801,37.30212],[140.5039,37.3012],[140.49881,37.30132],[140.49684,37.29931],[140.49286,37.29836],[140.49122,37.30471],[140.48691,37.30902],[140.48319,37.31098],[140.47322,37.31114],[140.4681,37.31393],[140.46227,37.31434],[140.45428,37.31168],[140.44869,37.31102],[140.44557,37.31323],[140.4397,37.31317],[140.43446,37.31682],[140.42322,37.32012],[140.42021,37.32186],[140.41601,37.32246],[140.41179,37.32772],[140.41082,37.33379],[140.39656,37.3555],[140.39666,37.36153],[140.39557,37.36371],[140.38723,37.37031],[140.38267,37.37196],[140.37211,37.37774],[140.36736,37.37875],[140.35559,37.38717],[140.35448,37.39715],[140.35324,37.39923],[140.35066,37.40848],[140.34393,37.41505],[140.34341,37.43048],[140.33711,37.44135],[140.33712,37.45108],[140.3339,37.45774],[140.33215,37.4594],[140.33386,37.45804],[140.33715,37.45134],[140.33735,37.4411],[140.34351,37.43047],[140.34404,37.41504],[140.34986,37.40998],[140.35121,37.4067]],[[140.33215,37.4594],[140.31888,37.46904],[140.29933,37.47483],[140.28761,37.47644],[140.28638,37.47771],[140.28297,37.48663],[140.28125,37.48801],[140.27338,37.48934],[140.26077,37.49316],[140.25286,37.49422],[140.25032,37.49547],[140.24086,37.49334],[140.23422,37.49392],[140.22722,37.49314],[140.21218,37.49569],[140.20731,37.49349],[140.20192,37.48842],[140.20108,37.48651],[140.20242,37.48237],[140.20091,37.48139],[140.18466,37.48505],[140.18073,37.48327],[140.17628,37.48445],[140.16676,37.48949],[140.15843,37.48923],[140.15043,37.49162],[140.14706,37.49384],[140.1466,37.49617],[140.14724,37.50027],[140.13873,37.51161],[140.1289,37.51576],[140.12371,37.5224],[140.11442,37.52893],[140.10915,37.53407],[140.09225,37.53752],[140.07427,37.53635],[140.0619,37.53657],[140.05427,37.52684],[140.04791,37.52436],[140.04652,37.52298],[140.04583,37.51792],[140.04503,37.517],[140.04059,37.51627],[140.03664,37.51732],[140.034,37.51254],[140.03141,37.51128],[140.02878,37.51253],[140.02419,37.51733],[140.01825,37.51899],[140.00218,37.51992],[139.99161,37.51879],[139.98346,37.52227],[139.98065,37.52704],[139.97952,37.53181],[139.98002,37.53744],[139.97919,37.5389],[139.97364,37.5408],[139.96964,37.54735],[139.96797,37.54881],[139.9558,37.55433],[139.95101,37.55466],[139.94677,37.55376],[139.94486,37.55165],[139.94474,37.5407],[139.94339,37.53701],[139.94436,37.53346],[139.94428,37.52976],[139.94569,37.52538],[139.94414,37.52131],[139.9424,37.51921],[139.93852,37.51772],[139.9167,37.51778],[139.90234,37.51555],[139.91707,37.5179],[139.93985,37.51805],[139.94316,37.52007],[139.94517,37.5238],[139.94555,37.52593],[139.9446,37.52868]],[[139.90234,37.51555],[139.88722,37.52794],[139.87918,37.53656],[139.87712,37.54144],[139.86976,37.55056],[139.86824,37.5518],[139.86315,37.55348],[139.86294,37.55592],[139.85079,37.5579],[139.83395,37.55937],[139.82699,37.56297],[139.81734,37.5649],[139.80602,37.57068],[139.80128,37.57103],[139.79781,37.57273],[139.79135,37.57302],[139.78827,37.57209],[139.78563,37.57067],[139.77165,37.55875],[139.75905,37.55679],[139.75575,37.55541],[139.7504,37.55621],[139.74821,37.55755],[139.73886,37.55819],[139.73595,37.56131],[139.73066,37.563],[139.72824,37.56755],[139.71822,37.56774],[139.71245,37.5692],[139.70905,37.57334],[139.70288,37.57622],[139.69987,37.57558],[139.69271,37.57662],[139.6878,37.57604],[139.68474,37.57509],[139.67883,37.5705],[139.67175,37.56902],[139.6658,37.57199],[139.66411,37.57476],[139.65919,37.57823],[139.65416,37.57914],[139.63469,37.58867],[139.63362,37.59057],[139.63285,37.59536],[139.62781,37.59718],[139.62581,37.60041],[139.62758,37.60757],[139.63179,37.61259],[139.63167,37.61434],[139.62928,37.61867],[139.62596,37.62264],[139.62223,37.62439],[139.61715,37.62892],[139.60249,37.63185],[139.60011,37.63507],[139.59969,37.63946],[139.59804,37.64368],[139.59415,37.6502],[139.5927,37.65116],[139.58764,37.65153],[139.58446,37.6559],[139.58365,37.65873],[139.5807,37.66129],[139.57899,37.66139],[139.5749,37.65958],[139.56584,37.65905],[139.56197,37.65687],[139.55563,37.6587],[139.54329,37.65922],[139.54053,37.66213],[139.53642,37.66368],[139.52896,37.66338],[139.52233,37.66479],[139.51421,37.66289],[139.51156,37.66318],[139.50313,37.65842],[139.49653,37.65772],[139.49416,37.65621],[139.49019,37.65596],[139.4851,37.65425],[139.48187,37.65455],[139.47845,37.6568],[139.47516,37.66224],[139.46946,37.66652],[139.46403,37.67269],[139.45883,37.67481],[139.45277,37.67962],[139.44697,37.68203],[139.44612,37.68359],[139.44604,37.68816],[139.44293,37.68922],[139.43308,37.68964],[139.42801,37.69194],[139.42273,37.69243],[139.41687,37.69665]],[[139.38257,37.69587],[139.38241,37.69953],[139.38044,37.70405],[139.38071,37.70986],[139.38215,37.71266],[139.37863,37.71778],[139.37614,37.71786],[139.37075,37.71587],[139.36197,37.7166],[139.34727,37.72601],[139.34425,37.72906],[139.33961,37.73064],[139.33445,37.73129],[139.33073,37.73258],[139.32743,37.7349],[139.32429,37.73493],[139.31902,37.73975],[139.31467,37.73945],[139.30987,37.7405],[139.30302,37.73704],[139.29293,37.73904],[139.28595,37.73826],[139.27937,37.7389],[139.26502,37.74372],[139.25906,37.74696],[139.2525,37.74895],[139.24377,37.76064],[139.22537,37.77486],[139.2252,37.7781],[139.22965,37.78727],[139.22918,37.79125],[139.2299,37.79683],[139.22848,37.7992],[139.22339,37.80321],[139.22121,37.80995],[139.21553,37.81575],[139.21452,37.82345],[139.212,37.82704],[139.20521,37.83214],[139.19866,37.83438],[139.18802,37.83565],[139.17901,37.83791],[139.16863,37.83688],[139.16151,37.84005],[139.14772,37.84069],[139.1445,37.84263]],[[140.83834,37.07077],[140.8413,37.07031],[140.8471,37.06726],[140.85103,37.06348],[140.86318,37.05455],[140.86631,37.05053],[140.87669,37.04051],[140.87785,37.03804],[140.8786,37.03212],[140.88401,37.02466],[140.8915,37.02096]],[[139.4529,37.67913],[139.44071,37.68098],[139.43084,37.67959],[139.42731,37.67998],[139.40062,37.69492],[139.39511,37.69659],[139.38487,37.6977],[139.38241,37.69953]],[[140.10131,37.5357],[140.10815,37.53463],[140.11187,37.53164]]]}}]}