{"type":"FeatureCollection","features":[{"type":"Feature","properties":{"route_id":"341","route_number":341,"name":"国道341号","source":"OpenStreetMap contributors (ODbL)","osm_relations":[5385850]},"geometry":{"type":"MultiLineString","coordinates":[[[140.79903,40.13627],[140.79721,40.13607],[140.79297,40.13258],[140.79101,40.1287],[140.78435,40.12109],[140.78122,40.11674],[140.77988,40.11044],[140.78226,40.10474],[140.78972,40.09652],[140.78978,40.08789],[140.79063,40.08098],[140.79212,40.0771],[140.79643,40.07567],[140.80056,40.07224],[140.8035,40.06827],[140.8086,40.06353],[140.81233,40.05685],[140.81429,40.05557],[140.81696,40.05021],[140.82244,40.04293],[140.82319,40.04082],[140.82331,40.03321],[140.82568,40.02779],[140.82314,40.02932],[140.82003,40.02487],[140.81438,40.02193],[140.80854,40.0135],[140.80584,40.01391],[140.80251,40.01326],[140.79892,40.01128],[140.79916,40.00611],[140.79766,40.00528],[140.79601,40.00019],[140.79455,40.00057],[140.79383,40.00254],[140.79248,40.00324],[140.79107,40.00244],[140.78991,40.00028],[140.78858,40.00129],[140.78567,39.99957],[140.78662,39.99564],[140.78309,39.9974],[140.77651,39.9958],[140.77539,39.9952],[140.77411,39.99192],[140.77287,39.99199],[140.77273,39.99396],[140.76779,39.99318],[140.7611,39.99417],[140.75816,39.99332],[140.75521,39.99056],[140.74933,39.9906],[140.74564,39.98488],[140.74131,39.98435],[140.74022,39.98356],[140.73965,39.98245],[140.74009,39.98035],[140.73798,39.97937],[140.73428,39.97915],[140.73459,39.97539],[140.73306,39.97311],[140.73071,39.97265],[140.73322,39.96939],[140.73244,39.96769],[140.72863,39.96786],[140.72838,39.9667],[140.72602,39.96523],[140.72595,39.96771],[140.72692,39.96825],[140.72505,39.96877],[140.72359,39.96771],[140.71681,39.96658],[140.71405,39.96293],[140.70727,39.96229],[140.70653,39.96051],[140.70029,39.95601],[140.70138,39.95498],[140.69991,39.95392],[140.70034,39.95264],[140.70254,39.95166],[140.70053,39.94839],[140.70347,39.9437],[140.70364,39.94049],[140.70593,39.93931],[140.70639,39.93742],[140.71007,39.93498],[140.71127,39.93135],[140.71126,39.92893],[140.70902,39.92563],[140.70972,39.92243],[140.70193,39.91723],[140.69579,39.90996],[140.69348,39.90608],[140.69327,39.90414],[140.69181,39.90264],[140.6901,39.89735],[140.6874,39.89406],[140.68759,39.88986],[140.6851,39.88576],[140.67901,39.88113],[140.67576,39.88065],[140.67136,39.8771],[140.67102,39.87424],[140.6673,39.87063],[140.66913,39.86505],[140.66705,39.86043],[140.66076,39.85926],[140.65952,39.85727],[140.65779,39.85637],[140.64601,39.855],[140.63766,39.84837],[140.63683,39.84624],[140.63728,39.84308],[140.63459,39.839],[140.63506,39.82962],[140.63909,39.82658],[140.63967,39.82328],[140.64182,39.82018],[140.64564,39.81964],[140.65717,39.81551],[140.66153,39.81179],[140.66209,39.80936],[140.66623,39.80707],[140.66802,39.80445],[140.67195,39.80202],[140.67444,39.79892],[140.67377,39.79619],[140.66759,39.78891],[140.66361,39.78692],[140.66115,39.7821],[140.6627,39.77987],[140.66702,39.77856],[140.66748,39.77424],[140.67294,39.77017],[140.67783,39.76848],[140.68509,39.77082],[140.69053,39.77032],[140.69719,39.7661],[140.70084,39.76204],[140.70639,39.76088],[140.70997,39.75823],[140.7171,39.74558],[140.71676,39.73946],[140.71966,39.73066],[140.71547,39.72606],[140.71486,39.72414],[140.7157,39.72053],[140.71972,39.71616],[140.72169,39.71195],[140.72154,39.70906],[140.71701,39.70117],[140.71765,39.69933],[140.7205,39.69694],[140.72177,39.69356],[140.7163,39.69216],[140.70915,39.68838],[140.70733,39.68616],[140.70775,39.68468],[140.70684,39.6827],[140.70407,39.68135],[140.70278,39.67859],[140.70038,39.67796],[140.69939,39.67583],[140.68984,39.66668],[140.68607,39.66535],[140.68453,39.66322],[140.67632,39.66222],[140.6722,39.6597],[140.67187,39.65356],[140.66732,39.65073],[140.66408,39.64507],[140.66064,39.64257],[140.66067,39.63912],[140.65785,39.63671],[140.65486,39.6354],[140.65335,39.63316],[140.6408,39.62856],[140.63762,39.62797],[140.63461,39.6284],[140.62877,39.62676],[140.61896,39.62043],[140.60946,39.6157],[140.59294,39.61276],[140.5802,39.61363],[140.57485,39.60993],[140.56929,39.60925],[140.56794,39.60789],[140.56709,39.60479],[140.55393,39.60105],[140.55444,39.59165],[140.54453,39.59301],[140.53919,39.59675],[140.5327,39.59735],[140.52892,39.59621],[140.51915,39.60274],[140.51216,39.61012],[140.50601,39.61296],[140.50259,39.61343],[140.49834,39.61284],[140.48736,39.61519],[140.48322,39.61745],[140.47642,39.61922],[140.47033,39.61919],[140.46192,39.6235],[140.44271,39.61857],[140.44046,39.61759],[140.43697,39.6143],[140.42717,39.61258],[140.4206,39.6093],[140.41723,39.60903],[140.41239,39.61154],[140.41163,39.61619],[140.40358,39.62669],[140.40319,39.62996],[140.40154,39.63116],[140.3995,39.63133],[140.38868,39.6272],[140.3837,39.6242],[140.37924,39.62399],[140.37546,39.62122],[140.37162,39.62156],[140.36881,39.61917],[140.36252,39.61801],[140.35424,39.61845],[140.34993,39.61739],[140.34749,39.61585],[140.34271,39.61068],[140.32896,39.60607],[140.32935,39.60447],[140.32818,39.60218],[140.32446,39.6032],[140.31271,39.59779],[140.30704,39.59782],[140.30004,39.59472],[140.29688,39.59513],[140.29192,39.59758],[140.28724,39.59742],[140.28715,39.59566],[140.27979,39.58561],[140.27186,39.5806],[140.26891,39.57994],[140.26356,39.57669],[140.2583,39.57013],[140.25928,39.56473],[140.26069,39.56349],[140.26233,39.55918],[140.2618,39.55648],[140.25517,39.55655],[140.25117,39.55395],[140.24783,39.55344],[140.24644,39.55114],[140.24459,39.55041],[140.2398,39.55122],[140.23682,39.54764],[140.23818,39.54539],[140.23822,39.54382],[140.23045,39.54288],[140.23112,39.5401],[140.23045,39.53481],[140.23097,39.53374],[140.22898,39.53066],[140.22363,39.53051],[140.21966,39.53148],[140.2167,39.53426],[140.20968,39.53731],[140.20733,39.53982],[140.20749,39.54462],[140.20895,39.54641],[140.21101,39.55173],[140.20925,39.56132],[140.20161,39.56125],[140.20091,39.56052],[140.20247,39.56069],[140.20043,39.55935],[140.19887,39.55649],[140.19592,39.55477],[140.19526,39.55354],[140.19612,39.55314],[140.19498,39.55191],[140.19433,39.54754],[140.18807,39.54016],[140.18675,39.54033],[140.18708,39.54107],[140.18643,39.5415],[140.18334,39.54208],[140.18361,39.53975],[140.18104,39.5396],[140.18129,39.53841],[140.17932,39.53634],[140.17386,39.53598],[140.1731,39.53527],[140.17384,39.53391],[140.17197,39.53295],[140.16903,39.52882],[140.16643,39.52741],[140.16126,39.52851],[140.159,39.53028],[140.15503,39.53004],[140.1528,39.53166],[140.14644,39.5323],[140.14284,39.53392],[140.13835,39.53211],[140.13061,39.53117],[140.12074,39.52627],[140.11573,39.52152],[140.11054,39.51818],[140.10209,39.51748],[140.10062,39.516],[140.0963,39.51461],[140.09007,39.50692],[140.08541,39.5055],[140.08188,39.50314],[140.07737,39.50258],[140.08029,39.50038],[140.07915,39.49979],[140.07257,39.49918],[140.06675,39.49719],[140.06367,39.49765],[140.06034,39.49541],[140.05506,39.49632],[140.04539,39.4965],[140.04311,39.48851],[140.04213,39.47905],[140.04053,39.47706],[140.03928,39.47297],[140.03934,39.46885],[140.03661,39.46155],[140.03704,39.45919],[140.03504,39.45508],[140.03487,39.45228],[140.03285,39.44704],[140.03299,39.44412],[140.02741,39.42502],[140.02761,39.4195],[140.03102,39.41409],[140.03048,39.41137],[140.03209,39.40365],[140.02983,39.39305],[140.032,39.38641]]]}}]}