{"type":"FeatureCollection","features":[{"type":"Feature","properties":{"route_id":"231","route_number":231,"name":"国道231号","source":"OpenStreetMap contributors (ODbL)","osm_relations":[6596139,10187415]},"geometry":{"type":"MultiLineString","coordinates":[[[141.62624,43.91928],[141.63134,43.9276],[141.63512,43.93112],[141.63697,43.93834],[141.6404,43.94129],[141.63684,43.93837],[141.635,43.93118],[141.63121,43.92763],[141.62673,43.91985],[141.62109,43.91756],[141.61801,43.91514],[141.61042,43.90462],[141.60687,43.90107],[141.60337,43.89219],[141.5989,43.88675],[141.59773,43.8842],[141.58881,43.88174],[141.58581,43.87847],[141.58257,43.87215],[141.57658,43.86829],[141.57169,43.86811],[141.56599,43.8666],[141.56393,43.86175],[141.56181,43.85939],[141.55692,43.85769],[141.55012,43.8608],[141.548,43.8607],[141.54613,43.85942],[141.5465,43.8561],[141.54549,43.85421],[141.54148,43.85172],[141.53297,43.84969],[141.52341,43.84863],[141.52077,43.84967],[141.51766,43.85616],[141.51021,43.85427],[141.50703,43.85144],[141.50423,43.84696],[141.49651,43.8377],[141.49335,43.83581],[141.48402,43.83501],[141.4804,43.8337],[141.47856,43.83265],[141.47556,43.82909],[141.47032,43.82648],[141.46369,43.82061],[141.46122,43.82018],[141.43661,43.82242],[141.41566,43.81532],[141.39586,43.80643],[141.38988,43.80506],[141.38063,43.80031],[141.37685,43.79691],[141.37027,43.78675],[141.37132,43.78286],[141.37046,43.7778],[141.36746,43.77247],[141.36358,43.76858],[141.3632,43.76418],[141.36177,43.76132],[141.35056,43.75397],[141.34483,43.74424],[141.33922,43.73926],[141.33829,43.73464],[141.33532,43.73107],[141.33107,43.72376],[141.33199,43.71098],[141.3371,43.70147],[141.34021,43.68902],[141.34585,43.67867],[141.34636,43.67442],[141.34989,43.66692],[141.34939,43.66454],[141.35042,43.66159],[141.35016,43.65433],[141.35527,43.65158],[141.35694,43.64939],[141.35687,43.64731],[141.35455,43.64305],[141.35462,43.6414],[141.36196,43.63529],[141.36281,43.63034],[141.36372,43.62922],[141.37163,43.62504],[141.3773,43.62331],[141.37889,43.6217],[141.37884,43.61702],[141.37593,43.61412],[141.37558,43.61272],[141.37669,43.61049],[141.38384,43.60422],[141.38394,43.59482],[141.38635,43.59042],[141.38772,43.58262],[141.3867,43.57661],[141.38127,43.56929],[141.37892,43.56],[141.38269,43.55781],[141.38695,43.55663],[141.40165,43.55592],[141.40636,43.55692],[141.40783,43.5559],[141.407,43.55463],[141.39716,43.55233],[141.39745,43.548],[141.39285,43.54027],[141.39372,43.52718],[141.39287,43.52298],[141.39097,43.51943],[141.38536,43.51381],[141.37747,43.51092],[141.37441,43.50817],[141.37323,43.50464],[141.37423,43.50259],[141.37356,43.49824],[141.37456,43.49453],[141.38976,43.48119],[141.39288,43.48087],[141.39677,43.48207],[141.39917,43.48421],[141.40075,43.48398],[141.40073,43.48293],[141.39701,43.48063],[141.39518,43.47807],[141.39616,43.47063],[141.40861,43.4559],[141.40972,43.44947],[141.42298,43.42699],[141.42904,43.42129],[141.43046,43.41518],[141.4327,43.41338],[141.43029,43.41067],[141.43167,43.40146],[141.43275,43.40029],[141.43598,43.39924],[141.43727,43.39652],[141.43629,43.39515],[141.43263,43.39378],[141.43361,43.39057],[141.4325,43.38812],[141.43284,43.3853],[141.42912,43.37986],[141.42656,43.37139],[141.42751,43.36601],[141.43077,43.36317],[141.43097,43.36147],[141.42915,43.35925],[141.4302,43.3554],[141.42796,43.35361],[141.42495,43.34933],[141.42317,43.33882],[141.42403,43.33766],[141.43018,43.3344],[141.43485,43.3348],[141.4416,43.33365],[141.44153,43.33052],[141.44339,43.32448],[141.44219,43.32265],[141.43058,43.32003],[141.4247,43.31655],[141.41691,43.31576],[141.41283,43.31264],[141.4123,43.30231],[141.40959,43.28743],[141.41016,43.28079],[141.40849,43.27778],[141.40431,43.27636],[141.39651,43.26491],[141.38713,43.26074],[141.37283,43.24562],[141.33902,43.21822],[141.3351,43.21305],[141.32382,43.18359],[141.32744,43.1806],[141.33082,43.17911],[141.34573,43.17999],[141.34748,43.17952],[141.34908,43.16652],[141.3538,43.16151],[141.34369,43.1185],[141.34362,43.11077],[141.34507,43.10145]],[[141.34485,43.10113],[141.34336,43.11062],[141.34355,43.11867],[141.35363,43.16144],[141.34875,43.16684],[141.34833,43.17506],[141.34732,43.17944],[141.33086,43.17892],[141.32862,43.17962],[141.32386,43.18309],[141.32182,43.18319],[141.32285,43.18267],[141.33496,43.21308],[141.33669,43.21593]],[[141.64029,43.94136],[141.64258,43.94268],[141.64677,43.94226],[141.64859,43.94599],[141.65098,43.94759]],[[141.66437,43.93454],[141.64762,43.93651],[141.6404,43.94129],[141.64241,43.94256],[141.64677,43.94226],[141.64861,43.94622],[141.65088,43.94767]],[[141.66433,43.93445],[141.66323,43.93462]]]}}]}