{"type":"FeatureCollection","features":[{"type":"Feature","properties":{"route_id":"25","route_number":25,"name":"国道25号","source":"OpenStreetMap contributors (ODbL)","osm_relations":[1247317,2283738,9045422,14107463]},"geometry":{"type":"MultiLineString","coordinates":[[[135.50058,34.69815],[135.50131,34.69615],[135.50033,34.66561],[135.49807,34.66258],[135.49793,34.65517],[135.49812,34.66276]],[[135.63624,34.5677],[135.63682,34.56658],[135.63634,34.57075],[135.63416,34.57107],[135.6324,34.57239],[135.62774,34.5801],[135.62208,34.58188],[135.6199,34.58356],[135.61868,34.59425],[135.61709,34.59816],[135.60886,34.60707],[135.6033,34.61045],[135.59027,34.61293],[135.58639,34.61298],[135.57524,34.61766],[135.5699,34.62092],[135.56472,34.62213],[135.56099,34.62463],[135.55632,34.62498],[135.53514,34.63898],[135.51953,34.64498]],[[136.61539,34.92995],[136.60383,34.93099],[136.59703,34.93264],[136.59243,34.92719],[136.58281,34.92251],[136.57724,34.91645],[136.57035,34.91442],[136.55839,34.91482],[136.5559,34.91425],[136.55092,34.91048],[136.55029,34.90654],[136.54863,34.90277],[136.54836,34.89918],[136.54395,34.89244],[136.54001,34.89035],[136.53453,34.89027],[136.53109,34.88852],[136.52233,34.87921],[136.50695,34.87716],[136.502,34.87766],[136.49579,34.87556],[136.48801,34.86423],[136.48505,34.86246],[136.47319,34.86331],[136.46145,34.86146],[136.44638,34.86455],[136.44119,34.86448],[136.43132,34.86052],[136.42598,34.85924],[136.41408,34.8586],[136.41052,34.85659],[136.40538,34.85052],[136.40284,34.84964],[136.3897,34.84989],[136.38552,34.854],[136.38108,34.85607],[136.37923,34.85361],[136.36781,34.85241],[136.36417,34.85106],[136.36149,34.84899],[136.35903,34.84856],[136.3565,34.84971],[136.3541,34.84612],[136.34995,34.84619],[136.34567,34.84385],[136.34339,34.84433],[136.33954,34.841],[136.33571,34.83982],[136.33386,34.84145],[136.32997,34.84259],[136.32835,34.84167],[136.32544,34.84225],[136.31796,34.84006],[136.31217,34.84288],[136.3067,34.8433],[136.30178,34.84514],[136.30039,34.84452],[136.2973,34.84629],[136.29512,34.84654],[136.29376,34.84825],[136.29307,34.8478],[136.29363,34.84708],[136.28787,34.84713],[136.27964,34.84402],[136.27604,34.84417],[136.26659,34.84215],[136.26406,34.83971],[136.25842,34.83957],[136.25615,34.84026],[136.25572,34.83926],[136.24854,34.83799],[136.24432,34.83924],[136.23896,34.83823],[136.23027,34.83494],[136.22666,34.83223],[136.22223,34.83114],[136.20556,34.81982],[136.18201,34.80908],[136.17764,34.80512],[136.17335,34.80426],[136.16761,34.80172],[136.15586,34.79465],[136.14224,34.78899],[136.14139,34.77939],[136.13698,34.77018],[136.13696,34.76857],[136.12316,34.76728],[136.1239,34.75664],[136.12217,34.75625],[136.11876,34.75168],[136.1157,34.75117],[136.11522,34.74896],[136.11099,34.74332],[136.10657,34.73933],[136.10084,34.73723],[136.09426,34.73131],[136.08587,34.72859],[136.08258,34.72577],[136.07987,34.72165],[136.07717,34.71929],[136.07685,34.71461],[136.07393,34.71243],[136.07167,34.70694],[136.06942,34.70562],[136.0594,34.70359],[136.0597,34.69929],[136.06091,34.69874],[136.06009,34.69669],[136.05843,34.69527],[136.05981,34.69241],[136.06235,34.69154],[136.0629,34.68985],[136.06546,34.68955],[136.06522,34.68825],[136.0617,34.68507],[136.05663,34.68419],[136.05115,34.68089],[136.04406,34.68065],[136.04374,34.67751],[136.04498,34.6753],[136.04349,34.6702],[136.04284,34.67219],[136.0411,34.67154],[136.03983,34.66981],[136.03966,34.66664],[136.03845,34.66529],[136.03967,34.66414],[136.0387,34.66239],[136.03387,34.6595],[136.03325,34.65623],[136.03089,34.65599],[136.02933,34.65681],[136.02711,34.65474],[136.02417,34.65491],[136.02016,34.65233],[136.01788,34.65039],[136.01474,34.64424],[136.01211,34.6432],[136.01154,34.6399],[136.00502,34.6355],[135.9857,34.62815],[135.98452,34.6273],[135.98147,34.62003],[135.97912,34.61815],[135.9747,34.61729],[135.97239,34.6176],[135.96489,34.61377],[135.95852,34.61357],[135.95364,34.61152],[135.94778,34.61254],[135.94461,34.6121],[135.94136,34.61314],[135.93564,34.61141],[135.9324,34.61304],[135.92956,34.61089],[135.92131,34.61259],[135.91647,34.61107],[135.91282,34.61268],[135.90986,34.61227],[135.90845,34.60912],[135.90941,34.60686],[135.90714,34.60445],[135.90819,34.59964],[135.9075,34.59636],[135.90286,34.5898],[135.90249,34.58753],[135.90058,34.58738],[135.90144,34.5861],[135.90031,34.58358],[135.8991,34.58293],[135.89659,34.58364],[135.89476,34.58568],[135.88967,34.58329],[135.88812,34.58468],[135.88766,34.58695],[135.88382,34.5879],[135.88277,34.5904],[135.88053,34.58968],[135.87871,34.59013],[135.8759,34.58778],[135.87381,34.589],[135.87257,34.58855],[135.87285,34.58923],[135.87574,34.58922],[135.87375,34.59027],[135.87263,34.59197],[135.87156,34.59632],[135.8699,34.59655],[135.86641,34.5989],[135.86558,34.60078],[135.86149,34.6009],[135.85916,34.59868],[135.85867,34.59629],[135.85579,34.59332],[135.85075,34.59286],[135.84651,34.58944],[135.83664,34.58905],[135.83599,34.59733],[135.82227,34.59543],[135.79812,34.59493],[135.79834,34.61321],[135.80114,34.61944],[135.75401,34.61912],[135.7507,34.61811],[135.73907,34.60989],[135.73334,34.60915],[135.72652,34.60714],[135.71668,34.6074],[135.71151,34.6018],[135.71059,34.59943],[135.70832,34.59814],[135.70666,34.59333],[135.70287,34.59523],[135.69819,34.5934],[135.67592,34.57935],[135.67097,34.57953],[135.66818,34.57837],[135.66505,34.57564],[135.66128,34.57065],[135.65344,34.56761],[135.64042,34.56458],[135.63682,34.56658]],[[136.61539,34.92986],[136.60381,34.93092],[136.59693,34.93251],[136.59263,34.92724],[136.58288,34.92244],[136.57723,34.91636],[136.57034,34.91434],[136.55616,34.91428],[136.55093,34.91029],[136.54844,34.89914],[136.54391,34.89231],[136.53975,34.89019],[136.53461,34.8902],[136.53127,34.88852],[136.52862,34.88631],[136.52404,34.88025],[136.5221,34.87904],[136.50663,34.87705],[136.50198,34.87757],[136.4957,34.87541],[136.48818,34.86428],[136.4864,34.86295]],[[135.79797,34.6075],[135.7984,34.61412],[135.80096,34.61944]],[[135.51947,34.64509],[135.53476,34.63927],[135.53275,34.64176],[135.52157,34.65066],[135.51848,34.65093],[135.51374,34.6537],[135.50641,34.65431]],[[136.43674,34.86318],[136.43135,34.86044],[136.42358,34.85851],[136.41865,34.85899]],[[135.49793,34.65517],[135.50113,34.65463]],[[135.53488,34.63911],[135.54884,34.62972]],[[135.50161,34.65454],[135.5061,34.65438]],[[136.46019,34.8616],[136.44953,34.86394]],[[135.71213,34.60248],[135.72828,34.60367]]]}}]}