{"type":"FeatureCollection","features":[{"type":"Feature","properties":{"route_id":"433","route_number":433,"name":"国道433号","source":"OpenStreetMap contributors (ODbL)","osm_relations":[2789281]},"geometry":{"type":"MultiLineString","coordinates":[[[132.31385,34.32139],[132.3181,34.32529],[132.31837,34.32809],[132.31959,34.33042],[132.31934,34.33163],[132.31564,34.33524],[132.31491,34.33863],[132.31768,34.34742],[132.32212,34.35442],[132.31119,34.35787],[132.30933,34.35948],[132.30921,34.36175],[132.3077,34.36329],[132.30929,34.36178],[132.30943,34.35946],[132.31133,34.35787],[132.32235,34.35442],[132.31776,34.34694],[132.315,34.33858],[132.31567,34.33537],[132.32001,34.33047],[132.31856,34.32821],[132.31819,34.32527],[132.31385,34.32139]],[[132.3077,34.36329],[132.30555,34.36597],[132.30612,34.36895],[132.30428,34.37072],[132.30602,34.37311],[132.30859,34.37373],[132.30799,34.37477],[132.30876,34.37642],[132.308,34.3764],[132.30909,34.37667],[132.3083,34.37849],[132.3052,34.3812],[132.30479,34.38458],[132.3038,34.38527],[132.3042,34.38648],[132.30318,34.38575],[132.30431,34.38852],[132.3032,34.38709],[132.30373,34.38792],[132.30326,34.38895],[132.30584,34.39146],[132.30347,34.38963],[132.30239,34.38999],[132.30135,34.38882],[132.30212,34.38825],[132.30157,34.38765],[132.29558,34.38811],[132.29681,34.38916],[132.29695,34.39211],[132.29409,34.39419],[132.29262,34.3985],[132.29364,34.41443],[132.29834,34.41897],[132.30206,34.42011],[132.30318,34.42122],[132.30284,34.42457],[132.30698,34.42857],[132.30791,34.43423],[132.30678,34.43528],[132.29535,34.43725],[132.29315,34.44012],[132.29144,34.44104],[132.29152,34.44316],[132.28901,34.44743],[132.28875,34.45105],[132.28468,34.45564],[132.28184,34.46185],[132.28156,34.4658],[132.28044,34.46818],[132.27756,34.46987],[132.2791,34.47238],[132.27422,34.47596],[132.27375,34.48639],[132.27403,34.48765],[132.27795,34.48892],[132.28112,34.49224],[132.28801,34.49612],[132.29184,34.50128],[132.30036,34.50491],[132.30351,34.50749],[132.31041,34.51554],[132.30966,34.52061],[132.31017,34.52305],[132.31258,34.52458],[132.31781,34.52568],[132.32082,34.52936],[132.32153,34.53325],[132.326,34.54264],[132.33519,34.54814],[132.33681,34.55173],[132.34266,34.55306],[132.34111,34.55583],[132.33299,34.55564],[132.33089,34.55624],[132.33086,34.55758],[132.33448,34.56154],[132.33301,34.56362],[132.3296,34.56364],[132.32373,34.56589],[132.31764,34.56474],[132.32163,34.57521],[132.3245,34.57649],[132.32138,34.58024],[132.32026,34.58291],[132.3209,34.5851],[132.32428,34.59006],[132.32242,34.60045],[132.32415,34.60531],[132.32384,34.60988],[132.32734,34.61109],[132.32725,34.61451],[132.32818,34.61474],[132.32936,34.61358],[132.3306,34.61537],[132.333,34.61658],[132.33505,34.62028],[132.33872,34.62106],[132.33965,34.62356],[132.34359,34.62529],[132.35161,34.63285],[132.35662,34.63572],[132.36135,34.63986],[132.36655,34.64178],[132.36769,34.6431],[132.36795,34.64552],[132.37454,34.64962],[132.37704,34.65376],[132.37665,34.65033],[132.37726,34.6487],[132.37649,34.64898],[132.37697,34.64762],[132.37569,34.64665],[132.37486,34.64431],[132.37748,34.64372],[132.37877,34.64441],[132.37922,34.64241],[132.38018,34.64201],[132.38039,34.64279],[132.3823,34.64324],[132.38227,34.64435],[132.38398,34.64505],[132.38541,34.64444],[132.38823,34.64613],[132.39138,34.64682],[132.39338,34.64628],[132.39605,34.64785],[132.39777,34.64795],[132.40019,34.65029],[132.4027,34.65651],[132.40682,34.65839],[132.40801,34.66011],[132.40621,34.66439],[132.40688,34.66835],[132.40637,34.67146],[132.40832,34.67334],[132.40887,34.675],[132.41226,34.67593],[132.41499,34.67861],[132.41957,34.68077],[132.41921,34.68734],[132.42256,34.69075],[132.42383,34.69592],[132.42535,34.69854],[132.4288,34.70102],[132.42885,34.70359],[132.43144,34.70486],[132.43498,34.70946],[132.43984,34.71169],[132.44821,34.71712],[132.45575,34.71964],[132.4626,34.71799],[132.46794,34.71775],[132.47044,34.71413],[132.46947,34.71132],[132.47365,34.707],[132.47709,34.70799],[132.47975,34.71041],[132.48223,34.71001],[132.48558,34.71086],[132.49249,34.71061],[132.49487,34.70889],[132.49938,34.70835],[132.50204,34.70717],[132.50178,34.709],[132.50529,34.71348],[132.50705,34.71997],[132.51341,34.72157],[132.51674,34.72411],[132.52169,34.72513],[132.52245,34.72788],[132.5259,34.73192],[132.53278,34.73306],[132.5374,34.73629],[132.54484,34.73669],[132.54916,34.73432],[132.55221,34.73584],[132.55439,34.73253],[132.55678,34.73605],[132.55903,34.73612],[132.56027,34.73385],[132.55984,34.73001],[132.56267,34.72859],[132.56206,34.72562],[132.56283,34.7251],[132.56543,34.72652],[132.57178,34.72702],[132.57347,34.72794],[132.57475,34.72749],[132.57519,34.72992],[132.57583,34.72928],[132.57665,34.73067],[132.57779,34.73072],[132.57888,34.73219],[132.57893,34.73405],[132.58052,34.73574],[132.57986,34.73661],[132.58057,34.73789],[132.57937,34.74064],[132.57808,34.74087],[132.57874,34.74156],[132.57728,34.74217],[132.57853,34.74288],[132.57854,34.74585],[132.58055,34.74538],[132.5802,34.74626],[132.58243,34.74802],[132.58052,34.74863],[132.58001,34.75019],[132.58205,34.74949],[132.58638,34.75181],[132.58747,34.75426],[132.58821,34.75426],[132.59468,34.76255],[132.59996,34.76614],[132.60729,34.76706],[132.61046,34.76646],[132.61328,34.7639],[132.61709,34.76336],[132.62242,34.76111],[132.62526,34.76192],[132.62992,34.76156],[132.63552,34.76322],[132.63939,34.76663],[132.64452,34.77337],[132.6475,34.77371],[132.65355,34.77138],[132.66101,34.77279],[132.66985,34.77266],[132.6745,34.76871],[132.67914,34.76807],[132.68113,34.7644],[132.68353,34.76315],[132.69143,34.76475],[132.69194,34.76853],[132.69705,34.77272],[132.70219,34.76958],[132.70904,34.77083],[132.71557,34.77036],[132.71592,34.77311],[132.71466,34.77621],[132.71243,34.77944],[132.70794,34.78193],[132.70636,34.78505],[132.70827,34.78643],[132.71057,34.79134],[132.70725,34.79384],[132.70341,34.7937],[132.70525,34.79702],[132.70496,34.79863],[132.70581,34.80162],[132.7072,34.80333],[132.7069,34.80534],[132.70768,34.80691],[132.71515,34.81425],[132.7142,34.81487],[132.71496,34.81847],[132.71807,34.81821],[132.72689,34.81481],[132.75149,34.81147],[132.75464,34.81004],[132.76181,34.80865],[132.76729,34.80959],[132.77349,34.80743],[132.78557,34.80675],[132.79177,34.80417],[132.80036,34.80834],[132.80632,34.80871],[132.81357,34.81407],[132.81621,34.81502],[132.81731,34.81685],[132.82021,34.81882],[132.82321,34.81944]],[[132.22126,34.2262],[132.2195,34.23547],[132.22154,34.2407],[132.22158,34.24423],[132.22496,34.24883],[132.22177,34.24449],[132.22162,34.24069],[132.21956,34.23497],[132.22137,34.22577],[132.22417,34.22187]],[[132.28953,34.30037],[132.29299,34.3036],[132.29601,34.30474],[132.29325,34.30384],[132.2901,34.30136],[132.2864,34.29548],[132.28155,34.28979],[132.2776,34.28779],[132.26937,34.28563],[132.26319,34.27969],[132.26078,34.27496],[132.25711,34.27177],[132.25274,34.26932],[132.24828,34.26465],[132.24225,34.26295],[132.23449,34.25906],[132.23012,34.25545],[132.22496,34.24883]],[[132.30163,34.30992],[132.29982,34.30685],[132.29601,34.30474]],[[132.32228,34.35433],[132.32212,34.35442]],[[132.77901,34.80696],[132.78621,34.80805],[132.78803,34.80713],[132.78967,34.80475]],[[132.30463,34.3142],[132.30457,34.31409]]]}}]}