{"type":"FeatureCollection","features":[{"type":"Feature","properties":{"route_id":"489","route_number":489,"name":"国道489号","source":"OpenStreetMap contributors (ODbL)","osm_relations":[9893745]},"geometry":{"type":"MultiLineString","coordinates":[[[131.65598,34.35024],[131.65988,34.34213],[131.66585,34.33553],[131.67417,34.32994],[131.67831,34.3291],[131.68094,34.32386],[131.68381,34.32261],[131.68715,34.32234],[131.68924,34.32065],[131.68957,34.3189],[131.68608,34.31257],[131.68579,34.30932],[131.68794,34.30717],[131.68758,34.30446],[131.68593,34.30261],[131.68602,34.30011],[131.68498,34.29872],[131.67321,34.29588],[131.66245,34.28925],[131.66123,34.28965],[131.66082,34.28809],[131.65864,34.28625],[131.65109,34.28372],[131.64368,34.27951],[131.64172,34.27717],[131.64419,34.27384],[131.64622,34.27248],[131.648,34.26853],[131.65172,34.2667],[131.6536,34.26437],[131.65169,34.2551],[131.65157,34.24951],[131.6525,34.24439],[131.65183,34.23986],[131.65584,34.23698],[131.65928,34.23677],[131.66145,34.23541],[131.6635,34.22871],[131.66272,34.22546],[131.66557,34.21857],[131.67195,34.21259],[131.67307,34.20927],[131.6711,34.20527],[131.66632,34.20016],[131.65924,34.18878],[131.66255,34.1886],[131.66934,34.18417],[131.67845,34.18015],[131.68461,34.18106],[131.68653,34.17652],[131.69093,34.17451],[131.69167,34.17061],[131.69535,34.1683],[131.70094,34.1683],[131.7027,34.16751],[131.70488,34.16373],[131.70196,34.15655],[131.70179,34.15406],[131.70445,34.15075],[131.71255,34.14575],[131.71672,34.13607],[131.72369,34.13483],[131.73013,34.13697],[131.73161,34.13902],[131.73358,34.13841],[131.73582,34.13541],[131.73569,34.13326],[131.73729,34.13118],[131.73671,34.12694],[131.7352,34.12477],[131.73485,34.12084],[131.73573,34.11856],[131.7318,34.11485],[131.73049,34.10997],[131.73608,34.10619],[131.73725,34.1041],[131.74058,34.1045],[131.74003,34.10199],[131.74277,34.09862],[131.74606,34.09553],[131.75018,34.0941],[131.75489,34.08917],[131.76518,34.08728],[131.76625,34.08287],[131.76856,34.08004]]]}}]}