{"type":"FeatureCollection","features":[{"type":"Feature","properties":{"route_id":"147","route_number":147,"name":"国道147号","source":"OpenStreetMap contributors (ODbL)","osm_relations":[2104795,9107958,9107959]},"geometry":{"type":"MultiLineString","coordinates":[[[137.85684,36.51358],[137.85248,36.51306],[137.85546,36.50287],[137.85731,36.50018],[137.86309,36.49606],[137.85499,36.48972],[137.86309,36.49606],[137.85579,36.50187],[137.85248,36.51306]],[[137.92085,36.27969],[137.92383,36.27858],[137.92827,36.27481],[137.92347,36.27865],[137.91553,36.2812],[137.90983,36.28536],[137.90798,36.28565],[137.9053,36.29831],[137.89365,36.31982],[137.89339,36.32403],[137.8913,36.33202],[137.88652,36.34413],[137.88342,36.34812],[137.87417,36.37201],[137.87174,36.37657],[137.86862,36.37929],[137.86512,36.38705],[137.86146,36.40031],[137.86136,36.40424],[137.85882,36.41108],[137.85664,36.43163],[137.85682,36.44076],[137.85449,36.44736],[137.85249,36.45056],[137.84813,36.4739],[137.85199,36.48275],[137.8512,36.48678],[137.85499,36.48972]],[[137.93913,36.26855],[137.94311,36.26604],[137.94481,36.26585],[137.94297,36.26601],[137.92827,36.27481]]]}}]}