{"type":"FeatureCollection","features":[{"type":"Feature","properties":{"route_id":"155","route_number":155,"name":"国道155号","source":"OpenStreetMap contributors (ODbL)","osm_relations":[8438979,8505792,9136912,9136913]},"geometry":{"type":"MultiLineString","coordinates":[[[137.01879,35.2672],[137.02653,35.26788],[137.03767,35.26506],[137.03782,35.2612],[137.03767,35.265],[137.02755,35.26764],[137.02057,35.26772],[137.01689,35.26593],[137.00973,35.26767],[137.01691,35.26601],[137.01879,35.2672]],[[137.03389,35.00703],[137.04473,35.01399],[137.05535,35.01908],[137.07116,35.0168],[137.08022,35.0265],[137.09514,35.04037],[137.10462,35.05217],[137.09505,35.03992],[137.08049,35.02654],[137.07116,35.01652],[137.0554,35.01901],[137.04479,35.01393],[137.02994,35.00453],[137.01046,35.00614],[136.99261,35.00582],[136.98381,35.01328],[136.98104,35.01173],[136.97709,35.01122],[136.98152,35.01201],[136.98382,35.01343],[136.99239,35.00599],[137.00181,35.00588]],[[136.84221,34.89364],[136.84102,34.89547],[136.83679,34.9121],[136.83007,34.92394],[136.82946,34.92639],[136.82994,34.92837],[136.83426,34.93257],[136.83545,34.93866],[136.83281,34.94863],[136.83229,34.95444],[136.83292,34.94875],[136.83556,34.93858],[136.83442,34.93266],[136.82987,34.92811],[136.82976,34.9252],[136.83682,34.91229],[136.84113,34.89548],[136.84232,34.89367]],[[137.12745,35.07937],[137.12131,35.07915],[137.1213,35.07022],[137.11756,35.06475],[137.1149,35.06246],[137.11716,35.06413],[137.12118,35.06964],[137.12177,35.07889],[137.12655,35.07908],[137.13435,35.08183],[137.14214,35.08335],[137.155,35.08305],[137.15671,35.09161],[137.15367,35.09702],[137.15059,35.09711],[137.14686,35.09876],[137.14381,35.10127],[137.13733,35.11383],[137.13461,35.11725],[137.13106,35.11992],[137.12651,35.12647],[137.12666,35.12941],[137.12876,35.13173],[137.12495,35.13373],[137.12362,35.13606],[137.12366,35.14303],[137.11886,35.14966],[137.11962,35.15274],[137.11606,35.15765],[137.11733,35.15944],[137.11763,35.16151],[137.10839,35.17056],[137.10603,35.17571],[137.10505,35.18029],[137.10535,35.18537],[137.10217,35.19306],[137.10394,35.20268],[137.10279,35.20552],[137.10296,35.20815],[137.10685,35.2112],[137.10471,35.21348],[137.10108,35.22391],[137.09467,35.22334],[137.08974,35.22491],[137.08427,35.22457],[137.08161,35.22515],[137.08063,35.22615],[137.08004,35.23737],[137.07387,35.2433],[137.07218,35.24759],[137.06915,35.24881],[137.06504,35.25315],[137.06491,35.25653],[137.06228,35.25819],[137.0619,35.25995],[137.05679,35.26168],[137.05545,35.26384],[137.0545,35.26202],[137.05124,35.26007],[137.03807,35.25588],[137.03782,35.2612]],[[136.75986,35.28383],[136.7609,35.2785],[136.75986,35.28383],[136.7708,35.28675],[136.77417,35.28915],[136.78018,35.2904],[136.79011,35.29415],[136.79008,35.30435],[136.79377,35.30655],[136.80026,35.30644],[136.82252,35.30118],[136.85059,35.29877],[136.82252,35.30118]],[[136.88993,35.31281],[136.88125,35.31415],[136.87192,35.31396],[136.86772,35.3155],[136.85871,35.31679],[136.84171,35.31504],[136.83199,35.31207],[136.825,35.31254],[136.81573,35.3145],[136.82502,35.31265],[136.83198,35.31219],[136.84184,35.31516],[136.85899,35.31687],[136.86754,35.31563],[136.87192,35.31406],[136.88124,35.31424],[136.89842,35.31216],[136.90861,35.3086],[136.91648,35.30361],[136.92853,35.30164],[136.94209,35.30053],[136.95142,35.29854],[136.97401,35.29765],[136.97878,35.29563],[136.98612,35.28889],[136.98946,35.28109]],[[136.85059,35.29877],[136.85799,35.29833],[136.86397,35.29433],[136.87722,35.29259],[136.90346,35.29512],[136.90885,35.29406],[136.92462,35.295],[136.93343,35.2921],[136.94224,35.29114],[136.95423,35.28618],[136.95161,35.28053],[136.95355,35.27988],[136.96348,35.27878],[136.97485,35.27583],[136.98103,35.27558],[136.98945,35.27398],[137.00651,35.26788],[137.00973,35.26767]],[[136.97709,35.01122],[136.97167,35.01058],[136.96628,35.00698],[136.95818,35.00485],[136.95059,35.00586],[136.92135,35.00507],[136.91088,35.00764],[136.90074,35.00905],[136.89134,35.01408],[136.8872,35.01537],[136.87957,35.00496],[136.86729,34.99607],[136.86218,34.99135],[136.86272,34.99007],[136.86053,34.986],[136.86311,34.98087],[136.85805,34.97617],[136.85629,34.9709],[136.84247,34.9668],[136.83229,34.95444]],[[136.73337,35.11963],[136.72421,35.12844],[136.71169,35.14303],[136.72487,35.12791],[136.73293,35.12073],[136.73351,35.11757],[136.73197,35.11314],[136.73319,35.11639]],[[136.98937,35.28098],[136.98603,35.28881],[136.97929,35.29511],[136.97541,35.2972],[136.95098,35.29847],[136.94242,35.30037],[136.91667,35.30349],[136.90906,35.30828],[136.90481,35.30989]],[[136.77995,35.29033],[136.7738,35.28891],[136.77078,35.28666],[136.75972,35.28376]],[[136.7609,35.2785],[136.76113,35.2657],[136.74987,35.24625],[136.74476,35.23369],[136.73722,35.2095],[136.71694,35.18437],[136.71225,35.16599],[136.7123,35.16014],[136.70886,35.14889],[136.70917,35.14628],[136.71169,35.14303]],[[136.87752,35.01696],[136.89092,35.01435],[136.90094,35.0091],[136.91098,35.00771],[136.92113,35.00516],[136.9504,35.00594],[136.95675,35.00488],[136.95975,35.00519]],[[137.10462,35.05217],[137.10938,35.05899],[137.1149,35.06246]],[[136.79818,35.30671],[136.79316,35.30629],[136.79021,35.3044],[136.78971,35.3026]],[[136.93185,35.29248],[136.92426,35.29499],[136.90898,35.294],[136.90375,35.29504],[136.89873,35.29453]],[[137.155,35.08305],[137.14131,35.08321]],[[137.12159,35.07916],[137.12167,35.07873]],[[136.71901,35.18729],[136.71704,35.18459]],[[137.14558,35.09998],[137.14697,35.09877]],[[136.88725,35.01543],[136.87747,35.0169]],[[137.1424,35.10355],[137.13872,35.10201],[137.12827,35.09346],[137.1236,35.09117],[137.12188,35.08946],[137.12116,35.08717],[137.12168,35.07639]],[[137.12152,35.07622],[137.12111,35.08714],[137.12213,35.08991],[137.12845,35.09363],[137.13865,35.10204],[137.14241,35.1036]]]}}]}