{"type":"FeatureCollection","features":[{"type":"Feature","properties":{"route_id":"184","route_number":184,"name":"国道184号","source":"OpenStreetMap contributors (ODbL)","osm_relations":[9385076,9385077]},"geometry":{"type":"MultiLineString","coordinates":[[[132.72623,35.28694],[132.72891,35.28913],[132.73123,35.29395],[132.73606,35.29448],[132.7385,35.29378],[132.74269,35.29395],[132.73607,35.29455],[132.73092,35.29392],[132.72889,35.28938],[132.72654,35.2875],[132.72492,35.28456],[132.72528,35.28211],[132.72982,35.27955],[132.73059,35.2775],[132.73001,35.27593],[132.72422,35.27002],[132.72545,35.26116],[132.72292,35.25804],[132.72296,35.25661],[132.72132,35.25366],[132.71739,35.25291],[132.71635,35.25406],[132.71373,35.25477],[132.70692,35.25558],[132.70626,35.25639],[132.7067,35.25863],[132.7057,35.25949],[132.70133,35.25814],[132.69157,35.25409],[132.69288,35.24805],[132.69035,35.24236],[132.68679,35.24089],[132.68085,35.24177],[132.6771,35.24101],[132.67544,35.23829],[132.67033,35.23436],[132.67284,35.22779],[132.67371,35.21998],[132.67651,35.21718],[132.67826,35.21708],[132.68085,35.20939],[132.67748,35.20531],[132.67307,35.20173],[132.67261,35.20033],[132.67345,35.1966],[132.67029,35.19447],[132.68297,35.18579],[132.68285,35.1839],[132.6842,35.18065],[132.68376,35.17895],[132.6814,35.17822],[132.67926,35.17574],[132.67688,35.16821],[132.67227,35.16433],[132.67187,35.15855],[132.67796,35.1549],[132.68459,35.14499],[132.68786,35.14317],[132.69027,35.13879],[132.69015,35.1357],[132.6937,35.13234],[132.69372,35.12737],[132.69122,35.12343],[132.69082,35.12044],[132.69216,35.1174],[132.69537,35.1169],[132.69682,35.11577],[132.69498,35.11133],[132.69622,35.10823],[132.69804,35.10721],[132.70144,35.10736],[132.70498,35.1091],[132.70776,35.10792],[132.70822,35.10661],[132.70737,35.10103],[132.71237,35.0995],[132.71455,35.09688],[132.71695,35.0954],[132.71689,35.09273],[132.71452,35.09153],[132.7144,35.09056],[132.71816,35.08922],[132.71716,35.08739],[132.71902,35.08792],[132.71955,35.08528],[132.72031,35.08481],[132.71978,35.08347],[132.71643,35.08192],[132.71467,35.08227],[132.70883,35.07987],[132.70624,35.07542],[132.70501,35.07511],[132.70733,35.07146],[132.71085,35.06895],[132.70732,35.06659],[132.70755,35.06447],[132.71057,35.0602],[132.71379,35.0594],[132.71488,35.05718],[132.71666,35.05686],[132.7185,35.05334],[132.72444,35.05197],[132.7248,35.05065],[132.72658,35.05171],[132.72983,35.05163],[132.7321,35.05334],[132.7324,35.05452],[132.73425,35.05439],[132.73446,35.05361],[132.73752,35.05397],[132.73743,35.05077],[132.73376,35.04869],[132.73307,35.04633],[132.7348,35.04448],[132.73416,35.0435],[132.73482,35.04278],[132.73926,35.04255],[132.73971,35.04052],[132.74102,35.04009],[132.74389,35.0359],[132.74457,35.03071],[132.74367,35.02941],[132.74047,35.02754],[132.73066,35.0251],[132.7262,35.02292],[132.72063,35.01095],[132.71728,35.00521],[132.71423,35.00181],[132.71426,34.99834],[132.71568,34.99425],[132.72362,34.98697],[132.72445,34.98306],[132.73,34.97731],[132.73394,34.97027],[132.73463,34.95486],[132.73605,34.95225],[132.73676,34.94531],[132.74199,34.93853],[132.74834,34.93303],[132.74884,34.93043],[132.75401,34.92424],[132.76013,34.92101],[132.7684,34.91828],[132.77198,34.91799],[132.77449,34.91482],[132.7792,34.91184],[132.77781,34.90708],[132.77593,34.90514],[132.77735,34.90244],[132.77763,34.89843],[132.77695,34.89669],[132.77475,34.89508],[132.77463,34.89262],[132.78129,34.88484],[132.78272,34.88056],[132.78715,34.87388],[132.79209,34.86271],[132.79735,34.85424],[132.80416,34.84846],[132.80363,34.84645],[132.8012,34.8441],[132.80087,34.84262],[132.80164,34.84086],[132.80524,34.83831],[132.80686,34.82639],[132.80864,34.82577],[132.81274,34.82753],[132.81496,34.82731],[132.81581,34.82606],[132.81577,34.82264],[132.82174,34.82123],[132.82531,34.8157],[132.83061,34.81555],[132.83574,34.81344],[132.83755,34.81125],[132.83888,34.80195],[132.84704,34.80363],[132.85002,34.80289],[132.85923,34.80363],[132.87077,34.80576],[132.87622,34.80574],[132.87973,34.80379],[132.88525,34.79759],[132.89505,34.78883],[132.90661,34.78124],[132.9137,34.77787],[132.91915,34.77219],[132.92754,34.77006],[132.94039,34.77044],[132.9428,34.76788],[132.94649,34.76739],[132.95158,34.76372],[132.96233,34.76136],[132.96501,34.75815],[132.97111,34.7533],[132.97293,34.74771],[132.97564,34.74616],[132.97743,34.74371],[132.97764,34.74203],[132.97584,34.74022],[132.97616,34.73864],[132.97782,34.73741],[132.98515,34.73529],[132.98637,34.73334],[132.98667,34.72916],[132.98959,34.72449],[132.9943,34.72137],[132.99482,34.71725],[132.99346,34.71282],[132.98714,34.70662],[132.98363,34.70428],[132.98239,34.70184],[132.98492,34.69906],[132.99223,34.69376],[132.99149,34.6894],[132.99484,34.68453],[132.99416,34.68138],[132.99211,34.67944],[132.99534,34.6758],[132.99342,34.67431],[132.99161,34.67447],[132.98792,34.67237],[132.98922,34.66787],[132.9925,34.66194],[132.99682,34.65629],[133.00243,34.65202],[133.00306,34.64911],[133.00052,34.64566],[133.00151,34.64153],[133.00429,34.63913],[133.00866,34.63766],[133.01104,34.63537],[133.02162,34.63371],[133.02621,34.6317],[133.02762,34.62957],[133.02882,34.62304],[133.02838,34.61935],[133.03302,34.6137],[133.03672,34.60552],[133.04003,34.60089],[133.04391,34.5972],[133.04578,34.59312],[133.05285,34.58694],[133.05692,34.58524],[133.0637,34.58739],[133.06699,34.58457],[133.0668,34.57983],[133.06786,34.57786],[133.07263,34.57492],[133.08034,34.57304],[133.08369,34.5689],[133.0976,34.56641],[133.10253,34.56407],[133.10621,34.56051],[133.11331,34.55799],[133.12476,34.56013],[133.13134,34.55552],[133.13256,34.5531],[133.13469,34.55198],[133.13668,34.54722],[133.13644,34.54157],[133.13837,34.53889],[133.13688,34.53359],[133.13838,34.52958],[133.1378,34.5261],[133.13902,34.52482],[133.14263,34.52404],[133.14641,34.51879],[133.14658,34.51711],[133.14464,34.51475],[133.14446,34.51329],[133.15017,34.50441],[133.15025,34.49845],[133.14727,34.4965],[133.14592,34.49465],[133.15215,34.49318],[133.15602,34.49013],[133.16027,34.48892],[133.16101,34.488],[133.16145,34.48453],[133.16072,34.48034],[133.15936,34.47864],[133.15704,34.47079],[133.15939,34.46652],[133.16426,34.46392],[133.16622,34.46131],[133.16675,34.45775],[133.16769,34.45684],[133.17137,34.45702],[133.17476,34.45377],[133.17746,34.45299],[133.18083,34.4544],[133.18289,34.4571],[133.18436,34.4577],[133.18763,34.45565],[133.19073,34.45548],[133.19234,34.4545],[133.1959,34.44825],[133.1962,34.4462],[133.19176,34.44086],[133.19077,34.43793],[133.19085,34.43317],[133.18664,34.42343],[133.19081,34.43307]],[[133.18755,34.40267],[133.18759,34.41127],[133.1861,34.42096],[133.18664,34.42343]],[[132.74269,35.29395],[132.74691,35.29832],[132.75215,35.29964],[132.755,35.30361],[132.75701,35.30333],[132.76016,35.30062],[132.76308,35.30144],[132.76272,35.30488],[132.76455,35.30898],[132.76262,35.31405],[132.76274,35.31551],[132.77007,35.32191],[132.77218,35.32281],[132.7748,35.32649],[132.77018,35.33227],[132.76958,35.33575],[132.76801,35.33723],[132.76117,35.33952],[132.75961,35.34236],[132.74538,35.34823],[132.74466,35.35002],[132.74556,35.35719],[132.74429,35.36263],[132.74279,35.36534],[132.75032,35.36726],[132.76751,35.36848],[132.77206,35.37039],[132.78188,35.36964],[132.78928,35.37173],[132.79116,35.37334]],[[132.85622,34.8034],[132.8752,34.80607],[132.87977,34.80384],[132.88161,34.80163]]]}}]}