{"type":"FeatureCollection","features":[{"type":"Feature","properties":{"route_id":"158","route_number":158,"name":"国道158号","source":"OpenStreetMap contributors (ODbL)","osm_relations":[31352,9141158,9141159,9141160,9141161,9141163,9141164,9141165]},"geometry":{"type":"MultiLineString","coordinates":[[[137.95633,36.23164],[137.94832,36.23172],[137.93555,36.22952],[137.93115,36.2277],[137.91897,36.22546],[137.94532,36.2313],[137.95634,36.23169]],[[136.87314,35.87239],[136.87092,35.87031],[136.86764,35.86983],[136.85714,35.87315],[136.85444,35.87761],[136.85255,35.87886],[136.85007,35.87908],[136.84521,35.878],[136.84091,35.87613],[136.83907,35.87355],[136.83958,35.87094],[136.84299,35.8674],[136.84291,35.8644],[136.84045,35.86229],[136.83662,35.86219],[136.83408,35.86384],[136.83333,35.86642],[136.8353,35.87201],[136.84063,35.88003],[136.83986,35.88225],[136.83736,35.88306],[136.83535,35.88226],[136.82955,35.87609],[136.81881,35.87071],[136.81556,35.87023],[136.81903,35.87175],[136.81893,35.87301],[136.81994,35.87432],[136.82401,35.87266],[136.82836,35.87446],[136.82735,35.87533],[136.82753,35.87606],[136.82653,35.87627],[136.82748,35.87688],[136.82731,35.87779],[136.82949,35.87779],[136.82913,35.87869],[136.83043,35.87808],[136.83036,35.87894],[136.83136,35.87874],[136.83344,35.87546],[136.8363,35.87526],[136.83744,35.87693],[136.83836,35.87686],[136.83461,35.87263],[136.83249,35.87267],[136.83406,35.87186],[136.83744,35.87342],[136.84276,35.87817],[136.84766,35.87938],[136.85312,35.8793],[136.8538,35.88054],[136.85245,35.88056],[136.85334,35.87965],[136.85423,35.88073],[136.85447,35.8854],[136.85302,35.89653],[136.84627,35.9052],[136.84238,35.91247],[136.83314,35.91872],[136.83146,35.92171],[136.83017,35.93047],[136.83436,35.93364],[136.83607,35.93833],[136.8402,35.94024],[136.8452,35.93817],[136.84856,35.94034],[136.85256,35.94148],[136.85545,35.9405],[136.85776,35.93859],[136.86043,35.93856],[136.86628,35.94462],[136.87684,35.95167],[136.87759,35.95683],[136.87676,35.95957],[136.87814,35.96127],[136.87757,35.96373],[136.88042,35.96571],[136.88102,35.96764],[136.87981,35.96886],[136.88121,35.96839],[136.88309,35.9696],[136.88101,35.97361],[136.88275,35.98046],[136.88536,35.98345],[136.886,35.98624],[136.88719,35.98658],[136.88924,35.98494],[136.88835,35.98664],[136.89017,35.98486],[136.89073,35.98606],[136.89081,35.9876],[136.8892,35.99062],[136.89083,35.99556],[136.88971,35.99846],[136.88997,35.99997],[136.89107,35.99819],[136.8942,35.99854],[136.89715,35.9971],[136.90168,35.99854],[136.90295,36.00225],[136.90878,36.00739],[136.91403,36.01836],[136.91815,36.02182],[136.9188,36.02366],[136.92367,36.02639],[136.92595,36.0287],[136.92948,36.02848],[136.93107,36.03144],[136.93492,36.03241],[136.94266,36.03759],[136.94208,36.03991],[136.94292,36.04294],[136.9403,36.04439],[136.94041,36.04632],[136.94342,36.04673],[136.94511,36.04883],[136.94673,36.04637],[136.94798,36.0468],[136.949,36.04896],[136.95046,36.048],[136.95272,36.04426],[136.9526,36.0381],[136.95754,36.0301],[136.96267,36.02746],[136.96499,36.02322],[136.96991,36.01781],[136.97838,36.01562],[136.98588,36.01637],[136.98828,36.01928],[136.99308,36.02252],[136.99426,36.02488],[136.99424,36.02744],[136.98489,36.03926],[136.98251,36.04533],[136.98467,36.04809],[136.98898,36.04899],[137.00617,36.0449],[137.0127,36.04432],[137.02204,36.05049],[137.02425,36.05325],[137.02787,36.05572],[137.02866,36.05758],[137.02775,36.06043],[137.02865,36.0618],[137.03591,36.06058],[137.04593,36.06214],[137.05022,36.06671],[137.05242,36.06789],[137.05533,36.07228],[137.06255,36.0756],[137.06559,36.07574],[137.06753,36.07715],[137.0671,36.08018],[137.06919,36.0829],[137.07025,36.08811],[137.07236,36.09077],[137.07077,36.09505],[137.07282,36.0987],[137.0739,36.10268],[137.07595,36.10575],[137.07635,36.10696],[137.07563,36.10898],[137.07723,36.11093],[137.07899,36.11541],[137.0786,36.1191],[137.0775,36.12047],[137.07655,36.12419],[137.07708,36.12962],[137.07585,36.13222],[137.07692,36.13571],[137.0805,36.13977],[137.08833,36.13812],[137.09639,36.13968],[137.10029,36.13911],[137.10361,36.13979],[137.10785,36.13732],[137.11385,36.13871],[137.11696,36.14012],[137.12112,36.14361],[137.12438,36.14448],[137.12885,36.14893],[137.13349,36.14951],[137.13418,36.15312],[137.13568,36.15382],[137.13789,36.15233],[137.13625,36.14444],[137.14371,36.13922],[137.14601,36.13821],[137.14985,36.13821],[137.15745,36.13516],[137.17575,36.13274],[137.18488,36.12806],[137.18384,36.12828]],[[137.18488,36.12806],[137.19264,36.13167],[137.19864,36.13304],[137.20336,36.13875],[137.20881,36.13992],[137.22239,36.13665],[137.22802,36.13728],[137.23422,36.1366],[137.24023,36.13776],[137.25491,36.13853],[137.25443,36.14276],[137.26362,36.14463],[137.26476,36.14378],[137.26744,36.14586],[137.27525,36.14952],[137.27869,36.14935],[137.28269,36.15064],[137.28588,36.15296],[137.29157,36.15492],[137.29381,36.15436],[137.29592,36.15674],[137.29998,36.1575],[137.30697,36.16131],[137.3073,36.16484],[137.30568,36.16731],[137.30663,36.16972],[137.31555,36.17057],[137.32716,36.16886],[137.33733,36.16944],[137.34742,36.17068],[137.36643,36.17489],[137.37749,36.1748],[137.38018,36.17548],[137.38472,36.17476],[137.39084,36.17608],[137.39626,36.17497],[137.40301,36.17747],[137.41243,36.1776],[137.41708,36.17715],[137.4216,36.17399],[137.42752,36.17308],[137.43228,36.17108],[137.437,36.17094],[137.43862,36.16973],[137.44127,36.16933],[137.44488,36.16993],[137.45134,36.17476],[137.4594,36.17621],[137.46298,36.17916],[137.46369,36.1807],[137.46586,36.18188],[137.46907,36.18164],[137.47308,36.17853],[137.47379,36.17898],[137.47267,36.18019],[137.47298,36.18186],[137.47431,36.18013],[137.47707,36.18056],[137.48357,36.17846],[137.48946,36.17877],[137.49282,36.17785],[137.49996,36.17001],[137.50218,36.17176],[137.50058,36.17297],[137.50073,36.17403],[137.50231,36.17453],[137.50261,36.17277],[137.50337,36.17255],[137.50932,36.17794],[137.50803,36.17975],[137.51042,36.1808],[137.54046,36.18265],[137.54283,36.18473],[137.5454,36.18547],[137.54517,36.18774],[137.54591,36.18522],[137.54376,36.18285],[137.55062,36.18345],[137.55256,36.18831],[137.55238,36.19129],[137.55573,36.19353],[137.55904,36.19337],[137.55968,36.19509],[137.55785,36.20174],[137.55985,36.19906],[137.55932,36.20225],[137.56354,36.19448],[137.56704,36.19342],[137.5683,36.19108],[137.57103,36.19048],[137.57079,36.18885],[137.57326,36.18653],[137.57295,36.1848],[137.5774,36.18265],[137.58017,36.18222],[137.58253,36.18473],[137.58258,36.18592],[137.58477,36.18659],[137.58672,36.18876],[137.58565,36.19095],[137.5835,36.19107],[137.58296,36.19238],[137.58419,36.19345],[137.58552,36.19811],[137.59107,36.2029],[137.59182,36.20477],[137.59352,36.20584],[137.59758,36.20566],[137.59766,36.20326],[137.6005,36.20321],[137.59972,36.20137],[137.60103,36.20364],[137.59874,36.20392],[137.59908,36.2061],[137.60017,36.2072],[137.59916,36.20486],[137.59961,36.20435],[137.60119,36.20839],[137.60077,36.20628],[137.60144,36.20513],[137.60194,36.20828],[137.60211,36.2056],[137.60276,36.20872],[137.60277,36.20594],[137.60364,36.20873],[137.60414,36.20749],[137.60349,36.20634],[137.60478,36.2091],[137.60632,36.2098],[137.60507,36.20483],[137.61215,36.20088],[137.61568,36.19728],[137.62397,36.19501],[137.62483,36.19343],[137.62444,36.18991],[137.62675,36.18654],[137.62744,36.18362],[137.63037,36.17964],[137.64062,36.17436],[137.64359,36.17021],[137.65041,36.16886],[137.65107,36.16547],[137.65468,36.16343],[137.65933,36.16358],[137.66193,36.16482],[137.66442,36.16495],[137.66739,36.16377],[137.67466,36.15967],[137.68288,36.15094],[137.68992,36.14688],[137.69338,36.14582],[137.70122,36.13838],[137.70792,36.13604],[137.71733,36.13496],[137.71834,36.13415],[137.71901,36.1316],[137.72079,36.13096],[137.72331,36.13128],[137.7245,36.1299],[137.72502,36.13486],[137.73403,36.13779],[137.73809,36.13967],[137.73855,36.14069],[137.7406,36.14116],[137.74109,36.14289],[137.74366,36.14486],[137.74418,36.14668],[137.74556,36.14695],[137.74851,36.14967],[137.74976,36.15282],[137.75281,36.15378],[137.75324,36.15514],[137.75749,36.15791],[137.75856,36.1595],[137.76207,36.16144],[137.76228,36.16223],[137.76998,36.16585],[137.773,36.16903],[137.77818,36.17044],[137.77925,36.17226],[137.77884,36.17357],[137.78064,36.17494],[137.78183,36.18009],[137.78749,36.184],[137.78895,36.18433],[137.79645,36.18208],[137.80229,36.18399],[137.8067,36.18398],[137.81069,36.18657],[137.81538,36.18782],[137.81781,36.18959],[137.82041,36.18952],[137.83608,36.19559],[137.85699,36.20161],[137.86586,36.20491],[137.88471,36.20962],[137.89431,36.21435],[137.898,36.21717],[137.90278,36.21803],[137.9117,36.22344],[137.91897,36.22546]],[[136.28235,36.08605],[136.28934,36.0854],[136.29473,36.08196],[136.29796,36.08095],[136.31278,36.08053],[136.3166,36.08132],[136.32306,36.08579],[136.3273,36.08732],[136.34354,36.08631],[136.3516,36.08664],[136.35447,36.08573],[136.36402,36.07905],[136.37309,36.07417],[136.37591,36.07421],[136.38158,36.07604],[136.38486,36.076],[136.38832,36.07477],[136.39267,36.07062],[136.39473,36.06966],[136.40092,36.0695],[136.40866,36.06737],[136.41777,36.06838],[136.42815,36.0676],[136.4402,36.06452],[136.45031,36.06025],[136.46186,36.06238],[136.46742,36.06172],[136.47118,36.05882],[136.47607,36.05133],[136.47997,36.0426],[136.48286,36.03267],[136.48783,36.02075],[136.49621,36.00632],[136.49995,36.00212]],[[136.42811,35.99833],[136.43262,35.99729],[136.43656,35.99828],[136.44256,36.0014],[136.45106,36.00042],[136.45403,35.99946],[136.45572,35.99753],[136.45953,35.99548],[136.47433,35.99255],[136.47441,35.98818],[136.45362,35.99099],[136.44187,35.99516],[136.42967,35.99664],[136.42811,35.99833],[136.40636,36.0013],[136.40222,36.0046],[136.39171,36.00911],[136.38749,36.0083],[136.38132,36.00436],[136.38046,36.00266],[136.37798,36.0023],[136.37569,35.99996],[136.36676,35.99864],[136.3641,35.99912],[136.35893,36.00363],[136.35717,36.00732],[136.35528,36.00822],[136.3527,36.00708],[136.35119,36.00788],[136.35086,36.00894],[136.35287,36.01377],[136.35218,36.01673],[136.34825,36.01722],[136.34154,36.01433],[136.336,36.01419],[136.331,36.01861],[136.32565,36.02008],[136.32225,36.01917],[136.32004,36.02218],[136.31482,36.02421],[136.31177,36.023],[136.30946,36.02049],[136.30852,36.01487],[136.30635,36.01199],[136.30541,36.01181],[136.30147,36.01353],[136.30088,36.01555],[136.29561,36.02158],[136.26524,36.03091],[136.26075,36.03293],[136.25631,36.03683],[136.24886,36.04848],[136.24171,36.05269]],[[136.24171,36.05277],[136.24892,36.04853],[136.25635,36.03692],[136.2608,36.03299],[136.26483,36.03112],[136.29567,36.02166],[136.30254,36.01395],[136.30801,36.01243],[136.32704,36.0151],[136.33289,36.01434],[136.34714,36.01056],[136.35168,36.00718],[136.3565,36.00615],[136.35727,36.0047],[136.35688,36.00222],[136.35774,35.99931],[136.35962,35.99756],[136.36355,35.99599],[136.37634,35.99969],[136.37843,36.00205],[136.37985,36.00245]],[[136.87741,35.95536],[136.87717,35.95783]],[[137.22704,36.16433],[137.22275,36.16135],[137.23285,36.16952],[137.23888,36.17278],[137.25187,36.17266],[137.27193,36.17532],[137.27874,36.1748],[137.28757,36.17167],[137.29413,36.17026],[137.30061,36.16649],[137.30427,36.16556],[137.32686,36.16618],[137.32869,36.16669],[137.32861,36.1688]],[[137.48316,36.17854],[137.48574,36.17829]],[[137.17439,36.13885],[137.16317,36.13871],[137.1563,36.13948],[137.16378,36.1388],[137.17259,36.13917],[137.18049,36.13787],[137.17439,36.13885]],[[136.51808,35.97871],[136.52386,35.98011],[136.51755,35.97848],[136.50473,35.97038],[136.48831,35.96986],[136.48088,35.97333],[136.47851,35.98284],[136.47441,35.98818]],[[136.55198,35.9738],[136.5638,35.97244],[136.56758,35.97124],[136.56926,35.96947],[136.57211,35.96841],[136.57557,35.96805],[136.58037,35.9662],[136.58711,35.96585],[136.58848,35.96477],[136.5914,35.96538],[136.59311,35.96793],[136.59997,35.96508],[136.60387,35.96494],[136.60571,35.96396],[136.60599,35.96123],[136.61409,35.95583],[136.61861,35.9557],[136.62117,35.95471],[136.6227,35.95129],[136.62556,35.94846],[136.62786,35.94892],[136.63124,35.94789],[136.63385,35.94848],[136.63761,35.9511],[136.63933,35.95073],[136.64001,35.94881],[136.63904,35.9474],[136.64091,35.94121],[136.63548,35.93862],[136.63739,35.93281],[136.63304,35.92792],[136.63456,35.92712],[136.63838,35.92789],[136.64087,35.92599],[136.64515,35.92448],[136.64522,35.9236],[136.64316,35.92173],[136.6366,35.92028],[136.63428,35.91854],[136.62606,35.92045],[136.62565,35.91691],[136.62714,35.91349],[136.63498,35.9076],[136.64565,35.90639],[136.64935,35.90266],[136.65243,35.90082],[136.65547,35.90075],[136.66326,35.90487],[136.66984,35.9053],[136.66956,35.90713],[136.67064,35.90765],[136.67293,35.90459],[136.67704,35.90314],[136.67838,35.90182],[136.678,35.89759],[136.67917,35.8962],[136.68349,35.89697],[136.6861,35.89662],[136.68953,35.89486],[136.69654,35.89485],[136.69634,35.89409],[136.6914,35.89224],[136.69302,35.88007],[136.69452,35.87829],[136.69605,35.87819],[136.69795,35.87941],[136.70152,35.87821],[136.70483,35.87801],[136.70684,35.87878],[136.71313,35.87788],[136.71801,35.87993],[136.72597,35.87882],[136.72756,35.88005],[136.73329,35.88082],[136.73872,35.87961],[136.74051,35.87782],[136.74293,35.87852],[136.75187,35.87606],[136.7533,35.87695],[136.75582,35.87644],[136.75723,35.87764],[136.7593,35.87801],[136.76187,35.87725],[136.76414,35.87961],[136.77117,35.87988],[136.7824,35.87776],[136.78423,35.87841],[136.78808,35.8778],[136.79123,35.87384],[136.79746,35.87309],[136.79929,35.87076],[136.80492,35.8721],[136.8114,35.87169],[136.81556,35.87023]],[[136.8733,35.87229],[136.87253,35.8716]],[[136.4781,35.98356],[136.47899,35.98231],[136.4798,35.97738]],[[137.1563,36.13948],[137.14132,36.14058],[137.1162,36.13708],[137.1055,36.1364],[137.0919,36.13753],[137.08356,36.13965],[137.08112,36.13895],[137.07882,36.13657]],[[137.07874,36.1366],[137.08132,36.13908]],[[137.18049,36.13787],[137.18752,36.13919],[137.1958,36.14551],[137.2083,36.15155],[137.22275,36.16135]],[[136.5051,36.00368],[136.50902,36.00382],[136.50506,36.00358]],[[136.52386,35.98011],[136.53261,35.97946],[136.53968,35.97801],[136.54793,35.97382],[136.55166,35.97391]],[[137.71925,36.13146],[137.72355,36.13058],[137.72755,36.13138],[137.73821,36.14011]],[[137.2334,36.16988],[137.22881,36.16577]],[[136.28237,36.08616],[136.2866,36.08585]],[[136.55165,35.97384],[136.55165,35.97384]],[[136.55166,35.9738],[136.5512,35.97383]],[[136.55197,35.97393],[136.5525,35.97391]],[[136.30145,36.0149],[136.30095,36.01559]],[[136.50067,36.00165],[136.50342,36.00033]],[[137.78095,36.17622],[137.77142,36.1674]]]}}]}