{"type":"FeatureCollection","features":[{"type":"Feature","properties":{"route_id":"423","route_number":423,"name":"国道423号","source":"OpenStreetMap contributors (ODbL)","osm_relations":[8028283,8820384,19145610]},"geometry":{"type":"MultiLineString","coordinates":[[[135.48863,34.83859],[135.48851,34.83645],[135.48736,34.85893],[135.48442,34.86513],[135.47802,34.86948],[135.45826,34.87696],[135.45575,34.87729],[135.45446,34.87638],[135.45569,34.87509],[135.45498,34.87448],[135.4506,34.87452],[135.45058,34.87184],[135.44874,34.86962],[135.4492,34.86765],[135.44733,34.86649],[135.44579,34.86663],[135.44258,34.86412],[135.4433,34.86303],[135.44508,34.8638],[135.44679,34.86344],[135.4458,34.85975],[135.44314,34.85875],[135.44252,34.85626],[135.4292,34.84543],[135.42445,34.83228],[135.42375,34.82507],[135.42469,34.82281],[135.43647,34.81609],[135.44577,34.80949],[135.44757,34.80693],[135.44943,34.81056],[135.46075,34.81411],[135.48104,34.82778],[135.48853,34.82995],[135.48856,34.83286],[135.48899,34.82428],[135.49337,34.81302],[135.4929,34.80319],[135.49735,34.79193],[135.49698,34.78114],[135.49515,34.7738],[135.49744,34.76527],[135.49663,34.75241],[135.49834,34.74182],[135.49847,34.72501],[135.50052,34.70659],[135.50155,34.70476],[135.50202,34.69841],[135.506,34.69782]],[[135.57127,35.01378],[135.56487,35.01205],[135.5569,35.00515],[135.55094,34.99767],[135.54245,34.99737],[135.53814,34.9961],[135.53627,34.99373],[135.53568,34.98664],[135.53698,34.98525],[135.53701,34.98298],[135.53619,34.98526],[135.53474,34.98535],[135.53551,34.98404],[135.5336,34.98507],[135.5291,34.98081],[135.52731,34.98003],[135.52603,34.9806],[135.52488,34.97906],[135.52368,34.97879],[135.52394,34.97781],[135.52278,34.97611],[135.5291,34.98081]],[[135.50138,34.69675],[135.50184,34.69959]],[[135.5021,34.69961],[135.50131,34.69615]],[[135.49669,34.75138],[135.49731,34.76559],[135.49505,34.7738],[135.49688,34.78118],[135.49725,34.79195],[135.49283,34.80299],[135.49296,34.80785]],[[135.49884,34.732],[135.49875,34.72813]],[[135.49577,34.79753],[135.49313,34.8035],[135.49354,34.8135],[135.48916,34.8246],[135.48868,34.83307],[135.48899,34.82465],[135.49347,34.81302],[135.49308,34.80324],[135.49755,34.7925],[135.49717,34.78115],[135.49536,34.77342],[135.49762,34.7653],[135.49684,34.75246],[135.49863,34.7417],[135.49878,34.72497],[135.50011,34.71687],[135.50062,34.70674],[135.50187,34.70279]],[[135.48856,34.83286],[135.48735,34.8582],[135.48645,34.86172],[135.48471,34.86462],[135.48163,34.86747],[135.47797,34.86939],[135.45751,34.87709],[135.45577,34.87719],[135.45453,34.87638],[135.45569,34.87509],[135.45613,34.8771],[135.45953,34.87999],[135.46085,34.88381],[135.46418,34.88473],[135.46682,34.88663],[135.46827,34.88912],[135.47325,34.89263],[135.47347,34.89447],[135.47603,34.89575],[135.47859,34.89588],[135.47893,34.89976],[135.48185,34.9022],[135.48194,34.90673],[135.48451,34.90918],[135.48919,34.91163],[135.49322,34.91698],[135.49511,34.92143],[135.49217,34.92555],[135.49289,34.92858],[135.49072,34.93055],[135.4904,34.93198],[135.49165,34.9358],[135.49611,34.94093],[135.49788,34.94991],[135.50208,34.95272],[135.50449,34.95322],[135.5081,34.95246],[135.51132,34.95358],[135.5121,34.95549],[135.5113,34.95698],[135.51213,34.95917],[135.51072,34.9604],[135.51044,34.96181],[135.51408,34.96714],[135.51646,34.96924],[135.51761,34.97265],[135.52295,34.97592]],[[135.49583,34.7974],[135.4977,34.7919],[135.49724,34.7808],[135.49545,34.77437],[135.49771,34.76529],[135.49698,34.7546]],[[135.45395,34.81168],[135.44877,34.80962]],[[135.49826,34.73477],[135.49829,34.74164]],[[135.49824,34.73371],[135.49823,34.73385]],[[135.49691,34.75356],[135.49694,34.75142]],[[135.49112,34.81875],[135.48883,34.82423],[135.48853,34.82995]],[[135.48851,34.83645],[135.48868,34.83307]],[[135.49304,34.80892],[135.49323,34.81301],[135.49116,34.81856]],[[135.48836,34.83591],[135.48811,34.83853]],[[135.42634,34.8374],[135.42764,34.84127]],[[135.49841,34.72811],[135.49837,34.72975]],[[135.49876,34.72697],[135.49882,34.72516]],[[135.49849,34.72515],[135.49844,34.72707]],[[135.49871,34.74165],[135.49881,34.73403]],[[135.53248,34.98408],[135.53271,34.98596],[135.53195,34.98752],[135.52736,34.9936],[135.52907,34.99434],[135.53104,34.99233],[135.53871,34.99234],[135.54418,34.9974]]]}}]}