{"type":"FeatureCollection","features":[{"type":"Feature","properties":{"route_id":"494","route_number":494,"name":"国道494号","source":"OpenStreetMap contributors (ODbL)","osm_relations":[1597628,2122956]},"geometry":{"type":"MultiLineString","coordinates":[[[133.22711,33.54659],[133.22565,33.54813],[133.22062,33.54844],[133.21805,33.54977],[133.21107,33.56331],[133.20442,33.56807],[133.20122,33.57223],[133.19865,33.57382],[133.19274,33.57362],[133.18921,33.57468],[133.1866,33.57707],[133.17903,33.57677],[133.17704,33.57754],[133.17304,33.57656],[133.17205,33.57463],[133.16928,33.5751],[133.16644,33.57411],[133.1643,33.57681],[133.16194,33.57831],[133.16263,33.58156],[133.16009,33.58182],[133.1591,33.58425],[133.16044,33.58585],[133.15954,33.58782],[133.1614,33.59352],[133.16099,33.59645],[133.16405,33.59763],[133.16478,33.6024],[133.16616,33.60377],[133.16398,33.60399],[133.16397,33.60489],[133.16648,33.60676],[133.17318,33.60923],[133.17472,33.61091],[133.17054,33.61227],[133.17027,33.6142],[133.16861,33.61576],[133.16969,33.61895],[133.16975,33.62359],[133.1658,33.625],[133.16474,33.62619],[133.16368,33.62847],[133.1635,33.63333],[133.16175,33.63486],[133.16189,33.63615],[133.15893,33.63637],[133.15527,33.63967],[133.14655,33.64051],[133.14267,33.63954],[133.13761,33.64008],[133.13427,33.63909],[133.13169,33.63946],[133.12899,33.64095],[133.12502,33.64002],[133.12243,33.64138],[133.12091,33.64037],[133.12256,33.63871],[133.11894,33.64011],[133.11843,33.63768],[133.11728,33.6364],[133.11347,33.6377],[133.1098,33.63583],[133.10667,33.63744],[133.10208,33.63726],[133.09817,33.63818],[133.09755,33.63753],[133.0935,33.63858],[133.09222,33.63798],[133.09199,33.6366],[133.08845,33.63655],[133.08819,33.63734],[133.08744,33.63658],[133.08487,33.63632],[133.08323,33.63875],[133.08271,33.63721],[133.07835,33.63778],[133.07682,33.64123],[133.07593,33.64063],[133.07614,33.63986],[133.07534,33.64091],[133.07595,33.64104],[133.07136,33.64196],[133.06581,33.64095],[133.06466,33.64329],[133.06384,33.64034],[133.05844,33.64132],[133.05544,33.63936],[133.05203,33.64019],[133.05026,33.63923],[133.04712,33.64168],[133.04049,33.63978],[133.03329,33.63918],[133.03025,33.64033],[133.02776,33.63945],[133.02383,33.63994],[133.02234,33.63888],[133.02006,33.6402],[133.01739,33.63719],[133.01551,33.63726],[133.01287,33.63603],[133.01058,33.63665],[133.00757,33.63482],[133.00452,33.63485],[133.00468,33.63673],[133.00627,33.63912],[133.00409,33.64308],[133.00416,33.64586],[133.0056,33.6481],[133.00603,33.65076],[133.00874,33.65275],[133.01038,33.65567],[133.01216,33.66141],[133.00954,33.6639],[133.00391,33.66362],[133.00308,33.66546],[133.00578,33.66683],[133.00695,33.66955],[133.00876,33.6711],[133.01236,33.67157],[133.01402,33.67357],[133.01827,33.67547],[133.02109,33.67588],[133.02376,33.67508],[133.03137,33.678],[133.03507,33.67724],[133.03857,33.67756],[133.03674,33.67989],[133.03821,33.6832],[133.0338,33.68711],[133.03467,33.6897],[133.03333,33.6925],[133.03443,33.69408],[133.03796,33.6952],[133.03958,33.69653],[133.03954,33.69895],[133.04105,33.70065],[133.03869,33.70549],[133.04264,33.70801],[133.04298,33.71178],[133.04166,33.71353],[133.03852,33.71432],[133.03813,33.71503],[133.03926,33.71728],[133.04092,33.71757],[133.04206,33.71931],[133.04088,33.72594],[133.04164,33.72708],[133.04087,33.7308],[133.04157,33.73211],[133.03962,33.73228],[133.03781,33.73537],[133.03481,33.7362],[133.03435,33.73755],[133.0327,33.73673],[133.03062,33.73851],[133.03022,33.73746],[133.028,33.73647],[133.02646,33.73474],[133.02629,33.73573],[133.02446,33.73484],[133.01956,33.73852],[133.0189,33.73724],[133.01654,33.73958],[133.01035,33.74268],[133.00943,33.74499],[133.00891,33.74413],[133.0065,33.74548],[133.00656,33.74437],[133.0039,33.74686],[133.0046,33.74485],[133.00276,33.74629],[133.00261,33.74515],[133.00083,33.74566],[133.00004,33.74636],[133.00057,33.74734],[132.99798,33.74955],[132.99855,33.75136],[132.99989,33.74981],[132.99885,33.75285],[132.99777,33.75443],[132.99602,33.75527],[132.99609,33.75359],[132.99378,33.75406],[132.99151,33.75295],[132.98979,33.75324],[132.98954,33.75184],[132.98679,33.75224],[132.98912,33.7527],[132.98894,33.75384],[132.98857,33.75277],[132.98585,33.75296],[132.98628,33.75163],[132.9846,33.75077],[132.98569,33.74919],[132.98179,33.74947],[132.98457,33.74952],[132.98312,33.75107],[132.98501,33.75186],[132.98375,33.75422],[132.98729,33.75518],[132.98342,33.75775],[132.98492,33.75836],[132.98543,33.7602],[132.98362,33.76107],[132.98484,33.76022],[132.98418,33.75889],[132.98111,33.75813],[132.98328,33.75619],[132.98031,33.75806],[132.9824,33.75958],[132.97948,33.76148],[132.98108,33.76217],[132.98089,33.76345],[132.97865,33.76441],[132.97936,33.76613],[132.97744,33.768],[132.97582,33.76826],[132.97571,33.77033],[132.97368,33.77],[132.97286,33.77158],[132.97084,33.77211],[132.97031,33.77607],[132.96935,33.77671],[132.96969,33.77768],[132.96848,33.77674],[132.96947,33.77595],[132.96869,33.77396],[132.96997,33.77263],[132.97145,33.76895],[132.97085,33.7682],[132.97198,33.76712],[132.97086,33.76586],[132.96515,33.77204],[132.95878,33.77636],[132.95805,33.77857],[132.95644,33.77978],[132.95596,33.78187],[132.95737,33.78098],[132.95865,33.78182],[132.95945,33.785],[132.95909,33.78699],[132.95731,33.78987],[132.95063,33.79577],[132.94423,33.79521],[132.94005,33.79328],[132.91783,33.79525],[132.91148,33.79409],[132.9035,33.79795],[132.89943,33.80191],[132.8966,33.80353],[132.87775,33.80752],[132.87362,33.80657],[132.86534,33.80055],[132.86056,33.79829],[132.8486,33.79596],[132.83921,33.79258],[132.8364,33.79249],[132.83372,33.79415],[132.82119,33.80807],[132.81864,33.80869],[132.80188,33.80889],[132.79851,33.81022],[132.79335,33.81778],[132.78723,33.82138],[132.77543,33.83638],[132.77544,33.84178],[132.76515,33.84115],[132.76462,33.83945]],[[133.28693,33.42783],[133.28347,33.43313],[133.28593,33.43806],[133.2847,33.4433],[133.28557,33.44433],[133.28531,33.44531],[133.28079,33.44603],[133.27606,33.44959],[133.27548,33.45174],[133.27728,33.456],[133.28146,33.46246],[133.28372,33.46407],[133.28275,33.47],[133.28373,33.4725],[133.28503,33.48264],[133.28646,33.48528],[133.29096,33.48777],[133.29127,33.48899],[133.29008,33.48955],[133.29057,33.49291],[133.29373,33.49586],[133.29227,33.49944],[133.29905,33.5002],[133.29442,33.50153],[133.29126,33.50664],[133.28834,33.50867],[133.27502,33.5109],[133.26846,33.51301],[133.26473,33.51307],[133.26277,33.52057],[133.25991,33.5229],[133.25917,33.52648],[133.25526,33.53004],[133.24789,33.53037],[133.24335,33.53173],[133.24306,33.53797],[133.24056,33.54]],[[132.92029,33.79482],[132.91729,33.79514],[132.911,33.79412],[132.90373,33.79768],[132.89699,33.80326],[132.87784,33.80744],[132.87364,33.80648],[132.86549,33.80053],[132.8613,33.79847],[132.84909,33.796],[132.83921,33.79248],[132.83609,33.79247],[132.83377,33.79397],[132.82086,33.8081],[132.80191,33.80881],[132.79863,33.80997],[132.79337,33.8176],[132.78732,33.82116],[132.77537,33.83632],[132.77532,33.84172],[132.76522,33.84102],[132.76475,33.83938]],[[133.27839,33.49788],[133.27531,33.50212],[133.27502,33.5109]],[[133.29661,33.42762],[133.29376,33.42805],[133.29049,33.42601],[133.28795,33.42689]],[[133.28697,33.42779],[133.28779,33.427]]]}}]}