{"type":"FeatureCollection","features":[{"type":"Feature","properties":{"route_id":"414","route_number":414,"name":"国道414号","source":"OpenStreetMap contributors (ODbL)","osm_relations":[8824623]},"geometry":{"type":"MultiLineString","coordinates":[[[138.94157,35.01051],[138.9431,35.00995],[138.93906,34.99987],[138.93232,34.99368],[138.9375,34.99039],[138.94734,34.99009],[138.9488,34.98873],[138.94938,34.98544],[138.94763,34.97993],[138.94174,34.97954],[138.93689,34.97572],[138.93925,34.97086],[138.93931,34.96742],[138.93519,34.94912],[138.93444,34.94735],[138.93233,34.94585],[138.93075,34.94063],[138.93337,34.9344],[138.9324,34.92537],[138.92875,34.92059],[138.92652,34.92071],[138.92458,34.91936],[138.92338,34.9158],[138.92426,34.91288],[138.92457,34.90566],[138.92333,34.90386],[138.92581,34.90271],[138.92661,34.89981],[138.93031,34.89538],[138.92883,34.8897],[138.93232,34.88422],[138.9299,34.87974],[138.9299,34.87587],[138.92888,34.87416],[138.92644,34.87435],[138.92739,34.87242],[138.92442,34.87258],[138.91858,34.86676],[138.91957,34.86439],[138.9227,34.86133],[138.92306,34.85931],[138.92482,34.85793],[138.92109,34.85352],[138.92098,34.84996],[138.92252,34.84638],[138.92181,34.84263],[138.92029,34.84043],[138.92032,34.83817],[138.9245,34.83588],[138.92569,34.83631],[138.93033,34.83519],[138.9351,34.82698],[138.9353,34.82466],[138.93697,34.82458],[138.93253,34.82047],[138.93217,34.81777],[138.933,34.81626],[138.93215,34.81428],[138.92785,34.81385],[138.92739,34.81306],[138.92958,34.81034],[138.92967,34.80755],[138.93154,34.80653],[138.93289,34.80323],[138.93584,34.80236],[138.93387,34.80161],[138.93366,34.79976],[138.93535,34.79712],[138.93752,34.7975],[138.93666,34.79548],[138.93802,34.79491],[138.93918,34.79199],[138.93834,34.7918],[138.93922,34.79188],[138.93832,34.7917],[138.93906,34.79218],[138.94313,34.789],[138.94466,34.78764],[138.94401,34.78685],[138.94634,34.78548],[138.94794,34.78573],[138.94553,34.78281],[138.94662,34.7796],[138.94959,34.77841],[138.95045,34.77694],[138.9544,34.77641],[138.9561,34.77535],[138.9584,34.77341],[138.95776,34.77272],[138.9609,34.76779],[138.96465,34.76622],[138.9675,34.76705],[138.96902,34.76633],[138.96996,34.76729],[138.97201,34.76704],[138.97153,34.76476],[138.97278,34.76291],[138.97153,34.76239],[138.97294,34.76172],[138.9721,34.76126],[138.9726,34.7605],[138.97178,34.75954],[138.97085,34.76008],[138.96691,34.75817],[138.96288,34.75812],[138.9598,34.76138],[138.95061,34.75964],[138.94649,34.75535],[138.93388,34.74852],[138.9319,34.74236],[138.9323,34.74048],[138.92856,34.73925],[138.92967,34.73442],[138.92842,34.72909],[138.9293,34.72346],[138.93087,34.72275],[138.93769,34.72325],[138.94355,34.72249],[138.94574,34.72202],[138.94638,34.7209],[138.9465,34.71727],[138.94797,34.71395],[138.94562,34.71256],[138.94496,34.70705],[138.94104,34.70774],[138.93924,34.70514],[138.94055,34.70202],[138.94004,34.69902],[138.94118,34.69359],[138.94079,34.69106],[138.94184,34.6895],[138.94514,34.68842],[138.94588,34.68048],[138.94518,34.6779]],[[138.94279,35.00921],[138.94183,35.01032]],[[138.94213,35.01019],[138.94035,35.01198],[138.93947,35.01955],[138.93432,35.02167],[138.93056,35.02207],[138.9284,35.03507],[138.92286,35.04194],[138.91975,35.04363],[138.91837,35.04568],[138.91108,35.04811],[138.90681,35.04826],[138.90231,35.0507],[138.8923,35.05209],[138.89029,35.05115],[138.89081,35.04865],[138.89026,35.04743],[138.88908,35.04692],[138.88662,35.04752],[138.88361,35.05592],[138.88048,35.05933],[138.88008,35.0621],[138.87686,35.06926],[138.87332,35.07354],[138.86327,35.09708],[138.86263,35.10114],[138.86518,35.10407],[138.86596,35.10864],[138.8699,35.10828],[138.88244,35.11691],[138.88325,35.11824],[138.88129,35.12094]],[[138.92934,34.83533],[138.9309,34.83773],[138.93564,34.83636],[138.93496,34.83578],[138.93145,34.83653],[138.93177,34.83486],[138.93322,34.83367],[138.93233,34.83329],[138.93317,34.83167],[138.93824,34.82875],[138.93589,34.82704],[138.93593,34.82562],[138.93859,34.82602],[138.93835,34.82496],[138.93925,34.825],[138.93342,34.82144],[138.93271,34.81883],[138.93424,34.81654],[138.93289,34.81527],[138.93288,34.81386],[138.92918,34.81375],[138.9309,34.81402]],[[138.88158,35.12047],[138.88088,35.12139]],[[138.86662,35.08945],[138.8688,35.08443]],[[138.94291,35.01009],[138.94322,35.01027]]]}}]}