{"type":"FeatureCollection","features":[{"type":"Feature","properties":{"route_id":"129","route_number":129,"name":"国道129号","source":"OpenStreetMap contributors (ODbL)","osm_relations":[3846566,9069462,9069463]},"geometry":{"type":"MultiLineString","coordinates":[[[139.34481,35.58593],[139.35074,35.56998],[139.34938,35.56579],[139.34649,35.56192],[139.34846,35.55505],[139.34998,35.55299],[139.3555,35.54918],[139.36116,35.54071],[139.3625,35.5295],[139.35941,35.51693],[139.35909,35.51235],[139.36399,35.49265],[139.36825,35.46767],[139.36812,35.46503],[139.36299,35.46487],[139.36074,35.46347],[139.35979,35.46187],[139.35671,35.43008],[139.36311,35.41443],[139.36169,35.40961],[139.36154,35.36465],[139.35854,35.35896],[139.35642,35.35212],[139.35635,35.3412],[139.36044,35.32566],[139.35627,35.34118],[139.35636,35.35258],[139.35844,35.35896],[139.36142,35.36431],[139.36161,35.40982],[139.36301,35.41437],[139.35662,35.43007],[139.35967,35.46189],[139.3625,35.46479],[139.36807,35.46526],[139.36815,35.46768],[139.36384,35.49293],[139.35898,35.51235],[139.35929,35.51696],[139.36239,35.52956],[139.36095,35.54072],[139.35563,35.54886],[139.34989,35.55295],[139.34837,35.55501],[139.34639,35.562],[139.34925,35.56573],[139.35065,35.56994],[139.34461,35.58607]],[[139.36211,35.31672],[139.36044,35.32566]]]}}]}