{"type":"FeatureCollection","features":[{"type":"Feature","properties":{"route_id":"37","route_number":37,"name":"国道37号","source":"OpenStreetMap contributors (ODbL)","osm_relations":[33017,2863217]},"geometry":{"type":"MultiLineString","coordinates":[[[140.94688,42.36859],[140.94901,42.36799],[140.95207,42.36481],[140.94915,42.34613],[140.95021,42.34259],[140.94843,42.34157],[140.9472,42.34243],[140.94793,42.34351],[140.94907,42.3433],[140.94994,42.342],[140.9485,42.34348],[140.94727,42.34265],[140.94835,42.34163],[140.94956,42.34246],[140.94904,42.34605],[140.952,42.36489],[140.94882,42.36776],[140.94677,42.3685]],[[140.96116,42.36223],[140.95613,42.36112],[140.95236,42.36194],[140.95073,42.36324],[140.9499,42.36706],[140.94778,42.36834],[140.94349,42.36891],[140.94892,42.36792],[140.95058,42.36637],[140.95112,42.3629],[140.95412,42.3615],[140.95842,42.36136],[140.96382,42.36257],[140.96848,42.36131],[140.97057,42.35944],[140.97473,42.35894],[140.98279,42.36028],[140.98762,42.35876],[140.98765,42.35579],[140.98907,42.35492],[140.99594,42.35336],[141.00332,42.3528],[141.00953,42.34992],[141.02003,42.34872],[141.02923,42.34053]],[[140.94349,42.36891],[140.94311,42.36985],[140.94436,42.37177],[140.94329,42.37257],[140.9335,42.36923],[140.93015,42.37034],[140.92842,42.37598],[140.93261,42.37936],[140.93209,42.38139],[140.9288,42.38193],[140.92356,42.38038],[140.92073,42.3804],[140.91082,42.38438],[140.90789,42.38811],[140.90794,42.40387],[140.90903,42.41279],[140.90743,42.42296],[140.89931,42.43742],[140.89806,42.44974],[140.89675,42.45185],[140.88557,42.45944],[140.87809,42.46854],[140.86666,42.474],[140.85554,42.47776],[140.83949,42.48714],[140.83276,42.49369],[140.82497,42.49314],[140.82027,42.49578],[140.81539,42.49694],[140.80978,42.50356],[140.79472,42.50981],[140.79212,42.51407],[140.78571,42.52033],[140.7752,42.53574],[140.76453,42.54939],[140.7594,42.55302],[140.75578,42.55355],[140.75334,42.55606],[140.7478,42.55787],[140.74411,42.5623],[140.73676,42.56494],[140.73577,42.56827],[140.73082,42.57379],[140.72462,42.57536],[140.72157,42.57931],[140.71338,42.58311],[140.70951,42.5864],[140.7032,42.58995],[140.69391,42.59085],[140.68549,42.58893],[140.67952,42.58846],[140.67583,42.59053],[140.67266,42.59773],[140.66747,42.59806],[140.66087,42.60071],[140.65708,42.60136],[140.64947,42.60081],[140.64119,42.59827],[140.62255,42.60096],[140.6165,42.60334],[140.60949,42.60223],[140.60684,42.5994],[140.59882,42.59365],[140.59305,42.59112],[140.59137,42.59193],[140.59342,42.59449],[140.58924,42.59525],[140.58799,42.59998],[140.58641,42.60158],[140.58236,42.60152],[140.57983,42.59792],[140.57778,42.59748],[140.57494,42.59847],[140.56902,42.6033],[140.56564,42.6043],[140.56072,42.60424],[140.55691,42.60095],[140.54256,42.59487],[140.53778,42.59492],[140.53427,42.59345],[140.51551,42.59257],[140.51258,42.5931],[140.49246,42.60127],[140.48026,42.6022],[140.4734,42.6005],[140.46915,42.60074],[140.46786,42.6001],[140.46678,42.59817],[140.46428,42.59703],[140.46074,42.59847],[140.45974,42.59587],[140.45308,42.59309],[140.45122,42.59119],[140.44938,42.58706],[140.45439,42.58071],[140.45384,42.57819],[140.41779,42.55029],[140.39137,42.52618],[140.38386,42.52114],[140.38123,42.51782]],[[141.02911,42.34046],[141.02637,42.34315]],[[140.988,42.35763],[140.9871,42.35891],[140.98229,42.36023],[140.97548,42.35895]]]}}]}