{"type":"FeatureCollection","features":[{"type":"Feature","properties":{"route_id":"292","route_number":292,"name":"国道292号","source":"OpenStreetMap contributors (ODbL)","osm_relations":[7920696,10474569,10474570,10474571,10474572,10474573]},"geometry":{"type":"MultiLineString","coordinates":[[[138.61661,36.5539],[138.61429,36.55499],[138.61347,36.55649],[138.61053,36.55864],[138.60322,36.56049],[138.60229,36.56369],[138.59874,36.56521],[138.59182,36.57374],[138.59006,36.57466],[138.58983,36.57627],[138.58653,36.57854],[138.58748,36.58021],[138.5865,36.58614],[138.58734,36.58774],[138.58743,36.59251],[138.58543,36.59558],[138.58707,36.59786],[138.58719,36.60016],[138.58369,36.60377],[138.58351,36.60693],[138.58439,36.60809],[138.58319,36.60937],[138.58416,36.61154],[138.58901,36.6128],[138.59096,36.6155],[138.59234,36.61618],[138.59339,36.61834],[138.59309,36.62081],[138.59638,36.62113],[138.59782,36.62033],[138.6038,36.62218],[138.61288,36.62211],[138.61968,36.62],[138.62519,36.6218],[138.62857,36.62069],[138.63182,36.62197],[138.63417,36.62087],[138.63556,36.61926],[138.63475,36.61906],[138.6358,36.61887],[138.6366,36.62062],[138.63561,36.62074],[138.63603,36.62199],[138.63522,36.6222],[138.63623,36.62244],[138.63648,36.62119],[138.63743,36.62124],[138.63807,36.61689],[138.63485,36.6169],[138.63792,36.6163],[138.63924,36.6171],[138.63838,36.6157],[138.64043,36.61492],[138.63986,36.60978],[138.63724,36.60594],[138.63591,36.60631],[138.63045,36.60324],[138.63055,36.60139],[138.62543,36.5928],[138.62593,36.5889],[138.62269,36.58563],[138.62349,36.58154],[138.6231,36.57601],[138.62438,36.57319],[138.62656,36.57087],[138.63196,36.56853],[138.63767,36.56819],[138.63893,36.56307],[138.64123,36.56208],[138.64189,36.56082],[138.64148,36.55981],[138.63938,36.55873],[138.63954,36.55801],[138.64527,36.55755],[138.64781,36.55571],[138.64752,36.55197],[138.6447,36.54988],[138.64341,36.55045]],[[138.59309,36.62081],[138.58774,36.62171],[138.58726,36.62313],[138.58535,36.62402],[138.58558,36.62662],[138.58776,36.62811],[138.58831,36.62962],[138.58582,36.63124],[138.58437,36.63371],[138.58339,36.63242],[138.57954,36.63429],[138.57985,36.6332],[138.57826,36.63387],[138.58184,36.63186],[138.58234,36.63074],[138.57936,36.63177],[138.57804,36.63159],[138.57782,36.63075],[138.57617,36.63125],[138.57473,36.6301],[138.57454,36.6288],[138.57349,36.62947],[138.57356,36.63123],[138.57262,36.63148],[138.57117,36.63065],[138.57035,36.62882],[138.56982,36.62968],[138.56662,36.62916],[138.56559,36.62799],[138.56512,36.6285],[138.56461,36.62706],[138.56291,36.62646],[138.5634,36.62756],[138.5612,36.62782],[138.55827,36.62775],[138.56058,36.62675],[138.55594,36.62757],[138.55346,36.6268],[138.55399,36.62798],[138.55268,36.62905],[138.55365,36.62962],[138.55337,36.63065],[138.55584,36.62974],[138.55834,36.63088],[138.55632,36.63113],[138.55521,36.63295],[138.55549,36.6345],[138.55378,36.63359],[138.55336,36.63206],[138.55053,36.63313],[138.54865,36.63488],[138.54716,36.63516],[138.54866,36.63384],[138.54536,36.6348],[138.54595,36.63614],[138.54454,36.63477],[138.54663,36.63351],[138.54356,36.63418],[138.54348,36.6357],[138.54131,36.63506],[138.53947,36.63707],[138.53667,36.63679],[138.52575,36.63929],[138.5264,36.64068],[138.52409,36.64218],[138.52263,36.64127],[138.51993,36.64181],[138.5198,36.64233],[138.52501,36.64341],[138.52542,36.65119],[138.53012,36.65526],[138.52974,36.65711],[138.53141,36.65796],[138.52949,36.65803],[138.53414,36.65839],[138.53635,36.66432],[138.53435,36.66644],[138.52901,36.66584],[138.52671,36.66663],[138.52502,36.66627],[138.52066,36.66908],[138.519,36.669],[138.51892,36.67094],[138.51775,36.66912],[138.51778,36.67075],[138.51396,36.668],[138.51529,36.66976],[138.51305,36.66954],[138.51434,36.67137],[138.51173,36.67076],[138.51344,36.67399],[138.50822,36.67322],[138.50975,36.67701],[138.5076,36.67589],[138.50732,36.67877],[138.50283,36.68008],[138.50293,36.68144],[138.50113,36.68128],[138.5016,36.68219],[138.49961,36.68171],[138.4986,36.68448],[138.49536,36.68723],[138.49296,36.69058],[138.49073,36.6953],[138.4914,36.69714],[138.49317,36.69796],[138.49338,36.69898],[138.49158,36.70193],[138.49112,36.70471],[138.4886,36.70701],[138.49034,36.70736],[138.48846,36.70807],[138.49273,36.71137],[138.49526,36.71182],[138.49593,36.71337],[138.49394,36.71392],[138.49388,36.71581],[138.49196,36.71817],[138.48769,36.71793],[138.48629,36.71922],[138.48285,36.71727],[138.47622,36.72094],[138.47511,36.72204],[138.47471,36.72453],[138.47395,36.72441],[138.47374,36.72268],[138.46989,36.72451],[138.46962,36.72335],[138.4715,36.72226],[138.47116,36.72154],[138.46789,36.72388],[138.4663,36.72409],[138.46592,36.72332],[138.46767,36.7232],[138.46884,36.72214],[138.4684,36.72093],[138.46265,36.71908],[138.46135,36.71975],[138.4595,36.71917],[138.45747,36.72038],[138.45377,36.71932],[138.45336,36.71706],[138.45068,36.71736],[138.45113,36.71978],[138.45524,36.72183],[138.45638,36.72323],[138.45171,36.72116],[138.45077,36.72175],[138.45111,36.72311],[138.45175,36.7222],[138.44794,36.72201],[138.44629,36.72035],[138.44456,36.72601],[138.44265,36.72815],[138.44039,36.72922],[138.43583,36.72952],[138.43014,36.72807],[138.42742,36.72825],[138.42404,36.72946],[138.41888,36.73412],[138.41312,36.73521],[138.4045,36.74204],[138.40246,36.7464],[138.39493,36.75523],[138.38854,36.75967],[138.38382,36.75849],[138.37091,36.75785],[138.35276,36.75369],[138.35044,36.75961],[138.35073,36.79875],[138.34935,36.80153],[138.351,36.8075],[138.34928,36.81181],[138.34849,36.8191],[138.35051,36.82232],[138.35027,36.82317],[138.35356,36.82648],[138.35469,36.83013],[138.35877,36.8373],[138.36123,36.83911],[138.3639,36.84414],[138.37105,36.86469],[138.35819,36.86892],[138.34565,36.86972],[138.34401,36.86828],[138.3414,36.86787],[138.34055,36.86699],[138.33842,36.8665],[138.33314,36.86717],[138.33199,36.86646],[138.32938,36.86711],[138.32867,36.868],[138.32652,36.86798],[138.32212,36.87032],[138.322,36.8731],[138.31987,36.87502],[138.3188,36.87907],[138.32081,36.88118],[138.32035,36.88272],[138.32139,36.88513],[138.32284,36.88629],[138.32331,36.88758],[138.32277,36.88875],[138.32375,36.89054],[138.31816,36.90077],[138.31709,36.90232],[138.31479,36.90309],[138.3141,36.90456],[138.3144,36.90735],[138.3163,36.91118],[138.30361,36.92261],[138.30208,36.92449],[138.30139,36.927],[138.29836,36.92909],[138.29782,36.93371],[138.29561,36.93458],[138.29318,36.93857],[138.29169,36.93947],[138.29079,36.94329],[138.29159,36.94482],[138.28791,36.94581],[138.2875,36.947],[138.28167,36.94928],[138.27781,36.95247],[138.2767,36.95475],[138.27372,36.95587],[138.27138,36.95849],[138.27051,36.9616],[138.27177,36.96718],[138.27187,36.97416],[138.27021,36.97952],[138.27223,36.98535],[138.26851,36.99594],[138.26232,37.00461],[138.26067,37.00522],[138.26151,37.00833],[138.25916,37.01551],[138.25962,37.0188],[138.2586,37.02563],[138.26013,37.0298],[138.26097,37.04173],[138.25977,37.05884]],[[138.3527,36.75385],[138.3709,36.75793],[138.38209,36.75857]]]}}]}