{"type":"FeatureCollection","features":[{"type":"Feature","properties":{"route_id":"273","route_number":273,"name":"国道273号","source":"OpenStreetMap contributors (ODbL)","osm_relations":[6632429]},"geometry":{"type":"MultiLineString","coordinates":[[[142.96858,43.88937],[142.97036,43.89289],[142.96833,43.88912],[142.96309,43.88727],[142.96311,43.88529],[142.96227,43.88446],[142.95657,43.88412],[142.94469,43.88044],[142.94171,43.88066],[142.93972,43.87863],[142.93266,43.87651],[142.92981,43.87431],[142.92349,43.87375],[142.9206,43.8714],[142.91535,43.87052],[142.90828,43.86752],[142.9012,43.86641],[142.89387,43.86735],[142.88423,43.8615],[142.88101,43.86036],[142.86646,43.85902],[142.85354,43.86048],[142.84474,43.86041],[142.84063,43.86212],[142.83799,43.86202],[142.81733,43.85474],[142.81254,43.84953],[142.79885,43.84715],[142.78786,43.84236],[142.78467,43.83985],[142.79164,43.83576],[142.80737,43.82841],[142.83977,43.82177],[142.84862,43.8175],[142.85938,43.8175],[142.86612,43.81422],[142.87177,43.81364],[142.8811,43.8031],[142.89004,43.79915],[142.8989,43.78862],[142.90308,43.77991],[142.90375,43.77489],[142.90634,43.77155],[142.90723,43.76817],[142.91816,43.76178],[142.92246,43.75782],[142.93098,43.75206],[142.93503,43.74674],[142.93569,43.74193],[142.94257,43.73445],[142.94235,43.73119],[142.94306,43.72996],[142.9491,43.7266],[142.95376,43.72744],[142.9582,43.72576],[142.96551,43.72642],[142.97487,43.72234],[143.00046,43.71715],[143.00364,43.71448],[143.00643,43.7081],[143.01545,43.69857],[143.01594,43.69616],[143.01924,43.69334],[143.01959,43.68815],[143.03201,43.68462],[143.03688,43.6808],[143.03744,43.67791],[143.03497,43.67304],[143.03759,43.66948],[143.03774,43.6668],[143.03494,43.66255],[143.03584,43.66176],[143.04151,43.66105],[143.04196,43.65777],[143.03696,43.65604],[143.03401,43.65345],[143.03302,43.65108],[143.02166,43.64638],[143.01785,43.64246],[143.01817,43.64082],[143.02255,43.64033],[143.0364,43.6443],[143.04095,43.64747],[143.04524,43.6484],[143.05368,43.64709],[143.05413,43.64547],[143.05224,43.6429],[143.04861,43.64086],[143.04745,43.63697],[143.05554,43.623],[143.05888,43.62187],[143.06252,43.61714],[143.0688,43.6152],[143.07069,43.6138],[143.08654,43.61098],[143.08976,43.60612],[143.09403,43.6028],[143.10171,43.60052],[143.11159,43.59894],[143.11554,43.59712],[143.12329,43.59641],[143.1279,43.59313],[143.12965,43.57987],[143.12669,43.57786],[143.12535,43.57539],[143.11748,43.56882],[143.11768,43.56693],[143.12024,43.56679],[143.12195,43.56982],[143.13009,43.57334],[143.13703,43.56909],[143.14025,43.5682],[143.14215,43.56858],[143.14403,43.57125],[143.14592,43.57189],[143.15282,43.56879],[143.15291,43.56704],[143.14996,43.56472],[143.14944,43.56313],[143.1528,43.55745],[143.15525,43.5503],[143.15953,43.5443],[143.16105,43.5327],[143.16042,43.5313],[143.15289,43.52422],[143.15079,43.51847],[143.14889,43.51242],[143.14892,43.50603],[143.14669,43.50287],[143.14635,43.4986],[143.14417,43.49297],[143.14559,43.48473],[143.14474,43.47991],[143.14401,43.47798],[143.14134,43.47514],[143.1405,43.46992],[143.14426,43.46522],[143.14417,43.46215],[143.14621,43.45698],[143.14626,43.45202],[143.15043,43.43732],[143.1535,43.43511],[143.15977,43.43353],[143.16407,43.43141],[143.17019,43.42358],[143.17532,43.41915],[143.17696,43.41639],[143.1831,43.3957],[143.19044,43.38926],[143.19273,43.38489],[143.19971,43.38034],[143.1982,43.37705],[143.19985,43.37256],[143.19949,43.37141],[143.19335,43.36878],[143.18627,43.36704],[143.1854,43.36609],[143.18561,43.36492],[143.19925,43.36491],[143.21054,43.36948],[143.21709,43.3713],[143.22012,43.37139],[143.2264,43.37076],[143.23038,43.36949],[143.23366,43.36708],[143.23626,43.36255],[143.23758,43.36182],[143.24482,43.36281],[143.2486,43.36075],[143.25291,43.35989],[143.2557,43.35641],[143.26028,43.35479],[143.26248,43.35265],[143.27049,43.3482],[143.27382,43.34541],[143.28075,43.34394],[143.28604,43.33953],[143.28758,43.33604],[143.30009,43.32397],[143.31131,43.30552],[143.29331,43.22495],[143.28286,43.21913],[143.27585,43.20804],[143.26595,43.16695],[143.26312,43.16506],[143.24853,43.16128],[143.24637,43.15945],[143.24263,43.15335],[143.21877,43.04776],[143.20615,43.03467],[143.20465,43.03223],[143.2056,43.02186],[143.20383,43.01461],[143.20392,43.012],[143.20282,43.01017],[143.1986,43.0068],[143.19801,43.00538],[143.20194,42.99802],[143.2033,42.99057],[143.20804,42.97624],[143.2041,42.94315],[143.20123,42.93464],[143.2034,42.93397],[143.20408,42.93208]],[[143.3096,44.37533],[143.29973,44.36948],[143.29635,44.36337],[143.28046,44.35354],[143.294,44.31443],[143.29108,44.28234],[143.28699,44.27304],[143.26637,44.25687],[143.24879,44.23384],[143.2473,44.23059],[143.2443,44.22795],[143.23664,44.21809],[143.23436,44.21727],[143.15506,44.20787],[143.15237,44.20278],[143.14614,44.19955],[143.14152,44.1987],[143.13326,44.19538],[143.12781,44.19122],[143.12242,44.19099],[143.11086,44.19471],[143.09708,44.19687],[143.0859,44.19721],[143.0837,44.19618],[143.08223,44.19123],[143.07947,44.18943],[143.07555,44.18856],[143.07193,44.18884],[143.06575,44.18583],[143.0589,44.18622],[143.04998,44.18155],[143.04761,44.17846],[143.04365,44.17607],[143.02795,44.16053],[143.00725,44.12307],[143.0077,44.1218],[143.01192,44.12019],[143.01364,44.11823],[143.01358,44.11632],[143.01158,44.11367],[143.01096,44.11075],[143.00068,44.09821],[142.99702,44.09612],[142.99532,44.09218],[142.98366,44.07985],[142.98281,44.07696],[142.98023,44.06109],[142.98044,44.05747],[142.97758,44.05174],[142.9776,44.04769],[142.97906,44.04647],[142.9851,44.04589],[142.98769,44.04325],[142.99042,44.04222],[142.99348,44.03555],[142.99773,44.03331],[142.99731,44.0304],[142.99816,44.02873],[142.99648,44.02477],[142.99435,44.02231],[142.98775,44.01806],[142.98374,44.01786],[142.98218,44.01502],[142.98497,44.00932],[142.98727,44.00736],[142.98853,44.00082],[142.9924,43.99671],[142.99406,43.98927],[142.9937,43.98783],[142.99091,43.98608],[142.98502,43.98008],[142.98439,43.9781],[142.98493,43.97299],[142.98259,43.97185],[142.9841,43.97214],[142.98492,43.97329]],[[142.98259,43.97185],[142.97693,43.97113],[142.96844,43.96714],[142.95485,43.95529],[142.95206,43.95026],[142.95072,43.9457],[142.94549,43.93816],[142.94635,43.93622],[142.97508,43.91329],[142.97359,43.90937],[142.97536,43.9065],[142.9746,43.90371],[142.97615,43.89797],[142.9749,43.89603],[142.97036,43.89289]],[[143.20396,42.9321],[143.20314,42.93405],[143.20104,42.93452],[143.20384,42.94215]],[[143.20528,43.01975],[143.20397,43.01455]]]}}]}