{"type":"FeatureCollection","features":[{"type":"Feature","properties":{"route_id":"148","route_number":148,"name":"国道148号","source":"OpenStreetMap contributors (ODbL)","osm_relations":[3862939,9108050,9108051,9108052,9108053,9108054,9108055,9108056,9108057]},"geometry":{"type":"MultiLineString","coordinates":[[[137.84857,36.60049],[137.84697,36.59788],[137.84922,36.60163],[137.85693,36.60699],[137.86127,36.61355],[137.86175,36.61567],[137.86,36.62041],[137.85799,36.62192],[137.85348,36.6233],[137.85129,36.62522],[137.84683,36.62486],[137.84356,36.62599],[137.84478,36.63108],[137.84437,36.64642],[137.84811,36.65696],[137.84903,36.66646],[137.85072,36.67003],[137.85024,36.67247],[137.86633,36.70256],[137.86751,36.70823],[137.86975,36.71214],[137.87332,36.71386],[137.87864,36.71499],[137.88162,36.71726],[137.88249,36.72376],[137.88572,36.72757],[137.88389,36.73568],[137.88506,36.74],[137.88457,36.74169],[137.88623,36.743],[137.88742,36.74566],[137.89041,36.74723],[137.89069,36.7491],[137.89309,36.75316],[137.89603,36.75471],[137.89781,36.76011],[137.90074,36.76553],[137.9022,36.76744],[137.90529,36.76893],[137.90522,36.7702],[137.90726,36.77393],[137.90708,36.77755],[137.90812,36.77975],[137.90996,36.78219],[137.91337,36.78377],[137.91412,36.7855],[137.91333,36.793],[137.91122,36.79963],[137.91311,36.80473],[137.9131,36.80788],[137.90954,36.81605],[137.90494,36.819],[137.90787,36.82331],[137.90806,36.82537],[137.90272,36.83157],[137.90446,36.83501],[137.90402,36.8373],[137.90654,36.84133],[137.89839,36.84757],[137.89633,36.85274],[137.895,36.85425],[137.88196,36.86002],[137.87772,36.86318],[137.87459,36.86699],[137.87076,36.86927],[137.86516,36.87659],[137.86388,36.8848],[137.86081,36.88887],[137.86087,36.8921],[137.86358,36.896],[137.86861,36.89825],[137.87081,36.90197],[137.86747,36.90468],[137.86165,36.90721],[137.86316,36.91033],[137.86322,36.91311],[137.86562,36.91576],[137.87221,36.91593],[137.87383,36.91638],[137.87452,36.91745],[137.87066,36.9254],[137.86805,36.92692],[137.86726,36.92945],[137.86164,36.93348],[137.85955,36.93732],[137.85749,36.93808],[137.85643,36.93947],[137.85825,36.94456],[137.85722,36.9486],[137.85867,36.9532],[137.86428,36.95996],[137.86504,36.96156],[137.86457,36.96442],[137.86791,36.97069],[137.87071,36.97381],[137.8693,36.97711],[137.86976,36.98002],[137.86704,36.98679],[137.8705,36.98906],[137.87162,36.99538],[137.87038,37.00197],[137.86249,37.01872],[137.8586,37.02191],[137.85573,37.02191],[137.85391,37.02314],[137.85322,37.02538],[137.85388,37.029],[137.85335,37.03852],[137.85028,37.04495]],[[137.85684,36.51358],[137.8524,36.51305],[137.85021,36.51989],[137.85289,36.52121],[137.84259,36.54019],[137.84546,36.5459],[137.84276,36.55225],[137.8444,36.56225],[137.83832,36.57083],[137.8385,36.57884],[137.84062,36.58292],[137.84169,36.58826],[137.84614,36.59506],[137.84715,36.59854],[137.84582,36.60044],[137.84613,36.60154]],[[137.90762,36.77431],[137.90773,36.77626],[137.91374,36.78266],[137.91411,36.78585]],[[137.85289,36.52121],[137.8503,36.51992],[137.85248,36.51306]]]}}]}