{"type":"FeatureCollection","features":[{"type":"Feature","properties":{"route_id":"36","route_number":36,"name":"国道36号","source":"OpenStreetMap contributors (ODbL)","osm_relations":[130867,9073424,9073426]},"geometry":{"type":"MultiLineString","coordinates":[[[141.64787,42.81787],[141.65063,42.81523],[141.66201,42.81908],[141.6999,42.78653],[141.70918,42.7678],[141.71058,42.75989],[141.71112,42.75047],[141.70846,42.7306],[141.70999,42.72206],[141.70715,42.71592],[141.67658,42.68153],[141.66935,42.67574],[141.65795,42.67181],[141.66237,42.66466],[141.61664,42.64926],[141.61756,42.64762],[141.61652,42.64932],[141.66218,42.66471],[141.65782,42.6719],[141.66926,42.67582],[141.67547,42.68068],[141.70704,42.71596],[141.70986,42.72205],[141.70834,42.7306],[141.71099,42.75044],[141.71056,42.75921],[141.70903,42.76786],[141.69955,42.78678],[141.68118,42.80269],[141.66186,42.81894],[141.65023,42.81512],[141.64651,42.8201],[141.61194,42.84822],[141.60853,42.8562],[141.60435,42.85814],[141.59975,42.86153],[141.60818,42.87506],[141.6069,42.88621],[141.60537,42.88882],[141.5606,42.90562],[141.55285,42.90657],[141.54639,42.91272],[141.54237,42.92129],[141.53863,42.9247],[141.53211,42.92827],[141.5267,42.93306],[141.52131,42.93534],[141.51315,42.93661],[141.50429,42.94142],[141.49634,42.95227],[141.49558,42.95697],[141.49431,42.95905],[141.46843,42.97852],[141.49437,42.95919],[141.49576,42.957],[141.4966,42.95204],[141.5041,42.94176],[141.51363,42.93653],[141.5212,42.93547],[141.52676,42.93313],[141.53217,42.92833],[141.53869,42.92478],[141.54248,42.92135],[141.54694,42.91222],[141.55297,42.90666],[141.56049,42.90576],[141.6057,42.88866],[141.607,42.88636],[141.60836,42.87542],[141.60752,42.87295],[141.59991,42.86162],[141.60444,42.85822],[141.60864,42.85626],[141.6117,42.84865],[141.62385,42.83861]],[[141.46843,42.97852],[141.4564,42.98536],[141.43394,43.0037],[141.40457,43.02026],[141.3994,43.0251],[141.39144,43.03801],[141.3891,43.0405],[141.363,43.05652],[141.35326,43.05557],[141.35164,43.06203]],[[141.35177,43.06205],[141.35338,43.05575],[141.36161,43.05685],[141.36377,43.05613]],[[140.97634,42.31853],[140.97317,42.32025],[140.97901,42.31786],[140.97958,42.31683],[140.99293,42.31792],[140.99587,42.32116],[140.99549,42.32616],[140.99629,42.32903],[140.99931,42.33209],[141.0026,42.33377],[141.00762,42.33453],[141.01404,42.33802],[141.02347,42.33748],[141.03603,42.34459],[141.03875,42.34782],[141.04923,42.35578],[141.08051,42.38809],[141.10094,42.40439],[141.10539,42.4053],[141.12359,42.41891],[141.12481,42.42167],[141.14504,42.43702],[141.15229,42.44362],[141.15764,42.44507],[141.16418,42.4442],[141.16861,42.44478],[141.17322,42.44733],[141.17543,42.45058],[141.17643,42.45376],[141.18321,42.45688],[141.1916,42.45634],[141.2218,42.46489],[141.23793,42.47542],[141.27022,42.49866],[141.28475,42.50766],[141.29301,42.5116],[141.3051,42.51908],[141.31816,42.5259],[141.32503,42.53188],[141.33233,42.53677],[141.33976,42.53927],[141.34833,42.54409],[141.35537,42.54519],[141.37839,42.55704],[141.38017,42.55874],[141.38203,42.56381],[141.39146,42.56716],[141.39703,42.57161],[141.41691,42.57717],[141.42918,42.58213],[141.51607,42.612],[141.53221,42.61627],[141.54075,42.61695],[141.59184,42.62645],[141.59325,42.62817],[141.61843,42.64288],[141.61883,42.64533],[141.61756,42.64762]],[[141.04923,42.35578],[141.03878,42.34772],[141.0361,42.34454],[141.02396,42.33759],[141.01407,42.33795],[141.00813,42.33466],[141.0024,42.33362],[140.99945,42.33193],[140.99617,42.32838],[140.99559,42.32605],[140.996,42.32127],[140.99346,42.31809],[140.98668,42.31686],[140.97951,42.3167],[140.97873,42.31797]],[[141.60053,42.63245],[141.61866,42.64377]],[[140.97317,42.32025],[140.96978,42.32363]],[[141.10432,42.40492],[141.10112,42.40428],[141.08022,42.3877],[141.07446,42.38191]],[[141.24502,42.48048],[141.22077,42.46437],[141.19205,42.45633],[141.18426,42.45709],[141.17791,42.4545]],[[141.55014,42.61877],[141.54095,42.61688],[141.53223,42.61619],[141.51491,42.61155],[141.45124,42.58956]],[[141.40037,42.57263],[141.39675,42.57131],[141.39106,42.56682],[141.38211,42.56371],[141.38016,42.55844],[141.37849,42.55699],[141.35545,42.54512],[141.34852,42.54405],[141.33934,42.53898],[141.33271,42.53688],[141.32511,42.53179],[141.31944,42.52684]]]}}]}