{"type":"FeatureCollection","features":[{"type":"Feature","properties":{"route_id":"335","route_number":335,"name":"国道335号","source":"OpenStreetMap contributors (ODbL)","osm_relations":[6651324]},"geometry":{"type":"MultiLineString","coordinates":[[[145.19235,44.01877],[145.19271,44.01764],[145.18978,44.01421],[145.18029,44.00742],[145.17897,44.0054],[145.17714,43.99884],[145.1744,43.99624],[145.16858,43.99303],[145.16662,43.99055],[145.16336,43.98986],[145.15479,43.98283],[145.15229,43.97576],[145.15021,43.97309],[145.14105,43.96836],[145.13342,43.95475],[145.128,43.9488],[145.1253,43.94324],[145.12507,43.93851],[145.11751,43.93348],[145.10724,43.92281],[145.10557,43.91882],[145.10724,43.91496],[145.10709,43.91369],[145.09815,43.90779],[145.09946,43.90424],[145.0997,43.90032],[145.09819,43.89816],[145.09482,43.8957],[145.09139,43.88938],[145.09305,43.88353],[145.09607,43.88104],[145.09537,43.87732],[145.09242,43.87286],[145.09362,43.86813],[145.09726,43.86222],[145.09727,43.86001],[145.0944,43.85598],[145.08913,43.84395],[145.08611,43.83289],[145.08619,43.8289],[145.08165,43.82016],[145.06388,43.81135],[145.0587,43.80452],[145.06177,43.79545],[145.05847,43.79005],[145.05666,43.78281],[145.06097,43.77596],[145.06026,43.77168],[145.06171,43.76826],[145.06055,43.7626],[145.06311,43.75855],[145.06339,43.7562],[145.06625,43.74959],[145.07392,43.73994],[145.08477,43.72968],[145.08493,43.72146],[145.08676,43.72052],[145.09249,43.7208],[145.09423,43.72011],[145.09778,43.71399],[145.11222,43.69401]],[[145.09637,43.85631],[145.09581,43.8523],[145.09366,43.84887],[145.09087,43.83824],[145.08662,43.82963]]]}}]}