{"type":"FeatureCollection","features":[{"type":"Feature","properties":{"route_id":"477","route_number":477,"name":"国道477号","source":"OpenStreetMap contributors (ODbL)","osm_relations":[7417266,10040226,10040266,10040401,10041052,10042352,10042364,10661926]},"geometry":{"type":"MultiLineString","coordinates":[[[136.6241,34.96929],[136.62509,34.97248],[136.61961,34.97364],[136.61608,34.97625],[136.59931,34.97579],[136.58939,34.97411],[136.57957,34.97764],[136.55934,34.97995],[136.55715,34.98165],[136.55315,34.98707],[136.54012,34.99957],[136.5231,35.00632],[136.52071,35.00787],[136.51883,35.01101],[136.51671,35.01229],[136.50633,35.01419],[136.47959,35.01189],[136.4768,35.01503],[136.46664,35.01581],[136.4655,35.02109],[136.46122,35.02343],[136.45707,35.02272],[136.45383,35.0235],[136.45442,35.02183],[136.4528,35.02045],[136.45096,35.01963],[136.44932,35.02057],[136.4487,35.01936],[136.44472,35.01912],[136.43984,35.01616],[136.43841,35.01643],[136.43643,35.01429],[136.43521,35.01463],[136.43239,35.01343],[136.43385,35.0145],[136.43193,35.0144],[136.42866,35.01263],[136.42993,35.01439],[136.42594,35.01251],[136.4245,35.01249],[136.42595,35.01326],[136.42369,35.01309],[136.4225,35.01125],[136.42191,35.01202],[136.42012,35.0108],[136.4146,35.00986],[136.41179,35.00991],[136.40944,35.01148],[136.41073,35.00963],[136.40732,35.01057],[136.40889,35.00923],[136.40693,35.00993],[136.40773,35.00846],[136.40531,35.00893],[136.40438,35.00769],[136.40449,35.00924],[136.40255,35.00692],[136.39893,35.00672],[136.39786,35.00804],[136.39828,35.0073],[136.39712,35.00656],[136.39677,35.00506],[136.39466,35.00507],[136.3906,35.00021],[136.38832,34.9987],[136.38932,34.99744],[136.38795,34.99606],[136.38872,34.9951],[136.38843,34.99391],[136.38362,34.99398],[136.38112,34.99284],[136.38092,34.99184],[136.37854,34.99175],[136.37464,34.98949],[136.37297,34.99168],[136.37193,34.99165],[136.36793,34.98893],[136.36806,34.98703],[136.36704,34.98582],[136.36374,34.98571],[136.36218,34.98676],[136.35919,34.98339],[136.35889,34.98157],[136.35645,34.98201],[136.35719,34.98014],[136.35683,34.97897],[136.35763,34.97811],[136.35503,34.97502],[136.34916,34.97643],[136.3412,34.9732],[136.33972,34.9739],[136.3364,34.97349],[136.33236,34.97514],[136.32967,34.97988],[136.32673,34.9821],[136.32625,34.98484],[136.32906,34.98669],[136.32838,34.98772],[136.32904,34.98906],[136.32699,34.98835],[136.32555,34.99015],[136.32428,34.98898],[136.32224,34.98967],[136.3183,34.98927],[136.31747,34.9904],[136.31401,34.98863],[136.31193,34.98922],[136.30791,34.99286],[136.30362,34.99332],[136.30068,34.99453],[136.30045,34.99677],[136.29782,34.99964],[136.29078,35.00402],[136.26585,35.0124],[136.26208,35.01548],[136.25702,35.01552],[136.24412,35.01968],[136.22905,35.02175],[136.22238,35.02036],[136.21882,35.02051],[136.21138,35.0162],[136.19392,35.03522],[136.19024,35.03715],[136.17997,35.04887],[136.17268,35.04284],[136.1686,35.04555],[136.1621,35.05224],[136.15908,35.05093],[136.15562,35.04721],[136.14958,35.04505],[136.14391,35.04182],[136.14217,35.04184],[136.13637,35.03651],[136.12707,35.03133],[136.12667,35.03008],[136.12351,35.03029],[136.12082,35.03192],[136.11814,35.0362],[136.11832,35.03778],[136.1165,35.03834],[136.11416,35.04129],[136.10995,35.04438],[136.10829,35.04883],[136.10141,35.05089],[136.09887,35.05322],[136.10088,35.05508],[136.10209,35.05766],[136.10198,35.06834],[136.09976,35.07946],[136.09566,35.08778],[136.08752,35.09315],[136.08039,35.09544],[136.0772,35.0978],[136.07428,35.09813],[136.07269,35.10304],[136.06917,35.10633],[136.06916,35.10773],[136.05853,35.10832],[136.04045,35.1182],[136.03518,35.12339],[136.03559,35.12509],[136.03284,35.12772],[136.03139,35.13034],[136.03168,35.13152],[136.02917,35.13166],[136.02307,35.12819],[136.00908,35.10896],[136.00744,35.10861],[136.00612,35.11108],[135.9935,35.11783],[135.98265,35.11243],[135.97334,35.10151],[135.97004,35.09568],[135.96576,35.09233]],[[135.4696,35.11123],[135.46759,35.11172],[135.46478,35.10974],[135.46243,35.10914],[135.46269,35.10545],[135.46403,35.10277],[135.45948,35.1006],[135.45783,35.0934],[135.45911,35.0891],[135.46154,35.08743],[135.46181,35.08621],[135.46573,35.08435],[135.4724,35.08381],[135.4734,35.07871],[135.47272,35.07459],[135.4639,35.06649],[135.45829,35.06345],[135.45583,35.06327],[135.45459,35.06236],[135.4617,35.05891],[135.46623,35.05531],[135.47202,35.05239],[135.47722,35.04817],[135.48307,35.04183],[135.48579,35.03604],[135.48477,35.03534],[135.48336,35.03141],[135.4833,35.02895],[135.48725,35.0242],[135.48798,35.02168],[135.4868,35.01346],[135.48619,35.01115],[135.48353,35.00781],[135.48216,35.00446],[135.48059,35.00332],[135.48032,35.00143],[135.47761,34.99688],[135.4765,34.99408],[135.47633,34.98948],[135.47361,34.98335],[135.47079,34.98143],[135.46662,34.97654],[135.46537,34.97434],[135.46525,34.97025],[135.4623,34.96508],[135.46226,34.96373],[135.45961,34.96167],[135.45957,34.9589],[135.45611,34.95591],[135.45477,34.95259],[135.45161,34.94881],[135.45034,34.93967],[135.44556,34.93662],[135.44157,34.93031],[135.44445,34.92558],[135.44879,34.923],[135.4503,34.92016],[135.44848,34.9162],[135.44859,34.91445],[135.4468,34.91337],[135.44557,34.90998],[135.44427,34.90874],[135.44476,34.90494],[135.43199,34.89292],[135.43161,34.88859],[135.42691,34.88587],[135.42715,34.88478],[135.4237,34.88023],[135.42063,34.87896],[135.42006,34.87584],[135.41865,34.87446],[135.41517,34.86544],[135.4169,34.85324],[135.423,34.8447],[135.42634,34.8374],[135.4244,34.8319],[135.42374,34.82523],[135.42444,34.82304],[135.43647,34.81609],[135.44683,34.8086],[135.44727,34.80693]],[[135.47088,35.11031],[135.47643,35.10899],[135.47821,35.10729],[135.49279,35.09916],[135.49548,35.09661],[135.49701,35.09388],[135.50179,35.08969],[135.50499,35.08313],[135.51568,35.08117],[135.52927,35.071],[135.53262,35.0696],[135.53786,35.07216],[135.54024,35.07508],[135.54391,35.07677],[135.54598,35.07624],[135.55242,35.07763],[135.55456,35.07681],[135.56202,35.0772],[135.56324,35.07853],[135.56511,35.08461],[135.5681,35.08529],[135.57039,35.08336],[135.57686,35.08385],[135.57801,35.08473],[135.58058,35.08498],[135.58119,35.08661],[135.58505,35.08693],[135.58601,35.08785],[135.59273,35.0895],[135.59336,35.09036],[135.59491,35.08919],[135.59817,35.08936],[135.60074,35.08842],[135.60596,35.09185],[135.60748,35.092],[135.60584,35.09237],[135.60355,35.09539],[135.59912,35.09666],[135.59199,35.10123],[135.59162,35.10345],[135.58424,35.10786],[135.58309,35.11045],[135.58392,35.1143],[135.58678,35.11604],[135.58678,35.11797],[135.58585,35.11862],[135.58666,35.11961],[135.58636,35.12104],[135.58829,35.12276],[135.58742,35.12355],[135.58463,35.12222],[135.58371,35.12436],[135.58117,35.12499],[135.58234,35.12726],[135.57902,35.12822],[135.58025,35.12947],[135.57997,35.13065],[135.58335,35.13057],[135.58343,35.13193],[135.58481,35.13261],[135.58528,35.13418],[135.58891,35.1346],[135.58846,35.13692],[135.58635,35.13735],[135.5863,35.13818],[135.59007,35.14049],[135.59468,35.13875],[135.60139,35.13908],[135.60284,35.13843],[135.60566,35.13404],[135.60701,35.13342],[135.60842,35.13497],[135.60996,35.14099],[135.61129,35.14287],[135.61549,35.14386],[135.61886,35.14714],[135.61981,35.1497],[135.62206,35.14886],[135.62092,35.14747],[135.62132,35.14676],[135.62425,35.14809],[135.62613,35.15083],[135.62563,35.15135],[135.62719,35.15146],[135.62675,35.15206],[135.62736,35.1531],[135.63221,35.15144],[135.63141,35.15404],[135.63185,35.15626],[135.63607,35.15679],[135.63738,35.16284],[135.64171,35.16496],[135.64393,35.16767],[135.66283,35.18208],[135.66742,35.18333],[135.67743,35.18833],[135.68201,35.18919],[135.68409,35.19074],[135.68334,35.19485],[135.68402,35.19663],[135.68753,35.19595],[135.6919,35.19706],[135.6969,35.19672],[135.69933,35.19739],[135.70054,35.19891],[135.70209,35.19905],[135.70436,35.19698],[135.70523,35.19319],[135.70873,35.19312],[135.7083,35.1952],[135.71041,35.1971],[135.71016,35.20037],[135.71175,35.2028],[135.71335,35.20249],[135.71688,35.19959],[135.71785,35.20028],[135.71721,35.20284],[135.71795,35.2036],[135.72187,35.20458],[135.72381,35.20228],[135.7256,35.20229],[135.73694,35.20819],[135.73888,35.20834],[135.74439,35.20769],[135.74759,35.20456],[135.74918,35.20753],[135.75433,35.20871],[135.75896,35.20643],[135.75928,35.20542],[135.75829,35.20362],[135.7593,35.20286],[135.76457,35.20316],[135.76643,35.20461],[135.7688,35.20482],[135.77095,35.20613],[135.77334,35.20584],[135.77568,35.20807],[135.77816,35.20683],[135.7797,35.20701],[135.77919,35.20563],[135.78077,35.2039],[135.78515,35.20237],[135.78503,35.20073],[135.78602,35.19951],[135.78467,35.19717],[135.78579,35.19444],[135.7851,35.19238],[135.78355,35.19108],[135.78331,35.1863],[135.78545,35.18184],[135.78348,35.17984],[135.78334,35.17293],[135.78118,35.16634],[135.77918,35.16297],[135.77819,35.16282],[135.77723,35.16381],[135.77779,35.16256],[135.7759,35.15929],[135.77939,35.16045],[135.78125,35.1579],[135.78202,35.15894],[135.78301,35.15836],[135.78469,35.15962],[135.78613,35.15874],[135.78622,35.15677],[135.78696,35.15815],[135.78813,35.1582],[135.78732,35.15763],[135.78667,35.1556],[135.78757,35.15584],[135.7863,35.15458],[135.78676,35.15347],[135.78513,35.15012],[135.79008,35.15346],[135.79056,35.15166],[135.79359,35.15411],[135.79611,35.15305],[135.79777,35.15376],[135.8002,35.15682],[135.80092,35.16006],[135.80254,35.16239],[135.80909,35.16265],[135.81027,35.16138],[135.80911,35.15764],[135.80781,35.15787],[135.80761,35.15593],[135.80524,35.15671],[135.80855,35.15401],[135.80779,35.15315],[135.81141,35.15434],[135.81297,35.15409],[135.81845,35.15052],[135.82238,35.15075],[135.82391,35.1518],[135.82841,35.15091],[135.83101,35.15203],[135.83798,35.15182],[135.83928,35.1505],[135.83998,35.14662],[135.84128,35.14555],[135.84554,35.15248],[135.85184,35.15873],[135.85341,35.1632],[135.86056,35.16729],[135.86135,35.16673],[135.85966,35.16646],[135.86026,35.16453],[135.86566,35.16074],[135.86632,35.15937],[135.86879,35.15852],[135.87021,35.15696],[135.87594,35.1567],[135.87684,35.15471],[135.87603,35.15171],[135.8804,35.14353],[135.88133,35.13957],[135.88473,35.1354],[135.89293,35.13293],[135.90656,35.13416],[135.91481,35.12885]],[[135.5247,35.07445],[135.52727,35.07526]],[[135.52732,35.07518],[135.52488,35.07433]],[[135.52753,35.07532],[135.52753,35.07532]],[[135.91666,35.12797],[135.92428,35.12438],[135.94474,35.11832],[135.95225,35.11127],[135.9564,35.10188],[135.96429,35.09288],[135.97152,35.08944],[135.97642,35.09827]],[[135.94624,35.11685],[135.94332,35.11886],[135.92376,35.12449],[135.91127,35.13044],[135.90684,35.134]],[[136.11832,35.03778],[136.11591,35.03888]],[[135.42634,34.8374],[135.42305,34.84442],[135.4169,34.85298],[135.4156,34.86088],[135.41511,34.86579],[135.41706,34.86932],[135.41851,34.87434],[135.41995,34.87578],[135.42063,34.87896]],[[135.54471,35.07668],[135.54336,35.07732],[135.53481,35.07733],[135.52754,35.07529]],[[136.55721,34.98623],[136.55598,34.98816],[136.5533,34.98676],[136.55709,34.98919],[136.55707,34.98995],[136.5563,34.98964],[136.55653,34.98854]],[[136.60259,34.97589],[136.60255,34.97751],[136.59078,34.97645],[136.5771,34.98115],[136.55943,34.98408],[136.55764,34.9856],[136.55527,34.99131],[136.5509,34.9968],[136.55544,34.99079],[136.55762,34.98541],[136.55953,34.98392],[136.57722,34.98102],[136.59068,34.97638],[136.60264,34.97749],[136.60298,34.97593]],[[136.55433,34.98563],[136.54961,34.99044]],[[136.5509,34.9968],[136.54307,35.00891],[136.53387,35.01941],[136.53123,35.02108],[136.51204,35.02764],[136.50937,35.02734],[136.50218,35.02454],[136.49804,35.02127],[136.49399,35.02128],[136.49354,35.02246]],[[136.55527,34.99131],[136.55742,34.9895],[136.55513,34.98786]],[[136.55547,34.9882],[136.55599,34.98904],[136.55544,34.99079]],[[136.54901,35.00102],[136.55152,34.99584]],[[136.55137,34.99587],[136.54844,35.00081]],[[136.63478,34.96544],[136.63087,34.96766],[136.62396,34.96933],[136.62497,34.97248]],[[136.53658,35.01627],[136.53388,35.01924],[136.53658,35.01627]],[[135.46644,35.11086],[135.46478,35.10974]],[[136.60255,34.97751],[136.60264,34.97749]]]}}]}