{"type":"FeatureCollection","features":[{"type":"Feature","properties":{"route_id":"261","route_number":261,"name":"国道261号","source":"OpenStreetMap contributors (ODbL)","osm_relations":[8171702,9908788,10290603]},"geometry":{"type":"MultiLineString","coordinates":[[[132.45389,34.38463],[132.45754,34.39522],[132.44693,34.39736],[132.45019,34.4092],[132.44717,34.39745],[132.45777,34.39535],[132.45408,34.38459]],[[132.4547,34.54351],[132.45009,34.54419],[132.45508,34.54375],[132.45922,34.54201],[132.46421,34.54179],[132.45873,34.5418],[132.4547,34.54351]],[[132.45019,34.4092],[132.45276,34.40941],[132.45471,34.41585],[132.45974,34.42276],[132.45965,34.4279],[132.46469,34.43366],[132.46868,34.44154],[132.47056,34.45391],[132.47752,34.46099],[132.47848,34.46622],[132.48296,34.46965],[132.49022,34.47723],[132.50131,34.4841],[132.50224,34.48794],[132.50482,34.49124],[132.50644,34.49534],[132.5123,34.49661],[132.51247,34.50067],[132.51386,34.50423],[132.50943,34.51403],[132.51225,34.52116],[132.49463,34.52623],[132.48185,34.53218],[132.47704,34.53588],[132.47418,34.53532],[132.47161,34.53591],[132.46421,34.54179]],[[132.4771,34.46042],[132.47856,34.46657],[132.48283,34.46972],[132.49006,34.47731],[132.50128,34.48421],[132.50214,34.48796],[132.50474,34.4913],[132.50622,34.49525],[132.512,34.49747],[132.51247,34.50067]],[[132.45009,34.54419],[132.44797,34.54596],[132.44798,34.54864],[132.44626,34.55221],[132.44694,34.55714],[132.44942,34.56435],[132.44859,34.57217],[132.4491,34.57466],[132.45321,34.57682],[132.456,34.57964],[132.45678,34.58332],[132.46347,34.58417],[132.47339,34.5888],[132.48078,34.59024],[132.48442,34.59346],[132.48382,34.59395],[132.48161,34.59321],[132.48135,34.59386],[132.48275,34.59398],[132.48723,34.59798],[132.48995,34.59862],[132.49409,34.6019],[132.50247,34.61511],[132.50374,34.62371],[132.50635,34.62659],[132.50892,34.63263],[132.51013,34.63973],[132.51299,34.64412],[132.51616,34.64577],[132.52767,34.65657],[132.53072,34.6585],[132.53534,34.67201],[132.53258,34.68252],[132.52382,34.69088],[132.51604,34.69566],[132.51058,34.70209],[132.50364,34.70434],[132.50248,34.70586],[132.50178,34.709],[132.50529,34.71348],[132.50691,34.72134],[132.50892,34.7243],[132.50932,34.72697],[132.50821,34.73023],[132.50623,34.73293],[132.50204,34.73635],[132.50088,34.74217],[132.49811,34.74585],[132.4978,34.74828],[132.49999,34.75119],[132.49994,34.75412],[132.4966,34.75846],[132.48997,34.7617],[132.49211,34.76593],[132.49098,34.77043],[132.49263,34.77241],[132.49151,34.77458],[132.48972,34.77544],[132.49058,34.7797],[132.4879,34.7813],[132.48675,34.78303],[132.48649,34.78631],[132.48766,34.79074],[132.48628,34.79405],[132.48566,34.80323],[132.48809,34.80715],[132.48386,34.81326],[132.48475,34.81858],[132.4872,34.8209],[132.48765,34.82439],[132.48933,34.82732],[132.49364,34.82901],[132.49948,34.82917],[132.50133,34.83338],[132.50395,34.83422],[132.50478,34.83533],[132.50643,34.84156],[132.51498,34.84634],[132.51705,34.85191],[132.52027,34.85509],[132.52026,34.85712],[132.52214,34.85842],[132.52197,34.86003],[132.51893,34.86096],[132.50741,34.8608],[132.50722,34.86155],[132.50932,34.86438],[132.50946,34.86766],[132.50872,34.8697],[132.50539,34.87434],[132.49926,34.87547],[132.49728,34.87754],[132.49647,34.88012],[132.49743,34.88168],[132.4975,34.88638],[132.49396,34.89033],[132.49427,34.89272],[132.49205,34.89734],[132.48488,34.89803],[132.48019,34.90046],[132.4789,34.90207],[132.47698,34.90855],[132.47705,34.91186],[132.47446,34.91507],[132.47626,34.92158],[132.47353,34.92765],[132.47386,34.93403],[132.47104,34.93776],[132.4741,34.94102],[132.47322,34.94387],[132.47016,34.94798],[132.47034,34.95249],[132.46927,34.95665],[132.4723,34.96045],[132.47213,34.96714],[132.47142,34.96815],[132.46862,34.96901],[132.46851,34.96724],[132.46717,34.96529],[132.46105,34.96194],[132.45857,34.9622],[132.45388,34.96471],[132.44838,34.96612],[132.44274,34.96548],[132.43882,34.9599],[132.4367,34.95895],[132.43484,34.959],[132.42786,34.96172],[132.42434,34.9614],[132.41967,34.95889],[132.41155,34.95257],[132.4057,34.95141],[132.40262,34.95161],[132.3885,34.95671],[132.37379,34.95709],[132.37041,34.9557],[132.36786,34.95574],[132.36643,34.95674],[132.36548,34.96129],[132.36323,34.96263],[132.3572,34.96042],[132.34583,34.95881],[132.34237,34.95704],[132.34037,34.95794],[132.33954,34.9597],[132.32881,34.96916],[132.32114,34.97058],[132.31216,34.97646],[132.29902,34.98222],[132.29672,34.98906],[132.29146,34.99721],[132.28962,34.99893],[132.28529,34.99885],[132.28181,35.00031],[132.28054,35.00309],[132.28102,35.00611],[132.2798,35.00778],[132.27735,35.00811],[132.275,35.00727],[132.27112,35.00435],[132.26563,35.00507],[132.25848,35.00419],[132.25639,35.0059],[132.25455,35.01051],[132.25153,35.0114],[132.24534,35.00768],[132.24298,35.00302],[132.24068,35.00274],[132.23746,35.00395],[132.23567,35.00639],[132.23469,35.01012],[132.23596,35.01321],[132.23454,35.01445]],[[132.31985,34.97145],[132.32126,34.96905],[132.32124,34.96744],[132.32776,34.9694]]]}}]}