{"type":"FeatureCollection","features":[{"type":"Feature","properties":{"route_id":"380","route_number":380,"name":"国道380号","source":"OpenStreetMap contributors (ODbL)","osm_relations":[1061406]},"geometry":{"type":"MultiLineString","coordinates":[[[132.43125,33.45776],[132.43569,33.45873],[132.44615,33.46368],[132.45559,33.4647],[132.46116,33.46709],[132.46367,33.46946],[132.46771,33.47151],[132.46943,33.47135],[132.47166,33.46766],[132.47486,33.4665],[132.4811,33.4678],[132.48399,33.46605],[132.48749,33.46663],[132.50461,33.4764],[132.51349,33.48906],[132.51467,33.48979],[132.5203,33.4918],[132.53818,33.49031],[132.54547,33.49486],[132.54601,33.49533],[132.54561,33.49667],[132.54779,33.49815],[132.54597,33.49939],[132.54635,33.50172],[132.54428,33.50478],[132.54568,33.51247],[132.54867,33.5179],[132.56187,33.52688],[132.56689,33.52794],[132.57259,33.53123],[132.57981,33.53289],[132.59108,33.53429],[132.59557,33.53384],[132.60084,33.53561],[132.60436,33.5339],[132.60749,33.5346],[132.61587,33.53451],[132.62211,33.53323],[132.62803,33.53411],[132.63425,33.53733],[132.63842,33.53691],[132.64461,33.53773],[132.64996,33.54124],[132.65016,33.54794],[132.65114,33.54913],[132.65486,33.55084],[132.65699,33.55412],[132.65675,33.55547],[132.65764,33.55575],[132.65714,33.55474]],[[132.6577,33.55572],[132.65879,33.55552],[132.66408,33.56007],[132.66543,33.55909],[132.66623,33.55674],[132.66814,33.5555],[132.67085,33.55534],[132.67396,33.55671],[132.6772,33.56163],[132.67445,33.56492],[132.6751,33.56795],[132.67615,33.56887],[132.67867,33.56832],[132.68199,33.56526],[132.68879,33.56282],[132.69737,33.56709],[132.70094,33.56738],[132.70381,33.56907],[132.71079,33.56973],[132.71151,33.57072],[132.71133,33.57378],[132.71251,33.57473],[132.71981,33.5727],[132.72189,33.57452],[132.72723,33.57616],[132.7311,33.57633],[132.7331,33.57799],[132.73624,33.57736],[132.74181,33.57775],[132.7527,33.58441],[132.7541,33.58425],[132.75628,33.58224],[132.76006,33.58144],[132.76197,33.57976],[132.76595,33.57876],[132.7694,33.57408],[132.77471,33.57439],[132.77752,33.57211],[132.78222,33.57013],[132.78654,33.57072],[132.79021,33.56762],[132.79421,33.56745],[132.79721,33.56903],[132.7995,33.56847],[132.80418,33.57128],[132.80687,33.57186],[132.80864,33.57351],[132.80756,33.57728],[132.80809,33.57849],[132.80652,33.5812],[132.80696,33.5823],[132.8085,33.58297],[132.80906,33.58476],[132.81109,33.58608],[132.81147,33.59082],[132.81347,33.59255],[132.81741,33.59381],[132.82451,33.59801],[132.82931,33.59934],[132.83071,33.59826],[132.83148,33.5985],[132.83069,33.5978],[132.82881,33.59816],[132.83107,33.59738],[132.83286,33.59849],[132.83467,33.59828],[132.83642,33.60015],[132.83156,33.60049],[132.83095,33.60152],[132.83165,33.60075],[132.83732,33.60192],[132.84214,33.6008],[132.84802,33.60171],[132.85558,33.60494],[132.86359,33.60553],[132.86567,33.60774],[132.86948,33.60866],[132.87974,33.61329],[132.88559,33.61171],[132.88931,33.61399],[132.89253,33.61425],[132.89499,33.61633],[132.90164,33.61505],[132.90413,33.61887],[132.91199,33.61883],[132.91596,33.61672],[132.92043,33.61893]],[[132.63271,33.53679],[132.63456,33.53747],[132.63823,33.53705],[132.64442,33.53781],[132.64936,33.54077],[132.65026,33.54226],[132.64968,33.54713],[132.65093,33.54899]]]}}]}