{"type":"FeatureCollection","features":[{"type":"Feature","properties":{"route_id":"323","route_number":323,"name":"国道323号","source":"OpenStreetMap contributors (ODbL)","osm_relations":[9364401,10960060,10960061]},"geometry":{"type":"MultiLineString","coordinates":[[[130.29372,33.2743],[130.29161,33.28352],[130.28171,33.29723],[130.27705,33.308],[130.27571,33.31302],[130.27595,33.31781],[130.27046,33.32335],[130.27607,33.31778],[130.27578,33.31315],[130.27697,33.30844],[130.28158,33.29762],[130.29177,33.28336],[130.29383,33.27432]],[[130.27046,33.32335],[130.26915,33.32699],[130.26804,33.327],[130.26691,33.33],[130.26292,33.33183],[130.25876,33.33744],[130.25563,33.33794],[130.25187,33.34208],[130.24864,33.3418],[130.24775,33.34253],[130.24688,33.35412],[130.24952,33.36003],[130.24962,33.36276],[130.24343,33.36287],[130.24081,33.36519],[130.23947,33.36546],[130.23465,33.36341],[130.23058,33.36506],[130.22778,33.36476],[130.22515,33.36607],[130.21737,33.3638],[130.214,33.36424],[130.21052,33.36636],[130.20521,33.3672],[130.20443,33.37349],[130.21075,33.38022],[130.21387,33.38676],[130.21409,33.39382],[130.21555,33.39547],[130.21854,33.39652],[130.21968,33.39949],[130.21835,33.40159],[130.21323,33.40358],[130.21063,33.40853],[130.2071,33.41027],[130.20518,33.41226],[130.19839,33.41482],[130.19734,33.41599],[130.19755,33.41785],[130.2007,33.42013],[130.20337,33.42509],[130.20345,33.43042],[130.20211,33.43554],[130.20489,33.44043],[130.20509,33.44403],[130.19886,33.44407],[130.19601,33.44181],[130.18953,33.43982],[130.18064,33.44184],[130.17327,33.44146],[130.16999,33.44337],[130.16689,33.44373],[130.16572,33.44589],[130.16259,33.44799],[130.15725,33.44998],[130.1557,33.44988],[130.15561,33.4509],[130.15357,33.45217],[130.15315,33.45177],[130.15432,33.45069],[130.15356,33.44826],[130.14765,33.44351],[130.13883,33.44697],[130.13116,33.44627],[130.11964,33.44378],[130.11786,33.44407],[130.11548,33.44304],[130.11105,33.44319],[130.10719,33.44495],[130.10107,33.44401],[130.09854,33.44476],[130.09604,33.44133],[130.0923,33.44033],[130.09077,33.43911],[130.08497,33.44001],[130.0824,33.43922],[130.07937,33.43954],[130.0762,33.44115],[130.07196,33.44184],[130.06603,33.44008],[130.06378,33.44194],[130.05268,33.44722],[130.04768,33.4518],[130.04403,33.45187],[130.04186,33.45286]],[[130.20484,33.3668],[130.20345,33.36761],[130.20598,33.36929],[130.20674,33.37397],[130.20899,33.37786],[130.21169,33.38068],[130.21274,33.38314],[130.21228,33.38406]],[[130.29369,33.27439],[130.2938,33.27441]]]}}]}