{"type":"FeatureCollection","features":[{"type":"Feature","properties":{"route_id":"205","route_number":205,"name":"国道205号","source":"OpenStreetMap contributors (ODbL)","osm_relations":[9361965,9529436]},"geometry":{"type":"MultiLineString","coordinates":[[[129.92332,33.0358],[129.92121,33.0355],[129.90832,33.04164],[129.90375,33.04179],[129.90193,33.04635],[129.90286,33.04865],[129.89964,33.05187],[129.89505,33.05402],[129.89323,33.05732],[129.88642,33.05936],[129.86965,33.06908],[129.8578,33.06826],[129.85599,33.06675],[129.85298,33.06115],[129.84638,33.05833],[129.84346,33.05855],[129.83011,33.06763],[129.82403,33.07037],[129.82331,33.07154],[129.82319,33.0765],[129.82001,33.07956],[129.82054,33.08197],[129.81722,33.08493],[129.80389,33.08684],[129.79841,33.08943],[129.79269,33.09824],[129.79442,33.10476],[129.79216,33.12051],[129.78716,33.1297],[129.78646,33.13555],[129.78519,33.13851],[129.77754,33.14624],[129.78221,33.14862],[129.77836,33.14654],[129.78098,33.14292],[129.77987,33.14394]],[[129.78098,33.14292],[129.78443,33.1398],[129.78614,33.13673],[129.78729,33.12968],[129.79245,33.11999],[129.79357,33.11222]]]}}]}