{"type":"FeatureCollection","features":[{"type":"Feature","properties":{"route_id":"441","route_number":441,"name":"国道441号","source":"OpenStreetMap contributors (ODbL)","osm_relations":[9736754,9736987,9740226]},"geometry":{"type":"MultiLineString","coordinates":[[[132.94456,32.98189],[132.93731,32.98941],[132.9374,32.99061],[132.93466,32.99099],[132.93511,32.99837],[132.93099,33.00004],[132.92762,33.00448],[132.92354,33.00382],[132.92057,33.00434],[132.91569,33.00913],[132.9101,33.00986],[132.90524,33.01199],[132.90323,33.01553],[132.90458,33.02004],[132.90046,33.02258],[132.89851,33.02476],[132.89803,33.02587],[132.8987,33.02829],[132.89792,33.02935],[132.89354,33.03152],[132.88752,33.03277],[132.8805,33.03219],[132.87557,33.03459],[132.86094,33.03204],[132.85411,33.03314],[132.84898,33.03303],[132.8408,33.04409],[132.83734,33.04607],[132.83429,33.04977],[132.82912,33.05116],[132.82318,33.05134],[132.81942,33.05347],[132.82026,33.05605],[132.82635,33.06058],[132.8262,33.06354],[132.82308,33.06712],[132.81668,33.07042],[132.81417,33.07561],[132.81392,33.07964],[132.81071,33.08325],[132.80877,33.08809],[132.80523,33.0921],[132.80317,33.09726],[132.80733,33.1016],[132.81153,33.10271],[132.81505,33.10235],[132.82172,33.09883],[132.82563,33.10091],[132.82672,33.1065],[132.82491,33.11065],[132.82253,33.11279],[132.81257,33.11751],[132.82042,33.12468],[132.82089,33.12597],[132.82025,33.12838],[132.81641,33.12981],[132.81098,33.1303],[132.80697,33.13438],[132.80588,33.1369],[132.80466,33.14809],[132.80287,33.1521],[132.80151,33.15451],[132.79851,33.15667],[132.7965,33.15993],[132.79112,33.16348],[132.78966,33.16633],[132.78903,33.17076],[132.78968,33.17677],[132.78283,33.17993],[132.78013,33.17979],[132.77228,33.1773],[132.76961,33.1778],[132.76709,33.17985],[132.7669,33.18265],[132.76908,33.18732],[132.76935,33.19049],[132.76005,33.19816],[132.75834,33.20268],[132.75908,33.20425],[132.76259,33.20647],[132.76248,33.2094],[132.76067,33.21122],[132.75721,33.21276],[132.74863,33.21318],[132.74713,33.21497],[132.74753,33.21722],[132.75074,33.2198],[132.75026,33.22435],[132.7432,33.22614],[132.7359,33.22533],[132.72509,33.22589],[132.72314,33.22878],[132.71829,33.23023],[132.71614,33.22978],[132.71493,33.22724],[132.71258,33.22639],[132.71094,33.22943],[132.70653,33.23202],[132.70356,33.23254],[132.70206,33.23684],[132.6995,33.24056],[132.69794,33.24128],[132.69792,33.24304],[132.69626,33.24427],[132.69645,33.24611],[132.69419,33.24787],[132.69062,33.25301],[132.68804,33.25436],[132.6849,33.25425],[132.68283,33.25586],[132.6808,33.25538],[132.67306,33.25689],[132.67328,33.25985],[132.67466,33.26091],[132.67481,33.26238],[132.67769,33.26572],[132.67897,33.26878],[132.67909,33.27168],[132.68089,33.27407],[132.68112,33.27975],[132.68327,33.28147],[132.68305,33.28388],[132.68436,33.28751],[132.68705,33.29009],[132.68615,33.29122],[132.68796,33.2919],[132.68662,33.29474],[132.68758,33.29611],[132.68682,33.29735],[132.69052,33.30305],[132.68893,33.30713],[132.69338,33.31197],[132.69553,33.31648],[132.69647,33.31938],[132.69613,33.3217],[132.69768,33.32587],[132.69734,33.32894],[132.69327,33.33111],[132.68854,33.3366],[132.68286,33.33862],[132.68005,33.34092],[132.67718,33.34208],[132.67948,33.34149],[132.68044,33.34212],[132.67916,33.34188],[132.6791,33.3427],[132.67735,33.3435],[132.67308,33.34334],[132.67695,33.34428],[132.68025,33.3436],[132.68208,33.34455],[132.68018,33.34395],[132.67664,33.34545],[132.67409,33.34472],[132.67313,33.34593],[132.67031,33.3458],[132.67353,33.34673],[132.66838,33.34685],[132.66626,33.35254],[132.66914,33.35484],[132.66743,33.35383],[132.66581,33.35432],[132.66737,33.35485],[132.66727,33.35692],[132.66668,33.35508],[132.66428,33.35492],[132.6618,33.35591],[132.66328,33.35578],[132.66381,33.35659],[132.66504,33.35565],[132.66591,33.3563],[132.66578,33.35912],[132.66937,33.35894],[132.67125,33.35998],[132.67078,33.36139],[132.67301,33.36343],[132.67413,33.36653],[132.67318,33.36637],[132.67199,33.36879],[132.66485,33.37235],[132.66199,33.37228],[132.65958,33.37092],[132.65815,33.37097],[132.65833,33.37329],[132.65296,33.37492],[132.65178,33.37921],[132.64881,33.38164],[132.642,33.37864],[132.64292,33.37511],[132.64231,33.37065],[132.63931,33.36919],[132.63487,33.36842],[132.6323,33.36539],[132.63196,33.36239],[132.6248,33.36191],[132.62281,33.36046],[132.62128,33.36036],[132.6168,33.3626],[132.61652,33.36453],[132.61052,33.36941],[132.60975,33.3753],[132.60766,33.37804],[132.60881,33.38403],[132.60743,33.38592],[132.60139,33.38647],[132.59145,33.39077],[132.58906,33.39641],[132.58948,33.40024],[132.58825,33.40259],[132.59169,33.40683],[132.59338,33.41469],[132.58964,33.41849],[132.58657,33.42471],[132.58357,33.42828],[132.58233,33.4325],[132.57731,33.43526],[132.57687,33.44349],[132.56718,33.45293],[132.56074,33.45544],[132.56137,33.45637],[132.56292,33.45526],[132.56413,33.45587],[132.56602,33.45473],[132.56313,33.45677],[132.56243,33.45824],[132.55909,33.45835],[132.55718,33.45629],[132.55622,33.45683],[132.55662,33.45564],[132.55582,33.45531],[132.55651,33.45565],[132.55475,33.46016],[132.55702,33.45858],[132.55655,33.45991],[132.55959,33.46037],[132.55496,33.46137],[132.55162,33.46504],[132.55183,33.46695],[132.54942,33.47005],[132.55139,33.4736],[132.551,33.47431],[132.54926,33.47448],[132.54865,33.47581],[132.54956,33.48053],[132.54577,33.48361],[132.54157,33.49005],[132.54317,33.49236],[132.54796,33.49474],[132.55157,33.50113],[132.54875,33.50275],[132.54812,33.50605],[132.54494,33.50655]],[[132.54431,33.49281],[132.5412,33.49109],[132.5409,33.48983],[132.54196,33.48962]],[[132.54888,33.4789],[132.54907,33.4784]]]}}]}