{"type":"FeatureCollection","features":[{"type":"Feature","properties":{"route_id":"312","route_number":312,"name":"国道312号","source":"OpenStreetMap contributors (ODbL)","osm_relations":[10013100,10013293,10015101,10694623,10694624]},"geometry":{"type":"MultiLineString","coordinates":[[[134.82446,35.52789],[134.82698,35.53207],[134.82384,35.52667],[134.82126,35.51996],[134.82066,35.51637],[134.82144,35.51095],[134.80666,35.50069],[134.80182,35.49595],[134.7979,35.48316],[134.79252,35.48167],[134.78482,35.48217],[134.78239,35.47924],[134.77099,35.47291],[134.76881,35.47029],[134.7682,35.46122],[134.76915,35.45435],[134.77103,35.44793],[134.77551,35.44376],[134.78706,35.43953],[134.789,35.43632],[134.78885,35.43214],[134.78774,35.43089],[134.78748,35.42881],[134.79008,35.42423],[134.79061,35.42007],[134.78495,35.41721],[134.77894,35.41041],[134.77726,35.4034],[134.78225,35.39986],[134.78846,35.3902],[134.78671,35.38433],[134.78412,35.38191],[134.78555,35.37631],[134.78906,35.37318],[134.80447,35.36728],[134.809,35.36731],[134.81413,35.3662],[134.81937,35.36042],[134.82526,35.35683],[134.83298,35.35453],[134.83668,35.3486],[134.84399,35.33994],[134.85091,35.33837],[134.86169,35.33293],[134.8608,35.33098],[134.85457,35.32818],[134.84817,35.31966],[134.84171,35.31279],[134.83979,35.30614],[134.83942,35.29661],[134.83792,35.29465],[134.83504,35.29365],[134.83206,35.29144],[134.82857,35.28613],[134.82476,35.28333],[134.82356,35.27825],[134.82364,35.27498],[134.82173,35.26929],[134.80888,35.26114],[134.80345,35.24936],[134.8034,35.24671],[134.8002,35.24093],[134.80007,35.23784],[134.79718,35.22972],[134.7946,35.22624],[134.79618,35.21701],[134.79606,35.20785],[134.79437,35.19669],[134.79133,35.18893],[134.79221,35.18608],[134.79445,35.18378],[134.7947,35.18056],[134.79321,35.17359],[134.79137,35.17197],[134.7911,35.16956],[134.78872,35.16493],[134.78816,35.1602],[134.78875,35.15888],[134.79219,35.15704],[134.7927,35.15066],[134.79459,35.1474],[134.79502,35.14471],[134.79187,35.13707],[134.79079,35.13141],[134.79117,35.12544],[134.78905,35.12064],[134.78638,35.11848],[134.78561,35.11451],[134.78315,35.10933],[134.78324,35.10756],[134.77965,35.10241],[134.77954,35.09876],[134.77738,35.09534],[134.77919,35.08637],[134.77702,35.07431],[134.77574,35.07278],[134.77411,35.06765],[134.77388,35.06201],[134.76811,35.05208],[134.76913,35.04249],[134.76848,35.03539],[134.76368,35.02976],[134.76353,35.02485],[134.75953,35.01757],[134.76066,35.01175],[134.76868,35.0005],[134.7663,34.99572],[134.76636,34.99429],[134.76433,34.99152],[134.76323,34.98612],[134.76455,34.97946],[134.76431,34.97633],[134.76646,34.96962],[134.76498,34.96641],[134.76215,34.96337],[134.761,34.95462],[134.75295,34.95502],[134.74509,34.94276],[134.74459,34.94049],[134.747,34.93574],[134.74773,34.92865],[134.74418,34.92417],[134.72958,34.88742],[134.72874,34.88],[134.72956,34.87401],[134.72872,34.8681],[134.72422,34.86243],[134.72192,34.85789],[134.71758,34.85462],[134.70832,34.85128],[134.70696,34.84959],[134.70749,34.84602],[134.71106,34.84381],[134.71192,34.83872],[134.70798,34.82923],[134.72165,34.82621],[134.73734,34.81987],[134.73718,34.8166],[134.73546,34.81303],[134.72847,34.80609],[134.72336,34.79807]],[[135.11095,35.54012],[135.11122,35.54363],[135.11056,35.5406],[135.11437,35.53626],[135.12012,35.53459],[135.12204,35.53478],[135.13042,35.5396],[135.13755,35.54955],[135.13976,35.5514],[135.14891,35.55327],[135.15219,35.55239],[135.15567,35.55292],[135.1611,35.55161],[135.16479,35.55199],[135.18328,35.54709],[135.18738,35.54722],[135.19016,35.54508],[135.18999,35.54322],[135.19233,35.53861],[135.19715,35.53703]],[[134.93023,35.58925],[134.92513,35.58859],[134.92261,35.59202],[134.92017,35.59371],[134.91711,35.59269],[134.91389,35.59294],[134.91273,35.594],[134.90964,35.59455],[134.90621,35.59403],[134.90358,35.59945],[134.9005,35.60187],[134.89838,35.60249],[134.89369,35.60168],[134.88902,35.59763],[134.87543,35.59322],[134.86714,35.58637],[134.85975,35.58269],[134.85717,35.58061],[134.85235,35.57337],[134.85285,35.56579],[134.85061,35.55877],[134.84332,35.55613],[134.84346,35.55359],[134.84248,35.55241],[134.83983,35.55103],[134.83241,35.54435],[134.82803,35.54314],[134.82485,35.54371],[134.82406,35.54008],[134.82698,35.53207]],[[134.74355,34.8041],[134.74328,34.809],[134.74689,34.81327],[134.74748,34.81603],[134.74048,34.82627],[134.73932,34.82956],[134.73977,34.83419],[134.73918,34.83743],[134.73372,34.84642],[134.73309,34.85003],[134.73477,34.85362],[134.73967,34.8579],[134.74117,34.8602],[134.73867,34.87612],[134.75124,34.89996],[134.75843,34.92616],[134.75959,34.93335],[134.75854,34.92612],[134.75147,34.90026],[134.73879,34.87612],[134.74128,34.86018],[134.74013,34.8582],[134.73487,34.85358],[134.73321,34.85003],[134.73373,34.84664],[134.73956,34.83682],[134.7394,34.82987],[134.7406,34.82628],[134.74753,34.81633],[134.74717,34.81352],[134.74339,34.80898],[134.74366,34.8041]],[[134.92948,35.58924],[134.93089,35.59015],[134.93452,35.58993],[134.9387,35.59112],[134.94545,35.5878],[134.95174,35.58603],[134.95426,35.58382],[134.96284,35.58471],[134.96383,35.58397],[134.96491,35.58094],[134.9693,35.58022],[134.97304,35.57844],[134.97603,35.57463],[134.983,35.57291],[134.98645,35.57552],[134.98882,35.57631],[134.99462,35.57559],[134.99996,35.57752],[135.01003,35.57736],[135.01965,35.57835],[135.02222,35.57988],[135.03371,35.58153],[135.03546,35.58352],[135.03563,35.58584],[135.04303,35.59412],[135.04687,35.60121],[135.05444,35.6058],[135.06308,35.60887],[135.07847,35.60997],[135.08009,35.60903],[135.09994,35.58315],[135.09624,35.5671],[135.09623,35.56349],[135.09808,35.56173],[135.10021,35.56116],[135.10627,35.56162],[135.11064,35.56126],[135.11183,35.56032],[135.1125,35.55765],[135.11219,35.55353],[135.11056,35.55029],[135.11122,35.54363]],[[134.82236,35.28695],[134.82165,35.2853],[134.82515,35.2948],[134.82536,35.30639],[134.82676,35.30998],[134.82879,35.31171],[134.83206,35.31269],[134.84268,35.31248]],[[134.79342,35.21563],[134.78457,35.22811],[134.78349,35.23159],[134.78407,35.23657],[134.78889,35.24403],[134.79573,35.25911],[134.80573,35.26655],[134.81005,35.2719],[134.81697,35.27819],[134.82024,35.28256],[134.82255,35.2874]],[[134.75959,34.93335],[134.76161,34.94373],[134.76922,34.95235],[134.77016,34.95532],[134.76841,34.9769],[134.77013,34.98661],[134.76895,34.98843],[134.76502,34.98995],[134.76414,34.99134],[134.76696,34.99579],[134.7683,35.00062],[134.76047,35.01292],[134.76132,35.01489],[134.76506,35.01654],[134.76619,35.01802],[134.76684,35.02741],[134.7661,35.03141],[134.76927,35.03461],[134.76993,35.03743],[134.76938,35.04015],[134.76403,35.0498],[134.7637,35.05768],[134.76459,35.06021],[134.76757,35.06407],[134.77156,35.07802],[134.7771,35.08631],[134.77696,35.09065],[134.7757,35.09439],[134.77755,35.10283],[134.77947,35.10779],[134.78343,35.11347],[134.78637,35.11941],[134.78805,35.12816],[134.78748,35.13313],[134.79003,35.13733],[134.78485,35.16102],[134.78563,35.16334],[134.78924,35.16725],[134.79199,35.17405],[134.79158,35.17882],[134.79274,35.18173],[134.79195,35.18688],[134.79073,35.18971],[134.79073,35.19333],[134.78766,35.19899],[134.78884,35.20255],[134.79398,35.2076],[134.79437,35.20953],[134.79347,35.21546]],[[134.74222,34.79879],[134.74104,34.79943],[134.73904,34.79904]],[[134.82158,35.28532],[134.82231,35.28698]],[[134.82165,35.2853],[134.82103,35.28401]],[[134.93135,35.58982],[134.93047,35.58928]],[[135.08083,35.61268],[135.0801,35.61232]]]}}]}