{"type":"FeatureCollection","features":[{"type":"Feature","properties":{"route_id":"379","route_number":379,"name":"国道379号","source":"OpenStreetMap contributors (ODbL)","osm_relations":[9760265,9760336,15753244]},"geometry":{"type":"MultiLineString","coordinates":[[[132.65738,33.55576],[132.65879,33.55552],[132.66408,33.56007],[132.66543,33.55909],[132.66623,33.55674],[132.66814,33.5555],[132.67085,33.55534],[132.67396,33.55671],[132.6772,33.56163],[132.67484,33.56384],[132.6744,33.56528],[132.67538,33.56845],[132.67648,33.56895],[132.67867,33.56832],[132.68199,33.56526],[132.68879,33.56282],[132.69737,33.56709],[132.70094,33.56738],[132.70381,33.56907],[132.71079,33.56973],[132.71151,33.57072],[132.71133,33.57378],[132.71251,33.57473],[132.71981,33.5727],[132.72189,33.57452],[132.72723,33.57616],[132.7311,33.57633],[132.7331,33.57799],[132.73624,33.57736],[132.74181,33.57775],[132.75197,33.58427],[132.75377,33.58441],[132.75628,33.58224],[132.75973,33.5816],[132.76197,33.57976],[132.76595,33.57876],[132.76868,33.58126],[132.77455,33.58181],[132.77538,33.58314],[132.77416,33.58535],[132.77474,33.58691],[132.774,33.58872],[132.77692,33.59011],[132.78021,33.58993],[132.78403,33.59252],[132.78648,33.5996],[132.78542,33.60437],[132.78635,33.60652],[132.78659,33.6125],[132.78841,33.61393],[132.79473,33.61602],[132.79589,33.61821],[132.80134,33.62214],[132.79956,33.62431],[132.79944,33.63065],[132.8007,33.63761],[132.8016,33.63904],[132.79947,33.64051],[132.79946,33.64281],[132.79839,33.64386],[132.80159,33.65062],[132.8018,33.65318],[132.80032,33.65742],[132.79811,33.65851],[132.7969,33.66239],[132.79338,33.66628],[132.7966,33.67391],[132.80044,33.67655],[132.80199,33.6792],[132.80204,33.68272],[132.79694,33.68893],[132.79407,33.68927],[132.79783,33.69027],[132.79829,33.69214],[132.79957,33.69328],[132.79947,33.69837],[132.80026,33.70016],[132.79797,33.70223],[132.79527,33.70028],[132.79258,33.70069],[132.79094,33.70617],[132.79245,33.70696],[132.79599,33.70574],[132.79757,33.70428],[132.80087,33.7049],[132.80259,33.70742],[132.80314,33.71278],[132.80453,33.71427],[132.80331,33.71626],[132.80403,33.71845],[132.80311,33.7191],[132.79938,33.71862],[132.79439,33.72303],[132.79604,33.72542],[132.79554,33.72907],[132.79668,33.73127],[132.79468,33.7347],[132.79462,33.74224],[132.79248,33.74497],[132.78917,33.7599],[132.78683,33.7847],[132.78731,33.79365],[132.77739,33.81538],[132.77583,33.82231],[132.78332,33.8266],[132.77543,33.83638],[132.77544,33.84178],[132.76515,33.84115],[132.76462,33.83945]],[[132.79457,33.74213],[132.79234,33.74497],[132.78907,33.75992],[132.78671,33.7847],[132.78714,33.79387],[132.77731,33.81531],[132.77564,33.82241],[132.78308,33.82656],[132.77527,33.83648],[132.77532,33.84172],[132.76522,33.84102],[132.76475,33.83938]]]}}]}