{"type":"FeatureCollection","features":[{"type":"Feature","properties":{"route_id":"20","route_number":20,"name":"国道20号","source":"OpenStreetMap contributors (ODbL)","osm_relations":[21087,2179948,2179949,2179950,2179951,9039764,9039765,9039766,9039768,9039769,9039771]},"geometry":{"type":"MultiLineString","coordinates":[[[139.45014,35.67761],[139.44638,35.6759],[139.43099,35.6757],[139.41892,35.67009],[139.38511,35.66835],[139.41891,35.66999],[139.43083,35.67557],[139.44657,35.67583],[139.45014,35.67761],[139.46156,35.6725],[139.48171,35.67328],[139.49225,35.67044],[139.50874,35.66992],[139.53954,35.65665],[139.5516,35.65322],[139.55979,35.65243],[139.57033,35.65792],[139.58632,35.66414],[139.6001,35.67233],[139.60717,35.67321],[139.6323,35.66949],[139.6387,35.66756],[139.64526,35.66819],[139.64992,35.67019],[139.65521,35.67102],[139.68028,35.67841],[139.68489,35.68043],[139.69463,35.68689],[139.70318,35.6897],[139.70541,35.68981],[139.71252,35.68723],[139.72222,35.68815],[139.73478,35.68417],[139.74409,35.684],[139.74575,35.68013],[139.74918,35.67755],[139.75343,35.67781],[139.75954,35.67512],[139.76308,35.68537],[139.77369,35.6826],[139.77445,35.68406]],[[139.36338,35.66574],[139.3654,35.66574],[139.36338,35.66574],[139.35492,35.66267],[139.34859,35.66212],[139.34587,35.65948],[139.31841,35.66094],[139.3025,35.65294],[139.29538,35.64846],[139.28512,35.64496],[139.28133,35.64283],[139.27425,35.64154],[139.27136,35.63884],[139.27046,35.63578],[139.27105,35.63286],[139.26908,35.62906],[139.26402,35.62685],[139.26334,35.62308],[139.2638,35.62508],[139.26524,35.62612],[139.28213,35.63154],[139.28618,35.63132]],[[139.77454,35.68405],[139.77371,35.68248],[139.7632,35.68523],[139.75958,35.6749],[139.75338,35.67768],[139.74943,35.67711],[139.74574,35.67987],[139.74407,35.68391],[139.73492,35.68402],[139.72226,35.68799],[139.71193,35.6872],[139.70544,35.68969],[139.7032,35.68961],[139.69472,35.68678],[139.68517,35.68036],[139.68038,35.67815],[139.65526,35.67084],[139.65014,35.67004],[139.64539,35.66801],[139.63857,35.66735],[139.63225,35.66929],[139.60566,35.67315],[139.5989,35.67185],[139.58645,35.66413],[139.57571,35.6598]],[[139.2637,35.62603],[139.26259,35.6184],[139.26196,35.61786],[139.26018,35.61895],[139.25541,35.61939],[139.25345,35.61897],[139.25127,35.61689],[139.24303,35.61581],[139.24068,35.61626],[139.23986,35.61862],[139.23733,35.61931],[139.23647,35.62057],[139.23149,35.61907],[139.22882,35.62101],[139.22589,35.62014],[139.22528,35.62102],[139.22327,35.62037],[139.22185,35.62122],[139.22168,35.61804],[139.21978,35.61881],[139.22033,35.61504],[139.21896,35.61514],[139.2178,35.6175],[139.21649,35.6151],[139.21454,35.61778],[139.21288,35.61727],[139.21056,35.61976],[139.20479,35.62147],[139.20322,35.62503],[139.20216,35.62453],[139.2006,35.62171],[139.19732,35.62031],[139.19625,35.61864],[139.19432,35.6179],[139.19403,35.61681],[139.19132,35.61548],[139.18223,35.61842],[139.18077,35.62085],[139.17989,35.62001],[139.17875,35.62059],[139.17758,35.61999],[139.17471,35.62181],[139.17302,35.62037],[139.17198,35.62123],[139.17124,35.62091],[139.17167,35.6194],[139.16974,35.61705],[139.17113,35.61452],[139.16291,35.61287],[139.15952,35.61334],[139.15863,35.6144],[139.14754,35.6163],[139.14036,35.61923],[139.13755,35.61903],[139.13629,35.62006],[139.13556,35.61858],[139.13302,35.61928],[139.13161,35.61853],[139.12898,35.62036],[139.12607,35.62075],[139.12412,35.62344],[139.11832,35.62503],[139.11151,35.62896],[139.10539,35.62986],[139.10437,35.62914],[139.10357,35.62682],[139.1049,35.62498],[139.10486,35.62303],[139.10694,35.62196],[139.10746,35.61893],[139.10537,35.61485],[139.09501,35.61792],[139.09199,35.61741],[139.09121,35.61627],[139.08385,35.61312],[139.07517,35.61462],[139.07061,35.61419],[139.06464,35.61233],[139.05797,35.60712],[139.05067,35.60574],[139.04366,35.60231],[139.03934,35.60348],[139.0351,35.60758],[139.03288,35.60804],[139.03019,35.60723],[139.02991,35.60634],[139.02662,35.60434],[139.02403,35.60425],[139.02398,35.60308],[139.02173,35.60252],[139.01151,35.60836],[138.99918,35.60902],[138.99606,35.61069],[138.99321,35.61597],[138.99041,35.61748],[138.98771,35.61761],[138.99074,35.61733]],[[138.45892,35.69908],[138.4687,35.69186],[138.47564,35.69107],[138.48248,35.68625],[138.49085,35.68386],[138.49399,35.68039],[138.4972,35.67888],[138.49871,35.67451],[138.50193,35.66963],[138.51127,35.66685],[138.51798,35.66366],[138.55507,35.6357],[138.55996,35.63371],[138.57046,35.63298],[138.57548,35.63363],[138.60881,35.64632],[138.62775,35.64353],[138.63642,35.64383],[138.64422,35.64254],[138.65629,35.64579],[138.66051,35.64616],[138.66963,35.64614],[138.69572,35.64412],[138.69945,35.64514],[138.71165,35.65161],[138.71927,35.65254],[138.73052,35.65185],[138.73406,35.65317],[138.73909,35.65678],[138.74171,35.65658],[138.73925,35.65676],[138.73392,35.65298],[138.72997,35.65166],[138.71927,35.65245],[138.71138,35.65144],[138.69947,35.64506],[138.69573,35.64403],[138.66957,35.64606],[138.66052,35.64608],[138.65627,35.64569],[138.64421,35.64245],[138.63642,35.64374],[138.62775,35.64345],[138.60935,35.64627],[138.60568,35.64546],[138.57449,35.63332],[138.56931,35.63291],[138.55769,35.63424],[138.51752,35.66384],[138.51075,35.66695],[138.50216,35.66932],[138.49862,35.67446],[138.49717,35.67874],[138.49381,35.68041],[138.49144,35.68336],[138.48263,35.68606],[138.47556,35.69097],[138.46815,35.69203],[138.44085,35.71238],[138.4351,35.71877],[138.423,35.72827],[138.41458,35.73952],[138.40689,35.75468],[138.40584,35.76025],[138.40112,35.76163],[138.39472,35.76854],[138.3921,35.77569],[138.39173,35.77957],[138.38307,35.78481]],[[139.38511,35.66835],[139.36801,35.66521],[139.3654,35.66574]],[[138.13159,36.00543],[138.1302,36.00782],[138.13895,35.99556],[138.14717,35.99055],[138.14715,35.99668],[138.14623,35.99976],[138.14064,36.00719],[138.12806,36.02784],[138.12437,36.03143],[138.12474,36.03714],[138.11745,36.04539],[138.1107,36.06078],[138.10585,36.06329],[138.10298,36.06665],[138.09514,36.0692],[138.09258,36.07113],[138.08882,36.07171],[138.08688,36.07307],[138.08653,36.0746],[138.08344,36.07441],[138.05164,36.08113],[138.04635,36.08249],[138.04266,36.08526],[138.03731,36.08551],[138.0369,36.08277],[138.03803,36.08077],[138.03793,36.07768],[138.03458,36.07484],[138.03326,36.07466],[138.03156,36.07642],[138.03115,36.07867],[138.03334,36.08178],[138.03019,36.08255],[138.03149,36.08548],[138.03114,36.08633],[138.02752,36.08648],[138.02401,36.09084],[138.01871,36.09329],[138.01456,36.09369],[138.01039,36.09601],[138.00761,36.09485],[138.00579,36.09738],[138.00172,36.09762],[137.99937,36.10514],[137.98859,36.10266],[137.98706,36.10398],[137.98614,36.10721],[137.98759,36.10336],[137.99018,36.10285]],[[138.98771,35.61761],[138.98643,35.61859],[138.98465,35.61816],[138.97841,35.61375],[138.96785,35.61434],[138.96638,35.61378],[138.9659,35.61191],[138.9645,35.61117],[138.96077,35.61151],[138.95791,35.61293],[138.95496,35.61219],[138.94802,35.61213],[138.93722,35.60597],[138.93244,35.60554],[138.92579,35.60314],[138.92479,35.60354],[138.91432,35.59903],[138.91107,35.59893],[138.90172,35.60234],[138.88967,35.59885],[138.88765,35.59648],[138.88231,35.59654],[138.87921,35.59565],[138.87387,35.59627],[138.87161,35.59847],[138.8635,35.60268],[138.85935,35.60192],[138.85752,35.60325],[138.85123,35.60189],[138.84379,35.60159],[138.83944,35.60469],[138.83745,35.60513],[138.82341,35.60416],[138.81725,35.60581],[138.80779,35.60491],[138.80476,35.60241],[138.80389,35.60316],[138.80442,35.60568],[138.79182,35.63766],[138.79005,35.6399],[138.7849,35.64057],[138.78163,35.63877],[138.77692,35.63942],[138.77231,35.64253],[138.76676,35.64325],[138.76517,35.64595],[138.76308,35.64757],[138.7593,35.64838],[138.75664,35.65116],[138.75044,35.65423],[138.74565,35.6548],[138.74171,35.65658]],[[139.48184,35.67328],[139.49226,35.67052],[139.50875,35.66997],[139.53976,35.65662]],[[139.26344,35.62468],[139.26514,35.62632],[139.28169,35.63166],[139.28634,35.63152]],[[138.1346,36.00104],[138.13937,35.99511],[138.15417,35.98625],[138.15759,35.98173],[138.16404,35.97646],[138.17164,35.97181],[138.17757,35.96206],[138.18362,35.95644],[138.18588,35.95278],[138.18606,35.95068],[138.18817,35.94791],[138.19462,35.94492],[138.19886,35.93821],[138.20628,35.93205],[138.21277,35.92472],[138.21777,35.92331],[138.22032,35.92022],[138.22465,35.91823],[138.22715,35.91564],[138.23106,35.91415],[138.23545,35.90559],[138.23561,35.9031],[138.2392,35.90199],[138.24437,35.89605],[138.24677,35.89722],[138.2463,35.89221],[138.2482,35.88734],[138.2581,35.88206],[138.26105,35.87927],[138.26448,35.87796],[138.26915,35.87211],[138.27459,35.86809],[138.27838,35.86172],[138.28326,35.86026],[138.28518,35.85762],[138.29313,35.8533],[138.29617,35.84982],[138.29808,35.84575],[138.30203,35.84231],[138.30783,35.82996],[138.31449,35.82484],[138.31735,35.82086],[138.32618,35.81329],[138.33075,35.81174],[138.33331,35.80933],[138.35188,35.80588],[138.35502,35.80311],[138.3577,35.7987],[138.36213,35.79663],[138.36836,35.79578],[138.37317,35.79284],[138.38283,35.78494]],[[137.98016,36.11554],[137.96006,36.11916],[137.9801,36.11559],[137.98415,36.11228],[137.98614,36.10721]],[[138.06629,36.08565],[138.06114,36.08929],[138.05918,36.08982],[138.05113,36.08934],[138.04292,36.08644],[138.03867,36.0863],[138.03699,36.08431]],[[138.03741,36.08562],[138.03878,36.08642],[138.04208,36.08639],[138.04722,36.08768],[138.05113,36.08946],[138.05808,36.08975]],[[138.93803,35.60989],[138.93747,35.60956]],[[139.26334,35.62308],[139.26313,35.62216]],[[138.1302,36.00782],[138.127,36.01345]],[[138.06627,36.08561],[138.06488,36.08622]],[[138.14729,35.99036],[138.14717,35.99055]],[[139.21981,35.61497],[139.22037,35.61546]],[[138.16098,35.97895],[138.15759,35.98173]],[[138.92473,35.60351],[138.92307,35.60277]]]}}]}