{"type":"FeatureCollection","features":[{"type":"Feature","properties":{"route_id":"234","route_number":234,"name":"国道234号","source":"OpenStreetMap contributors (ODbL)","osm_relations":[6601904,10188272,10188273]},"geometry":{"type":"MultiLineString","coordinates":[[[141.68014,42.68404],[141.67927,42.68448],[141.69278,42.67762],[141.69896,42.66989],[141.70387,42.67194],[141.74089,42.69873],[141.74572,42.70884],[141.76541,42.72509],[141.77378,42.73096],[141.78157,42.73889],[141.81036,42.76203],[141.81919,42.76889],[141.82449,42.77078],[141.82769,42.77508],[141.83121,42.77784],[141.83313,42.78574],[141.8358,42.79197],[141.8366,42.79805],[141.83433,42.80265],[141.83434,42.80597],[141.83149,42.81115],[141.83127,42.8229],[141.82547,42.83335],[141.82509,42.83634],[141.82301,42.83979],[141.81925,42.85214],[141.81948,42.85504],[141.82247,42.8625],[141.82228,42.87284],[141.82122,42.87477],[141.81609,42.87906],[141.8123,42.88502],[141.81383,42.89781],[141.81341,42.9012],[141.80254,42.95025],[141.79888,42.95562],[141.78851,43.00225],[141.78988,43.00604],[141.78879,43.01521],[141.79326,43.01633],[141.8066,43.02307],[141.80946,43.02553],[141.8098,43.02682],[141.80091,43.05141],[141.78882,43.06307],[141.77691,43.0651],[141.77158,43.06847],[141.76759,43.07218],[141.76153,43.07314],[141.75515,43.07642],[141.75278,43.07942],[141.74874,43.08186],[141.74676,43.08411],[141.74232,43.09973],[141.74266,43.10172],[141.74723,43.11038],[141.74736,43.12246],[141.75318,43.15105],[141.75959,43.16155],[141.75957,43.16786],[141.76088,43.17381],[141.76575,43.18848],[141.76543,43.19027],[141.76272,43.19313]],[[141.76286,43.1932],[141.76554,43.19031],[141.76587,43.18847],[141.76101,43.17379],[141.75969,43.16781],[141.7596,43.16117],[141.75314,43.15037],[141.74748,43.12236],[141.74736,43.11037],[141.74351,43.10327]],[[141.70157,42.67085],[141.69894,42.66969],[141.69736,42.67194]],[[141.70952,42.67604],[141.72165,42.68475]],[[141.8133,42.89429],[141.81282,42.89086]],[[141.83172,42.77913],[141.83083,42.7771],[141.82796,42.77521],[141.82421,42.77039],[141.81923,42.76879],[141.80921,42.76101]],[[141.69154,42.67833],[141.69144,42.67839]]]}}]}