{"type":"FeatureCollection","features":[{"type":"Feature","properties":{"route_id":"1","route_number":1,"name":"国道1号","source":"OpenStreetMap contributors (ODbL)","osm_relations":[32989,2143213,2143214,2143217,2143219,2191336,2191349,2191355,2531132,7276975,7276979,8368255,8789005,8789052,8789372,8789374,8789485,8789517,9492153,13348967,15574492]},"geometry":{"type":"MultiLineString","coordinates":[[[139.58992,35.44523],[139.57932,35.4454],[139.57717,35.44411],[139.57901,35.44528],[139.5881,35.44546],[139.5963,35.44374],[139.60462,35.45076],[139.62261,35.45842],[139.62382,35.46043],[139.62376,35.46568],[139.62737,35.47],[139.62641,35.47108],[139.63623,35.48193],[139.65289,35.49052],[139.66124,35.49738],[139.66223,35.4997],[139.66184,35.50807],[139.66415,35.51386],[139.67265,35.52209],[139.68197,35.5258],[139.68413,35.52793],[139.697,35.55896],[139.6963,35.5705],[139.70196,35.58171],[139.71117,35.59394],[139.71444,35.60943],[139.7176,35.61754],[139.72181,35.62553],[139.73066,35.63211],[139.73185,35.63893],[139.73407,35.64294],[139.73933,35.64567],[139.74098,35.64791],[139.74452,35.648],[139.74511,35.65521],[139.74288,35.66001],[139.74644,35.66456],[139.75042,35.67315],[139.75355,35.67778],[139.75954,35.67512],[139.76308,35.68537],[139.77369,35.6826],[139.77445,35.68406]],[[139.77454,35.68405],[139.77371,35.68248],[139.7632,35.68523],[139.75958,35.6749],[139.75355,35.67762],[139.75058,35.67308],[139.7465,35.66448],[139.74308,35.66023],[139.74527,35.65507],[139.74463,35.64796],[139.74103,35.64784],[139.7394,35.64562],[139.73423,35.64293],[139.73196,35.63875],[139.73082,35.63208],[139.72197,35.62548],[139.71673,35.61521],[139.71456,35.60943],[139.7114,35.59409],[139.70225,35.58194],[139.69642,35.57047],[139.69721,35.55923],[139.69521,35.55302],[139.68426,35.52786],[139.68201,35.5257],[139.67298,35.52219],[139.66432,35.51394],[139.66195,35.50804],[139.66233,35.4997],[139.66133,35.49735],[139.65346,35.49075],[139.64562,35.48719],[139.642,35.48445],[139.63196,35.48016],[139.62632,35.47517],[139.62322,35.475],[139.61949,35.47658],[139.60284,35.47644],[139.60088,35.47559],[139.59699,35.47166],[139.59417,35.47069]],[[135.74623,34.97916],[135.75375,34.97933],[135.75254,34.99618],[135.76471,34.99593],[135.77316,34.99482],[135.78376,34.99112],[135.78732,34.98894],[135.79325,34.98896],[135.79504,34.98782],[135.79664,34.98256],[135.79906,34.98144],[135.82509,34.98117],[135.8267,34.98223],[135.8288,34.98956],[135.83023,34.991],[135.8344,34.99186],[135.84116,34.99033],[135.83394,34.99197],[135.82932,34.99083],[135.82668,34.98237],[135.82517,34.98126],[135.79911,34.98151],[135.79674,34.98262],[135.79503,34.98802],[135.79319,34.98907],[135.78733,34.98901],[135.78355,34.99128],[135.77167,34.99526],[135.75225,34.99639],[135.75365,34.97945],[135.74623,34.97927],[135.74381,34.89189],[135.74226,34.88717],[135.72638,34.86698],[135.70575,34.85396],[135.69952,34.84303],[135.68938,34.83128],[135.66922,34.81414],[135.64321,34.80271],[135.63289,34.80218],[135.6287,34.79942],[135.6262,34.79526],[135.61979,34.79408],[135.61694,34.78791],[135.61323,34.78228],[135.6043,34.77836],[135.58759,34.76284],[135.57776,34.75715],[135.57431,34.75305],[135.57609,34.75335],[135.57469,34.75329],[135.57782,34.75709],[135.58787,34.76295],[135.60436,34.77827],[135.6133,34.78222],[135.6176,34.78897],[135.61917,34.79342],[135.62119,34.79449],[135.62701,34.7953],[135.62845,34.79875],[135.63109,34.80122],[135.63517,34.80266],[135.64326,34.8026],[135.669,34.81383],[135.68946,34.8312],[135.69961,34.84297],[135.7058,34.85389],[135.72678,34.86731],[135.74245,34.88727],[135.74367,34.88986],[135.745,34.93375]],[[139.57717,35.44411],[139.57508,35.44088],[139.57629,35.43536],[139.57561,35.43251],[139.57361,35.42934],[139.56242,35.42056],[139.55608,35.42131],[139.55031,35.41992],[139.54235,35.41463],[139.53794,35.40663],[139.53244,35.40172],[139.53594,35.40446]],[[139.51769,35.38682],[139.52673,35.39526],[139.52794,35.39822],[139.52745,35.4037],[139.53131,35.41126],[139.53387,35.41332],[139.53646,35.41381],[139.53188,35.41179],[139.52879,35.40671],[139.52741,35.4031],[139.52793,35.39759],[139.52654,35.39486],[139.51903,35.38789],[139.52104,35.38871],[139.52171,35.38941],[139.51856,35.38804],[139.51682,35.38554],[139.51497,35.3845],[139.51395,35.38235],[139.5113,35.38011],[139.50538,35.37722],[139.50343,35.37451],[139.5053,35.37724],[139.50915,35.37908]],[[139.52738,35.40281],[139.5277,35.40095]],[[136.81414,35.12638],[136.82679,35.12615],[136.83413,35.12405],[136.85453,35.12405],[136.87738,35.12517],[136.88452,35.12371],[136.90277,35.12386],[136.91138,35.12025],[136.91445,35.11757],[136.92184,35.11506],[136.92346,35.10488],[136.93412,35.085],[136.9414,35.07983],[136.93435,35.085],[136.92385,35.10472],[136.9221,35.11501],[136.91451,35.11763],[136.91152,35.12036],[136.9026,35.12407],[136.88454,35.12382],[136.87737,35.12527],[136.83584,35.12411],[136.82678,35.12623],[136.81594,35.12645],[136.78472,35.12444],[136.76925,35.12204],[136.72372,35.11111],[136.70504,35.10021],[136.70393,35.09858],[136.70019,35.0862],[136.68531,35.07753],[136.68487,35.07552],[136.68733,35.06939],[136.68415,35.05705],[136.6783,35.04663],[136.67223,35.04004],[136.67135,35.02443],[136.6684,35.02088],[136.65452,35.00823],[136.65426,35.00713],[136.65546,35.00418],[136.6536,35.00152],[136.6489,34.99889],[136.64196,34.9916],[136.62902,34.98101],[136.62524,34.97471],[136.62504,34.97164],[136.62078,34.9619],[136.61709,34.95754],[136.60952,34.95158],[136.59842,34.93677],[136.59827,34.9325],[136.59622,34.93201],[136.59203,34.92679],[136.58261,34.92224],[136.577,34.91626],[136.57034,34.91434],[136.55811,34.91473],[136.55517,34.91365],[136.55087,34.91019],[136.54844,34.89914],[136.54437,34.89271],[136.54005,34.89028],[136.53435,34.89014],[136.53073,34.88819],[136.52274,34.87929],[136.50663,34.87705],[136.50198,34.87757],[136.49589,34.8755],[136.48803,34.8641],[136.48478,34.8624],[136.47319,34.86331],[136.46145,34.86146],[136.44953,34.86394],[136.46019,34.8616]],[[139.36264,35.33162],[139.35479,35.33308],[139.33745,35.33128],[139.33449,35.32971],[139.33166,35.32524],[139.32763,35.32226],[139.33155,35.32497],[139.335,35.33001],[139.33982,35.33177],[139.35515,35.33298],[139.36167,35.33151],[139.38154,35.33318],[139.38705,35.33256],[139.39057,35.32915],[139.39269,35.32853],[139.41411,35.33629],[139.42144,35.33761],[139.43194,35.3374],[139.4401,35.34308],[139.44684,35.34481],[139.45172,35.34819],[139.46891,35.34934],[139.48028,35.35119],[139.48353,35.35265],[139.4928,35.35931],[139.49716,35.364],[139.50343,35.37451]],[[139.54235,35.41463],[139.53646,35.41381]],[[139.6365,35.48197],[139.62652,35.47107],[139.62753,35.46999],[139.6241,35.46576],[139.62387,35.46012],[139.62274,35.45842],[139.60467,35.45069],[139.59962,35.44585],[139.5963,35.44374]],[[136.4864,34.86295],[136.48812,34.86438],[136.49579,34.87556],[136.502,34.87766],[136.50695,34.87716],[136.52233,34.87921],[136.53109,34.88852],[136.53453,34.89027],[136.54001,34.89035],[136.54395,34.89244],[136.54836,34.89918],[136.54863,34.90277],[136.55029,34.90654],[136.55078,34.91023],[136.55545,34.91398],[136.5581,34.91481],[136.57035,34.91442],[136.57703,34.91636],[136.58274,34.92245],[136.59201,34.92687],[136.59604,34.93218],[136.59829,34.9328]],[[139.09916,35.23209],[139.10008,35.2319],[139.09652,35.23304],[139.09338,35.23311],[139.09188,35.23228],[139.09012,35.2333],[139.08726,35.23285],[139.08611,35.23471],[139.08391,35.23295],[139.08157,35.23309],[139.08074,35.23366],[139.0817,35.23454],[139.07896,35.23446],[139.07861,35.23611],[139.0769,35.23656],[139.07683,35.23767],[139.07256,35.24025],[139.07381,35.23823],[139.07141,35.23849],[139.06935,35.23734],[139.06881,35.2387],[139.06716,35.23852],[139.06462,35.24158],[139.05931,35.24494],[139.05621,35.24312],[139.05539,35.24021],[139.05485,35.24128],[139.05293,35.24123],[139.05431,35.24027],[139.04978,35.2395],[139.05008,35.24009],[139.04902,35.24113],[139.04702,35.24151],[139.0475,35.23979],[139.04636,35.23893],[139.04781,35.23514],[139.04925,35.2337],[139.04876,35.23166],[139.05082,35.23119],[139.04954,35.23101],[139.04882,35.2296],[139.04947,35.22793],[139.04897,35.22505],[139.04846,35.22635],[139.04692,35.22429],[139.0494,35.22248],[139.05081,35.22265],[139.05126,35.22139],[139.04829,35.22181],[139.04797,35.2206],[139.04533,35.22118],[139.03862,35.21765],[139.03642,35.21487],[139.03612,35.21323],[139.03686,35.20997],[139.03846,35.20843],[139.03216,35.20564],[139.03257,35.205],[139.03456,35.20532],[139.03377,35.20447],[139.03213,35.20439],[139.03361,35.20399],[139.03154,35.20302],[139.02704,35.19347],[139.02742,35.19151],[139.02391,35.18789],[139.02134,35.18686],[139.01754,35.18791],[139.01617,35.18752],[139.01432,35.18853],[139.0142,35.18704],[139.01638,35.18607],[139.01664,35.18442],[139.01582,35.18379],[139.01823,35.18425],[139.01496,35.18384],[139.01582,35.18379]],[[139.59553,35.47117],[139.6028,35.47649],[139.61936,35.47665],[139.62324,35.47509],[139.62579,35.47508],[139.6319,35.48023],[139.63623,35.48193]],[[135.58989,34.71604],[135.598,34.72033],[135.60583,34.73077],[135.61856,34.74287],[135.64579,34.75802],[135.65391,34.76672],[135.6687,34.77904],[135.67363,34.78151],[135.68731,34.78593],[135.70036,34.7959],[135.70571,34.80135],[135.72111,34.82035],[135.72333,34.82654],[135.72329,34.84313],[135.72496,34.84577],[135.73322,34.85291],[135.73544,34.86345],[135.74762,34.87591],[135.7487,34.87808],[135.75039,34.92661]],[[135.95664,35.00836],[135.96667,35.01559],[135.97117,35.0204],[135.9876,35.02344],[135.9993,35.02871],[136.00368,35.02962],[135.9995,35.02867],[135.98774,35.02341],[135.97093,35.02015],[135.96676,35.01553],[135.95559,35.00756],[135.94933,35.00118],[135.93567,34.99036],[135.93203,34.98793],[135.92029,34.98274],[135.91685,34.97972],[135.91433,34.97858],[135.90178,34.97793],[135.89052,34.98267],[135.88895,34.98428],[135.88643,34.99123],[135.88202,34.99729],[135.87669,35.00057],[135.87057,35.00209],[135.86042,35.00194],[135.85797,34.99901],[135.85717,34.99424],[135.85238,34.99415],[135.8486,34.99198],[135.84116,34.99033]],[[137.53849,34.67947],[137.58063,34.68108],[137.59312,34.67916],[137.64356,34.67652],[137.656,34.67516],[137.65935,34.6761],[137.66263,34.67986],[137.66543,34.68069],[137.6737,34.67941],[137.69099,34.6746],[137.71789,34.67057],[137.72564,34.67028],[137.74829,34.67166],[137.75199,34.67287],[137.75564,34.67526],[137.77138,34.69286],[137.78402,34.72027],[137.78632,34.728],[137.78416,34.72024],[137.77087,34.69167],[137.75558,34.67497],[137.75207,34.67272],[137.74767,34.67133],[137.72522,34.6701],[137.71786,34.67041],[137.69062,34.67451],[137.67364,34.67926],[137.66564,34.68058],[137.6627,34.67979],[137.65922,34.67592],[137.65601,34.67507],[137.64355,34.67643],[137.59311,34.67907],[137.58064,34.68099],[137.53436,34.6794],[137.53849,34.67947]],[[138.23273,34.87639],[138.23721,34.88069],[138.22756,34.87108],[138.22366,34.86955],[138.21655,34.86836],[138.21356,34.86689],[138.21199,34.86517],[138.20799,34.85719],[138.20411,34.85465],[138.1845,34.84819],[138.17692,34.84875],[138.16683,34.8458],[138.15774,34.84598],[138.12917,34.83715],[138.12116,34.8385],[138.11874,34.8382],[138.1171,34.83667],[138.11691,34.83494],[138.12116,34.82532],[138.12045,34.823],[138.11759,34.8197],[138.11324,34.81877],[138.1078,34.82086],[138.09738,34.8216],[138.09031,34.81803],[138.08476,34.81309],[138.08093,34.80766],[138.08622,34.81427]],[[138.37415,34.96085],[138.38472,34.97056],[138.38764,34.97255],[138.39282,34.97447],[138.38763,34.97265],[138.38462,34.97062],[138.37479,34.96179],[138.36718,34.95369],[138.35754,34.94812],[138.35497,34.94776],[138.33463,34.95137],[138.3322,34.9502],[138.32951,34.94445],[138.32533,34.94197],[138.32088,34.94108],[138.31714,34.93886],[138.30907,34.9376],[138.30285,34.92955],[138.30123,34.92541],[138.29211,34.92224],[138.29168,34.9186],[138.28704,34.90521],[138.28539,34.903],[138.27237,34.89458],[138.25643,34.88962],[138.24627,34.88396],[138.23721,34.88069]],[[138.2766,34.89702],[138.28642,34.90417],[138.29207,34.92241],[138.30114,34.92546],[138.30281,34.92991],[138.30825,34.93723],[138.31225,34.93872],[138.31762,34.93918],[138.32079,34.94124],[138.32488,34.94196],[138.32938,34.94457],[138.33173,34.94988],[138.3371,34.95812],[138.34119,34.96756],[138.3463,34.97423],[138.35244,34.98606],[138.36404,34.99226],[138.36993,35.00055],[138.3994,35.00842],[138.40903,35.00731],[138.42806,35.00973],[138.47528,35.03513],[138.48584,35.04277],[138.49172,35.04486],[138.50005,35.04495],[138.50387,35.04601],[138.5108,35.04487],[138.51572,35.04545],[138.52769,35.05307],[138.53916,35.06353],[138.54236,35.06981],[138.54323,35.07341],[138.54633,35.07829],[138.54977,35.09076],[138.55591,35.10118],[138.56789,35.10674],[138.5747,35.11133],[138.60287,35.11613],[138.6212,35.11596],[138.62333,35.11794],[138.6232,35.12362],[138.62583,35.12612],[138.68062,35.14324],[138.68617,35.14681],[138.69082,35.14852],[138.70215,35.15039],[138.72418,35.14732],[138.7349,35.13952],[138.76915,35.13556],[138.77825,35.13371],[138.78422,35.13436],[138.79052,35.1309],[138.81825,35.12276],[138.83616,35.11643],[138.83885,35.11649],[138.8582,35.12154],[138.87499,35.12065],[138.88074,35.1213],[138.88723,35.11878],[138.89257,35.11155],[138.89535,35.10947],[138.90589,35.10757],[138.91815,35.11112],[138.90572,35.10748],[138.89519,35.10939],[138.89238,35.11159],[138.88727,35.1186],[138.8808,35.12121],[138.87472,35.12055],[138.85822,35.12141],[138.83879,35.11634],[138.83612,35.1163],[138.81821,35.12267],[138.79092,35.13067],[138.7842,35.13428],[138.77822,35.13363],[138.76851,35.13555],[138.73488,35.13943],[138.72377,35.14733],[138.7054,35.15013],[138.69795,35.15],[138.6872,35.14719],[138.68042,35.14309],[138.62589,35.12605],[138.6234,35.12379],[138.62344,35.11793],[138.62147,35.11595],[138.60275,35.11604],[138.59024,35.11339],[138.5773,35.1119],[138.57382,35.11083],[138.56678,35.10609],[138.55719,35.10213],[138.5554,35.10036],[138.54981,35.09064],[138.54643,35.07829],[138.54318,35.07309],[138.54025,35.06495],[138.53779,35.06184],[138.52861,35.05405],[138.5315,35.05623]],[[138.93506,35.12388],[138.94051,35.1276],[138.94369,35.13135],[138.94842,35.13286],[138.94367,35.13119],[138.94081,35.12773],[138.93005,35.11973],[138.92698,35.11395],[138.91815,35.11112]],[[139.10008,35.2319],[139.10208,35.23189],[139.10559,35.23384],[139.11262,35.23422],[139.11592,35.23703],[139.11246,35.23231],[139.10641,35.22927],[139.09443,35.22637],[139.09289,35.22434],[139.0904,35.22441],[139.08619,35.22251],[139.08299,35.22224],[139.07424,35.21924],[139.073,35.21717],[139.06836,35.21466],[139.06807,35.21328],[139.06471,35.21167],[139.06275,35.20911],[139.06201,35.20938],[139.06135,35.21255],[139.06196,35.2142],[139.06127,35.21442],[139.05977,35.21052],[139.06057,35.20865],[139.05872,35.21011],[139.05899,35.20889],[139.05446,35.20243],[139.05239,35.19597],[139.04743,35.19182],[139.04527,35.19146],[139.04371,35.18929],[139.03461,35.18681],[139.02957,35.18465],[139.02791,35.18289],[139.02449,35.18489],[139.01823,35.18425]],[[137.49912,34.67668],[137.49514,34.6774],[137.49263,34.67974],[137.48866,34.691],[137.48854,34.69498],[137.48632,34.69869],[137.48208,34.70215],[137.47645,34.70909],[137.46682,34.71684],[137.46027,34.72022],[137.44786,34.72019],[137.42688,34.72668],[137.42476,34.73024],[137.42399,34.73748],[137.41501,34.74461],[137.4113,34.75419],[137.40655,34.76027],[137.40354,34.7635],[137.39987,34.76583],[137.39033,34.76775],[137.38983,34.77386],[137.36791,34.79619],[137.3562,34.81051],[137.35202,34.81382],[137.34096,34.82549],[137.33083,34.83112],[137.31932,34.84813],[137.3045,34.86301],[137.28911,34.86938],[137.28444,34.87255],[137.27653,34.87589],[137.26586,34.88395],[137.26387,34.88988],[137.25775,34.89399],[137.2399,34.89989],[137.23018,34.90767],[137.22817,34.91034],[137.20812,34.91893],[137.19832,34.92894],[137.19656,34.93246],[137.19565,34.93714],[137.18768,34.94678],[137.17457,34.9539],[137.16039,34.95808],[137.15017,34.95897],[137.14534,34.96049],[137.13095,34.96828],[137.12065,34.9726],[137.11754,34.97535],[137.08932,34.98586],[137.07885,34.99254],[137.05549,35.00283],[137.04903,35.00915],[137.03688,35.01593],[137.03224,35.02046],[137.02345,35.02648],[137.01165,35.0387],[137.02326,35.02674],[137.03233,35.02051],[137.0369,35.01602],[137.04969,35.00879],[137.05554,35.0029],[137.07892,34.99265],[137.08904,34.9861],[137.11771,34.97539],[137.12106,34.97249],[137.13099,34.96835],[137.14516,34.96068],[137.15021,34.95905],[137.16041,34.95816],[137.17458,34.95398],[137.18827,34.94654],[137.19597,34.93675],[137.19675,34.93226],[137.19812,34.92939],[137.20854,34.91872],[137.22833,34.91035],[137.23601,34.9026],[137.24022,34.89984],[137.25773,34.89411],[137.26384,34.89008],[137.26522,34.88508],[137.26635,34.8836],[137.27673,34.87589],[137.28446,34.87263],[137.2891,34.86947],[137.30015,34.86537],[137.30495,34.86277],[137.31938,34.84816],[137.33083,34.83128],[137.34079,34.8258],[137.35181,34.81413],[137.35656,34.81025],[137.36799,34.79624],[137.38988,34.77391],[137.39051,34.76786],[137.3999,34.76594],[137.40346,34.76368],[137.40863,34.75816],[137.41259,34.75169],[137.41508,34.74466],[137.42416,34.73735],[137.42487,34.73028],[137.42725,34.72649],[137.44824,34.7202],[137.4602,34.72035],[137.46683,34.71701],[137.47652,34.70912],[137.48253,34.7018],[137.4864,34.69875],[137.48864,34.69501],[137.4889,34.69132],[137.49247,34.6803],[137.49579,34.67721],[137.49961,34.67669],[137.53436,34.6794]],[[136.44953,34.86394],[136.44119,34.86448],[136.43132,34.86052],[136.42598,34.85924],[136.41483,34.85887],[136.41085,34.85688],[136.40538,34.85052],[136.4036,34.84971],[136.38935,34.85001],[136.38535,34.85412],[136.37567,34.85793],[136.37396,34.85931],[136.37436,34.8639],[136.37112,34.86874],[136.36929,34.86976],[136.36682,34.8686],[136.36291,34.87059],[136.35894,34.88155],[136.35325,34.88752],[136.34445,34.888],[136.34131,34.88921],[136.33687,34.88499],[136.33497,34.88509],[136.33471,34.8861],[136.33597,34.88776],[136.33581,34.89682],[136.33439,34.90294],[136.33136,34.90506],[136.32967,34.90741],[136.32401,34.90969],[136.31988,34.91472],[136.31671,34.91633],[136.31402,34.91903],[136.30902,34.92035],[136.30733,34.92238],[136.29551,34.92876],[136.2857,34.93595],[136.27546,34.93869],[136.26695,34.9379],[136.25415,34.93997],[136.24537,34.94414],[136.2341,34.94742],[136.22526,34.95278],[136.21631,34.95506],[136.21045,34.9585],[136.20135,34.96137],[136.19149,34.97131],[136.18186,34.97815],[136.17882,34.97861],[136.16563,34.97784],[136.15258,34.98134],[136.13428,34.98482],[136.12235,34.98569],[136.11889,34.98711],[136.11117,34.9942],[136.11519,34.99092]],[[136.29661,34.92818],[136.30706,34.92266],[136.30915,34.92038],[136.31429,34.91897],[136.31679,34.91639],[136.31998,34.91476],[136.32397,34.90985],[136.32982,34.90743],[136.3316,34.90498],[136.33438,34.90309],[136.33613,34.89651],[136.3384,34.89359],[136.33632,34.89112],[136.33739,34.88991],[136.33669,34.88894],[136.33712,34.88686],[136.33942,34.88818],[136.33988,34.88958],[136.34127,34.88986],[136.35297,34.88804],[136.35843,34.88272],[136.3599,34.87891]],[[135.57822,34.7495],[135.57744,34.7489],[135.57782,34.7497],[135.57609,34.75335],[135.57828,34.74938],[135.55096,34.72837],[135.54655,34.71524],[135.54636,34.70031],[135.54054,34.70002],[135.5263,34.6973],[135.52113,34.69766],[135.51797,34.697],[135.50058,34.69815]],[[139.50355,35.37445],[139.50542,35.37703],[139.50919,35.37903],[139.50492,35.37664],[139.49537,35.3617],[139.4825,35.35198],[139.46917,35.3493],[139.45157,35.34781]],[[135.95968,35.01035],[135.95755,35.00732],[135.95385,34.99673],[135.94617,34.99095],[135.93384,34.97867],[135.93005,34.97443],[135.92632,34.9673],[135.91864,34.96202],[135.91433,34.95741],[135.90815,34.95625]],[[135.91746,34.96083],[135.91759,34.96176],[135.92681,34.96847],[135.93025,34.97488],[135.93886,34.98398],[135.9463,34.99117],[135.95389,34.99696],[135.95888,35.00974]],[[138.53053,35.05527],[138.5149,35.04502],[138.51054,35.04481],[138.5039,35.04594],[138.5,35.04486],[138.49048,35.0442],[138.48529,35.04237],[138.4772,35.03606],[138.42868,35.00983],[138.40925,35.00723],[138.39942,35.00834],[138.37019,35.0005],[138.3641,34.9922],[138.35262,34.98617],[138.34669,34.97462],[138.34112,34.96661],[138.33699,34.9572],[138.33103,34.94795]],[[139.12545,35.24237],[139.11899,35.23684],[139.12549,35.24248]],[[138.52861,35.05428],[138.5149,35.04704],[138.50609,35.04607],[138.49911,35.04328],[138.49668,35.03956],[138.4894,35.03183],[138.48723,35.02349],[138.47963,35.02392],[138.47488,35.01827],[138.46084,35.01611],[138.45456,35.01386],[138.40922,34.98496],[138.40489,34.9801],[138.39989,34.97784],[138.40495,34.98027],[138.40985,34.9855],[138.45434,35.01383],[138.46085,35.01623],[138.47497,35.01839],[138.47956,35.02398],[138.48714,35.02357],[138.4894,35.03183]],[[139.01496,35.18384],[139.01415,35.18315],[139.01366,35.17918],[139.0153,35.17669],[139.01345,35.17434],[139.00966,35.17495],[139.009,35.17325],[139.00713,35.17247],[139.0077,35.17189],[139.01208,35.17188],[139.01232,35.17105],[139.00915,35.16935],[139.00682,35.1667],[139.00309,35.16619],[139.00344,35.16394],[139.00108,35.16216],[138.99908,35.16183],[138.99556,35.15857],[138.9909,35.15677],[138.98988,35.14936],[138.98826,35.1495],[138.98824,35.15143],[138.98739,35.1524],[138.9837,35.15259],[138.98515,35.15002],[138.98599,35.14552],[138.9844,35.14562],[138.98447,35.14768],[138.98302,35.14816],[138.9775,35.14357],[138.97656,35.14196],[138.97343,35.1417],[138.97187,35.13941],[138.96571,35.13519],[138.96225,35.13541],[138.95984,35.13396],[138.95871,35.13464],[138.95823,35.13683],[138.95567,35.1358],[138.95312,35.13641],[138.94842,35.13286]],[[135.75069,34.92661],[135.74883,34.87762],[135.74554,34.87312],[135.73564,34.86324],[135.73379,34.85328],[135.72682,34.84675],[135.72514,34.84424],[135.72379,34.83889],[135.72364,34.82546],[135.72054,34.81871],[135.70367,34.79843],[135.69639,34.79219],[135.68751,34.78566],[135.67459,34.78148],[135.66852,34.77851],[135.65419,34.76644],[135.64604,34.75776],[135.61776,34.74208],[135.60544,34.72998],[135.59886,34.72085],[135.59,34.71586]],[[139.52745,35.40098],[139.52736,35.40336]],[[137.81578,34.72858],[137.81183,34.72828],[137.79733,34.73145],[137.79333,34.73082],[137.78632,34.728],[137.79327,34.73097],[137.79742,34.73169],[137.81243,34.72838],[137.81574,34.72865],[137.82946,34.73143],[137.86385,34.74064],[137.86842,34.74036],[137.88017,34.73712],[137.8834,34.73722],[137.89046,34.7407],[137.89344,34.74622],[137.8978,34.74928],[137.92442,34.75794],[137.93404,34.75717],[137.95793,34.76293],[137.9695,34.7629],[137.97537,34.76675],[137.97887,34.77189],[137.97583,34.76703],[137.96977,34.76283],[137.95795,34.76279],[137.93405,34.75707],[137.92444,34.75785],[137.89785,34.7492],[137.8938,34.7465],[137.89053,34.74062],[137.88373,34.7372],[137.88015,34.73703],[137.86782,34.74038],[137.86344,34.74051],[137.82949,34.73135],[137.81578,34.72858]],[[139.32763,35.32226],[139.32346,35.31921],[139.32221,35.31554],[139.31666,35.31134],[139.31385,35.30747],[139.30721,35.30796],[139.29102,35.30384],[139.28148,35.30454],[139.27226,35.30363],[139.26208,35.29905],[139.23929,35.2914],[139.23064,35.28631],[139.21805,35.28118],[139.20506,35.27849],[139.20148,35.27404],[139.19437,35.269],[139.18273,35.26456],[139.17684,35.25911],[139.16772,35.2545],[139.16319,35.25091],[139.15931,35.25059],[139.15967,35.24832],[139.14543,35.24575],[139.13994,35.24686],[139.13238,35.2469],[139.11592,35.23703]],[[136.41865,34.85899],[136.42314,34.85845],[136.42654,34.85928],[136.42397,34.85871],[136.42598,34.85924]],[[136.68247,35.02255],[136.67603,35.02691],[136.67172,35.02871],[136.67629,35.02718],[136.68264,35.02287]],[[136.00368,35.02962],[136.02088,35.03141],[136.04946,35.02134],[136.05253,35.02414],[136.0553,35.02479],[136.07026,35.02032],[136.07879,35.01732],[136.08234,35.01408],[136.10216,35.00113],[136.11117,34.9942]],[[136.05975,35.02351],[136.06538,35.02183]],[[136.21631,34.95506],[136.21053,34.95838],[136.20082,34.9616],[136.19117,34.97147],[136.18156,34.97815],[136.16579,34.97769],[136.15327,34.98107],[136.13433,34.98471],[136.12235,34.98569]],[[138.39989,34.97784],[138.39282,34.97447]],[[136.63282,35.0143],[136.62674,35.01266],[136.63504,35.01557],[136.64258,35.02205],[136.64479,35.026],[136.64636,35.02719],[136.65731,35.02623],[136.66542,35.02934],[136.67172,35.02871]],[[138.17024,34.84675],[138.16576,34.84557],[138.15814,34.84599],[138.1291,34.83705],[138.11915,34.83825],[138.11745,34.83705],[138.11696,34.83534],[138.12014,34.82802]],[[138.08093,34.80766],[138.0766,34.80368],[138.07816,34.79735],[138.0775,34.79464],[138.07382,34.79152],[138.06953,34.78941],[138.05915,34.78626],[138.04794,34.78639],[138.03373,34.78375],[138.02828,34.78442],[138.01875,34.78798],[138.01341,34.78812],[137.99355,34.77951],[137.98366,34.77637],[137.98102,34.77466],[137.97887,34.77189]],[[137.01165,35.0387],[137.00398,35.04756],[136.99759,35.0534],[136.99041,35.05835],[136.98525,35.06094],[136.98098,35.06084],[136.97578,35.06265],[136.96915,35.06544],[136.96322,35.06929],[136.95584,35.07183],[136.95886,35.07075]],[[135.50059,34.69831],[135.51829,34.69712],[135.52128,34.69781],[135.52634,34.69738],[135.54057,34.70009],[135.54625,34.70034],[135.5465,34.71542],[135.55074,34.72818],[135.57744,34.7489]],[[139.51903,35.38789],[139.51517,35.38434],[139.51411,35.38229],[139.50919,35.37903]],[[139.11899,35.23684],[139.1122,35.23412],[139.11433,35.23525],[139.11368,35.23403]],[[137.50561,34.67734],[137.5174,34.67826]],[[139.3082,35.30798],[139.30304,35.30706]],[[138.33107,34.94848],[138.33202,34.95048],[138.33463,34.95137]],[[139.53244,35.40172],[139.52908,35.39333],[139.52469,35.39233],[139.52171,35.38941]],[[136.62674,35.01266],[136.61847,35.00971],[136.61061,35.00998],[136.60246,35.00719],[136.5906,35.00577],[136.58688,35.00395],[136.58355,35.00014],[136.58109,34.99416],[136.57983,34.98107],[136.57874,34.97688],[136.56941,34.96646],[136.5614,34.96196],[136.55867,34.95764],[136.55799,34.94629],[136.55469,34.92995],[136.5615,34.91467]],[[135.74544,34.95022],[135.7456,34.95628]],[[136.62064,34.96177],[136.6249,34.97168],[136.62517,34.97484],[136.62814,34.97961]],[[136.68726,35.07033],[136.68419,35.05727]],[[138.07266,34.79085],[138.07758,34.79481]],[[138.97286,35.14093],[138.97368,35.14192],[138.9769,35.14232]],[[136.67168,35.02692],[136.6718,35.03201]],[[136.43674,34.86318],[136.43198,34.86068],[136.42654,34.85928]],[[136.95584,35.07183],[136.94826,35.07685],[136.9414,35.07983]],[[136.42397,34.85871],[136.41849,34.85816]],[[135.57453,34.75298],[135.57506,34.75311]],[[138.11035,34.81991],[138.1032,34.82102]],[[136.56134,34.91468],[136.55452,34.92996],[136.55795,34.94717],[136.55854,34.95762],[136.55964,34.96012],[136.56214,34.96273],[136.56991,34.96711],[136.57816,34.97625],[136.57949,34.98026]]]}}]}