{"type":"FeatureCollection","features":[{"type":"Feature","properties":{"route_id":"107","route_number":107,"name":"国道107号","source":"OpenStreetMap contributors (ODbL)","osm_relations":[3069619,10220436,10220437,10220438,10220439]},"geometry":{"type":"MultiLineString","coordinates":[[[141.08441,39.29553],[141.10542,39.29292],[141.0853,39.2952],[141.0812,39.29942],[141.07737,39.3007],[141.05275,39.30173],[141.02863,39.30551],[141.0227,39.30311],[140.98502,39.30938],[140.96809,39.30721],[140.96366,39.30575],[140.95059,39.30708],[140.94232,39.30436],[140.93838,39.30502],[140.93165,39.30381],[140.92507,39.30492],[140.91172,39.30902],[140.90621,39.30965],[140.90232,39.30798],[140.90232,39.30511],[140.90044,39.30361],[140.90141,39.29999],[140.89941,39.29956],[140.89371,39.30204],[140.89194,39.30641],[140.8909,39.3055],[140.88892,39.30611],[140.8858,39.30577],[140.88357,39.30353],[140.87615,39.30002],[140.86957,39.30266],[140.86589,39.30295],[140.86214,39.30469],[140.85625,39.3056],[140.84622,39.30903],[140.84168,39.30955],[140.83676,39.30826],[140.83048,39.30861],[140.82425,39.30449],[140.81398,39.30401],[140.81023,39.30658],[140.80908,39.31014],[140.80189,39.3134],[140.7995,39.31556],[140.78597,39.31744],[140.78399,39.31865],[140.78275,39.32099],[140.7808,39.32056],[140.77568,39.31565],[140.7639,39.31064],[140.76012,39.31117],[140.75584,39.31464],[140.7513,39.31445],[140.74999,39.31212],[140.74672,39.30966],[140.74245,39.30427],[140.73953,39.30286],[140.73618,39.29987],[140.71876,39.27512],[140.71343,39.27246],[140.7023,39.27313],[140.6944,39.27511],[140.6903,39.27783],[140.67759,39.2817],[140.66997,39.28279],[140.66549,39.28598],[140.66096,39.28643],[140.65826,39.28855],[140.65512,39.28955],[140.65308,39.29249],[140.6487,39.2945],[140.64048,39.29646],[140.63507,39.29673],[140.63095,39.29813],[140.6281,39.29549],[140.62827,39.2914],[140.6275,39.28975],[140.62461,39.28822],[140.61981,39.284],[140.61507,39.28347],[140.61056,39.28653],[140.60123,39.29038],[140.59665,39.29087],[140.59332,39.28994],[140.59025,39.29019],[140.58945,39.2915],[140.58957,39.29936],[140.5884,39.30199],[140.58531,39.30367],[140.57493,39.30536],[140.57133,39.3048],[140.56839,39.30048],[140.56505,39.29873],[140.55408,39.30294],[140.5467,39.30343],[140.5392,39.30219],[140.52633,39.29011],[140.50402,39.27597],[140.49545,39.26955],[140.48454,39.26849],[140.47539,39.26594],[140.47297,39.26609],[140.46265,39.26959],[140.44691,39.27653],[140.43634,39.27722],[140.43332,39.27688],[140.42867,39.27482],[140.42337,39.27514],[140.41493,39.27431],[140.39736,39.27642],[140.39114,39.27339],[140.37808,39.27142],[140.37396,39.27234],[140.36712,39.27182],[140.35875,39.27515],[140.34342,39.27198],[140.33942,39.2745],[140.3383,39.27639],[140.33542,39.27747],[140.33276,39.28128],[140.33047,39.28203],[140.32618,39.2815],[140.31624,39.28362],[140.31123,39.28719],[140.30791,39.2872],[140.29686,39.28402],[140.29086,39.28547],[140.28525,39.29341],[140.2855,39.29922],[140.2813,39.30467],[140.28074,39.30673],[140.27132,39.30794],[140.26559,39.31238],[140.25914,39.31228],[140.25428,39.30738],[140.25276,39.30672],[140.23647,39.30843],[140.23139,39.31302],[140.22855,39.31432],[140.21608,39.31415],[140.20694,39.31689],[140.19995,39.32116],[140.18694,39.32535],[140.17635,39.32619],[140.17331,39.3299],[140.16951,39.33136],[140.17071,39.33321],[140.16937,39.33642],[140.16533,39.33857],[140.15106,39.33638],[140.14403,39.33647],[140.11903,39.34458],[140.10243,39.35187],[140.09287,39.35447],[140.08201,39.35461],[140.06807,39.36769],[140.06284,39.37731],[140.04774,39.38326],[140.04608,39.3849],[140.0427,39.38601],[140.032,39.38641]],[[141.70619,39.09147],[141.70008,39.09296],[141.69206,39.10076],[141.68996,39.10415],[141.6856,39.10643],[141.68082,39.10761],[141.67896,39.11165],[141.67834,39.11704],[141.67504,39.1209],[141.67201,39.121],[141.67069,39.12196],[141.67009,39.12761],[141.66703,39.13009],[141.66501,39.13433],[141.66074,39.13541],[141.6592,39.13784],[141.6573,39.13889],[141.65428,39.14473],[141.64551,39.14798],[141.64198,39.14804],[141.63732,39.14967],[141.63001,39.15439],[141.62139,39.15064],[141.62066,39.14719],[141.61575,39.14522],[141.59826,39.145],[141.5925,39.14356],[141.58702,39.14075],[141.58524,39.13959],[141.58332,39.13654],[141.57838,39.13641],[141.57529,39.13767],[141.57375,39.14171],[141.56558,39.14659],[141.55909,39.14591],[141.55508,39.14427],[141.54915,39.14409],[141.54717,39.14578],[141.54586,39.14871],[141.54287,39.15044],[141.5377,39.14979],[141.5313,39.15325],[141.52753,39.15152],[141.52704,39.15274],[141.52761,39.15559],[141.5239,39.15705],[141.51398,39.15801],[141.50948,39.16092],[141.50478,39.16095],[141.50248,39.1596],[141.49852,39.15877],[141.49124,39.15945],[141.48661,39.16154],[141.48532,39.16465],[141.47735,39.16925],[141.47417,39.17289],[141.47102,39.17951],[141.46925,39.1806],[141.46702,39.18711],[141.46749,39.19184],[141.46406,39.19498],[141.46176,39.20129],[141.45956,39.20252],[141.4591,39.20601],[141.45668,39.20892],[141.45259,39.21703],[141.44831,39.21964],[141.44556,39.22655],[141.44464,39.23199],[141.44198,39.23515],[141.44032,39.24389],[141.43783,39.2513],[141.4337,39.25822],[141.42869,39.26334],[141.42138,39.26836],[141.41846,39.27253],[141.40971,39.28081],[141.40933,39.28292],[141.40625,39.28491],[141.40572,39.2874],[141.40415,39.28927],[141.40373,39.29358],[141.40188,39.29635],[141.4021,39.30024],[141.39584,39.3],[141.39106,39.30386],[141.38708,39.30192],[141.38385,39.30149],[141.3793,39.30286],[141.37796,39.30506],[141.37961,39.3087],[141.37873,39.31047],[141.37656,39.31187],[141.36979,39.31122],[141.36919,39.30857],[141.36978,39.30531],[141.36895,39.3037],[141.36579,39.30118],[141.36659,39.29844],[141.36601,39.29753],[141.35284,39.30355],[141.346,39.30445],[141.34483,39.30197],[141.33787,39.29811],[141.33394,39.29838],[141.33157,39.30082],[141.32934,39.30074],[141.32828,39.29632],[141.33128,39.29191],[141.32692,39.29112],[141.32492,39.28968],[141.32379,39.28995],[141.32211,39.29229],[141.31468,39.29417],[141.3108,39.29666],[141.30325,39.29724],[141.30331,39.29263],[141.30215,39.29188],[141.30047,39.29392],[141.29286,39.29441],[141.29182,39.29679],[141.29051,39.2973],[141.28801,39.29661],[141.28545,39.2924],[141.28294,39.29094],[141.27612,39.2919],[141.27156,39.28955],[141.26167,39.28992],[141.25837,39.28844],[141.24582,39.28734],[141.23468,39.2839],[141.23216,39.28379],[141.22223,39.28766],[141.21847,39.28777],[141.21302,39.29116],[141.2117,39.29434],[141.20842,39.29785],[141.20255,39.30089],[141.19387,39.29802],[141.18964,39.29504],[141.18049,39.29606],[141.174,39.29322],[141.1667,39.29415],[141.16062,39.29143],[141.15804,39.29228],[141.15397,39.29202],[141.1483,39.2889],[141.14179,39.28892],[141.13418,39.29423],[141.12947,39.29474],[141.1295,39.2926],[141.12599,39.28671],[141.11291,39.29217],[141.10542,39.29292]],[[141.12927,39.29233],[141.12961,39.2936]]]}}]}