{"type":"FeatureCollection","features":[{"type":"Feature","properties":{"route_id":"8","route_number":8,"name":"国道8号","source":"OpenStreetMap contributors (ODbL)","osm_relations":[2076138,2076139,2076141,8589620,8810362,8810364,8888135,8888136,8888137,8888138,8888139,8888140,8888141,8888142,8888143,8888144,8888145,8888149,8888150,8893566,8893567,8893568,8893569,8893570,8893571,8893572,8893855,8893858,8893976,9396024,13010305]},"geometry":{"type":"MultiLineString","coordinates":[[[138.87716,37.48562],[138.87256,37.49689],[138.87151,37.50361],[138.87232,37.51079],[138.87625,37.52278],[138.87715,37.53142],[138.87849,37.53351],[138.88898,37.54101],[138.89151,37.54413],[138.89244,37.54698],[138.89419,37.56747],[138.90457,37.58134],[138.89433,37.56744],[138.89259,37.54714],[138.89158,37.54404],[138.88909,37.54095],[138.87879,37.53361],[138.87741,37.53184],[138.8762,37.52209],[138.87214,37.50953],[138.87163,37.50311],[138.87242,37.49785],[138.87897,37.48129],[138.88045,37.47429],[138.88021,37.46602],[138.87798,37.45653],[138.87158,37.45749],[138.86253,37.45712],[138.83319,37.46537],[138.82989,37.46571],[138.82651,37.46482],[138.80445,37.45439],[138.79827,37.44735],[138.79341,37.4453],[138.77988,37.44466],[138.76111,37.45084],[138.74813,37.44971],[138.7443,37.44729],[138.74165,37.44136],[138.73555,37.43751],[138.73172,37.43654],[138.72883,37.43437],[138.72615,37.42702],[138.72635,37.42353],[138.72566,37.42201],[138.72102,37.41974],[138.7189,37.41747],[138.71484,37.4164],[138.71233,37.41342],[138.70871,37.41252],[138.70496,37.41325],[138.70302,37.41025],[138.69977,37.40755],[138.6966,37.40723],[138.69306,37.40523],[138.69019,37.40495],[138.68717,37.40691],[138.68482,37.41169],[138.68109,37.41305],[138.6744,37.41215],[138.67114,37.40941],[138.66549,37.41055],[138.66314,37.41023],[138.65961,37.40669],[138.65613,37.40519],[138.64603,37.4073],[138.64429,37.40639],[138.64056,37.40608],[138.63056,37.4021],[138.60592,37.39819],[138.60412,37.39724],[138.60078,37.39273],[138.58521,37.38662],[138.58106,37.38008],[138.57738,37.36944],[138.56674,37.36167],[138.54911,37.36003],[138.54232,37.35678],[138.53821,37.35644],[138.53216,37.35827],[138.52639,37.35703],[138.52854,37.35588],[138.53116,37.35195],[138.53412,37.34993],[138.54272,37.34773],[138.54822,37.34764],[138.56978,37.35435],[138.58147,37.36345]],[[138.22568,37.15913],[138.24054,37.16183],[138.24727,37.16226],[138.26394,37.16828],[138.26575,37.17053],[138.26687,37.17602],[138.27308,37.18695],[138.2759,37.18989],[138.28409,37.19514],[138.27599,37.18982],[138.27326,37.18695],[138.26676,37.17556],[138.26564,37.16999],[138.26374,37.16805],[138.24747,37.16221],[138.24036,37.16171],[138.22623,37.15913],[138.22227,37.15983],[138.20247,37.16959],[138.19506,37.16975],[138.18045,37.16406],[138.17011,37.16161],[138.16247,37.16178],[138.15146,37.16072],[138.14564,37.16351],[138.13309,37.16348],[138.13088,37.16435],[138.127,37.16816],[138.12197,37.17007],[138.10478,37.17273],[138.10172,37.17388],[138.09657,37.17278],[138.09081,37.16875],[138.08273,37.15699],[138.06929,37.14899],[138.06373,37.14459],[138.06106,37.14354],[138.05992,37.1423],[138.05908,37.13904],[138.05699,37.13649],[138.05369,37.13503],[138.05333,37.13222],[138.0509,37.12966],[138.03844,37.12159],[138.03318,37.12049],[138.02725,37.11594],[138.02391,37.11481],[138.01815,37.11382],[138.01287,37.11555],[138.00192,37.11245],[137.99946,37.1086],[137.99457,37.10905],[137.9931,37.10716],[137.98876,37.10418],[137.97604,37.09872],[137.97152,37.09257],[137.96583,37.0911],[137.96061,37.08805],[137.95483,37.08734],[137.94674,37.08339],[137.94303,37.08081],[137.94141,37.07662],[137.93982,37.07483],[137.92777,37.06876],[137.91129,37.05881],[137.89073,37.05182],[137.88327,37.05052],[137.87948,37.05072],[137.88301,37.05146],[137.88344,37.05054]],[[138.397,37.27869],[138.39536,37.27527],[138.37929,37.26529],[138.39567,37.27572],[138.4017,37.29138],[138.42379,37.31075],[138.4375,37.31951],[138.44167,37.31948],[138.44585,37.32298],[138.45527,37.32561],[138.45632,37.3292],[138.47187,37.33554],[138.47341,37.33684],[138.47433,37.33945],[138.4809,37.34356],[138.48404,37.34409],[138.48757,37.34588],[138.49147,37.34934],[138.49483,37.34917],[138.49847,37.35111],[138.50666,37.35286],[138.5117,37.35153],[138.52273,37.35666],[138.52639,37.35703]],[[138.75259,37.45005],[138.76169,37.45084],[138.78053,37.44467],[138.79308,37.44533],[138.79837,37.44759],[138.80459,37.45458],[138.8267,37.465],[138.83016,37.46582],[138.86218,37.45728],[138.87146,37.45761],[138.8774,37.45668],[138.87973,37.46404],[138.88046,37.46943],[138.8802,37.47554],[138.87886,37.4813]],[[139.06948,37.91855],[139.07243,37.91242],[139.0749,37.90432],[139.07188,37.89961],[139.06879,37.8999],[139.05407,37.896],[139.04204,37.89019],[139.0275,37.88626],[139.01934,37.88145],[139.01646,37.87835],[139.01601,37.8761],[139.01814,37.87207],[139.01882,37.86855],[139.01718,37.85744],[139.0178,37.85125],[139.01691,37.84757],[139.0183,37.83981],[139.01681,37.84745],[139.01768,37.85121],[139.01703,37.85745],[139.01864,37.86931],[139.01694,37.87434],[139.01464,37.87735],[139.01386,37.8774],[139.01464,37.87695],[139.01923,37.88153],[139.02694,37.88618],[139.04241,37.89046],[139.05365,37.896],[139.07122,37.90077],[139.07406,37.90335],[139.07181,37.91325],[139.06948,37.91855],[139.06023,37.91492],[139.05909,37.91673],[139.05017,37.92101],[139.04684,37.92159]],[[138.90457,37.58134],[138.92718,37.60991],[138.93344,37.61497],[138.94087,37.62514],[138.9412,37.62837],[138.94013,37.63441],[138.94117,37.64472],[138.94449,37.64816],[138.95019,37.65048],[138.95323,37.65396],[138.95736,37.66131],[138.9574,37.6667],[138.96005,37.67289],[138.96377,37.67628],[138.96869,37.67787],[138.97231,37.67817],[138.97969,37.67718],[138.98241,37.67833],[138.985,37.68687],[139.0073,37.72123],[139.01653,37.74747],[139.01602,37.74851],[139.01799,37.77778],[139.02033,37.78742],[139.0221,37.78056],[139.02614,37.77254],[139.02673,37.76701],[139.02509,37.76204],[139.01843,37.75208],[139.01653,37.74747]],[[137.41839,36.83763],[137.41951,36.83149],[137.41834,36.82342],[137.41593,36.81543],[137.41441,36.81285],[137.40926,36.8081],[137.40684,36.80443],[137.40552,36.80046],[137.40546,36.79681],[137.40744,36.79142],[137.40648,36.78849],[137.37966,36.76777],[137.37248,36.76482],[137.3593,36.75599],[137.35594,36.7523],[137.3464,36.74539],[137.33663,36.73495],[137.32285,36.72412],[137.31316,36.71919],[137.29234,36.71779],[137.28048,36.71792],[137.25305,36.72082],[137.23022,36.72564],[137.21394,36.73355],[137.20976,36.7345],[137.15391,36.72627],[137.13071,36.72639],[137.12548,36.72831],[137.11291,36.73902],[137.1013,36.74541],[137.09081,36.74939],[137.06262,36.75769],[137.04191,36.76031],[137.02934,36.75982],[137.00666,36.7618],[137.00398,36.76137],[137.00205,36.75986],[137.00384,36.76145],[137.00608,36.7619],[137.02855,36.75994],[137.04249,36.76035],[137.06266,36.75779],[137.09228,36.749],[137.10138,36.7455],[137.11355,36.73872],[137.12479,36.72888],[137.13074,36.72649],[137.15391,36.72635],[137.20981,36.73459],[137.21514,36.73315],[137.23144,36.72535],[137.25304,36.7211],[137.26934,36.719],[137.28605,36.71787],[137.31477,36.71974],[137.32274,36.72422],[137.33654,36.73502],[137.34662,36.74579],[137.35572,36.75231],[137.35918,36.75607],[137.37234,36.76485],[137.37977,36.76797],[137.4064,36.78856],[137.40733,36.79102],[137.40521,36.79759],[137.4059,36.80223],[137.40915,36.80815],[137.41524,36.81414],[137.4182,36.82341],[137.41938,36.83182],[137.41811,36.83976],[137.41974,36.84668],[137.4213,36.84909],[137.42725,36.8542],[137.42988,36.85902],[137.43031,36.86593],[137.4275,36.87273],[137.42799,36.87627],[137.44317,36.88938],[137.44433,36.89191],[137.44489,36.89739],[137.44652,36.90047],[137.46931,36.92326],[137.47473,36.92707],[137.47921,36.92828],[137.49031,36.92625],[137.49347,36.92652],[137.49643,36.92793],[137.50646,36.93587],[137.52568,36.94463],[137.5642,36.94791],[137.56676,36.94997],[137.57138,36.95975],[137.58474,36.96936],[137.58844,36.97095],[137.60272,36.97416],[137.61164,36.97534],[137.62294,36.97503],[137.63476,36.97836],[137.65388,36.98034],[137.65682,36.98154],[137.66077,36.98467],[137.66445,36.98471],[137.67295,36.98676],[137.6798,36.98998],[137.69274,36.99102],[137.7013,36.99383],[137.70205,36.99467],[137.70351,36.99356],[137.7038,36.99561],[137.73084,37.00301],[137.73657,37.00683],[137.74494,37.00842],[137.75292,37.01218],[137.77017,37.01792],[137.79288,37.02393],[137.80543,37.02636],[137.81429,37.02948],[137.82201,37.03354],[137.82449,37.03349],[137.82994,37.03064],[137.83297,37.03077],[137.84642,37.03739],[137.84701,37.03851],[137.84636,37.04318],[137.84747,37.04426],[137.87948,37.05072]],[[138.94557,37.64861],[138.94224,37.64609],[138.94106,37.64366],[138.94026,37.63417],[138.94123,37.62559],[138.93354,37.61492],[138.92718,37.60991]],[[136.29639,35.33943],[136.29643,35.33758],[136.29334,35.33191],[136.29638,35.33704],[136.29657,35.33946],[136.29461,35.34233],[136.29453,35.34828],[136.29268,35.35196],[136.29173,35.36061],[136.28059,35.39745],[136.27736,35.39888],[136.267,35.39688],[136.25631,35.39677],[136.2542,35.39805],[136.25218,35.40213],[136.24485,35.42926],[136.24515,35.43188],[136.24216,35.43554],[136.24075,35.44781],[136.23699,35.46087],[136.23463,35.46624],[136.23382,35.47406],[136.22095,35.50432],[136.20397,35.49968],[136.18854,35.49962],[136.18637,35.50221],[136.18283,35.50454],[136.17948,35.50856],[136.17148,35.51439],[136.16674,35.51427],[136.16518,35.51495],[136.16284,35.52253],[136.15767,35.5278],[136.15298,35.53424],[136.14706,35.55031],[136.14168,35.55263],[136.1357,35.55646],[136.13298,35.56088],[136.12712,35.56295],[136.12645,35.56459],[136.12426,35.56623],[136.12257,35.57728],[136.12456,35.58282],[136.1242,35.58854],[136.12283,35.59567],[136.12297,35.59869],[136.12206,35.60077],[136.12237,35.60335],[136.12076,35.60757],[136.11792,35.60923],[136.11547,35.60945],[136.11183,35.6057],[136.10198,35.60228],[136.09585,35.60497],[136.08961,35.60605],[136.08547,35.61069],[136.08172,35.6213],[136.07545,35.62503],[136.07043,35.6328],[136.06997,35.63467],[136.07352,35.65497],[136.07692,35.65892],[136.07817,35.66204],[136.08334,35.66597],[136.08689,35.67351],[136.08657,35.67593],[136.08788,35.67631],[136.08611,35.67831],[136.08657,35.67593]],[[135.75966,34.99632],[135.77195,34.9952],[135.78368,34.99123],[135.78733,34.98901],[135.79319,34.98907],[135.79503,34.98802],[135.79674,34.98262],[135.79911,34.98151],[135.82517,34.98126],[135.82668,34.98237],[135.82932,34.99083],[135.83394,34.99197],[135.84116,34.99033],[135.8344,34.99186],[135.83023,34.991],[135.8288,34.98956],[135.8267,34.98223],[135.82509,34.98117],[135.79906,34.98144],[135.79664,34.98256],[135.79504,34.98782],[135.79365,34.98883],[135.78732,34.98894],[135.78376,34.99112],[135.77316,34.99482],[135.75966,34.99611]],[[135.99652,35.0273],[135.98774,35.02341],[135.97322,35.02098],[135.97052,35.01991],[135.96676,35.01553],[135.95559,35.00756],[135.94933,35.00118],[135.93567,34.99036],[135.93203,34.98793],[135.92029,34.98274],[135.91685,34.97972],[135.91433,34.97858],[135.90178,34.97793],[135.89052,34.98267],[135.88895,34.98428],[135.88643,34.99123],[135.88202,34.99729],[135.87669,35.00057],[135.87057,35.00209],[135.86042,35.00194],[135.85797,34.99901],[135.85717,34.99424],[135.85238,34.99415],[135.8486,34.99198],[135.84116,34.99033]],[[136.26469,35.39693],[136.27742,35.39896],[136.27951,35.39854],[136.28086,35.39719],[136.29182,35.36068],[136.29276,35.35221],[136.29465,35.34828],[136.29483,35.34263],[136.29987,35.33517],[136.29971,35.32672]],[[136.29334,35.33191],[136.2914,35.32972],[136.28487,35.32676],[136.28201,35.32417],[136.26613,35.29642],[136.26657,35.29314],[136.27683,35.28252],[136.27851,35.27943]],[[136.12092,35.83652],[136.12286,35.83981],[136.1258,35.84935],[136.12705,35.85026],[136.12569,35.84848],[136.12604,35.84543],[136.12447,35.84029],[136.12152,35.8377],[136.11831,35.83203],[136.11576,35.83181],[136.11425,35.82991],[136.10862,35.82744],[136.10681,35.82504],[136.10389,35.82311],[136.10205,35.8197],[136.10116,35.81428],[136.09957,35.81235],[136.09511,35.80944],[136.09452,35.80487],[136.0912,35.7994],[136.09278,35.79578],[136.09276,35.79257],[136.09612,35.79059],[136.09728,35.78818],[136.10029,35.78593],[136.10161,35.78262],[136.10127,35.78136],[136.10313,35.78003],[136.10369,35.77859],[136.1029,35.77654],[136.1052,35.77466],[136.10574,35.772],[136.10684,35.77112],[136.10427,35.76128],[136.10507,35.7581],[136.10636,35.75646],[136.10394,35.75269],[136.10425,35.74487],[136.10209,35.74216],[136.10076,35.73851],[136.0976,35.73538],[136.09776,35.73219],[136.09665,35.7297],[136.09977,35.72537],[136.09936,35.72258],[136.09269,35.71751],[136.09164,35.71413],[136.09278,35.71099],[136.09123,35.70895],[136.08578,35.70665],[136.08223,35.70416],[136.07992,35.7045],[136.07857,35.70342],[136.08212,35.69946],[136.08055,35.69713],[136.08178,35.69324],[136.08173,35.68928],[136.08558,35.68793],[136.08688,35.68606],[136.08693,35.68401],[136.08541,35.68101],[136.08611,35.67831]],[[136.44053,36.3386],[136.44997,36.34665],[136.4514,36.35004],[136.45253,36.35816],[136.45916,36.36314],[136.4634,36.36939],[136.46546,36.37074],[136.47407,36.37338],[136.49065,36.38604],[136.49281,36.38858],[136.49339,36.39204],[136.49112,36.4016],[136.48341,36.42052],[136.48303,36.42329],[136.48624,36.44212],[136.49237,36.45341],[136.49799,36.47023],[136.50052,36.47469],[136.50972,36.48279],[136.52049,36.48972],[136.54097,36.49899],[136.55584,36.50792],[136.56481,36.5094],[136.57262,36.51393],[136.58367,36.52457],[136.59421,36.53121],[136.60029,36.53928],[136.60079,36.54195],[136.59805,36.56456],[136.60232,36.56908],[136.60686,36.57289],[136.6176,36.57979],[136.62772,36.58937],[136.63461,36.59398],[136.64366,36.59774],[136.65778,36.6013],[136.66624,36.60516],[136.67404,36.60763],[136.6815,36.61561],[136.70533,36.63316],[136.7089,36.63755],[136.7153,36.64944],[136.72342,36.65849],[136.72424,36.66853],[136.72277,36.68117],[136.72362,36.68387],[136.7254,36.68535],[136.72347,36.68347],[136.72291,36.68117],[136.72434,36.66904],[136.72352,36.65846],[136.71535,36.64933],[136.70875,36.63712],[136.70543,36.63312],[136.68162,36.61558],[136.67335,36.60694],[136.65633,36.60043],[136.64257,36.59697],[136.63429,36.59332],[136.62836,36.58934],[136.61736,36.57903],[136.60296,36.56918],[136.59826,36.56364],[136.6009,36.54199],[136.60045,36.53926],[136.59402,36.5309],[136.58376,36.52449],[136.57256,36.51373],[136.56487,36.5093],[136.55625,36.50798],[136.54084,36.49881],[136.52054,36.48963],[136.50946,36.48244],[136.50044,36.47442],[136.49809,36.47018],[136.49283,36.4542],[136.48637,36.44214],[136.48316,36.42363],[136.48351,36.42054],[136.48664,36.41402],[136.49163,36.39999],[136.49353,36.3914],[136.49204,36.38722],[136.47436,36.37344],[136.46582,36.37078],[136.4635,36.36933],[136.45966,36.36346],[136.45252,36.35792],[136.45148,36.34981],[136.44965,36.34598],[136.44094,36.33886],[136.43815,36.33748],[136.42399,36.33424],[136.41902,36.33165],[136.41357,36.3275],[136.40774,36.32499],[136.39689,36.3183],[136.38387,36.31458]],[[138.57442,37.3578],[138.5812,37.36316]],[[136.97699,36.73838],[136.96829,36.73516],[136.96428,36.73268],[136.96804,36.73518],[136.98081,36.73978],[136.993,36.74528],[137.00205,36.75986]],[[138.37929,37.26529],[138.37608,37.26331],[138.373,37.26278],[138.34415,37.23953],[138.33051,37.22715],[138.30116,37.20861],[138.29862,37.20395],[138.28409,37.19514]],[[139.06023,37.91492],[139.05864,37.91692]],[[136.26426,36.17341],[136.26345,36.16684],[136.26501,36.14837],[136.26366,36.13971],[136.25358,36.10006],[136.2453,36.08013],[136.24207,36.06561],[136.24166,36.04997],[136.2321,36.04103],[136.22507,36.03035],[136.21064,36.01665],[136.20593,35.99559],[136.20423,35.99294],[136.19909,35.98806],[136.18858,35.96219],[136.18856,35.95656],[136.19365,35.94895],[136.19448,35.94602],[136.18963,35.93368],[136.19211,35.90897],[136.19245,35.89037],[136.18997,35.88749],[136.16328,35.87552],[136.16021,35.87333],[136.1565,35.87286],[136.1602,35.87346],[136.16332,35.87563],[136.18993,35.88759],[136.19225,35.89017],[136.19194,35.90953],[136.18953,35.93375],[136.19435,35.94594],[136.19354,35.94892],[136.18848,35.95643],[136.1883,35.96158],[136.19898,35.98806],[136.20582,35.99562],[136.20864,36.00634],[136.20961,36.01434],[136.211,36.01748],[136.22498,36.03044],[136.232,36.04111],[136.24155,36.05],[136.24188,36.06506],[136.24511,36.07982],[136.25343,36.10006],[136.26384,36.14156],[136.26487,36.14827],[136.26331,36.16896],[136.26411,36.17312],[136.26781,36.18139],[136.26824,36.19013],[136.26737,36.19846],[136.2679,36.20536],[136.27013,36.21123],[136.27876,36.22418],[136.28477,36.22779],[136.28644,36.2317],[136.28689,36.23551],[136.2843,36.24222],[136.28615,36.24672],[136.28429,36.25448],[136.2877,36.2614],[136.28904,36.26669],[136.28939,36.27269],[136.29434,36.28626],[136.29678,36.28979],[136.30369,36.29592],[136.31378,36.29612],[136.33251,36.30118],[136.33853,36.30071],[136.35314,36.30655],[136.37068,36.30872],[136.38308,36.31446],[136.39661,36.3183],[136.40756,36.32503],[136.41354,36.3276],[136.41762,36.33064]],[[137.91336,37.05575],[137.91171,37.0569],[137.90843,37.05627],[137.90291,37.05354],[137.8951,37.05149],[137.88802,37.05075],[137.8808,37.05102]],[[139.0183,37.83981],[139.01938,37.81554],[139.01871,37.7969],[139.02033,37.78742]],[[138.8806,37.47041],[138.8806,37.47042]],[[136.28431,35.28759],[136.28256,35.28297],[136.27936,35.28002],[136.2698,35.27541],[136.26811,35.27385],[136.26663,35.27125],[136.26559,35.25551],[136.26428,35.25257],[136.25279,35.23687],[136.23086,35.21824],[136.22309,35.2098],[136.21911,35.20099],[136.21416,35.19346],[136.21387,35.18862],[136.20668,35.17358],[136.20516,35.16869],[136.19801,35.16243],[136.19409,35.15642],[136.18502,35.14799],[136.16539,35.13345],[136.13372,35.12005],[136.1037,35.09832],[136.09083,35.09147],[136.07961,35.08634],[136.07046,35.08573],[136.06369,35.08224],[136.04954,35.07757],[136.04036,35.07337],[136.02861,35.06134],[136.02898,35.0531],[136.0265,35.04716],[136.0061,35.03519],[136.0026,35.03237]],[[135.95664,35.00836],[135.96667,35.01559],[135.97117,35.0204],[135.98787,35.02353],[135.99888,35.02859],[136.00088,35.03051]],[[136.96428,36.73268],[136.95696,36.72608],[136.93688,36.71208],[136.92879,36.70856],[136.91626,36.70162],[136.9009,36.69208],[136.89428,36.68608],[136.88687,36.68635],[136.87508,36.68893],[136.86242,36.68916],[136.85582,36.6875],[136.84919,36.68041],[136.83926,36.67629],[136.82723,36.67677],[136.80049,36.67214],[136.78655,36.67417],[136.78069,36.67403],[136.77518,36.67573],[136.76461,36.68063],[136.74919,36.68458],[136.72937,36.68616],[136.7254,36.68535]],[[136.89703,36.68613],[136.90619,36.68856],[136.91155,36.69155],[136.91451,36.69179]],[[136.10062,35.6024],[136.09597,35.60481],[136.089,35.6063],[136.08566,35.61019],[136.08344,35.61528]],[[136.90205,36.68716],[136.89555,36.68603],[136.88907,36.68596],[136.87269,36.68899]],[[136.3647,36.30782],[136.35178,36.30606],[136.33871,36.30065],[136.33278,36.30113],[136.31376,36.29598],[136.30413,36.29589],[136.30233,36.29502],[136.29679,36.28958],[136.29401,36.28549]],[[137.84636,37.0421],[137.84642,37.04353],[137.84797,37.04451],[137.8798,37.05088]],[[136.1565,35.87286],[136.14861,35.86347],[136.14418,35.85431],[136.13965,35.85217],[136.13123,35.85304],[136.12859,35.85193],[136.12705,35.85026]],[[136.28553,35.29157],[136.28553,35.29155]],[[136.00247,35.03262],[136.00645,35.03769],[136.00612,35.04359],[136.00738,35.04645],[136.01601,35.05392],[136.0253,35.05881],[136.02856,35.06154]],[[136.02854,35.06139],[136.02546,35.05879],[136.01609,35.05384],[136.00745,35.04637],[136.00635,35.04424],[136.00659,35.03765],[136.0027,35.03272]],[[137.78856,37.02265],[137.79196,37.02366]]]}}]}