{"type":"FeatureCollection","features":[{"type":"Feature","properties":{"route_id":"179","route_number":179,"name":"国道179号","source":"OpenStreetMap contributors (ODbL)","osm_relations":[8385532,9351263,9351264,9351265,9351266,9351267]},"geometry":{"type":"MultiLineString","coordinates":[[[133.97826,35.06128],[133.95617,35.06118],[133.95028,35.06009],[133.93952,35.06798],[133.93753,35.07155],[133.9382,35.09429],[133.9365,35.09806],[133.9381,35.09432],[133.9378,35.07008],[133.9401,35.0674],[133.95028,35.06009],[133.95587,35.06126],[133.97822,35.06135],[133.98135,35.05761],[133.98652,35.05731],[133.99274,35.05513],[133.99698,35.05454],[134.00291,35.05525],[134.00384,35.05629],[134.00356,35.05754],[134.00707,35.05803],[134.01213,35.06122],[134.01884,35.06282],[134.02207,35.06251],[134.02811,35.05924],[134.0413,35.0589],[134.04554,35.061],[134.04943,35.05803],[134.05502,35.05757],[134.05727,35.05634],[134.06425,35.04412],[134.06559,35.04313],[134.07342,35.04433],[134.07687,35.04321],[134.0935,35.04166],[134.09965,35.03925],[134.11026,35.03956],[134.11738,35.03668],[134.12251,35.03587],[134.13145,35.02824],[134.14014,35.02352],[134.14121,35.0204],[134.15019,35.01535],[134.14712,35.01202],[134.14712,35.00654],[134.14563,35.00472],[134.14686,35.00286],[134.14818,35.00238],[134.15097,35.00221],[134.15435,35.00338],[134.16294,35.0017],[134.17528,35.00133],[134.17681,35.00183],[134.1769,35.00321],[134.17995,35.0061],[134.18306,35.00587],[134.18869,35.00813],[134.19376,35.00858],[134.20086,35.01192],[134.21626,35.01271],[134.22287,35.01601],[134.22592,35.01566],[134.22815,35.01627],[134.22907,35.01577],[134.22956,35.01273],[134.23575,35.01263],[134.23849,35.01081],[134.24651,35.00784],[134.24721,35.00627],[134.24726,34.99928],[134.25168,34.9985],[134.25657,34.99505],[134.25839,34.99193],[134.26418,34.9906],[134.26855,34.99263],[134.27111,34.99265],[134.27839,34.98769],[134.27911,34.98772],[134.27992,34.98933],[134.28184,34.98767],[134.28384,34.98911],[134.28362,34.98682],[134.28479,34.98427],[134.28976,34.98216],[134.2964,34.98189],[134.3002,34.98313],[134.30266,34.98522],[134.30672,34.98576],[134.30746,34.98838],[134.31049,34.98883],[134.31548,34.98771],[134.31805,34.98576],[134.32554,34.98329],[134.32829,34.98567],[134.33134,34.98604],[134.33819,34.98239],[134.34272,34.98186],[134.35245,34.99345],[134.35207,35.00082],[134.35336,35.00576],[134.35558,35.00752],[134.36175,35.00803],[134.36465,35.00511],[134.3784,34.99791],[134.38318,34.99837],[134.38578,34.99571],[134.40212,34.99226],[134.41089,34.98932],[134.41396,34.98381],[134.41691,34.98238],[134.4251,34.98289],[134.4285,34.98638],[134.43297,34.98658],[134.43818,34.98374],[134.44477,34.97653],[134.44652,34.97302],[134.4482,34.96556],[134.45201,34.96336],[134.45804,34.9644],[134.45958,34.96366],[134.46117,34.9615],[134.46394,34.96048],[134.46475,34.95546],[134.4683,34.95359],[134.47223,34.9484],[134.47143,34.94493],[134.47292,34.94268],[134.47371,34.93883],[134.47682,34.93675],[134.47887,34.93641],[134.48169,34.93722],[134.48928,34.94099],[134.50486,34.94011],[134.51806,34.93525],[134.5256,34.92984],[134.52846,34.92616],[134.53437,34.92268],[134.54479,34.92047],[134.54693,34.91902],[134.5503,34.91826],[134.54955,34.91308],[134.55005,34.91087],[134.54617,34.89525],[134.54712,34.88426],[134.54603,34.88269],[134.5462,34.87849],[134.54658,34.87639],[134.54875,34.87289],[134.54942,34.8693],[134.54864,34.86663],[134.54686,34.86452],[134.55767,34.85496],[134.56335,34.84825],[134.56693,34.84838],[134.56996,34.84452],[134.57743,34.83928],[134.57861,34.83395],[134.5853,34.83311],[134.59633,34.83323],[134.60605,34.82898],[134.61722,34.82978],[134.61934,34.83077],[134.62094,34.83287],[134.62015,34.83918],[134.62323,34.84062]],[[134.00356,35.05754],[134.00702,35.05808],[134.01228,35.06135],[134.01902,35.06291],[134.02208,35.06259],[134.02813,35.0593],[134.0415,35.05899],[134.04554,35.061]],[[133.87323,35.49662],[133.87303,35.49384],[133.87171,35.49214],[133.8682,35.49007],[133.86004,35.48751],[133.8565,35.48441],[133.85435,35.48057],[133.8494,35.47924],[133.84513,35.46486],[133.845,35.45261],[133.84647,35.4476],[133.84619,35.44566],[133.84313,35.44267],[133.84365,35.42702],[133.84895,35.4245],[133.8504,35.41926],[133.85541,35.41419],[133.85629,35.41196],[133.85609,35.40891],[133.85845,35.40202],[133.85886,35.39747],[133.85691,35.39387],[133.85712,35.3901],[133.85564,35.3837],[133.8491,35.3768],[133.85009,35.37289],[133.85017,35.3666],[133.84669,35.36306],[133.84566,35.35587],[133.84091,35.34543],[133.84111,35.34236],[133.84017,35.33995],[133.84124,35.33602],[133.83375,35.3254],[133.84458,35.3181],[133.84703,35.31863],[133.8493,35.31783],[133.85259,35.31811],[133.85799,35.3164],[133.86336,35.31686],[133.86669,35.31615],[133.87215,35.31695],[133.88172,35.31473],[133.89517,35.318],[133.89746,35.31744],[133.9063,35.31255],[133.90905,35.3128],[133.91199,35.31432],[133.91812,35.31428],[133.9379,35.30556],[133.94059,35.29858],[133.94566,35.29183],[133.94554,35.29075],[133.94374,35.28899],[133.93813,35.28858],[133.9338,35.28547],[133.92821,35.28365],[133.92499,35.28111],[133.92503,35.27909],[133.92801,35.27364],[133.92459,35.26817],[133.92569,35.2648],[133.92513,35.2627],[133.92668,35.25912],[133.93048,35.25648],[133.93137,35.25009],[133.93067,35.24731],[133.92515,35.23931],[133.9253,35.23725],[133.92702,35.23362],[133.92513,35.22506],[133.9194,35.21963],[133.91567,35.21916],[133.9088,35.21375],[133.90651,35.21068],[133.90529,35.20593],[133.90612,35.19971],[133.90803,35.19641],[133.90792,35.19072],[133.90725,35.18705],[133.90471,35.18299],[133.90503,35.18049],[133.90733,35.17695],[133.90608,35.17454],[133.89494,35.16924],[133.89393,35.1675],[133.89777,35.16271],[133.8985,35.15714],[133.90146,35.15186],[133.90166,35.13296],[133.90238,35.12876],[133.90384,35.12728],[133.90741,35.12574],[133.91173,35.1203],[133.92147,35.11469],[133.9295,35.11126],[133.9365,35.09806]],[[133.85846,35.40192],[133.85636,35.40763],[133.85223,35.41303],[133.8491,35.42412],[133.84362,35.42716],[133.84304,35.44271],[133.84598,35.44553],[133.84637,35.44731],[133.84489,35.45261],[133.84484,35.46367],[133.8494,35.47924]]]}}]}