{"type":"FeatureCollection","features":[{"type":"Feature","properties":{"route_id":"193","route_number":193,"name":"国道193号","source":"OpenStreetMap contributors (ODbL)","osm_relations":[12893,9419108,9419109,9419111,9419112,9419114]},"geometry":{"type":"MultiLineString","coordinates":[[[134.0283,34.2299],[134.031,34.22807],[134.03442,34.22391],[134.03415,34.22047],[134.03198,34.21615],[134.03371,34.20589],[134.03646,34.20375],[134.04052,34.19868],[134.04342,34.19353],[134.04885,34.19236],[134.05054,34.18879],[134.05337,34.18701],[134.06142,34.18745],[134.06403,34.18602],[134.06683,34.18758],[134.06877,34.18735],[134.07301,34.18355],[134.07317,34.17909],[134.07395,34.17765],[134.07828,34.17641],[134.08084,34.17698],[134.08235,34.17583],[134.08297,34.17418],[134.08191,34.17126],[134.08294,34.16948],[134.08668,34.1684],[134.09783,34.17205],[134.10413,34.17277],[134.10642,34.17408],[134.10696,34.17352],[134.10548,34.1712],[134.1058,34.17044],[134.10952,34.17107],[134.11308,34.16928],[134.11607,34.16998],[134.12106,34.17311],[134.12482,34.1716],[134.12954,34.1711],[134.13304,34.17181],[134.1393,34.17095],[134.1425,34.17142],[134.15119,34.16789],[134.15255,34.16606],[134.15195,34.16126],[134.15351,34.16025],[134.15348,34.15889],[134.15852,34.15302],[134.15828,34.15235],[134.1559,34.15177],[134.15548,34.15074],[134.15882,34.14639],[134.15905,34.14327],[134.16082,34.14018],[134.15997,34.13852],[134.15679,34.13801],[134.15609,34.13718],[134.16055,34.13355],[134.15988,34.13205],[134.16019,34.13015],[134.16222,34.12689],[134.16257,34.12482],[134.16671,34.12268],[134.16524,34.11733],[134.16614,34.11452],[134.16774,34.11278],[134.16978,34.11235],[134.1712,34.1098],[134.1734,34.10803],[134.17138,34.1004],[134.17165,34.09839],[134.17355,34.09545],[134.17268,34.07832],[134.17527,34.07144],[134.16975,34.06688],[134.16751,34.05452],[134.17111,34.05186],[134.17652,34.05292],[134.17929,34.05577],[134.18786,34.06159],[134.19446,34.06419],[134.19966,34.06234],[134.20435,34.06226],[134.22189,34.05826],[134.23442,34.0565],[134.23859,34.05715],[134.23858,34.0466],[134.23672,34.04397],[134.23689,34.04087],[134.24136,34.03733],[134.24781,34.03507],[134.24929,34.03284],[134.25811,34.0322],[134.25813,34.03033],[134.25979,34.02765],[134.25959,34.0252],[134.26258,34.02331],[134.26175,34.02005],[134.2635,34.01852],[134.26516,34.01296],[134.27069,34.01158],[134.27369,34.00831],[134.27298,34.01073],[134.27196,34.01113],[134.27325,34.01097],[134.27329,34.01016],[134.27528,34.00889],[134.27493,34.008],[134.27648,34.00757],[134.2759,34.00682],[134.27893,34.00254],[134.27837,34.00163],[134.27888,34.00044],[134.27789,34.00066],[134.27757,33.99954],[134.27343,34.00339],[134.2708,34.00199],[134.2693,34.00254],[134.27065,34.00134],[134.27367,34.00166],[134.2736,33.99929],[134.27486,33.99694],[134.27675,33.99564],[134.28317,33.99601],[134.27696,33.99395],[134.27414,33.99449],[134.27262,33.99238],[134.27257,33.99005],[134.27117,33.98935],[134.27171,33.98822],[134.27045,33.98646],[134.26399,33.98547],[134.2644,33.98425],[134.26189,33.98364],[134.26095,33.98229],[134.26373,33.98341],[134.26864,33.98298],[134.26948,33.98355],[134.27266,33.98204],[134.27441,33.98321],[134.27405,33.98167],[134.2729,33.98133],[134.27489,33.97713],[134.273,33.97515],[134.2741,33.96642],[134.27301,33.96114],[134.27402,33.96059],[134.27644,33.96138],[134.27707,33.95956],[134.27875,33.95965],[134.28387,33.9557],[134.28069,33.95058],[134.27737,33.94841],[134.27844,33.94625],[134.27625,33.94557],[134.27357,33.94217],[134.2726,33.94017],[134.27304,33.93814],[134.26686,33.93732],[134.2623,33.93366],[134.25883,33.93415],[134.25781,33.93361],[134.2738,33.89602],[134.27445,33.89262],[134.2735,33.88963],[134.27668,33.88513],[134.28078,33.8842],[134.281,33.88291],[134.28231,33.88199],[134.28571,33.88131],[134.28759,33.88235],[134.28377,33.87897],[134.28093,33.87875],[134.2793,33.87798],[134.27902,33.87658],[134.27645,33.87594],[134.27714,33.87458],[134.27621,33.87385],[134.27646,33.87222],[134.27505,33.86817],[134.27629,33.86628],[134.27728,33.86188],[134.27599,33.86073],[134.27386,33.86037],[134.27532,33.86015],[134.27655,33.86115],[134.27487,33.85949],[134.27696,33.85436],[134.28416,33.85392],[134.28832,33.85098],[134.28627,33.84382],[134.28665,33.84221],[134.29038,33.83929],[134.29106,33.83614],[134.29274,33.83534],[134.2943,33.83295],[134.29555,33.83228],[134.29764,33.83293],[134.29903,33.83196],[134.29942,33.82981],[134.29877,33.82823],[134.30121,33.82673],[134.30195,33.82384],[134.30092,33.82071],[134.30124,33.8177],[134.30365,33.81356],[134.31136,33.81274],[134.3169,33.81318],[134.32157,33.8115],[134.32356,33.8052],[134.32446,33.80454],[134.32916,33.80484],[134.33028,33.80103],[134.32798,33.79933],[134.32494,33.79957],[134.32181,33.80221],[134.31858,33.8012],[134.31512,33.79765],[134.31423,33.79366],[134.31257,33.79271],[134.31094,33.79282],[134.30697,33.79611],[134.30098,33.7966],[134.29796,33.79243],[134.29769,33.78631],[134.29446,33.78399],[134.29211,33.78341],[134.28873,33.78408],[134.28424,33.78284],[134.2788,33.7825],[134.27129,33.77989],[134.2586,33.7798],[134.25551,33.77815],[134.25491,33.77613],[134.25326,33.77501],[134.24837,33.77314],[134.24707,33.77323],[134.24589,33.77437],[134.24591,33.7703],[134.24884,33.77001],[134.24732,33.76626],[134.24995,33.76521],[134.25041,33.76313],[134.2496,33.76233],[134.25282,33.7618],[134.25242,33.75978],[134.25004,33.75724],[134.25188,33.75817],[134.25295,33.75615],[134.25448,33.75874],[134.25643,33.75962],[134.25874,33.75911],[134.25785,33.76148],[134.25956,33.76188],[134.26104,33.76063],[134.26076,33.75936],[134.26141,33.75873],[134.26007,33.75753],[134.26057,33.75649],[134.25823,33.75539],[134.25927,33.75413],[134.25874,33.75253],[134.25969,33.75196],[134.26048,33.75307],[134.2612,33.75203],[134.26184,33.75291],[134.26345,33.75183],[134.26526,33.75277],[134.26631,33.75246],[134.26637,33.75075],[134.2681,33.75063],[134.26718,33.74932],[134.26856,33.74803],[134.26666,33.74628],[134.26794,33.74596],[134.26944,33.7468],[134.26986,33.74604],[134.27171,33.74582],[134.27346,33.74646],[134.27428,33.74611],[134.27421,33.74497],[134.27718,33.7462],[134.27773,33.74533],[134.27953,33.74647],[134.27935,33.7453],[134.2806,33.74457],[134.27914,33.7441],[134.27993,33.74347],[134.27878,33.7417],[134.28099,33.74183],[134.28075,33.74018],[134.28149,33.73979],[134.2804,33.73676],[134.27872,33.73733],[134.27905,33.73534],[134.27847,33.73478],[134.28128,33.73275],[134.27903,33.73231],[134.27957,33.73054],[134.27714,33.73045],[134.27707,33.72892],[134.28035,33.72959],[134.28181,33.72879],[134.2831,33.72939],[134.28988,33.72578],[134.29081,33.72756],[134.29253,33.72771],[134.29288,33.72841],[134.2928,33.72744],[134.29142,33.72749],[134.29096,33.72637],[134.29177,33.72355],[134.2925,33.72484],[134.29209,33.72613],[134.29407,33.72675],[134.29569,33.72391],[134.29694,33.72362],[134.29733,33.72174],[134.29918,33.72215],[134.30091,33.72108],[134.29903,33.7218],[134.29796,33.72068],[134.29921,33.72141],[134.30078,33.72016],[134.30186,33.72063],[134.30232,33.72269],[134.30158,33.72548],[134.3039,33.72356],[134.30481,33.72394],[134.30419,33.72168],[134.30556,33.71915],[134.30681,33.71991],[134.30907,33.71926],[134.30962,33.71994],[134.31065,33.71959],[134.31071,33.71864],[134.31153,33.71886],[134.31093,33.71833],[134.30715,33.7187],[134.30492,33.71666],[134.30354,33.71686],[134.303,33.71553],[134.30478,33.71389],[134.30449,33.7128],[134.30545,33.71176],[134.30681,33.71176],[134.30608,33.70999],[134.30709,33.70823],[134.30277,33.70673],[134.30429,33.7036],[134.30226,33.70208],[134.30148,33.70031],[134.29933,33.69979],[134.30204,33.69723],[134.30054,33.69206],[134.30303,33.68841],[134.30554,33.6824],[134.30642,33.68139],[134.30928,33.68117],[134.3127,33.67945],[134.31457,33.67719],[134.31366,33.67614],[134.31154,33.67574],[134.31113,33.67461],[134.31451,33.6708],[134.31121,33.66687],[134.31334,33.66206],[134.31163,33.65915],[134.30715,33.65756],[134.30646,33.65306],[134.30819,33.65036],[134.31189,33.64992],[134.31309,33.64187],[134.31124,33.63908],[134.30761,33.63589],[134.30631,33.6312],[134.30752,33.62844],[134.31085,33.62677],[134.31886,33.62789],[134.32093,33.62713],[134.32187,33.62455],[134.32098,33.61752],[134.32189,33.61195],[134.32742,33.60917],[134.33298,33.60837],[134.33929,33.60556],[134.35147,33.60173]],[[134.17261,34.09704],[134.1719,34.09379],[134.16825,34.08744],[134.16682,34.08283],[134.16714,34.07439],[134.16384,34.06663]],[[134.04714,34.33723],[134.04631,34.32998],[134.0382,34.31466],[134.03284,34.28982],[134.03342,34.27531],[134.03026,34.26903],[134.02708,34.25262],[134.02771,34.23941],[134.02691,34.25215],[134.03014,34.26905],[134.03324,34.2749],[134.03273,34.28983],[134.03806,34.31468],[134.04616,34.32993],[134.04702,34.33733]],[[134.02839,34.22997],[134.03129,34.22792],[134.03453,34.22393],[134.03413,34.22002],[134.0321,34.21645],[134.03286,34.21112]],[[134.02783,34.23946],[134.03311,34.24018],[134.03429,34.23676],[134.03477,34.2252],[134.03595,34.22355],[134.03402,34.22005]],[[134.25705,33.77878],[134.25474,33.78079],[134.2533,33.7805],[134.25303,33.77991],[134.25513,33.77759]]]}}]}