{"type":"FeatureCollection","features":[{"type":"Feature","properties":{"route_id":"301","route_number":301,"name":"国道301号","source":"OpenStreetMap contributors (ODbL)","osm_relations":[3518585,3524527,10601615,10601616,13384981,21401111]},"geometry":{"type":"MultiLineString","coordinates":[[[137.53606,34.71489],[137.5297,34.72293],[137.53461,34.72248],[137.53589,34.72111],[137.54666,34.71577],[137.54815,34.71039],[137.54991,34.70715],[137.55018,34.70453],[137.55228,34.70376],[137.55555,34.70059],[137.55933,34.69611],[137.55913,34.69505],[137.56172,34.69431],[137.59224,34.69357],[137.61332,34.68562],[137.62946,34.68075],[137.66325,34.68065]],[[137.21624,35.06605],[137.21437,35.0662],[137.20703,35.0641],[137.20281,35.06541],[137.20702,35.064],[137.21411,35.06605],[137.21622,35.06597],[137.2157,35.06347],[137.2189,35.05909],[137.21805,35.05745],[137.21956,35.05454],[137.22405,35.05416],[137.22849,35.0566],[137.23099,35.05589],[137.22893,35.05686],[137.22226,35.06364],[137.21873,35.06557],[137.21622,35.06597],[137.21817,35.06573]],[[137.23099,35.05589],[137.23436,35.05562],[137.23633,35.05306],[137.24009,35.05249],[137.24532,35.04607],[137.24676,35.04564],[137.24832,35.04361],[137.25577,35.04591],[137.26086,35.04572],[137.26108,35.04478],[137.2589,35.04393],[137.26104,35.04201],[137.26169,35.04192],[137.26182,35.04273],[137.26328,35.04031],[137.26872,35.03824],[137.27284,35.03451],[137.27687,35.03305],[137.28015,35.03004],[137.28641,35.02966],[137.28974,35.02797],[137.29584,35.02819],[137.29816,35.03037],[137.30577,35.02971],[137.30744,35.0309],[137.30878,35.03382],[137.31114,35.03463],[137.31199,35.03651],[137.31352,35.03725],[137.31923,35.03548],[137.32047,35.03385],[137.31941,35.03175],[137.31999,35.03096],[137.32966,35.03072],[137.33164,35.02884],[137.33504,35.02931],[137.33487,35.02666],[137.33925,35.01661],[137.3547,35.0146],[137.36203,35.01569],[137.36455,35.01482],[137.37098,35.01519],[137.37046,35.01283],[137.37414,35.00863],[137.37643,35.00713],[137.37422,35.00455],[137.37537,35.0033],[137.37393,35.00207],[137.37506,35.00092],[137.37474,34.99789],[137.38154,34.99399],[137.38504,34.99087],[137.39537,34.99223],[137.40856,34.99805],[137.41961,34.99816],[137.42693,35.0014],[137.43152,35.00166],[137.43594,35.00063],[137.42887,34.99122],[137.43026,34.987],[137.42625,34.98338],[137.424,34.97792],[137.42611,34.97093],[137.42062,34.9638],[137.41916,34.96007],[137.42,34.95696],[137.4195,34.95388],[137.42001,34.95176],[137.42372,34.94784],[137.42369,34.94673],[137.42189,34.94527],[137.42103,34.9432],[137.42258,34.94215],[137.4248,34.93253],[137.42702,34.92807],[137.42485,34.92705],[137.43041,34.92734],[137.42884,34.92591],[137.43111,34.92482],[137.43755,34.92641],[137.43993,34.9284],[137.44392,34.92984],[137.44418,34.92881],[137.44652,34.92731],[137.44712,34.92561],[137.44589,34.92364],[137.44699,34.91942],[137.44614,34.91422],[137.4438,34.91302],[137.44725,34.91125],[137.44589,34.91272],[137.44803,34.91139],[137.44778,34.91281],[137.45403,34.91241],[137.45161,34.91168],[137.45587,34.90979],[137.45802,34.90993],[137.45586,34.91117],[137.45886,34.91276],[137.46263,34.91153],[137.46327,34.91222],[137.46438,34.91142],[137.46611,34.91218],[137.46925,34.90821],[137.47178,34.9075],[137.47508,34.9078],[137.4798,34.90554],[137.48132,34.90398],[137.48461,34.89613],[137.49169,34.89842],[137.4928,34.89376],[137.49697,34.88896],[137.496,34.88764],[137.48671,34.88222],[137.48498,34.88034],[137.48729,34.87544],[137.48903,34.87351],[137.50032,34.86807],[137.50663,34.86387],[137.50871,34.85422],[137.51132,34.85162],[137.51085,34.84846],[137.51738,34.84447],[137.51711,34.84398],[137.51552,34.8451],[137.51445,34.84488],[137.51579,34.84449],[137.51809,34.84157],[137.52024,34.84214],[137.52315,34.83926],[137.52924,34.83921],[137.52995,34.83756],[137.53173,34.83827],[137.53049,34.83589],[137.53215,34.83502],[137.53154,34.83272],[137.53466,34.82872],[137.53561,34.82464],[137.53792,34.82323],[137.54028,34.82296],[137.54631,34.81933],[137.54627,34.81697],[137.55034,34.81145],[137.5478,34.80449],[137.55071,34.8039],[137.54877,34.80048],[137.54866,34.79587],[137.54649,34.79392],[137.54527,34.7882],[137.54352,34.78683],[137.54151,34.78268],[137.54165,34.7805],[137.54365,34.779],[137.54385,34.77581],[137.54668,34.77445],[137.54707,34.77116],[137.54653,34.77004],[137.53848,34.76946],[137.53416,34.76712],[137.53172,34.76699],[137.52827,34.76496],[137.52339,34.76352],[137.51651,34.75897],[137.51276,34.75968],[137.51163,34.75769],[137.51185,34.74898],[137.51382,34.74615],[137.51507,34.74248],[137.51733,34.73885],[137.51985,34.73684],[137.52328,34.72908],[137.5297,34.72293]],[[137.16094,35.08257],[137.17033,35.08175],[137.17413,35.07729],[137.17715,35.07515],[137.18652,35.07228],[137.19014,35.06906],[137.18624,35.07232],[137.17763,35.07471],[137.17454,35.07678],[137.17026,35.08167],[137.16094,35.08248]],[[137.20281,35.06541],[137.19576,35.0669],[137.19014,35.06906]],[[137.22864,35.0566],[137.23085,35.05593]],[[137.23558,35.05446],[137.23713,35.05032],[137.24669,35.043],[137.24876,35.04271],[137.25326,35.04433],[137.25595,35.04428],[137.25801,35.04311],[137.25908,35.04],[137.26376,35.03514],[137.266,35.03423],[137.27381,35.03401]]]}}]}