{"type":"FeatureCollection","features":[{"type":"Feature","properties":{"route_id":"31","route_number":31,"name":"国道31号","source":"OpenStreetMap contributors (ODbL)","osm_relations":[1957766]},"geometry":{"type":"MultiLineString","coordinates":[[[132.51465,34.2897],[132.51046,34.29421],[132.51739,34.28707],[132.51923,34.28164],[132.51904,34.27873],[132.51647,34.27524],[132.5169,34.2719],[132.51447,34.26741],[132.51496,34.26573],[132.51823,34.26263],[132.53168,34.25651],[132.53869,34.248],[132.54004,34.24828],[132.54585,34.24644],[132.54969,34.24405],[132.55451,34.24868],[132.56379,34.24228],[132.56507,34.24355]],[[132.51087,34.33924],[132.50729,34.33661],[132.50511,34.33189],[132.50499,34.32759],[132.50367,34.32593],[132.50489,34.32759],[132.50511,34.33227],[132.50721,34.33666],[132.51534,34.34171],[132.51885,34.34865],[132.51736,34.34551]],[[132.53343,34.36657],[132.53477,34.3567],[132.53299,34.36786]],[[132.53477,34.3567],[132.5347,34.35522],[132.53301,34.35308],[132.52884,34.35059],[132.52088,34.34975],[132.51885,34.34865]],[[132.50367,34.32593],[132.50001,34.32299],[132.49618,34.31544],[132.49877,34.30946],[132.50127,34.30706],[132.5029,34.30382],[132.50681,34.30166],[132.50784,34.29674],[132.51046,34.29421]],[[132.56517,34.24347],[132.56384,34.24216],[132.56143,34.24385]],[[132.56075,34.24433],[132.55617,34.24752]]]}}]}