{"type":"FeatureCollection","features":[{"type":"Feature","properties":{"route_id":"190","route_number":190,"name":"国道190号","source":"OpenStreetMap contributors (ODbL)","osm_relations":[9400754,9400755,9400756,9886023]},"geometry":{"type":"MultiLineString","coordinates":[[[131.23183,33.96997],[131.23163,33.96439],[131.23239,33.96125],[131.24184,33.95292],[131.24503,33.95214],[131.25156,33.94797],[131.25575,33.94119],[131.25141,33.94793],[131.24535,33.95183],[131.24193,33.95272],[131.23239,33.96102],[131.23154,33.96435],[131.23183,33.96997],[131.22535,33.97461],[131.21371,33.97724],[131.20356,33.97697],[131.19817,33.97509],[131.19111,33.97568],[131.18887,33.97649],[131.1826,33.98102],[131.18059,33.98659],[131.18297,33.99025],[131.18319,33.99341],[131.18215,33.99795],[131.18307,34.00072],[131.17908,34.00389],[131.1826,34.00116],[131.18229,33.99868]],[[131.3034,33.9516],[131.3003,33.94627],[131.29289,33.94296],[131.28605,33.9425],[131.28082,33.94347],[131.27391,33.94222],[131.26498,33.94302],[131.25829,33.94246],[131.25575,33.94119],[131.25852,33.94242],[131.2647,33.94292],[131.27413,33.94215],[131.281,33.94339],[131.28952,33.9423],[131.29415,33.94321],[131.30089,33.94669],[131.30443,33.95372],[131.30646,33.95585],[131.31817,33.96171],[131.32444,33.96329],[131.32912,33.96625],[131.33259,33.97153],[131.33942,33.97882],[131.3409,33.9831],[131.34667,33.99078],[131.34904,33.99751],[131.35244,34.00293],[131.35619,34.01648],[131.35527,34.02335],[131.35605,34.03388],[131.36285,34.04249],[131.36775,34.05147],[131.36792,34.05861]],[[131.06464,34.04641],[131.06955,34.04358],[131.07662,34.04264],[131.08593,34.03992],[131.09082,34.04008],[131.09843,34.03681],[131.09779,34.03567],[131.09833,34.03436],[131.1011,34.03273],[131.10648,34.0275],[131.1116,34.02119],[131.1146,34.02115],[131.12501,34.02632],[131.13527,34.02274],[131.13857,34.02447],[131.15131,34.02285],[131.15474,34.01891],[131.15945,34.01639],[131.16311,34.0128],[131.16673,34.01218],[131.17908,34.00389]],[[131.23179,33.96985],[131.22471,33.97487],[131.2163,33.97692],[131.20362,33.97692],[131.19816,33.97501],[131.19003,33.97584],[131.18224,33.98122],[131.18077,33.98579]],[[131.0636,34.04708],[131.0671,34.04571],[131.06823,34.04424]],[[131.17963,34.00335],[131.17979,34.00353]],[[131.23178,33.96891],[131.2315,33.97006]],[[131.36791,34.05651],[131.36782,34.05853]]]}}]}