{"type":"FeatureCollection","features":[{"type":"Feature","properties":{"route_id":"102","route_number":102,"name":"国道102号","source":"OpenStreetMap contributors (ODbL)","osm_relations":[2975091,2975092]},"geometry":{"type":"MultiLineString","coordinates":[[[141.26056,40.61239],[141.24924,40.61378],[141.22566,40.61416],[141.21704,40.61027],[141.21123,40.6177],[141.20024,40.61284],[141.17382,40.60965],[141.16639,40.6066],[141.15127,40.59848],[141.15054,40.59715],[141.15192,40.59476],[141.14784,40.59227],[141.13459,40.58778],[141.13051,40.58792],[141.1219,40.58655],[141.1162,40.58715],[141.10542,40.58674],[141.09179,40.58948],[141.08137,40.58469],[141.07254,40.58365],[141.06636,40.58388],[141.05894,40.58637],[141.05706,40.58958],[141.04567,40.6011],[141.04139,40.60202],[141.03591,40.60004],[141.02389,40.59252],[141.02126,40.58908],[141.02072,40.58718],[141.01766,40.58523],[141.01681,40.58246],[141.01493,40.58128],[140.99934,40.57951],[140.99695,40.57701],[140.99517,40.57639],[140.98655,40.57735],[140.98592,40.57651],[140.98087,40.57528],[140.97833,40.57341],[140.97871,40.56943],[140.97378,40.56506],[140.9743,40.56329],[140.97616,40.56309],[140.97667,40.56213],[140.97523,40.56059],[140.97121,40.55865],[140.9709,40.55698],[140.972,40.55399],[140.97493,40.55007],[140.97572,40.54074],[140.97958,40.54084],[140.98181,40.53924],[140.97915,40.534],[140.97898,40.53124],[140.9779,40.52987],[140.97511,40.5294],[140.97398,40.52411],[140.96789,40.51426],[140.96308,40.51171],[140.96016,40.50316],[140.95529,40.49759],[140.95271,40.4897],[140.94805,40.48604],[140.94467,40.48056],[140.94144,40.47816],[140.93715,40.48126],[140.93323,40.48297],[140.93208,40.4865],[140.92658,40.4923],[140.92283,40.49283],[140.92141,40.49417],[140.92435,40.49725],[140.92639,40.49807],[140.92575,40.49891],[140.92851,40.50111],[140.9265,40.50098],[140.92507,40.50204],[140.92672,40.50352],[140.92988,40.50422],[140.9283,40.50558],[140.93107,40.50422],[140.92933,40.50615],[140.92933,40.50818],[140.92676,40.5099],[140.92021,40.51212],[140.91667,40.51251],[140.91518,40.51158],[140.90978,40.51591],[140.90331,40.51622],[140.89927,40.51499],[140.89948,40.51402],[140.89816,40.5136],[140.89606,40.51542],[140.89449,40.51568],[140.88911,40.51576],[140.88434,40.51465],[140.88071,40.51523],[140.87828,40.51456],[140.88158,40.51116],[140.88,40.51036],[140.87714,40.5129],[140.87615,40.51495],[140.87619,40.51787],[140.87553,40.51814],[140.87533,40.51417],[140.8745,40.51499],[140.87369,40.51278],[140.87426,40.51177],[140.87352,40.51143],[140.87438,40.51061],[140.87287,40.50956],[140.87272,40.5104],[140.87104,40.50916],[140.86426,40.50806],[140.86179,40.50673],[140.85879,40.50727],[140.85134,40.50607],[140.84849,40.50807],[140.84495,40.50756],[140.84154,40.50535],[140.84171,40.50368],[140.83604,40.50421],[140.83451,40.50166],[140.83157,40.50124],[140.82985,40.49912],[140.82759,40.4979],[140.81983,40.50205],[140.81989,40.50364],[140.82125,40.50383],[140.81987,40.50475],[140.82096,40.50571],[140.81855,40.50578],[140.81829,40.50707],[140.81617,40.50881],[140.81184,40.50953],[140.8097,40.50919],[140.81099,40.50871],[140.80946,40.50826],[140.8057,40.51046],[140.80275,40.50953],[140.79835,40.50971],[140.79512,40.5107],[140.79434,40.51242],[140.79249,40.51332],[140.78311,40.51539],[140.78191,40.51694],[140.78288,40.5191],[140.78236,40.52102],[140.77986,40.52066],[140.77811,40.52203],[140.77154,40.52338],[140.77054,40.52637],[140.76826,40.52737],[140.76532,40.53011],[140.75253,40.53245],[140.74925,40.53155],[140.74536,40.52854],[140.73766,40.52717],[140.73305,40.524],[140.7257,40.52318],[140.7218,40.52596],[140.71882,40.52671],[140.70779,40.53253],[140.70258,40.53843],[140.70348,40.54247],[140.70296,40.54374],[140.69557,40.54569],[140.69257,40.54887],[140.6942,40.5522],[140.69388,40.55466],[140.69132,40.55905],[140.68803,40.56248],[140.68788,40.56761],[140.68534,40.57081],[140.68732,40.57463],[140.68626,40.57652],[140.68629,40.5791],[140.69217,40.58291],[140.69199,40.58654],[140.69298,40.58887],[140.6927,40.59412],[140.69556,40.59801],[140.69456,40.6003],[140.6876,40.60258],[140.68322,40.60782],[140.67667,40.60937],[140.67134,40.60853],[140.6677,40.60936],[140.66344,40.61385],[140.65571,40.61892],[140.63812,40.62827],[140.62936,40.62897],[140.62063,40.62547],[140.61588,40.62495],[140.59993,40.63141],[140.59298,40.63336],[140.57901,40.63448],[140.56826,40.63356],[140.56258,40.63149],[140.55259,40.62536],[140.5275,40.61776],[140.5235,40.61429],[140.51582,40.60014],[140.51135,40.59757],[140.50314,40.59642]],[[140.50308,40.59652],[140.51077,40.59752],[140.51569,40.60018],[140.5173,40.60209],[140.52337,40.61433],[140.52769,40.61798],[140.55193,40.62522],[140.56264,40.63162],[140.56848,40.6337],[140.57723,40.63465],[140.5927,40.63353],[140.60005,40.63151],[140.61248,40.62588],[140.61663,40.62494]],[[140.97363,40.55135],[140.97118,40.55201],[140.97238,40.55024],[140.97167,40.54882],[140.97198,40.5466],[140.96862,40.54095],[140.96429,40.53929],[140.96287,40.53793],[140.96038,40.53783],[140.95325,40.53499],[140.95175,40.53248],[140.94869,40.53112],[140.94563,40.52759],[140.94315,40.5266],[140.94219,40.52432],[140.93945,40.52204],[140.93661,40.52104],[140.93353,40.52156],[140.93286,40.51995],[140.93085,40.52018],[140.92834,40.51775],[140.93045,40.51588],[140.92692,40.51548],[140.92591,40.51171],[140.92413,40.51083]]]}}]}