{"type":"FeatureCollection","features":[{"type":"Feature","properties":{"route_id":"306","route_number":306,"name":"国道306号","source":"OpenStreetMap contributors (ODbL)","osm_relations":[8330838,10625543,10625544,10625545,19890500]},"geometry":{"type":"MultiLineString","coordinates":[[[136.26641,35.26707],[136.27238,35.26181],[136.27316,35.25916],[136.27661,35.25385],[136.27731,35.25176],[136.27642,35.2473],[136.27689,35.24585],[136.28342,35.24014],[136.28933,35.23832],[136.29593,35.23395],[136.29577,35.2298],[136.29213,35.22387],[136.29555,35.21908],[136.30174,35.2156],[136.30706,35.21108],[136.31138,35.21136],[136.31469,35.20806],[136.32032,35.20716],[136.32188,35.20555],[136.32501,35.20702],[136.32706,35.2071],[136.33045,35.20373],[136.33233,35.20426],[136.33245,35.20594],[136.33534,35.20858],[136.33829,35.20913],[136.33853,35.20648],[136.34042,35.20565],[136.34862,35.21134],[136.353,35.21244],[136.35509,35.21194],[136.35833,35.20931],[136.37451,35.21073],[136.37646,35.20984],[136.38388,35.21351],[136.38617,35.21265],[136.38823,35.21294],[136.39161,35.20825],[136.39252,35.20534],[136.39664,35.20273],[136.39872,35.20262],[136.3948,35.20482],[136.39346,35.20667],[136.39703,35.20428],[136.39851,35.20449],[136.40017,35.20338],[136.40132,35.20396],[136.40229,35.20301],[136.40347,35.20384],[136.4052,35.2031],[136.40886,35.2051],[136.4102,35.20465],[136.41061,35.20328],[136.41909,35.19917],[136.41966,35.1973],[136.42166,35.19658],[136.42183,35.19559],[136.42335,35.19587],[136.42351,35.19468],[136.42579,35.19522],[136.42652,35.19358],[136.42776,35.1954],[136.42938,35.19462],[136.43096,35.19562],[136.43273,35.19487],[136.43507,35.19522],[136.43615,35.19424],[136.43529,35.19195],[136.4369,35.19133],[136.43836,35.19249],[136.43861,35.19429],[136.44012,35.19467],[136.44068,35.19623],[136.44369,35.19688],[136.44471,35.19802],[136.44756,35.19759],[136.44875,35.1966],[136.44931,35.19929],[136.4508,35.19798],[136.45288,35.19762],[136.45294,35.19638],[136.45426,35.19669],[136.45673,35.19491],[136.45925,35.19496],[136.45966,35.1967],[136.4607,35.19713],[136.46217,35.19654],[136.46176,35.19543],[136.46306,35.19023],[136.47555,35.18292],[136.48115,35.17425],[136.48948,35.16944],[136.49805,35.16747],[136.50241,35.16239],[136.50927,35.15877],[136.51313,35.14308],[136.51568,35.14109],[136.51224,35.1396],[136.51003,35.13337],[136.50644,35.12928],[136.50595,35.12217],[136.50688,35.10231],[136.50418,35.09537],[136.50141,35.09088],[136.5029,35.07536],[136.50531,35.07284],[136.50518,35.07064],[136.50282,35.06606],[136.49876,35.06116],[136.49885,35.05534],[136.49717,35.05154],[136.4969,35.04811],[136.50319,35.0428],[136.50918,35.0169],[136.50809,35.00998],[136.51004,35.00687],[136.51407,35.00584],[136.51582,35.00217],[136.51467,34.99936],[136.51133,34.99759],[136.50849,34.99467],[136.50723,34.9896],[136.50704,34.97942],[136.50486,34.97597],[136.50264,34.96928],[136.50214,34.96127],[136.49723,34.94913],[136.49139,34.94511],[136.48836,34.9413],[136.48398,34.93758],[136.48117,34.93078],[136.47999,34.92423],[136.47737,34.91844],[136.47844,34.90655],[136.47599,34.90109],[136.47028,34.89432],[136.47106,34.89017],[136.47347,34.88682],[136.47277,34.88284],[136.47525,34.87723],[136.47301,34.87462],[136.47043,34.86654],[136.47027,34.86223],[136.47122,34.86016],[136.47121,34.85602],[136.47394,34.85293],[136.47615,34.84818],[136.47659,34.83291],[136.49054,34.82351],[136.49138,34.82007],[136.49512,34.81397],[136.50319,34.81016],[136.51267,34.80799],[136.515,34.80488],[136.5133,34.80294],[136.51339,34.8019],[136.51898,34.79913],[136.51713,34.79657],[136.51886,34.79371],[136.5182,34.79081],[136.52034,34.78581],[136.52071,34.78262],[136.53077,34.77677],[136.52661,34.77044],[136.52321,34.75649]],[[136.52308,34.75655],[136.52636,34.77009],[136.53067,34.77682]],[[136.48398,34.93758],[136.47767,34.93418],[136.47728,34.93257],[136.47987,34.92706],[136.4801,34.92465]],[[136.45642,34.89596],[136.46208,34.89378],[136.46801,34.89031],[136.47553,34.88814],[136.48171,34.88354],[136.49033,34.88248],[136.49716,34.8796],[136.50297,34.88039],[136.50856,34.88492],[136.51161,34.88634],[136.52254,34.88831],[136.52671,34.88779],[136.53278,34.88457],[136.53758,34.88372],[136.54954,34.88396],[136.55646,34.88619],[136.56111,34.88652]],[[136.56111,34.88643],[136.55661,34.88614],[136.54956,34.88388],[136.53761,34.88365],[136.53238,34.88463],[136.52616,34.88788],[136.52256,34.88824],[136.51169,34.8863],[136.50862,34.88488],[136.503,34.88033],[136.49716,34.87953],[136.49025,34.8824],[136.48164,34.88347],[136.47549,34.88808],[136.46797,34.89024],[136.46204,34.8937],[136.45639,34.89588]]]}}]}