{"type":"FeatureCollection","features":[{"type":"Feature","properties":{"route_id":"53","route_number":53,"name":"国道53号","source":"OpenStreetMap contributors (ODbL)","osm_relations":[2957131,2957132,9425260,9425261,9425262,9425263]},"geometry":{"type":"MultiLineString","coordinates":[[[134.19504,35.31537],[134.19454,35.3163],[134.20104,35.30851],[134.202,35.30523],[134.20815,35.30183],[134.21056,35.298],[134.22743,35.29025],[134.2307,35.2825],[134.23017,35.28045],[134.22557,35.27714],[134.22403,35.27451],[134.22437,35.27242],[134.23024,35.26768],[134.22894,35.26659],[134.22886,35.2644],[134.22746,35.26255],[134.22763,35.25939],[134.22963,35.25433],[134.23049,35.24919],[134.22856,35.24615],[134.22948,35.24409],[134.22903,35.23907],[134.22686,35.23691],[134.22791,35.23306],[134.22759,35.2276],[134.22662,35.22513],[134.21765,35.21525],[134.21641,35.21291],[134.21347,35.21178],[134.20919,35.21217],[134.20455,35.20978],[134.204,35.20802],[134.20204,35.20677],[134.20056,35.20411],[134.19794,35.20184],[134.19846,35.19777],[134.1973,35.19752],[134.19304,35.19925],[134.19177,35.19773],[134.19238,35.19631],[134.19774,35.19412],[134.20174,35.1957],[134.20346,35.19538],[134.20337,35.19295],[134.20477,35.18864],[134.20675,35.18606],[134.21022,35.18369],[134.21249,35.17916],[134.21172,35.17659],[134.21302,35.17054],[134.21086,35.16848],[134.21038,35.16678],[134.21258,35.16434],[134.21461,35.15938],[134.21436,35.15844],[134.21304,35.15832],[134.21194,35.16062],[134.21312,35.1607],[134.21385,35.15696],[134.21613,35.15201],[134.21509,35.14246],[134.2055,35.13721],[134.19952,35.13229],[134.18615,35.1258],[134.18497,35.12393],[134.18223,35.12282],[134.17608,35.12208],[134.16375,35.11885],[134.14833,35.11804],[134.14428,35.11911],[134.14162,35.1165],[134.11875,35.1067],[134.0984,35.09907],[134.08976,35.0975],[134.08264,35.09318],[134.07242,35.09065],[134.07124,35.08914],[134.07138,35.08503],[134.07038,35.08297],[134.06727,35.08003],[134.06188,35.07701],[134.05624,35.07254],[134.0518,35.07044],[134.04985,35.06485],[134.04314,35.05942],[134.02767,35.05936],[134.02254,35.0624],[134.01956,35.06295],[134.01228,35.06135],[134.00702,35.05808],[134.00354,35.0576],[134.00707,35.05803],[134.01231,35.06128],[134.01954,35.06288],[134.02231,35.0624],[134.02763,35.0593],[134.04172,35.05895],[134.04425,35.05994],[134.04956,35.06454]],[[134.00356,35.05754],[134.00384,35.05629],[134.00291,35.05525],[133.99698,35.05454],[133.99274,35.05513],[133.98652,35.05731],[133.98222,35.05773],[133.98028,35.05716],[133.97518,35.05314],[133.97355,35.04919],[133.9713,35.04718],[133.9688,35.03928],[133.96602,35.03523],[133.96142,35.03358],[133.95709,35.0282],[133.95725,35.02429],[133.96042,35.02122],[133.96062,35.01979],[133.95929,35.01576],[133.95308,35.01211],[133.95214,35.00943],[133.95426,35.00312],[133.95621,34.99333],[133.95961,34.98582],[133.96131,34.97443],[133.96133,34.96831],[133.95858,34.95939],[133.96047,34.95452],[133.96088,34.9501],[133.96353,34.94347],[133.96366,34.93765],[133.96252,34.93181],[133.95949,34.92611],[133.95558,34.92313],[133.95452,34.91996],[133.94808,34.91848],[133.94754,34.91377],[133.946,34.91125],[133.94267,34.90849],[133.94116,34.90823],[133.93898,34.90997],[133.93775,34.91006],[133.93159,34.90412],[133.93274,34.90112],[133.92568,34.89229],[133.92391,34.88732],[133.92214,34.88543],[133.91773,34.88364],[133.91581,34.8847],[133.91485,34.88846],[133.90707,34.88866],[133.90416,34.88795],[133.90185,34.8855],[133.90486,34.8786],[133.90323,34.87448],[133.90247,34.86838],[133.9041,34.86606],[133.90892,34.86278],[133.91071,34.86],[133.9109,34.85157],[133.9117,34.84894],[133.90666,34.84087],[133.90696,34.83599],[133.909,34.83551],[133.92108,34.83982],[133.92653,34.83869],[133.92776,34.8372],[133.92675,34.83282],[133.92756,34.82856],[133.93266,34.82501],[133.93921,34.8245],[133.94089,34.82113],[133.93563,34.80265],[133.93604,34.79753],[133.93518,34.79148],[133.92498,34.779],[133.92753,34.77593],[133.9333,34.77248],[133.9338,34.77021],[133.92961,34.76727],[133.92758,34.7635],[133.92619,34.76048],[133.92612,34.75524],[133.92544,34.75392],[133.91718,34.75071],[133.91618,34.74492],[133.91542,34.74396],[133.9082,34.74333],[133.90529,34.74159],[133.90341,34.73396],[133.90089,34.72936],[133.90295,34.72232],[133.90109,34.71719],[133.9015,34.7048],[133.89966,34.69855],[133.89763,34.68332],[133.89929,34.68007],[133.9133,34.68141],[133.89925,34.67997],[133.89759,34.68311],[133.89946,34.69856],[133.90142,34.70526],[133.90136,34.71048]],[[133.92618,34.65638],[133.92625,34.67122],[133.918,34.67104],[133.92636,34.67122],[133.92636,34.65638]],[[133.96958,35.05826],[133.97045,35.0482],[133.96972,35.04937],[133.96938,35.05995],[133.96824,35.06195],[133.96888,35.06263]],[[134.20709,35.42485],[134.20457,35.43403],[134.20529,35.43644],[134.20501,35.43496],[134.20735,35.42652],[134.20518,35.41972],[134.20688,35.40903],[134.20039,35.38678],[134.20261,35.38241],[134.20985,35.37857],[134.21435,35.37501],[134.21528,35.37263],[134.21549,35.36847],[134.21272,35.36091],[134.20955,35.35903],[134.20425,35.35215],[134.2042,35.35035],[134.20593,35.34766],[134.20583,35.34528],[134.19997,35.33819],[134.20076,35.33415],[134.19942,35.33284],[134.19731,35.32532],[134.19452,35.32043],[134.19454,35.3163]],[[134.2147,35.46467],[134.2151,35.46688],[134.21731,35.47033],[134.21695,35.475],[134.21778,35.4781],[134.20949,35.47951],[134.2063,35.48166],[134.20139,35.50284],[134.20248,35.51939],[134.20733,35.51937],[134.21619,35.52215],[134.20707,35.51941],[134.20237,35.5195],[134.20131,35.50167],[134.20566,35.48275],[134.20696,35.48071],[134.20888,35.47962],[134.21772,35.47793],[134.21683,35.47506],[134.21724,35.47055],[134.21466,35.46563],[134.21527,35.45689],[134.2144,35.45055],[134.21079,35.44489],[134.20934,35.43991],[134.20529,35.43644]],[[134.2218,35.51689],[134.21785,35.51908],[134.21634,35.52183],[134.21789,35.51915],[134.22959,35.51063],[134.23724,35.5033],[134.22832,35.49604],[134.22475,35.49663],[134.22308,35.49514],[134.22288,35.49045],[134.22166,35.4891],[134.21778,35.4781]],[[134.21437,35.15983],[134.21454,35.15854],[134.21313,35.15823],[134.21187,35.16053],[134.21264,35.16103],[134.21326,35.16031]],[[133.918,34.67104],[133.92108,34.67632],[133.9207,34.68182],[133.9133,34.68141]],[[133.97045,35.0482],[133.9713,35.04718]],[[133.9193,34.75167],[133.91701,34.7505]]]}}]}