{"type":"FeatureCollection","features":[{"type":"Feature","properties":{"route_id":"140","route_number":140,"name":"国道140号","source":"OpenStreetMap contributors (ODbL)","osm_relations":[1249174,1249175,7431995,8894963,8980964,9087327,9087329,9087330,9087331]},"geometry":{"type":"MultiLineString","coordinates":[[[138.60725,35.64596],[138.61235,35.64625],[138.60725,35.64596],[138.60572,35.63895],[138.60633,35.63729],[138.60088,35.61547],[138.60177,35.61211],[138.59086,35.60762],[138.58321,35.5993],[138.5751,35.59586],[138.56779,35.59577],[138.56194,35.59208],[138.55868,35.58871],[138.54605,35.5856],[138.54007,35.58285],[138.53456,35.58175],[138.52506,35.57601],[138.51671,35.57311],[138.51113,35.57285],[138.50356,35.56915],[138.49714,35.56943],[138.48949,35.56558],[138.49081,35.56511],[138.48437,35.57348],[138.4799,35.57099],[138.47786,35.56864],[138.4728,35.5653]],[[138.61674,35.66167],[138.61489,35.65857],[138.61951,35.65918],[138.62934,35.65785],[138.6389,35.66025],[138.64937,35.66985],[138.65622,35.67481],[138.65815,35.67823],[138.66279,35.68302],[138.66781,35.68603],[138.67542,35.68808],[138.67945,35.69037],[138.68308,35.69764],[138.69003,35.70055],[138.69812,35.70858],[138.7037,35.71601],[138.70537,35.71902],[138.70664,35.72557],[138.712,35.7319],[138.71167,35.73539],[138.70757,35.74027],[138.70875,35.74587],[138.71366,35.74931],[138.71566,35.7535],[138.72582,35.75568],[138.72771,35.75825],[138.7316,35.75985],[138.73308,35.76359],[138.73605,35.76567],[138.73664,35.76941],[138.73858,35.77405],[138.73927,35.78132],[138.73656,35.78773],[138.73878,35.7908],[138.73935,35.79432],[138.74058,35.79573],[138.74665,35.79854],[138.74955,35.80216],[138.75071,35.80463],[138.75194,35.81133],[138.75509,35.81453],[138.75719,35.81884],[138.76299,35.82479],[138.76496,35.82842],[138.7642,35.83201],[138.7654,35.83357],[138.76675,35.83879],[138.76463,35.84026],[138.76395,35.84391],[138.75956,35.85014],[138.75678,35.85676],[138.75684,35.86067],[138.75399,35.86221],[138.75414,35.86339],[138.7571,35.86264],[138.75852,35.8596],[138.76216,35.8607],[138.81072,35.90322],[138.81563,35.90582],[138.82384,35.90743],[138.8242,35.90909],[138.82063,35.91179],[138.82081,35.91333],[138.82854,35.91367],[138.8312,35.91635],[138.83034,35.91844],[138.83104,35.92139],[138.82705,35.92269],[138.82761,35.92429],[138.82921,35.92494],[138.82924,35.92749],[138.83188,35.92846],[138.83308,35.92801],[138.83489,35.92911],[138.83456,35.93041],[138.83564,35.93125],[138.83835,35.93188],[138.84027,35.93402],[138.84618,35.93631],[138.84735,35.93795],[138.85113,35.9375],[138.85357,35.93871],[138.85876,35.9492],[138.87017,35.95912],[138.87708,35.95997],[138.88185,35.95795],[138.89172,35.95704],[138.8932,35.95825],[138.90127,35.95823],[138.90236,35.95914],[138.90453,35.95768],[138.90451,35.95576],[138.90326,35.95526],[138.90266,35.95594],[138.903,35.9576],[138.90741,35.95785],[138.91058,35.95576],[138.91501,35.95541],[138.91605,35.95387],[138.91961,35.95306],[138.92232,35.95135],[138.92694,35.95271],[138.92797,35.9537],[138.9297,35.95183],[138.93235,35.95064],[138.9316,35.94613],[138.92845,35.94491],[138.9262,35.94517],[138.92323,35.94673],[138.91828,35.94591],[138.91774,35.94833],[138.91493,35.94916],[138.91785,35.94895],[138.91285,35.9497],[138.9113,35.94679],[138.91229,35.94458],[138.90607,35.941],[138.90026,35.94332],[138.89751,35.94315],[138.8971,35.94401],[138.89097,35.94355],[138.88634,35.945],[138.88171,35.94415],[138.88052,35.94226],[138.87902,35.94313],[138.87593,35.94334],[138.8741,35.94206],[138.87013,35.94256],[138.86567,35.94454],[138.86141,35.9448],[138.85501,35.94324],[138.85531,35.94052],[138.85169,35.9376]],[[138.61235,35.64625],[138.61489,35.65857],[138.61693,35.66165]],[[139.08941,35.99992],[139.09156,36.00599],[139.0933,36.01731],[139.10188,36.02512],[139.10643,36.03113],[139.1096,36.03717],[139.10907,36.03903],[139.1051,36.04219],[139.10289,36.04515],[139.10148,36.0502],[139.09751,36.05843],[139.09755,36.06259],[139.10021,36.06362],[139.09036,36.05809],[139.08631,36.04818],[139.08446,36.04577],[139.07809,36.04096],[139.07134,36.02949],[139.07045,36.02623]],[[139.14977,36.10159],[139.15137,36.10285],[139.14763,36.09952],[139.12912,36.07749],[139.11372,36.07378],[139.1156,36.07478],[139.11836,36.07482],[139.11315,36.07352],[139.10487,36.06552],[139.10021,36.06362]],[[138.61913,35.66319],[138.62952,35.66433],[138.6453,35.67139],[138.65273,35.67877],[138.66087,35.68542],[138.67283,35.69291],[138.68071,35.70114],[138.68522,35.70387],[138.68778,35.7071],[138.69326,35.70784],[138.69884,35.70989]],[[139.20768,36.12239],[139.20081,36.12589],[139.1886,36.12046],[139.17289,36.1187],[139.16799,36.11915],[139.17215,36.11881],[139.1886,36.12055],[139.20055,36.12597],[139.20768,36.12239],[139.22246,36.12614],[139.23209,36.12495],[139.23581,36.12539],[139.24537,36.12768],[139.25769,36.13331],[139.26479,36.13474],[139.2775,36.14124],[139.28787,36.13997],[139.29657,36.14142],[139.30041,36.14379],[139.30637,36.14319],[139.31947,36.14429],[139.32766,36.14674],[139.33384,36.14685],[139.35352,36.15114],[139.36788,36.15661]],[[139.08847,35.99733],[139.08543,35.98933],[139.08142,35.98438],[139.06147,35.96898],[139.06164,35.96731],[139.06009,35.96695],[139.05951,35.96536],[139.05705,35.96587],[139.05105,35.96221],[139.04491,35.95992],[139.03731,35.95978],[139.03131,35.95822],[139.02987,35.95596],[139.0274,35.95411],[139.01982,35.95416],[139.01534,35.95633],[139.00537,35.95871],[138.99999,35.96204],[138.99452,35.96168],[138.98799,35.96404],[138.98457,35.96366],[138.98092,35.96448],[138.96902,35.9589],[138.96647,35.95853],[138.96249,35.95571],[138.96394,35.95389],[138.96285,35.95072],[138.96946,35.94638],[138.96652,35.94374],[138.9673,35.94177],[138.96654,35.94023],[138.96076,35.93677],[138.9583,35.93892],[138.95756,35.94082],[138.95635,35.94103],[138.95374,35.93844],[138.95017,35.93713],[138.94481,35.93645],[138.94678,35.93928],[138.94673,35.94058],[138.94242,35.94361],[138.94277,35.94528],[138.94179,35.94674],[138.93836,35.94826],[138.93941,35.95237],[138.9383,35.95333],[138.93588,35.95311],[138.93208,35.95106]],[[139.15167,36.10274],[139.15165,36.10184],[139.15066,36.10199],[139.15616,36.10595],[139.1673,36.10911],[139.16893,36.11127],[139.17129,36.11791],[139.17624,36.11919]],[[139.17017,36.11317],[139.168,36.10978],[139.16934,36.11323],[139.17295,36.11289],[139.17362,36.11427]],[[139.17502,36.11906],[139.17619,36.11927]],[[139.11579,36.07417],[139.11538,36.07531]],[[139.10086,36.06382],[139.09802,36.06284]],[[139.15072,36.10191],[139.14903,36.10097]],[[139.09755,36.06259],[139.09754,36.0644],[139.10119,36.0714],[139.10629,36.07715],[139.1096,36.07787],[139.11042,36.07876],[139.10923,36.08266],[139.1124,36.08507],[139.1133,36.08966],[139.11058,36.09454],[139.10834,36.10583],[139.10886,36.11086],[139.11039,36.11435],[139.11013,36.12017],[139.11106,36.12264],[139.11888,36.12902],[139.12373,36.13199],[139.1307,36.13486],[139.13372,36.13465],[139.13814,36.13212],[139.14067,36.13158],[139.14432,36.13234],[139.14832,36.13462],[139.15572,36.13478],[139.15864,36.13271],[139.15772,36.12497],[139.15893,36.12235],[139.16282,36.11902],[139.16799,36.11915]],[[138.66784,35.68974],[138.66946,35.68893],[138.67292,35.68922],[138.67542,35.68808]],[[138.71773,35.75389],[138.7199,35.75403]],[[139.0119,35.95704],[139.00903,35.95803]],[[139.34584,36.1496],[139.35454,36.15153],[139.36779,36.15667]],[[138.68515,35.70414],[138.68594,35.70579],[138.68848,35.70772]],[[139.14993,36.10278],[139.15023,36.10228]]]}}]}