{"type":"FeatureCollection","features":[{"type":"Feature","properties":{"route_id":"240","route_number":240,"name":"国道240号","source":"OpenStreetMap contributors (ODbL)","osm_relations":[6641475]},"geometry":{"type":"MultiLineString","coordinates":[[[144.26559,43.01191],[144.26356,43.01661],[144.26347,43.02049],[144.25602,43.03311],[144.23566,43.03843],[144.23161,43.04229],[144.22705,43.04453],[144.21885,43.05286],[144.1972,43.05842],[144.18883,43.06559],[144.17666,43.06866],[144.16338,43.07405],[144.15247,43.07631],[144.14351,43.07962],[144.14023,43.0827],[144.13229,43.08747],[144.12736,43.08814],[144.12382,43.0906],[144.12262,43.09225],[144.12007,43.09999],[144.11981,43.10216],[144.12449,43.11247],[144.13535,43.12104],[144.13665,43.12603],[144.1401,43.13105],[144.1497,43.15239],[144.15675,43.15998],[144.14849,43.19636],[144.14395,43.20216],[144.13944,43.20619],[144.13195,43.24091],[144.12819,43.2488],[144.12,43.25728],[144.11291,43.26705],[144.11229,43.27377],[144.10683,43.28255],[144.1043,43.28921],[144.09408,43.30502],[144.09281,43.31036],[144.0969,43.31539],[144.09458,43.31933],[144.09502,43.32246],[144.09975,43.32635],[144.10087,43.33044],[144.10924,43.33361],[144.11333,43.3368],[144.12093,43.339],[144.12762,43.34494],[144.13313,43.35406],[144.13469,43.36048],[144.13394,43.36988],[144.13175,43.37622],[144.13241,43.38339],[144.13035,43.38576],[144.13254,43.39004],[144.13883,43.39146],[144.13786,43.39836],[144.14294,43.40309],[144.14289,43.40479],[144.13993,43.41082],[144.1445,43.41702],[144.14554,43.42164],[144.14489,43.42287],[144.1424,43.42438],[144.14242,43.4291],[144.13493,43.43144],[144.10513,43.43369],[144.09687,43.43124],[144.09211,43.4314],[144.08975,43.43227],[144.08752,43.43457],[144.08507,43.43518],[144.07315,43.43396],[144.05578,43.43816],[144.04792,43.44154],[144.02929,43.44751],[144.01667,43.44778],[144.01489,43.44852],[144.0099,43.45364],[144.00804,43.45732],[144.00845,43.4584],[144.01692,43.46536],[144.01501,43.4689],[144.01317,43.47561],[144.00981,43.47886],[144.0106,43.48258],[144.01204,43.48454],[144.00989,43.48782],[144.0107,43.49135],[144.00847,43.49481],[144.00553,43.49623],[144.0031,43.49929],[143.9955,43.50331],[143.99311,43.5064],[143.98647,43.51052],[143.98655,43.51313],[143.98544,43.51509],[143.98441,43.5215],[143.98492,43.52808],[143.98705,43.5354],[143.98425,43.53955],[143.98121,43.54187],[143.9752,43.54956],[143.97726,43.56305],[143.97638,43.56686],[143.97578,43.57879],[143.97316,43.58653],[143.97367,43.59253],[143.98164,43.60658],[143.98347,43.61419],[143.98991,43.61919],[143.99385,43.62372],[143.99819,43.63776],[143.99667,43.64069],[143.99481,43.64238],[143.9942,43.64574],[143.99132,43.64781],[143.98981,43.65245],[144.00006,43.6559],[144.01018,43.66262],[144.01346,43.66792],[144.01683,43.67122],[144.02962,43.69244],[144.02944,43.69384],[144.0219,43.70666],[144.02621,43.71016],[144.0249,43.71401],[144.0219,43.71741],[144.02205,43.71996],[144.0284,43.72549],[144.03388,43.73196],[144.0439,43.73722],[144.04972,43.73931],[144.05234,43.74167],[144.05262,43.74369],[144.05593,43.74877],[144.06582,43.75539],[144.06714,43.75819],[144.06683,43.76139],[144.07958,43.7833],[144.09382,43.79947],[144.09619,43.80519],[144.10022,43.80882],[144.10043,43.8186],[144.10482,43.82626],[144.10443,43.83367],[144.12041,43.82874],[144.12294,43.82897],[144.12451,43.83007],[144.12488,43.83194],[144.11779,43.84663],[144.11778,43.8481],[144.12928,43.86763],[144.13347,43.8722],[144.13569,43.87805],[144.15719,43.91482],[144.1604,43.91605],[144.16781,43.91322],[144.17247,43.91482],[144.17996,43.91255],[144.18337,43.91331],[144.18933,43.91944],[144.19886,43.9427],[144.20102,43.94446],[144.21379,43.95076],[144.21658,43.9541],[144.21385,43.95069],[144.20027,43.94389],[144.19773,43.94027]],[[144.2681,44.01972],[144.26754,44.02249],[144.26458,44.02697],[144.25646,44.02405],[144.2538,44.02053],[144.24877,44.02],[144.23902,44.01455],[144.23135,44.01307],[144.23194,44.0084],[144.23137,44.00535],[144.22296,44.00044],[144.22269,43.99926],[144.22389,43.99664],[144.22349,43.99424],[144.2189,43.99042],[144.22063,43.98485],[144.21694,43.98039],[144.21628,43.97816],[144.21842,43.97375],[144.21772,43.96768],[144.21813,43.95854],[144.21658,43.9541]],[[144.1341,43.0861],[144.13175,43.08764]]]}}]}