{"type":"FeatureCollection","features":[{"type":"Feature","properties":{"route_id":"424","route_number":424,"name":"国道424号","source":"OpenStreetMap contributors (ODbL)","osm_relations":[8788010,10068581,10068582,10068591,10068631,10068732,10068789,10068990]},"geometry":{"type":"MultiLineString","coordinates":[[[135.37266,34.26194],[135.3719,34.24641],[135.3618,34.24554],[135.35496,34.24251],[135.34505,34.24029],[135.34742,34.23133],[135.34674,34.22916],[135.34276,34.22786],[135.33816,34.22168],[135.33527,34.21914],[135.3284,34.21787],[135.32703,34.21381],[135.32687,34.20938],[135.32438,34.20576],[135.32084,34.20373],[135.31836,34.19911],[135.30849,34.19411],[135.30488,34.18935],[135.3019,34.18722],[135.29934,34.18654],[135.29586,34.1837],[135.29524,34.18117],[135.2912,34.17896],[135.29184,34.17504],[135.2913,34.17324],[135.28823,34.17139],[135.288,34.17003],[135.28609,34.16845],[135.28201,34.1678],[135.27856,34.16472],[135.27787,34.16299],[135.27841,34.15804],[135.27706,34.15382],[135.27456,34.15129],[135.27513,34.1498],[135.2714,34.14763],[135.27077,34.14581],[135.27101,34.14286],[135.27005,34.14089],[135.27096,34.1368],[135.27262,34.13665],[135.27575,34.13473],[135.27608,34.13324],[135.27932,34.13413],[135.28121,34.13364],[135.27987,34.13321],[135.27841,34.13119],[135.2801,34.13242],[135.28238,34.13134],[135.28376,34.13244],[135.28658,34.13265],[135.28355,34.13128],[135.28479,34.12894],[135.28263,34.12799],[135.28554,34.12769],[135.28468,34.12656],[135.28525,34.12593],[135.28702,34.12645],[135.28527,34.12488],[135.2883,34.12459],[135.28882,34.12361],[135.28798,34.12426],[135.2876,34.12291],[135.28893,34.12213],[135.28891,34.12124],[135.29008,34.12173],[135.29226,34.12096],[135.29254,34.11543],[135.28869,34.11054],[135.28687,34.11017],[135.28786,34.10891],[135.28759,34.10628],[135.28639,34.10506],[135.28422,34.10511],[135.28584,34.10326],[135.28576,34.09985],[135.28076,34.09521],[135.28214,34.09414],[135.28225,34.09282],[135.2794,34.08953],[135.28269,34.08647],[135.28212,34.0848],[135.28318,34.08332],[135.28165,34.08207],[135.28093,34.07774],[135.27939,34.07673],[135.26683,34.0734],[135.25669,34.06682],[135.25621,34.06568],[135.25762,34.0629],[135.25629,34.0593],[135.25395,34.05836],[135.24928,34.05932],[135.25404,34.05312],[135.25641,34.04371],[135.25827,34.03946],[135.26025,34.03749],[135.26523,34.03749],[135.2708,34.04022],[135.27216,34.03978],[135.27289,34.03849],[135.27514,34.0385],[135.28367,34.04392],[135.285,34.04247],[135.28251,34.03586],[135.28381,34.03526],[135.28816,34.03624],[135.29254,34.03012],[135.29592,34.02841],[135.29617,34.02248],[135.29806,34.02152],[135.29794,34.01967],[135.2987,34.01879],[135.30308,34.01788],[135.30991,34.02036],[135.33133,34.01491],[135.3406,34.01433],[135.3507,33.99604],[135.35072,33.99127],[135.35621,33.98964],[135.36104,33.98554],[135.36109,33.9836],[135.36302,33.98239],[135.36355,33.98098],[135.36508,33.98041],[135.36382,33.97762],[135.36338,33.97282],[135.36141,33.97058],[135.36148,33.96892],[135.36686,33.96251],[135.36735,33.96051],[135.3644,33.95658],[135.36429,33.95457],[135.36518,33.95204],[135.36855,33.94778],[135.37095,33.9471],[135.37256,33.94765],[135.37494,33.95187],[135.37639,33.95298],[135.38054,33.9533],[135.38273,33.95451],[135.38571,33.95429],[135.3876,33.95544],[135.38974,33.95798],[135.38905,33.96169],[135.39021,33.96654],[135.39346,33.96818],[135.3952,33.96733],[135.39651,33.9645],[135.40093,33.96361],[135.40194,33.96074],[135.41306,33.9568],[135.41525,33.9545],[135.41507,33.95199],[135.42028,33.95185],[135.42294,33.95372],[135.42736,33.9548],[135.43047,33.95414],[135.43208,33.95216],[135.43261,33.94909],[135.43494,33.94601],[135.4345,33.94392],[135.43674,33.94066],[135.43698,33.93791],[135.43524,33.9367],[135.43279,33.93788],[135.43075,33.93765],[135.42983,33.93674],[135.42975,33.93512],[135.42513,33.93427],[135.42473,33.93073],[135.42248,33.93],[135.4204,33.92797],[135.41608,33.92684],[135.41395,33.92437],[135.41653,33.92284],[135.42165,33.92461],[135.42514,33.92225],[135.43061,33.92387],[135.43228,33.92305],[135.43368,33.92087],[135.43598,33.92046],[135.43969,33.91756],[135.43976,33.91649],[135.43788,33.91436],[135.4377,33.90822],[135.44077,33.90226],[135.44058,33.89978],[135.43893,33.89727],[135.43925,33.89493],[135.44095,33.8928],[135.44075,33.89094],[135.43939,33.89062],[135.43855,33.89166],[135.43696,33.89104],[135.43532,33.89228],[135.43284,33.89171],[135.43116,33.88976],[135.4291,33.89061],[135.42774,33.88948],[135.42643,33.8909],[135.42368,33.89125],[135.41985,33.8901],[135.41946,33.88779],[135.41775,33.88605],[135.41796,33.8845],[135.41969,33.88264],[135.41881,33.87606],[135.41773,33.87653],[135.41666,33.87589],[135.41586,33.87662],[135.41465,33.87323],[135.41342,33.87267],[135.41302,33.87048],[135.40844,33.86601],[135.4097,33.86439],[135.40796,33.86322],[135.40821,33.86238],[135.40638,33.86304],[135.40575,33.86207],[135.40407,33.86167],[135.4043,33.86061],[135.4034,33.85939],[135.40433,33.85742],[135.40055,33.85338],[135.39852,33.85315],[135.39436,33.85037],[135.39144,33.85061],[135.39069,33.85215],[135.38722,33.8529],[135.38032,33.85225],[135.37636,33.85066],[135.37393,33.84755],[135.36839,33.84688],[135.36682,33.84763],[135.3656,33.84697],[135.3611,33.83935],[135.35709,33.84022],[135.35197,33.83876],[135.34789,33.83855],[135.34552,33.83404],[135.33962,33.82873],[135.3369,33.82056],[135.33431,33.81919],[135.33185,33.81919],[135.33433,33.81579],[135.33426,33.81446],[135.33163,33.81198],[135.32776,33.81152],[135.32887,33.8108],[135.32955,33.80835],[135.3266,33.80354],[135.32788,33.80094],[135.32981,33.79927],[135.32982,33.79509],[135.32348,33.78646],[135.3242,33.77931],[135.31864,33.77183],[135.3187,33.76925],[135.31764,33.76781],[135.32272,33.7635],[135.32672,33.75739],[135.32706,33.75598],[135.32585,33.75154],[135.32888,33.74782],[135.32962,33.74456],[135.33856,33.74634],[135.34011,33.74574],[135.34476,33.74621],[135.35256,33.74863],[135.3557,33.74608],[135.35627,33.74224],[135.35806,33.73975],[135.35859,33.73655],[135.35989,33.73548],[135.365,33.73604],[135.37237,33.73942],[135.37915,33.7413],[135.38554,33.73602],[135.3893,33.72974]],[[135.3765,33.85076],[135.38216,33.85185],[135.38333,33.85082],[135.38437,33.84774],[135.38513,33.8476],[135.38595,33.84795],[135.38511,33.84901],[135.38554,33.85327],[135.38711,33.85409],[135.38807,33.85247]],[[135.3912,33.85079],[135.39194,33.85208],[135.39107,33.85265],[135.38969,33.85225]],[[135.2544,34.0658],[135.25075,34.06251],[135.24931,34.0597]],[[135.2779,34.16317],[135.27582,34.16318],[135.27419,34.16198],[135.27652,34.16104],[135.2776,34.1556]],[[135.27204,34.15776],[135.2725,34.15774]],[[135.2585,34.06829],[135.2599,34.06869]],[[135.41796,33.8845],[135.41586,33.87662]],[[135.28569,34.16835],[135.28466,34.16838]]]}}]}