{"type":"FeatureCollection","features":[{"type":"Feature","properties":{"route_id":"452","route_number":452,"name":"国道452号","source":"OpenStreetMap contributors (ODbL)","osm_relations":[6605962]},"geometry":{"type":"MultiLineString","coordinates":[[[142.40606,43.66645],[142.40812,43.65398],[142.40293,43.64967],[142.39678,43.64263],[142.39927,43.64073],[142.4027,43.6402],[142.40584,43.6385],[142.41036,43.63341],[142.41009,43.62822],[142.40915,43.62538],[142.41001,43.6233],[142.40941,43.62003],[142.40546,43.6175],[142.40262,43.61712],[142.3998,43.61393],[142.39979,43.61213],[142.39582,43.61201],[142.39306,43.61076],[142.39214,43.60843],[142.39283,43.60642],[142.38872,43.60456],[142.3887,43.60295],[142.38989,43.60215],[142.38997,43.60081],[142.38869,43.59871],[142.38628,43.59742],[142.37903,43.59706],[142.37633,43.59542],[142.37474,43.5934],[142.36971,43.59392],[142.36329,43.59287],[142.35971,43.59053],[142.35346,43.5915],[142.35016,43.58582],[142.34594,43.58373],[142.3445,43.58156],[142.34181,43.5804],[142.34257,43.57458],[142.33605,43.56779],[142.29136,43.55427],[142.28761,43.55481],[142.28489,43.55372],[142.28282,43.55447],[142.27983,43.5531],[142.27721,43.55349],[142.27208,43.5581],[142.26726,43.55962],[142.26553,43.56093],[142.26396,43.56297],[142.26236,43.56826],[142.26075,43.5702],[142.2548,43.57174],[142.25036,43.5707],[142.24596,43.57068],[142.24464,43.56938],[142.24355,43.56629],[142.23874,43.56466],[142.23712,43.56198],[142.23429,43.55967],[142.23627,43.55395],[142.23585,43.55077],[142.23757,43.5492],[142.23879,43.54657],[142.23907,43.54093],[142.23505,43.5332],[142.23242,43.53106],[142.23113,43.52854],[142.22688,43.52645],[142.22598,43.52419],[142.21879,43.51732],[142.21559,43.51677],[142.21254,43.51726],[142.20597,43.52277],[142.19802,43.5252],[142.19367,43.52391],[142.18852,43.52444],[142.18504,43.5279],[142.18689,43.5158],[142.19314,43.50986],[142.19259,43.50691],[142.19476,43.50481],[142.18835,43.50031],[142.17988,43.49844],[142.17765,43.49685],[142.17066,43.48194],[142.16787,43.47881],[142.16899,43.47547],[142.16881,43.4731],[142.17158,43.46734],[142.1669,43.46261],[142.16426,43.45734],[142.16204,43.45565],[142.15822,43.44741],[142.15791,43.44335],[142.16478,43.4327],[142.17405,43.42287],[142.17557,43.41911],[142.17658,43.41008],[142.17945,43.40835],[142.17865,43.4063],[142.17975,43.40399],[142.1781,43.39922],[142.18155,43.39537],[142.17916,43.39391],[142.17753,43.39085],[142.17923,43.38739],[142.17869,43.38196],[142.17409,43.37379],[142.17271,43.37304],[142.16925,43.3732],[142.16747,43.3712],[142.16512,43.37015],[142.1635,43.36787],[142.1633,43.36222],[142.16394,43.36023],[142.16323,43.35875],[142.15145,43.35003],[142.15117,43.3464],[142.15329,43.34093],[142.15328,43.3392],[142.1522,43.33743],[142.15243,43.33484],[142.1557,43.33064],[142.15547,43.32879],[142.15034,43.32372],[142.14622,43.32169],[142.14469,43.31937],[142.13783,43.31346],[142.13314,43.31215],[142.1296,43.31001],[142.12784,43.30789],[142.12405,43.30775],[142.11458,43.30309],[142.11175,43.29794],[142.10933,43.29699],[142.10101,43.29728],[142.09463,43.29531],[142.08486,43.29753],[142.08125,43.29474],[142.07653,43.29318],[142.0762,43.29155],[142.06928,43.28536],[142.06526,43.28361],[142.063,43.28385],[142.06351,43.28188],[142.06285,43.28104],[142.05979,43.28124],[142.05875,43.27927],[142.05619,43.279],[142.0542,43.27731],[142.04024,43.27435],[142.03721,43.27153],[142.03549,43.2711],[142.03511,43.26904],[142.03265,43.26809],[142.03167,43.26359],[142.02908,43.26237],[142.03006,43.26085],[142.02703,43.25866],[142.02776,43.25721],[142.02646,43.25375],[142.02426,43.25232],[142.02373,43.24977],[142.02141,43.24673],[142.01943,43.24552],[142.02655,43.24192],[142.03053,43.23633],[142.03389,43.23772],[142.03698,43.23728],[142.04032,43.2295],[142.04752,43.22381],[142.04816,43.22147],[142.05369,43.21587],[142.05395,43.21481],[142.05212,43.21118],[142.05282,43.2058],[142.05509,43.2029],[142.05803,43.20117],[142.06071,43.20066],[142.06211,43.19728],[142.06197,43.19585],[142.06698,43.19129],[142.06624,43.18747],[142.06767,43.18278],[142.06398,43.18177],[142.06379,43.18102],[142.06608,43.18036],[142.06683,43.17837],[142.0694,43.1775],[142.06997,43.17621],[142.0684,43.17463],[142.07046,43.17387],[142.07327,43.17117],[142.07223,43.16889],[142.07363,43.16824],[142.07811,43.16952],[142.07878,43.16811],[142.08058,43.16741],[142.08266,43.16161],[142.08168,43.15631],[142.08211,43.1549],[142.08035,43.15213],[142.0805,43.15118],[142.08482,43.14721],[142.09048,43.14411],[142.09194,43.14185],[142.09682,43.13916],[142.09688,43.1376],[142.09453,43.13435],[142.09484,43.13077],[142.0968,43.12919],[142.10163,43.12848],[142.10166,43.12578],[142.10381,43.12203],[142.1,43.11963],[142.09884,43.11754],[142.09974,43.1127],[142.09754,43.10392],[142.09609,43.1018],[142.095,43.09547],[142.09883,43.08714],[142.09917,43.08226],[142.10171,43.0782],[142.10441,43.0697],[142.09947,43.06318],[142.09962,43.06066],[142.0979,43.05479],[142.09842,43.05222],[142.09635,43.04395],[142.08607,43.02429],[142.08121,43.02191],[142.07493,43.02245],[142.0636,43.01597],[142.04663,43.01022],[142.04431,43.00872],[142.03954,43.00859],[142.03132,43.01065],[142.02798,43.00998],[142.02433,43.00627],[142.01018,42.99603],[142.00736,42.99546],[142.00805,42.99358],[142.00672,42.98896],[142.00604,42.97765],[142.00727,42.97224],[142.0192,42.96238],[142.02993,42.95789],[142.03846,42.95155],[142.04039,42.94904],[142.03935,42.94603],[142.04301,42.94164],[142.04137,42.9388]]]}}]}