{"type":"FeatureCollection","features":[{"type":"Feature","properties":{"route_id":"42","route_number":42,"name":"国道42号","source":"OpenStreetMap contributors (ODbL)","osm_relations":[2877152,2878523,2878911,2878912,2878913,9041939,9041940,9041941]},"geometry":{"type":"MultiLineString","coordinates":[[[137.50825,34.67993],[137.51274,34.67922],[137.50973,34.68027],[137.50706,34.6797],[137.50823,34.68317],[137.50226,34.68453],[137.49921,34.68693],[137.49706,34.68485],[137.49063,34.68477],[137.48833,34.68329],[137.48135,34.68255],[137.47263,34.68508],[137.46617,34.68376],[137.45163,34.68463],[137.44485,34.68036],[137.43643,34.67793],[137.42097,34.67667],[137.41726,34.67118],[137.40693,34.66816],[137.40147,34.66545],[137.39698,34.66548],[137.3931,34.66718],[137.38707,34.66571],[137.37852,34.66579],[137.3735,34.66348],[137.36108,34.66045],[137.35657,34.6584],[137.35342,34.65591],[137.34903,34.65496],[137.34078,34.65145],[137.33303,34.65138],[137.32017,34.64878],[137.30915,34.64448],[137.30572,34.64488],[137.29888,34.64388],[137.28037,34.6368],[137.25454,34.63117],[137.24417,34.62518],[137.23305,34.62294],[137.22543,34.62037],[137.2228,34.61812],[137.21741,34.61927],[137.21479,34.61806],[137.20998,34.61738],[137.20739,34.61538],[137.19408,34.61214],[137.17889,34.60703],[137.17457,34.60393],[137.16765,34.60163],[137.16409,34.5991],[137.15769,34.59747],[137.15386,34.59458],[137.14447,34.59261],[137.13237,34.59115],[137.11533,34.59223],[137.10876,34.58996],[137.09338,34.59296],[137.08693,34.59056],[137.06029,34.58539],[137.05328,34.58504],[137.04803,34.58229],[137.04094,34.58104],[137.03657,34.57892],[137.03378,34.58181],[137.02358,34.58168],[137.01973,34.58314],[137.02075,34.58961],[137.01953,34.59001],[137.01633,34.58913],[136.90613,34.51695],[136.89428,34.51059],[136.88115,34.50472],[136.85349,34.49358],[136.84914,34.48935],[136.84755,34.48003],[136.84579,34.48019],[136.84453,34.48228],[136.8451,34.48486],[136.84453,34.48631],[136.84098,34.48809],[136.83576,34.48587],[136.82869,34.48642],[136.82137,34.48095],[136.81652,34.48172],[136.81564,34.4861],[136.81661,34.48177],[136.82119,34.48101],[136.8287,34.48651],[136.83579,34.48595],[136.83947,34.48808],[136.84101,34.48817],[136.84481,34.48606],[136.84457,34.48247],[136.84588,34.48018]],[[135.98798,33.69479],[135.98746,33.6955],[135.98795,33.69392],[135.98419,33.68913],[135.97988,33.68689],[135.97917,33.68338],[135.97443,33.67988],[135.97157,33.67527],[135.97118,33.67186],[135.97289,33.67048],[135.97266,33.66884],[135.97356,33.66716],[135.97242,33.66216],[135.96878,33.66103],[135.96786,33.65872],[135.96542,33.65648],[135.95896,33.65439],[135.95474,33.65146],[135.94827,33.64984],[135.94287,33.64696],[135.93878,33.64709],[135.93567,33.64429],[135.93482,33.6416],[135.93179,33.63938],[135.93327,33.63517],[135.93582,33.63255],[135.94029,33.62538],[135.939,33.62362],[135.9361,33.62411],[135.92865,33.62311],[135.92606,33.61567],[135.92445,33.61429],[135.92434,33.61225],[135.92515,33.60512],[135.92794,33.60023],[135.92778,33.59801],[135.92974,33.59705],[135.93054,33.59541],[135.93344,33.59415],[135.93374,33.59287],[135.92767,33.59076],[135.92651,33.59106],[135.92503,33.58996],[135.92043,33.59062],[135.91882,33.58927],[135.9191,33.58774],[135.91829,33.58594],[135.92009,33.58277],[135.92,33.58025],[135.91848,33.57842],[135.91899,33.57668],[135.91529,33.57223],[135.90862,33.56663],[135.90531,33.56575],[135.9054,33.56299],[135.89971,33.56307],[135.89834,33.56243],[135.89778,33.56111],[135.89142,33.55809],[135.8885,33.55462],[135.88699,33.55466],[135.88429,33.55297],[135.8813,33.55299],[135.87651,33.55021],[135.87592,33.54914],[135.8763,33.547],[135.87173,33.54592],[135.86902,33.54333],[135.87069,33.53703],[135.8707,33.53187],[135.86619,33.53033],[135.86297,33.52786],[135.85927,33.52715],[135.85724,33.52488],[135.8523,33.52247],[135.85211,33.51984],[135.85096,33.51975],[135.84846,33.5214],[135.8469,33.52102],[135.8416,33.51723],[135.84159,33.5155],[135.84294,33.5143],[135.84266,33.51369],[135.83734,33.51293],[135.82412,33.51464],[135.81939,33.51117],[135.81779,33.50715],[135.81418,33.50534],[135.81174,33.50307],[135.80661,33.50327],[135.80257,33.50034],[135.79907,33.49998],[135.79468,33.49251],[135.79496,33.48903],[135.79384,33.48704],[135.78968,33.48427],[135.78245,33.47458],[135.7813,33.47106],[135.78125,33.46537],[135.77744,33.46438],[135.77526,33.46771],[135.77403,33.47227],[135.77277,33.47312],[135.77531,33.47573],[135.7749,33.4785],[135.77068,33.47944],[135.76959,33.48191],[135.76787,33.48176],[135.75953,33.48461],[135.75683,33.48429],[135.75158,33.48133],[135.74669,33.48268],[135.74441,33.48171],[135.74289,33.4835],[135.73704,33.48609],[135.73337,33.48509],[135.72905,33.48755],[135.72366,33.4888],[135.72148,33.48724],[135.71834,33.48707],[135.71673,33.48562],[135.71106,33.4854],[135.71,33.48802],[135.70544,33.4889],[135.70276,33.49101],[135.70284,33.49252],[135.70047,33.49441],[135.69932,33.49381],[135.69834,33.49063],[135.6966,33.49007],[135.6963,33.48874],[135.69451,33.4882],[135.69017,33.48834],[135.68251,33.49031],[135.68033,33.48963],[135.67567,33.49016],[135.66723,33.49252],[135.66558,33.49543],[135.66156,33.49731],[135.6607,33.5005],[135.65931,33.50177],[135.65583,33.50288],[135.65453,33.50138],[135.65172,33.50099],[135.64696,33.50277],[135.64475,33.50211],[135.64059,33.50339],[135.63945,33.5067],[135.63708,33.50567],[135.63602,33.50766],[135.62709,33.51057],[135.6262,33.5081],[135.62413,33.50653],[135.62438,33.50524],[135.62227,33.50436],[135.61982,33.50503],[135.6189,33.50682],[135.61677,33.50709],[135.61194,33.50959],[135.60962,33.50871],[135.6066,33.50982],[135.60397,33.50938],[135.60196,33.50795],[135.60169,33.50611],[135.59094,33.50841],[135.58803,33.50697],[135.58439,33.50912],[135.58001,33.50874],[135.57903,33.51141],[135.57682,33.51231],[135.57493,33.51619],[135.57105,33.51729],[135.56986,33.51846],[135.56455,33.516],[135.56006,33.51514],[135.55806,33.51678],[135.55106,33.51946],[135.54638,33.51894],[135.54492,33.52097],[135.54334,33.52144],[135.5418,33.5213],[135.53955,33.51965],[135.53377,33.52248],[135.52831,33.52314],[135.5206,33.52862],[135.5142,33.52875],[135.51474,33.53],[135.51425,33.53195],[135.51027,33.53514],[135.50542,33.53589],[135.50172,33.53896],[135.49994,33.53886],[135.50049,33.54028],[135.49973,33.54131],[135.49653,33.54068],[135.4925,33.54887],[135.48918,33.54946],[135.48787,33.55118],[135.48588,33.55151],[135.48075,33.55041],[135.47612,33.55156],[135.46781,33.55023],[135.46072,33.55184],[135.45907,33.55405],[135.45918,33.55848],[135.45812,33.56155],[135.45081,33.57012],[135.4433,33.56755],[135.439,33.56779],[135.43251,33.5699],[135.42848,33.57273],[135.42688,33.57863],[135.42055,33.58158],[135.41879,33.58047],[135.41764,33.58128],[135.41712,33.5831],[135.41729,33.58634],[135.41821,33.5874],[135.41773,33.58839],[135.41462,33.58708],[135.41253,33.5886],[135.40828,33.59],[135.40911,33.59171],[135.40742,33.59366],[135.40567,33.59956],[135.40231,33.59973],[135.40008,33.60134],[135.39738,33.60104],[135.39688,33.60193],[135.39431,33.60221],[135.39106,33.60386],[135.38967,33.60562],[135.39046,33.60761],[135.39283,33.60784],[135.39379,33.60902],[135.3925,33.61144],[135.39349,33.61345],[135.395,33.61339],[135.39796,33.61541],[135.39728,33.61822],[135.39454,33.61863],[135.39258,33.62079],[135.39432,33.62228],[135.395,33.62496],[135.39733,33.62465],[135.39794,33.62763],[135.397,33.63009],[135.39946,33.63075],[135.39974,33.63417],[135.40363,33.63754],[135.40062,33.6451],[135.40293,33.64947],[135.40312,33.65264],[135.39892,33.66211],[135.40055,33.66378],[135.40501,33.66365],[135.407,33.66578],[135.40808,33.66813],[135.40763,33.67629],[135.40966,33.67877],[135.40761,33.68068],[135.41348,33.68598],[135.41624,33.69048],[135.41846,33.69476],[135.41825,33.7004],[135.41329,33.70519],[135.40896,33.70675],[135.40562,33.71179],[135.40556,33.7129],[135.40765,33.71505],[135.40797,33.71696],[135.40097,33.72881],[135.40081,33.73388],[135.39993,33.7355],[135.39287,33.74029],[135.38834,33.74138],[135.38491,33.74405],[135.37897,33.74528],[135.37001,33.74554],[135.36314,33.74823],[135.36987,33.74548],[135.37914,33.74517],[135.38486,33.74399],[135.38845,33.74125],[135.39278,33.74023],[135.39986,33.73544],[135.4007,33.73397],[135.40078,33.729],[135.40785,33.71704],[135.40772,33.71538],[135.40558,33.71311],[135.40546,33.71193],[135.40884,33.70674],[135.41472,33.7041]],[[137.51274,34.67922],[137.51651,34.67867],[137.53274,34.68058],[137.53309,34.67931],[137.58063,34.68108],[137.59312,34.67916],[137.64356,34.67652],[137.656,34.67516],[137.65987,34.67645],[137.66325,34.68065]],[[137.66339,34.6806],[137.65994,34.67638],[137.65601,34.67507],[137.64355,34.67643],[137.59311,34.67907],[137.58064,34.68099],[137.53309,34.67931]],[[136.81576,34.48613],[136.81722,34.48722],[136.81684,34.48966],[136.81562,34.49082],[136.81289,34.49107],[136.811,34.49224],[136.80595,34.49091],[136.80335,34.49118],[136.7961,34.50121],[136.79509,34.50614],[136.79068,34.50722],[136.78585,34.50751],[136.78025,34.50614],[136.77832,34.50483],[136.76421,34.50479],[136.75778,34.50559],[136.7509,34.50333],[136.74626,34.49987],[136.74007,34.49934],[136.73572,34.50522],[136.72786,34.50619],[136.72054,34.50935],[136.71653,34.50935],[136.70827,34.50655],[136.70266,34.50742],[136.68656,34.5194],[136.6849,34.52228],[136.68258,34.53028],[136.6798,34.53402],[136.66267,34.54287],[136.65541,34.55244],[136.63237,34.56967],[136.6199,34.58057],[136.61455,34.58326],[136.59763,34.58721],[136.5913,34.58712],[136.57353,34.58397],[136.56599,34.58358],[136.56339,34.5721],[136.56451,34.56319],[136.56215,34.55795],[136.55345,34.54562],[136.55286,34.54281],[136.55343,34.53948],[136.55176,34.53258],[136.54875,34.53025],[136.53798,34.52792],[136.54218,34.518],[136.5427,34.5142],[136.54523,34.51074],[136.54279,34.51423],[136.54218,34.518]],[[136.77832,34.50483],[136.76467,34.50468],[136.75777,34.50549],[136.751,34.50328],[136.74633,34.49981],[136.73959,34.49931],[136.7358,34.50506],[136.72789,34.50603],[136.72041,34.50923],[136.71606,34.50911],[136.70871,34.50649],[136.70293,34.50716],[136.68632,34.51952],[136.68496,34.52177],[136.68224,34.53074],[136.67908,34.53447],[136.66237,34.54297],[136.65534,34.55238],[136.63309,34.56895],[136.6195,34.58075],[136.61449,34.58315],[136.60084,34.58656],[136.59269,34.58718],[136.57353,34.58386],[136.56607,34.58347],[136.56354,34.57208],[136.56473,34.56353],[136.56291,34.55891],[136.56064,34.55588]],[[135.19375,34.14118],[135.19613,34.14254],[135.2091,34.14568],[135.2103,34.14768],[135.20999,34.1531],[135.20564,34.15312],[135.20546,34.15868],[135.19536,34.15901],[135.19078,34.16061],[135.18828,34.16236],[135.18746,34.16405],[135.18602,34.1824],[135.18785,34.16328],[135.19098,34.16078],[135.19493,34.1592],[135.20554,34.15872],[135.2057,34.15322],[135.21009,34.15325],[135.21041,34.14787],[135.20983,34.14637],[135.20855,34.14531],[135.19606,34.14242],[135.19457,34.14116],[135.18489,34.14144],[135.17631,34.13845],[135.17266,34.1349],[135.16977,34.1292],[135.1561,34.12302],[135.1542,34.11978],[135.15562,34.11586],[135.15364,34.11071],[135.14619,34.10856],[135.14447,34.10572],[135.14273,34.10471],[135.14225,34.1027],[135.13902,34.10119],[135.13431,34.10208],[135.1192,34.09882],[135.11662,34.09689],[135.11375,34.09024],[135.11463,34.07974],[135.12894,34.07964],[135.13224,34.07898],[135.13549,34.08067],[135.13915,34.08125],[135.14593,34.07924],[135.15636,34.0775],[135.16494,34.07457],[135.16767,34.0746],[135.17265,34.07287],[135.18017,34.06857],[135.19214,34.06641],[135.19691,34.06451],[135.19786,34.06351],[135.19807,34.06158],[135.19173,34.05124]],[[136.33274,34.21009],[136.33068,34.20791],[136.33634,34.21357],[136.34173,34.21348],[136.34517,34.215],[136.34616,34.21725],[136.35173,34.22173],[136.35146,34.22471],[136.3473,34.2273],[136.3483,34.23006],[136.34689,34.23135],[136.3487,34.23208],[136.34815,34.23439],[136.34655,34.23468],[136.34487,34.23831],[136.34528,34.23986],[136.34707,34.2385],[136.3483,34.23892],[136.34915,34.23779],[136.35219,34.23952],[136.3593,34.2391],[136.3617,34.24039],[136.36363,34.2438],[136.36299,34.24798],[136.36053,34.25145],[136.36045,34.25451],[136.35726,34.25666],[136.35672,34.2579],[136.35958,34.26067],[136.36033,34.2628],[136.36007,34.26664],[136.3625,34.27079],[136.35871,34.27569],[136.35884,34.27658],[136.36361,34.27776],[136.36529,34.28012],[136.3695,34.28221],[136.36972,34.2865],[136.37307,34.2904],[136.37664,34.29134],[136.38062,34.28924],[136.38264,34.28923],[136.38422,34.29135],[136.38213,34.29381],[136.38212,34.29494],[136.38723,34.29541],[136.38962,34.297],[136.39045,34.29959],[136.39991,34.29682],[136.40282,34.2979],[136.40452,34.30031],[136.40873,34.30302],[136.40873,34.30492],[136.40506,34.30906],[136.40457,34.31175],[136.41172,34.31646],[136.4119,34.32095],[136.41067,34.32242],[136.40662,34.32211],[136.40544,34.32302],[136.40514,34.32486],[136.40884,34.3282],[136.40909,34.33044],[136.40761,34.33729],[136.40835,34.34156],[136.40543,34.34324],[136.40498,34.34435],[136.40855,34.34775],[136.41224,34.34989],[136.41261,34.35508],[136.41875,34.36323],[136.41852,34.37115],[136.41997,34.38161],[136.4191,34.38327],[136.41093,34.38834],[136.40664,34.38873],[136.40621,34.39186],[136.41494,34.39629],[136.4163,34.39846],[136.42196,34.40194],[136.43062,34.40099],[136.4336,34.40141],[136.4381,34.40332],[136.44223,34.40729],[136.44488,34.40877],[136.45294,34.41011],[136.45801,34.4096],[136.4614,34.41031],[136.46437,34.41395],[136.46803,34.41657],[136.47681,34.42056],[136.48274,34.42023],[136.48719,34.42201],[136.4917,34.4221],[136.49259,34.42468],[136.49281,34.42973],[136.49581,34.43539],[136.50179,34.43851],[136.50918,34.43761],[136.51124,34.4379],[136.51236,34.43897],[136.5122,34.44449],[136.50977,34.45038],[136.50696,34.45464],[136.50709,34.45691],[136.51264,34.46207],[136.51785,34.46247],[136.5227,34.46441],[136.52468,34.46655],[136.52629,34.47014],[136.53177,34.47414],[136.54788,34.48129],[136.54661,34.48615],[136.54735,34.49153],[136.55089,34.49825],[136.5502,34.5038],[136.55091,34.50073],[136.55062,34.49756],[136.54744,34.49175]],[[136.54523,34.51074],[136.5502,34.5038]],[[136.33068,34.20791],[136.33176,34.2051],[136.32586,34.19772],[136.3234,34.19659],[136.31625,34.1955],[136.30941,34.19153],[136.30547,34.18837],[136.30613,34.18437],[136.30331,34.18195],[136.30207,34.1798],[136.29741,34.17862],[136.296,34.17755],[136.2958,34.17449],[136.2949,34.17296],[136.28273,34.16727],[136.28129,34.16399],[136.27712,34.16097],[136.26762,34.15848],[136.26248,34.15327],[136.2582,34.15232],[136.25005,34.14718],[136.24468,34.14529],[136.24104,34.14064],[136.22998,34.14405],[136.22684,34.14368],[136.22327,34.14177],[136.22224,34.1395],[136.21583,34.13541],[136.21422,34.13209],[136.21682,34.12262],[136.21878,34.12114],[136.21956,34.11581],[136.2238,34.11361],[136.22144,34.10654],[136.21838,34.10538],[136.21612,34.10299],[136.21291,34.10196],[136.20511,34.10233],[136.20395,34.10307],[136.19934,34.10257],[136.19986,34.09891],[136.19648,34.09658],[136.19603,34.09444],[136.19192,34.08783],[136.19197,34.08635],[136.18918,34.08664],[136.1898,34.08529],[136.18891,34.08383],[136.19072,34.084],[136.19145,34.08089],[136.18765,34.07347],[136.18776,34.07015],[136.19519,34.06406],[136.19867,34.05838],[136.19805,34.05603],[136.19555,34.0532],[136.19568,34.04736],[136.19266,34.04612],[136.19198,34.04467],[136.19019,34.04494],[136.18844,34.04197],[136.18574,34.04061],[136.18641,34.03661],[136.18381,34.03544],[136.18391,34.033],[136.18189,34.03184],[136.18174,34.0301],[136.18024,34.02809],[136.17898,34.02792],[136.1804,34.02699],[136.17892,34.02475],[136.1722,34.02309],[136.17008,34.02391],[136.16735,34.02122],[136.16536,34.02073],[136.16449,34.01694],[136.14845,33.9981],[136.14842,33.99689],[136.14654,33.99635],[136.14656,33.99487],[136.14202,33.99309],[136.12561,33.99176],[136.11851,33.99202],[136.11299,33.9904],[136.11162,33.98754],[136.10821,33.98679],[136.10832,33.98384],[136.10703,33.9817],[136.10522,33.98057],[136.10367,33.97527],[136.10386,33.9722],[136.10704,33.96868],[136.10771,33.96555],[136.10663,33.96133],[136.10354,33.95893],[136.10555,33.95335],[136.10418,33.95204],[136.10077,33.95426],[136.09913,33.95254],[136.09958,33.9491],[136.09848,33.94604],[136.09558,33.9432],[136.09557,33.93831],[136.0921,33.93651],[136.09206,33.93482],[136.09405,33.93281],[136.09221,33.92625],[136.0963,33.92193],[136.09858,33.92132],[136.10076,33.92233],[136.1008,33.92098],[136.10244,33.92001],[136.10232,33.91863],[136.10612,33.91931],[136.10682,33.92012],[136.1078,33.91821],[136.11431,33.91759],[136.11131,33.91508],[136.11263,33.91375],[136.11361,33.91088],[136.11538,33.90996],[136.11551,33.9088],[136.11868,33.90735],[136.11796,33.90536],[136.1146,33.90147],[136.11627,33.89648],[136.10995,33.8916],[136.10623,33.89106],[136.09829,33.88522],[136.09416,33.87996],[136.08563,33.87225],[136.07228,33.855],[136.06646,33.84375],[136.06426,33.84196],[136.05595,33.82828],[136.04974,33.81417],[136.04515,33.8089],[136.03985,33.79418],[136.03736,33.79167],[136.03651,33.78516],[136.03235,33.77892],[136.03057,33.77308],[136.02798,33.7682],[136.02116,33.74766],[136.01835,33.746],[136.01101,33.74512],[136.00231,33.74064],[135.99238,33.7401],[135.98918,33.73772],[135.98673,33.73017],[135.98649,33.72194],[135.98883,33.71342],[135.98768,33.71024],[135.98735,33.70592],[135.98995,33.70103],[135.98746,33.6955],[135.98982,33.70101],[135.98725,33.70603],[135.98855,33.71489]],[[135.19591,34.05786],[135.18926,34.04721],[135.18991,34.04327],[135.18517,34.0374],[135.18548,34.03285],[135.17919,34.02206],[135.17986,34.02068],[135.18716,34.01524],[135.18931,34.01188],[135.1912,34.00779],[135.19176,34.00423],[135.1899,34.00205],[135.19034,33.99934],[135.19283,33.99674],[135.19255,33.99557],[135.18777,33.99234],[135.18862,33.99123],[135.18774,33.99077],[135.18403,33.99174],[135.182,33.99062],[135.17817,33.99004],[135.17116,33.99081],[135.16938,33.98949],[135.16806,33.99073],[135.1649,33.99122],[135.16416,33.98986],[135.16254,33.99016],[135.16084,33.98841],[135.15934,33.98902],[135.15861,33.98777],[135.15699,33.98772],[135.15586,33.98626],[135.15427,33.98657],[135.15401,33.98475],[135.1518,33.98412],[135.15071,33.98255],[135.14027,33.97487],[135.12804,33.96981],[135.12263,33.96355],[135.12408,33.95956],[135.12218,33.9572],[135.12219,33.95538],[135.12532,33.95343],[135.12947,33.94692],[135.12851,33.94445],[135.12879,33.94287],[135.13385,33.9409],[135.13459,33.93676],[135.14144,33.93223],[135.1433,33.92911],[135.14408,33.92415],[135.14591,33.92124],[135.1513,33.90672],[135.14913,33.90227],[135.15261,33.88606],[135.15481,33.883],[135.1615,33.87903],[135.16029,33.8766],[135.15817,33.87493],[135.16208,33.86052],[135.16081,33.85854],[135.16756,33.8523],[135.16741,33.84875],[135.16833,33.84567],[135.17448,33.84307],[135.17604,33.83805],[135.18381,33.82906],[135.18899,33.82556],[135.19175,33.82207],[135.19425,33.82045],[135.19554,33.81743],[135.20737,33.81223],[135.21139,33.812],[135.21319,33.81408],[135.21726,33.81434],[135.21916,33.81241],[135.21885,33.80945],[135.2212,33.80827],[135.2225,33.80507],[135.23113,33.80203],[135.24014,33.79687],[135.24071,33.79545],[135.23996,33.79303],[135.23447,33.78924],[135.23476,33.78664],[135.23384,33.78451],[135.2357,33.78213],[135.2446,33.78078],[135.24731,33.78207],[135.25449,33.78348],[135.26273,33.78296],[135.26776,33.78393],[135.27702,33.78168],[135.28295,33.78216],[135.28547,33.78326],[135.29013,33.78093],[135.29062,33.77912],[135.29152,33.77863],[135.30354,33.78097],[135.3108,33.77615],[135.31533,33.769],[135.32012,33.76619],[135.32443,33.76137],[135.32706,33.75654],[135.32585,33.75154],[135.32888,33.74782],[135.32962,33.74456],[135.34138,33.74692],[135.35289,33.75161],[135.36314,33.74823]],[[135.16999,34.22559],[135.16915,34.22112],[135.17125,34.20671],[135.16976,34.19929],[135.16977,34.19531],[135.17137,34.19331],[135.1722,34.18992],[135.18477,34.18573],[135.18582,34.18487],[135.18602,34.1824]],[[136.55013,34.53083],[136.53853,34.52802]],[[136.0052,33.73582],[136.00599,33.74243],[136.00633,33.74149],[136.00332,33.72765],[136.00383,33.72515],[136.00585,33.72268],[136.0047,33.72167],[136.00538,33.72244],[136.00324,33.72739],[136.0052,33.73582]],[[136.56599,34.58358],[136.56607,34.58347]],[[135.19486,34.1416],[135.19106,34.13775],[135.18069,34.13427],[135.17507,34.1298],[135.17032,34.12748]],[[137.02279,34.58237],[137.01966,34.58309],[137.01981,34.58412]],[[135.17012,34.2256],[135.16928,34.22113],[135.17125,34.20671]]]}}]}