{"type":"FeatureCollection","features":[{"type":"Feature","properties":{"route_id":"334","route_number":334,"name":"国道334号","source":"OpenStreetMap contributors (ODbL)","osm_relations":[6649220]},"geometry":{"type":"MultiLineString","coordinates":[[[145.19235,44.01877],[145.19024,44.02054],[145.18707,44.02165],[145.18665,44.02376],[145.18396,44.02684],[145.1804,44.02898],[145.17703,44.02878],[145.17004,44.03055],[145.165,44.03009],[145.16201,44.03157],[145.15322,44.03294],[145.14886,44.03271],[145.14578,44.03436],[145.1444,44.03361],[145.14461,44.03039],[145.14326,44.0293],[145.1323,44.02945],[145.13311,44.03024],[145.13958,44.03041],[145.14126,44.03204],[145.14036,44.03245],[145.13915,44.03143],[145.13835,44.03266],[145.12904,44.03344],[145.12918,44.03409],[145.13388,44.03479],[145.13028,44.03664],[145.12841,44.03628],[145.12868,44.03867],[145.12572,44.03636],[145.12528,44.03695],[145.12661,44.0384],[145.12472,44.03804],[145.12148,44.03448],[145.11879,44.03424],[145.11718,44.03291],[145.11668,44.03335],[145.11865,44.03566],[145.1177,44.03731],[145.11287,44.03497],[145.10804,44.03572],[145.10794,44.03356],[145.11058,44.03218],[145.10776,44.03081],[145.10646,44.03494],[145.10324,44.03555],[145.10031,44.03732],[145.10371,44.03962],[145.10359,44.04141],[145.105,44.04231],[145.10394,44.04341],[145.10356,44.04506],[145.1045,44.04637],[145.10329,44.04743],[145.10319,44.04935],[145.10422,44.0506],[145.10476,44.05523],[145.10305,44.05539],[145.09994,44.05302],[145.09855,44.05344],[145.09737,44.05509],[145.0945,44.05473],[145.09286,44.05719],[145.0938,44.0574],[145.09515,44.05586],[145.09625,44.05601],[145.09739,44.05796],[145.09687,44.05949],[145.09384,44.06148],[145.08853,44.06124],[145.08763,44.06395],[145.08244,44.06698],[145.07827,44.06839],[145.06954,44.06887],[145.06586,44.07047],[145.06216,44.0705],[145.05727,44.07396],[145.05116,44.07524],[145.04028,44.0793],[145.04013,44.08032],[145.0443,44.08246],[145.03553,44.08779],[145.03191,44.09146],[145.02706,44.0923],[145.0222,44.09007],[145.01849,44.08994],[145.01292,44.0917],[145.01011,44.08962],[145.00995,44.0886],[145.01168,44.08677],[145.01713,44.08591],[145.01751,44.08498],[145.01359,44.08571],[145.01102,44.08524],[145.00663,44.07959],[145.00061,44.07622],[144.9988,44.07329],[144.99346,44.07092],[144.9894,44.06729],[144.9866,44.06591],[144.97933,44.06447],[144.96855,44.05667],[144.9607,44.05494],[144.95995,44.05381],[144.96087,44.05133],[144.95895,44.04867],[144.95507,44.04717],[144.95172,44.04345],[144.94801,44.04194],[144.94577,44.03949],[144.94307,44.03881],[144.93811,44.03967],[144.93502,44.0388],[144.92942,44.03334],[144.92893,44.02818],[144.92475,44.01933],[144.91845,44.0129],[144.91148,44.00412],[144.90459,44.00073],[144.89933,43.99632],[144.89138,43.99154],[144.88606,43.98991],[144.88136,43.98542],[144.87629,43.9822],[144.86364,43.97849],[144.86077,43.97615],[144.85639,43.97428],[144.8487,43.97299],[144.84169,43.96528],[144.83785,43.9622],[144.83644,43.95246],[144.83471,43.9506],[144.81683,43.94213],[144.80431,43.9391],[144.79672,43.93048],[144.79178,43.92985],[144.78378,43.92712],[144.78328,43.92605],[144.78398,43.9162],[144.77105,43.90565],[144.66005,43.9007],[144.66112,43.8884],[144.66195,43.88668],[144.66178,43.88063],[144.64095,43.87965],[144.63495,43.87177],[144.63027,43.86916],[144.44425,43.86058],[144.4412,43.86321],[144.43731,43.86459],[144.42831,43.86288],[144.4221,43.8665],[144.41951,43.86636],[144.41608,43.86491],[144.40707,43.86728],[144.40526,43.86641],[144.40215,43.86174],[144.39556,43.86001],[144.38809,43.86074],[144.38245,43.86255],[144.38009,43.86232],[144.37711,43.85826],[144.37194,43.85377],[144.37027,43.8507],[144.36134,43.85011],[144.35327,43.84861],[144.35009,43.85022],[144.34833,43.85318],[144.34185,43.85655],[144.33463,43.85741],[144.3319,43.8557],[144.33116,43.85131],[144.33214,43.84756],[144.32972,43.84555],[144.3248,43.84736],[144.31881,43.84602],[144.31338,43.84831],[144.31129,43.85067],[144.30959,43.85114],[144.30731,43.85008],[144.30415,43.84677],[144.28593,43.84248],[144.2801,43.83924],[144.26976,43.84224],[144.26429,43.84292],[144.26051,43.84321],[144.25555,43.84219],[144.24956,43.83932],[144.24484,43.83518],[144.23409,43.834],[144.23281,43.83281],[144.23077,43.82828],[144.22168,43.82434],[144.21821,43.82024],[144.21309,43.81804],[144.20581,43.81813],[144.19649,43.82227],[144.18874,43.82326],[144.17263,43.81654],[144.16034,43.81899],[144.153,43.82141],[144.15035,43.82272],[144.14812,43.82552],[144.14478,43.8268],[144.12775,43.82825],[144.12451,43.83007]],[[144.7435,43.90434],[144.74226,43.90429]]]}}]}