{"type":"FeatureCollection","features":[{"type":"Feature","properties":{"route_id":"355","route_number":355,"name":"国道355号","source":"OpenStreetMap contributors (ODbL)","osm_relations":[13970524,13970591,15435077,15435078,15435079,15435084]},"geometry":{"type":"MultiLineString","coordinates":[[[140.50932,35.96115],[140.51062,35.962],[140.50644,35.95783],[140.50449,35.95266],[140.49473,35.94531],[140.48246,35.92795],[140.4823,35.92557],[140.48406,35.91849],[140.48948,35.91481],[140.49107,35.91197],[140.4903,35.90442],[140.48803,35.90165]],[[140.51028,35.96232],[140.50322,35.97049],[140.50046,35.97712],[140.49764,35.98029],[140.49095,35.98433],[140.48073,35.98708],[140.47381,35.99399],[140.46912,36.01437],[140.46696,36.0193],[140.45941,36.03092],[140.4576,36.03689],[140.45204,36.04497],[140.43434,36.05787],[140.42498,36.06963],[140.42143,36.07652],[140.42116,36.08503],[140.41854,36.08891],[140.41432,36.10062],[140.40923,36.10602],[140.4045,36.10703],[140.40301,36.10805],[140.40269,36.11467],[140.39971,36.12341],[140.39652,36.12719],[140.39519,36.13137],[140.39103,36.13396],[140.3861,36.14011],[140.37697,36.14452],[140.37547,36.14666],[140.36895,36.15099],[140.35812,36.1615],[140.35234,36.16542],[140.34938,36.16966],[140.343,36.17486],[140.30875,36.181],[140.30047,36.18586],[140.28466,36.18837],[140.27287,36.18322],[140.26979,36.18105],[140.2639,36.18664],[140.25709,36.19075],[140.25638,36.19383],[140.26,36.20373],[140.26529,36.2246],[140.26603,36.23184],[140.26769,36.2341],[140.2753,36.24005],[140.28008,36.2502],[140.28044,36.25345],[140.27921,36.26097]],[[140.28791,36.34009],[140.28724,36.33824],[140.29111,36.33517],[140.2894,36.32796],[140.28984,36.32563],[140.28537,36.31904],[140.28391,36.33225],[140.27892,36.34134],[140.28003,36.34609],[140.2785,36.35181],[140.27118,36.35801],[140.26769,36.36321],[140.2625,36.36529],[140.25815,36.36979],[140.25316,36.37212],[140.25287,36.37358],[140.246,36.37626],[140.25323,36.38917],[140.25479,36.39383]],[[140.2711,36.18216],[140.27393,36.18518],[140.27497,36.19837],[140.278,36.20204],[140.28281,36.21782],[140.28075,36.21878],[140.28274,36.22007]],[[140.28454,36.27034],[140.29114,36.28948],[140.28508,36.27133],[140.27956,36.26199],[140.27929,36.25974],[140.28056,36.25339],[140.28,36.24971],[140.27526,36.23986],[140.26628,36.23221],[140.26529,36.2246]],[[140.29114,36.28948],[140.29282,36.29313],[140.29929,36.29979],[140.29897,36.30449],[140.29487,36.30873],[140.28523,36.31257],[140.28345,36.3148],[140.28036,36.30833],[140.27364,36.29973],[140.27099,36.2951],[140.27502,36.2892],[140.27486,36.28018],[140.26798,36.26805]],[[140.28363,36.31483],[140.28533,36.31904]],[[140.50391,35.95196],[140.4948,35.94522],[140.48256,35.92792],[140.48243,35.92567],[140.48433,35.91826],[140.48927,35.91516],[140.4911,35.91225],[140.49044,35.90447],[140.48811,35.9016]]]}}]}