{"type":"FeatureCollection","features":[{"type":"Feature","properties":{"route_id":"117","route_number":117,"name":"国道117号","source":"OpenStreetMap contributors (ODbL)","osm_relations":[965403,3189308,9045470,9045471,9045472,9045473]},"geometry":{"type":"MultiLineString","coordinates":[[[138.22803,36.6544],[138.22594,36.65342],[138.22902,36.65457],[138.24598,36.65597],[138.25149,36.65759],[138.26103,36.66214],[138.26738,36.67553],[138.26842,36.69111],[138.27162,36.69871],[138.27764,36.7044],[138.30289,36.72104],[138.30517,36.72173],[138.30472,36.72485],[138.30673,36.72862],[138.30668,36.73385],[138.30483,36.73751],[138.30569,36.7403],[138.30859,36.74222],[138.30929,36.74456],[138.31468,36.74874],[138.31731,36.75492],[138.31775,36.76061],[138.31926,36.76643],[138.32589,36.77385],[138.32022,36.78102],[138.32003,36.78458],[138.31818,36.78675],[138.31756,36.79004],[138.31435,36.79497],[138.31433,36.79665],[138.31902,36.80017],[138.32577,36.80241],[138.33524,36.80977],[138.34243,36.81387],[138.34496,36.81892],[138.35315,36.82579],[138.35469,36.83013],[138.35877,36.8373],[138.36123,36.83911],[138.3639,36.84414],[138.36946,36.86096],[138.37294,36.8685],[138.37663,36.87252],[138.39272,36.88441],[138.3988,36.89159],[138.39914,36.89362],[138.3971,36.90142],[138.39789,36.90238],[138.40132,36.9035],[138.40205,36.90464],[138.39951,36.90904],[138.39937,36.91542],[138.40031,36.91734],[138.40413,36.92059],[138.40406,36.92253],[138.40573,36.92529],[138.40616,36.92769],[138.40816,36.92999],[138.42095,36.93444],[138.42316,36.93622],[138.42402,36.93988],[138.4257,36.9416],[138.42772,36.94248],[138.43044,36.9424],[138.43424,36.9441],[138.43819,36.9527],[138.44423,36.95631],[138.44765,36.95723],[138.44849,36.96194],[138.4516,36.96629],[138.45696,36.96869],[138.46308,36.97524],[138.47268,36.97664],[138.47878,36.97506],[138.48253,36.97524],[138.48691,36.97647],[138.49034,36.97869],[138.50363,36.98191],[138.50771,36.98512],[138.51285,36.98443],[138.52169,36.98538],[138.5376,36.98551],[138.5484,36.98364],[138.55388,36.98345],[138.5623,36.98649],[138.56577,36.98979],[138.57147,36.99111],[138.57377,36.99083],[138.5761,36.98754],[138.57756,36.98712],[138.58121,36.98877],[138.58749,36.98996],[138.59017,36.99251],[138.5994,36.99588],[138.60287,36.9953],[138.60877,36.9925],[138.61573,36.99517],[138.61677,36.99621],[138.61755,36.9992],[138.62551,37.0005],[138.62855,37.0024],[138.64032,37.00285],[138.64172,37.00398],[138.64205,37.00631],[138.64354,37.00878],[138.64979,37.01268],[138.65482,37.01711],[138.65587,37.01974],[138.66402,37.02669],[138.66496,37.02876],[138.67476,37.03824],[138.68166,37.04307],[138.69254,37.04832],[138.69409,37.05054],[138.71037,37.063],[138.71263,37.06606],[138.71632,37.07602],[138.72159,37.08172],[138.72441,37.09035],[138.73296,37.0981],[138.75119,37.11748],[138.75488,37.12313],[138.75746,37.12481],[138.75975,37.1278],[138.7662,37.15013],[138.77506,37.16907],[138.77652,37.17882],[138.77807,37.18354],[138.7801,37.22011],[138.78221,37.22498],[138.78329,37.23062],[138.78275,37.23313],[138.78878,37.23941],[138.79919,37.24486],[138.80438,37.24521],[138.81385,37.26233],[138.82041,37.2709],[138.82497,37.27217],[138.83113,37.27005],[138.83305,37.271],[138.82898,37.27694],[138.82787,37.27993],[138.82801,37.28303],[138.82262,37.28749],[138.80015,37.29656],[138.78647,37.29799],[138.78265,37.30088],[138.78742,37.31559],[138.79541,37.31882],[138.80092,37.31951],[138.80498,37.31913],[138.81181,37.33053],[138.81337,37.33158]],[[138.18186,36.64114],[138.18184,36.63591],[138.18314,36.62828],[138.1817,36.61858],[138.18018,36.61622],[138.17964,36.61041],[138.19618,36.60991],[138.20153,36.6287],[138.22594,36.65342]],[[138.20656,36.6339],[138.20136,36.62827],[138.19618,36.60991]],[[138.17964,36.61041],[138.1801,36.61648],[138.18156,36.61843],[138.18297,36.62703]],[[138.26103,36.66214],[138.25441,36.65911]]]}}]}