{"type":"FeatureCollection","features":[{"type":"Feature","properties":{"route_id":"496","route_number":496,"name":"国道496号","source":"OpenStreetMap contributors (ODbL)","osm_relations":[9584426,9584945]},"geometry":{"type":"MultiLineString","coordinates":[[[130.96559,33.73295],[130.97174,33.7144],[130.97417,33.71012],[130.97704,33.70983],[130.97756,33.70387],[130.97969,33.69908],[130.97998,33.6966],[130.97612,33.69006],[130.97397,33.68874],[130.97141,33.684],[130.97291,33.67831],[130.9726,33.67572],[130.97405,33.67179],[130.97663,33.66827],[130.97658,33.66368],[130.97759,33.65944],[130.9773,33.65503],[130.97443,33.6488],[130.96358,33.63553],[130.96642,33.62275],[130.96619,33.62076],[130.96495,33.61779],[130.96317,33.61586],[130.95971,33.60435],[130.95398,33.60183],[130.94697,33.5946],[130.94431,33.58942],[130.9458,33.5835],[130.94781,33.58011],[130.94585,33.5756],[130.94717,33.57011],[130.94791,33.56915],[130.95116,33.56801],[130.95393,33.56502],[130.95301,33.55883],[130.94956,33.55526],[130.94877,33.55357],[130.94888,33.55103],[130.94711,33.54849],[130.94719,33.54734],[130.94901,33.54582],[130.94833,33.5445],[130.949,33.54231],[130.94783,33.5406],[130.94886,33.53804],[130.94886,33.5347],[130.95032,33.53289],[130.9509,33.5283],[130.95256,33.52558],[130.952,33.52194],[130.95508,33.51536],[130.95438,33.51278],[130.95526,33.50987],[130.95677,33.50826],[130.95731,33.50556],[130.95636,33.50616],[130.95543,33.50219],[130.95609,33.50164],[130.95713,33.50309],[130.959,33.50379],[130.9634,33.50216],[130.96352,33.50315],[130.96444,33.50181],[130.96401,33.50338],[130.96501,33.50422],[130.9661,33.50243],[130.96565,33.50194],[130.96683,33.50128],[130.96391,33.49848],[130.96169,33.49846],[130.96214,33.49632],[130.96648,33.49613],[130.96724,33.49664],[130.96645,33.49741],[130.96704,33.4978],[130.96903,33.49792],[130.96968,33.49721],[130.9711,33.49789],[130.97208,33.49719],[130.97274,33.49803],[130.97481,33.49831],[130.97527,33.49699],[130.97612,33.49791],[130.97735,33.49683],[130.97723,33.49479],[130.98051,33.49381],[130.98021,33.49285],[130.98186,33.49356],[130.98086,33.49191],[130.98428,33.49073],[130.98548,33.49136],[130.98607,33.4898],[130.99215,33.48619],[130.99437,33.48134],[130.99105,33.47927],[130.99053,33.47625],[130.98762,33.47251],[130.98786,33.46948],[130.98669,33.46701],[130.98876,33.46375],[130.98625,33.46195],[130.98693,33.46012],[130.9894,33.45779],[130.98989,33.45407],[130.98806,33.45194],[130.98746,33.44893],[130.99069,33.44656],[130.99073,33.44486],[130.98961,33.44346],[130.99082,33.44205],[130.9902,33.44118],[130.98645,33.4401],[130.99259,33.4381],[130.99471,33.43858],[130.99684,33.43742],[130.99828,33.43584],[130.99827,33.43356],[131.00295,33.4304],[131.00511,33.42675],[131.01451,33.42266],[131.01692,33.41888],[131.02433,33.41538],[131.031,33.40872],[131.03179,33.40692],[131.03549,33.40505],[131.03483,33.40205],[131.03282,33.39967],[131.03251,33.39405],[131.02967,33.39039],[131.02668,33.38264],[131.02608,33.38007],[131.02651,33.37674],[131.02514,33.37279],[131.0181,33.37049],[131.01174,33.36983],[131.00767,33.3668],[130.99938,33.36688],[130.99541,33.36554],[130.99197,33.3665],[130.98009,33.36725],[130.96915,33.36469],[130.96397,33.36631],[130.96021,33.36517],[130.95528,33.35489],[130.94359,33.34833],[130.94064,33.3367],[130.93257,33.33407],[130.92832,33.3295],[130.92425,33.31316],[130.92532,33.30876],[130.92813,33.30678],[130.92921,33.30357],[130.92882,33.30226]],[[130.96337,33.61612],[130.96346,33.61996],[130.96209,33.62267],[130.96286,33.62657],[130.9649,33.6297],[130.9635,33.63241],[130.96826,33.6343],[130.97021,33.63621],[130.9716,33.64018],[130.9751,33.6454],[130.97822,33.65691]],[[130.92492,33.3102],[130.92438,33.31557],[130.92832,33.32971],[130.9326,33.3342],[130.93871,33.33569]]]}}]}