{"type":"FeatureCollection","features":[{"type":"Feature","properties":{"route_id":"230","route_number":230,"name":"国道230号","source":"OpenStreetMap contributors (ODbL)","osm_relations":[6584912,10176095,10176096]},"geometry":{"type":"MultiLineString","coordinates":[[[139.88085,42.41229],[139.88427,42.41511],[139.8886,42.41603],[139.89235,42.41854],[139.89351,42.42027],[139.89855,42.42308],[139.91359,42.42738],[139.91655,42.43018],[139.92385,42.42883],[139.93718,42.43262],[139.94616,42.43015],[139.95752,42.43257],[139.9931,42.43616],[140,42.43401],[140.00093,42.42985],[140.00296,42.42837],[140.01643,42.42958],[140.04392,42.42532],[140.05681,42.42436],[140.05879,42.42373],[140.06274,42.41974],[140.07441,42.42095],[140.07727,42.41817],[140.08191,42.41801],[140.08508,42.41642],[140.08748,42.41638],[140.08963,42.41694],[140.09689,42.42201],[140.11005,42.42307],[140.12051,42.42651],[140.12596,42.43012],[140.1386,42.43256],[140.15196,42.43244],[140.15428,42.43305],[140.15759,42.43755],[140.16505,42.44135],[140.16912,42.45092],[140.17367,42.45349],[140.17872,42.46114],[140.18482,42.46355],[140.19144,42.46793],[140.19805,42.46961],[140.2018,42.47242],[140.20573,42.4731],[140.21249,42.47024],[140.21583,42.47035],[140.22191,42.46854],[140.23103,42.46999],[140.23706,42.47244],[140.24126,42.47023],[140.25477,42.47082],[140.2589,42.46809],[140.26339,42.46323],[140.27067,42.46122],[140.27767,42.46068],[140.28688,42.45568],[140.28897,42.45417],[140.29033,42.45162],[140.30139,42.44338],[140.30738,42.4412],[140.30857,42.4425],[140.31031,42.44284],[140.31702,42.44123],[140.32127,42.44187],[140.32506,42.4406],[140.33085,42.4492],[140.33464,42.45825],[140.35228,42.4836],[140.3658,42.49998],[140.37019,42.50151],[140.38149,42.51426],[140.38244,42.5161],[140.38123,42.51782],[140.3835,42.52079],[140.39137,42.52618],[140.42145,42.55327],[140.45384,42.57819],[140.45439,42.58071],[140.44938,42.58706],[140.45122,42.59119],[140.45308,42.59309],[140.45974,42.59587],[140.46074,42.59847],[140.46428,42.59703],[140.46678,42.59817],[140.46786,42.6001],[140.46915,42.60074],[140.4734,42.6005],[140.48026,42.6022],[140.49246,42.60127],[140.51258,42.5931],[140.51551,42.59257],[140.53427,42.59345],[140.53778,42.59492],[140.54256,42.59487],[140.55691,42.60095],[140.56072,42.60424],[140.56564,42.6043],[140.56902,42.6033],[140.57494,42.59847],[140.57778,42.59748],[140.57983,42.59792],[140.58236,42.60152],[140.58641,42.60158],[140.58799,42.59998],[140.58924,42.59525],[140.59342,42.59449],[140.59137,42.59193],[140.59305,42.59112],[140.59882,42.59365],[140.60684,42.5994],[140.60949,42.60223],[140.61328,42.60312],[140.6165,42.60334],[140.62255,42.60096],[140.64119,42.59827],[140.64903,42.60075],[140.65816,42.60127],[140.66274,42.60022],[140.66747,42.59806],[140.67266,42.59773],[140.67518,42.59144],[140.67661,42.58963],[140.67893,42.58858],[140.68549,42.58893],[140.69391,42.59085],[140.70507,42.58929],[140.71338,42.58311],[140.72157,42.57931],[140.72462,42.57536],[140.73082,42.57379],[140.73577,42.56827],[140.73642,42.56522],[140.74463,42.56199],[140.7478,42.55787],[140.75075,42.55694],[140.75275,42.5584],[140.75536,42.55882],[140.77112,42.55665],[140.77489,42.55713],[140.78395,42.563],[140.79587,42.56814],[140.79975,42.57065],[140.79842,42.57198],[140.79824,42.57702],[140.79645,42.57913],[140.79354,42.5869],[140.79183,42.58933],[140.78303,42.59116],[140.78202,42.59409],[140.78265,42.59661],[140.77699,42.59804],[140.77608,42.6001],[140.7725,42.60348],[140.77309,42.6065],[140.7769,42.60896],[140.77728,42.61142],[140.78493,42.61333],[140.79153,42.61845],[140.79885,42.62642],[140.80433,42.64546],[140.81088,42.64972],[140.81235,42.66301],[140.81398,42.66395],[140.82138,42.66496],[140.82952,42.66438],[140.83379,42.66501],[140.83705,42.66694],[140.84224,42.66851],[140.84172,42.67817],[140.84056,42.67884],[140.83712,42.67863],[140.83592,42.67952],[140.84184,42.68522],[140.84066,42.68613],[140.83722,42.68505],[140.83602,42.6854],[140.83428,42.6918],[140.83816,42.6932],[140.84965,42.70228],[140.85828,42.70489],[140.85959,42.70765],[140.85859,42.71394],[140.86097,42.72147],[140.86359,42.72443],[140.86645,42.72609],[140.87729,42.73795],[140.89481,42.7451],[140.90036,42.74824],[140.90475,42.75222],[140.91864,42.75376],[140.92566,42.75704],[140.929,42.76109],[140.9292,42.76638],[140.9337,42.77054],[140.93961,42.77996],[140.94247,42.78251],[140.94257,42.78374],[140.94157,42.78507],[140.93588,42.78967],[140.93495,42.79155],[140.9373,42.78869]],[[141.34549,43.0612],[141.35164,43.06203],[141.34078,43.06056],[141.34215,43.05448],[141.34676,43.01501],[141.34304,43.00386],[141.33816,42.99989],[141.33624,42.99649],[141.3381,42.99997],[141.34113,43.00232]],[[141.3423,43.05181],[141.34078,43.06056]],[[141.15805,42.961],[141.16416,42.96413],[141.16872,42.9677]],[[141.23418,42.95686],[141.24729,42.95562],[141.25668,42.9606],[141.26514,42.96199],[141.28061,42.96085],[141.28773,42.96205],[141.31249,42.96097],[141.32308,42.96318],[141.32651,42.96591],[141.33153,42.96787],[141.33645,42.97702],[141.33665,42.97895],[141.33427,42.98988],[141.33624,42.99649]],[[140.94171,42.7849],[140.94269,42.78376],[140.94254,42.78249],[140.93903,42.77892]],[[140.93495,42.79155],[140.93526,42.793],[140.9382,42.79528],[140.94304,42.79737],[140.95543,42.79749],[140.97184,42.80075],[140.98746,42.80023],[140.99041,42.80139],[140.99283,42.80414],[141.0005,42.80886],[141.00297,42.81192],[141.00369,42.81475],[141.00235,42.81861],[141.00298,42.82278],[141.00885,42.83046],[141.00914,42.83516],[141.01102,42.83866],[141.01598,42.84393],[141.02504,42.84806],[141.0329,42.84977],[141.03738,42.84707],[141.04072,42.8494],[141.0428,42.84978],[141.0526,42.84717],[141.05969,42.8443],[141.06287,42.84394],[141.07005,42.84546],[141.07001,42.84696],[141.06698,42.84757],[141.06625,42.84859],[141.07099,42.85206],[141.07973,42.85273],[141.08084,42.85182],[141.08069,42.84981],[141.08102,42.8515],[141.07939,42.85286],[141.07092,42.85212],[141.06613,42.84866],[141.06671,42.84761],[141.06993,42.84689],[141.07004,42.84559],[141.06345,42.84403],[141.05988,42.84432],[141.0527,42.84722],[141.04289,42.84983],[141.04065,42.84947],[141.03763,42.84718],[141.03502,42.84856]],[[141.01226,42.8398],[141.00925,42.83513],[141.00948,42.83193],[141.00885,42.83046]],[[141.08069,42.84981],[141.07894,42.84744],[141.08003,42.84627],[141.08203,42.84661],[141.08562,42.84974],[141.0909,42.85045],[141.09218,42.8541],[141.10234,42.85976],[141.10503,42.86323],[141.10982,42.86586],[141.11426,42.87115],[141.12159,42.87248],[141.12614,42.8717],[141.12975,42.86949],[141.13549,42.86941],[141.13998,42.87121],[141.14682,42.87588],[141.14589,42.87838],[141.1403,42.88289],[141.14136,42.88665],[141.13839,42.889],[141.13044,42.89823],[141.13016,42.90085],[141.12595,42.90131],[141.12404,42.90235],[141.11982,42.90126],[141.11842,42.90218],[141.11853,42.90319],[141.12172,42.90564],[141.11994,42.91115],[141.12393,42.91575],[141.12531,42.91988],[141.12196,42.92318],[141.11943,42.93052],[141.12756,42.94152],[141.13499,42.94551],[141.14085,42.94683],[141.14757,42.95004],[141.15051,42.95226],[141.15217,42.95526],[141.15812,42.96093]],[[141.32663,42.96593],[141.325,42.96455]],[[141.1828,42.96845],[141.18885,42.9701],[141.19816,42.96818],[141.2105,42.96951],[141.21962,42.96572],[141.22347,42.96131],[141.22893,42.9583],[141.24563,42.95563],[141.24893,42.95616],[141.25827,42.9611],[141.26575,42.96208],[141.28101,42.96095],[141.28688,42.96203]],[[140.90308,42.75086],[140.90475,42.75222]],[[141.23409,42.95687],[141.22762,42.95877],[141.22316,42.9614],[141.21991,42.96539],[141.21039,42.96942],[141.19935,42.96808],[141.19427,42.96848],[141.1895,42.96988],[141.18366,42.96842],[141.18082,42.96864]],[[141.17217,42.96913],[141.16936,42.96804]],[[141.1721,42.96922],[141.1762,42.97087],[141.18037,42.96893]]]}}]}