{"type":"FeatureCollection","features":[{"type":"Feature","properties":{"route_id":"502","route_number":502,"name":"国道502号","source":"OpenStreetMap contributors (ODbL)","osm_relations":[9623205,9623424]},"geometry":{"type":"MultiLineString","coordinates":[[[131.78988,33.11371],[131.7741,33.10787],[131.77125,33.10532],[131.77004,33.10251],[131.76937,33.09724],[131.76842,33.09618],[131.75908,33.09364],[131.75076,33.09632],[131.74325,33.0928],[131.73287,33.09135],[131.73041,33.08855],[131.72974,33.08348],[131.717,33.07357],[131.71633,33.07114],[131.7135,33.06983],[131.70857,33.06328],[131.70625,33.06204],[131.70117,33.05714],[131.69145,33.05518],[131.68901,33.05251],[131.68885,33.05054],[131.69179,33.04664],[131.692,33.04439],[131.69015,33.04109],[131.68921,33.03275],[131.68611,33.0211],[131.6768,33.01889],[131.67015,33.01832],[131.66465,33.01268],[131.66203,33.00743],[131.6556,33.00474],[131.65012,33.00529],[131.64585,33.00836],[131.64117,33.00881],[131.6393,33.01037],[131.63578,33.00998],[131.63371,33.00892],[131.63118,33.00902],[131.62982,33.00487],[131.62751,33.00445],[131.61857,32.99877],[131.61166,32.99176],[131.60861,32.98974],[131.60222,32.98758],[131.59907,32.98435],[131.58987,32.98376],[131.58109,32.97512],[131.57519,32.97086],[131.56938,32.96992],[131.56563,32.97078],[131.55989,32.97492],[131.55876,32.9779],[131.55676,32.97866],[131.55472,32.97895],[131.54755,32.97758],[131.5471,32.97863],[131.54853,32.97977],[131.54873,32.98104],[131.54579,32.98301],[131.53966,32.98194],[131.53574,32.98011],[131.53217,32.98014],[131.52949,32.97818],[131.52932,32.97546],[131.52834,32.97442],[131.52498,32.97315],[131.51989,32.97337],[131.51096,32.96861],[131.506,32.96948],[131.5031,32.97201],[131.50147,32.97221],[131.49598,32.96551],[131.491,32.96411],[131.48379,32.96493],[131.47192,32.96955],[131.46253,32.96966],[131.45686,32.96813],[131.45317,32.97079],[131.44552,32.9734],[131.4389,32.97248],[131.43709,32.97095],[131.4344,32.97063],[131.43252,32.96937],[131.42708,32.97087],[131.42501,32.96846],[131.42127,32.96762],[131.4159,32.96917],[131.41243,32.96873],[131.40964,32.9675],[131.40724,32.96509],[131.40412,32.96451],[131.39955,32.96154],[131.39265,32.9622],[131.38733,32.96495],[131.38385,32.96398]],[[131.78636,33.11243],[131.77429,33.10792],[131.77129,33.10519],[131.76904,33.09648],[131.7615,33.09417]],[[131.6393,33.01037],[131.63985,33.01016]]]}}]}