{"type":"FeatureCollection","features":[{"type":"Feature","properties":{"route_id":"330","route_number":330,"name":"国道330号","source":"OpenStreetMap contributors (ODbL)","osm_relations":[10997960,10997961]},"geometry":{"type":"MultiLineString","coordinates":[[[127.69563,26.21634],[127.69821,26.22047],[127.68928,26.20389],[127.68713,26.2021],[127.68438,26.20219]],[[127.68693,26.20203],[127.68471,26.2018],[127.68644,26.20195]],[[127.68471,26.2018],[127.68087,26.2053],[127.6774,26.21047],[127.67841,26.20985]],[[127.6774,26.21047],[127.67508,26.21138]],[[127.81548,26.33926],[127.80738,26.33755],[127.80294,26.33759],[127.80127,26.33678],[127.79415,26.32846],[127.79305,26.32506],[127.7938,26.31716],[127.79326,26.31554],[127.78892,26.31146],[127.78313,26.30891],[127.78031,26.30636],[127.77926,26.30398],[127.78047,26.30131],[127.78059,26.29663],[127.77713,26.29201],[127.77784,26.28896],[127.77635,26.28512],[127.77855,26.27939],[127.77781,26.27714],[127.77364,26.27419],[127.75762,26.25828],[127.75341,26.25606],[127.75077,26.25161],[127.74913,26.25031],[127.74382,26.2496],[127.73877,26.2537],[127.72832,26.25558],[127.72322,26.25406],[127.71289,26.24695],[127.71122,26.24492],[127.70701,26.23504],[127.70323,26.23122],[127.69895,26.22478],[127.69835,26.22099],[127.69552,26.21641],[127.69835,26.22099]],[[127.75691,26.25792],[127.75322,26.25577],[127.75005,26.25073],[127.74593,26.24931],[127.74271,26.24991],[127.73895,26.25352],[127.73155,26.25537],[127.72655,26.25523],[127.72257,26.25359],[127.71173,26.24564],[127.70732,26.23538],[127.70331,26.23114],[127.69905,26.22471],[127.69821,26.22047]],[[127.69468,26.21459],[127.69552,26.21641]],[[127.77713,26.29201],[127.78054,26.29702],[127.77935,26.30493],[127.78269,26.30873],[127.7885,26.31132],[127.79329,26.31577],[127.79323,26.32618],[127.79443,26.3292],[127.79686,26.33105],[127.80017,26.3353]],[[127.81552,26.33918],[127.8138,26.33852]]]}}]}