{"type":"FeatureCollection","features":[{"type":"Feature","properties":{"route_id":"4","route_number":4,"name":"国道4号","source":"OpenStreetMap contributors (ODbL)","osm_relations":[416684,2067536,2068519,2068521,2068717,2068718,2068719,2068720,2068721,2068722,2068723,2068724,2068725,2068726,2068727,2068728,8827749,8827750,8827752,8827753,8827754,8857685,8857686,8872050,8884766,8884771,8884772,8884774,8884776,8884777,8884855,8884857,21387069]},"geometry":{"type":"MultiLineString","coordinates":[[[140.35927,37.34271],[140.36157,37.33966],[140.36125,37.33402],[140.36712,37.30505],[140.36848,37.28605],[140.36152,37.27293],[140.35087,37.2638],[140.33884,37.24939],[140.33415,37.23951],[140.33167,37.23185],[140.33304,37.2371],[140.33846,37.24903],[140.35003,37.26309],[140.36136,37.27299],[140.36843,37.28639],[140.36693,37.30555],[140.36114,37.33399],[140.3614,37.33987],[140.35763,37.34459],[140.35494,37.35301],[140.34976,37.36218],[140.34849,37.36865],[140.34805,37.37772],[140.34007,37.39198],[140.34379,37.40842],[140.3599,37.42669],[140.36596,37.43129],[140.37925,37.44484],[140.37693,37.46582],[140.38007,37.48603],[140.3816,37.48953],[140.39219,37.50202],[140.3946,37.50769],[140.39733,37.54304],[140.40314,37.55534],[140.41056,37.56304],[140.41429,37.56925],[140.41951,37.57312],[140.42177,37.57865],[140.42338,37.58049],[140.42702,37.58215],[140.43278,37.58247],[140.43746,37.58405],[140.44425,37.58507],[140.45015,37.5883],[140.45382,37.59217],[140.45685,37.59392],[140.46137,37.59884],[140.4639,37.60332],[140.47256,37.61129],[140.47348,37.61331],[140.47395,37.61916],[140.48063,37.62681],[140.48265,37.63619],[140.48617,37.64366],[140.4879,37.65088],[140.49087,37.65855],[140.48796,37.66633],[140.48021,37.67224],[140.47552,37.68159],[140.47314,37.68351],[140.46562,37.68691],[140.46332,37.68886],[140.45994,37.69748],[140.45982,37.69991],[140.46273,37.70393],[140.4636,37.70846],[140.46651,37.7112],[140.46737,37.71303],[140.46503,37.71887],[140.46673,37.72464],[140.46672,37.73782],[140.46896,37.7427],[140.47199,37.74576],[140.47176,37.75381],[140.48348,37.77287],[140.48693,37.78338],[140.48733,37.78886],[140.49076,37.80051],[140.50662,37.82274],[140.51946,37.83629],[140.52096,37.84068],[140.52141,37.84859],[140.52359,37.8584],[140.53592,37.86839],[140.54633,37.87343],[140.55573,37.88258],[140.56121,37.88505],[140.55553,37.8824],[140.54646,37.87339],[140.53654,37.86867],[140.52584,37.86067],[140.52357,37.85814],[140.52143,37.84761],[140.52106,37.8406],[140.51975,37.83665],[140.51753,37.83347],[140.5064,37.8223],[140.49081,37.80038],[140.48742,37.78884],[140.48702,37.78333],[140.48379,37.77336],[140.47194,37.75381],[140.4721,37.74565],[140.46912,37.74267],[140.46676,37.73755],[140.46682,37.72432],[140.4652,37.71886],[140.46751,37.7129],[140.46683,37.71132],[140.46372,37.70849],[140.46286,37.70396],[140.45993,37.69991],[140.46005,37.69748],[140.46352,37.68876],[140.47544,37.68184],[140.48026,37.67233],[140.48803,37.66642],[140.49095,37.65876],[140.48615,37.64329],[140.48283,37.63644],[140.48066,37.62662],[140.47408,37.61923],[140.47295,37.61158],[140.46452,37.60384],[140.46135,37.59862],[140.45701,37.59394],[140.45382,37.59204],[140.45022,37.58822],[140.44395,37.58483],[140.43731,37.58391],[140.43273,37.58236],[140.42714,37.58206],[140.42377,37.58063],[140.42191,37.57863],[140.41963,37.5731],[140.41415,37.56893],[140.41045,37.56279],[140.40318,37.55518],[140.39754,37.54335],[140.39471,37.50766],[140.39228,37.50197],[140.38172,37.48952],[140.38027,37.48647],[140.37704,37.46546],[140.37939,37.44474],[140.36575,37.43095],[140.36001,37.42664],[140.34392,37.40842],[140.34023,37.39175],[140.34817,37.37773],[140.3486,37.36867],[140.34975,37.3625],[140.35529,37.35251],[140.35768,37.34473],[140.36175,37.33977]],[[140.15605,37.11866],[140.16791,37.12287],[140.17582,37.12283],[140.19002,37.12671],[140.19686,37.1323],[140.21225,37.13992],[140.22091,37.14223],[140.21238,37.13985],[140.19696,37.13223],[140.18954,37.12643],[140.17612,37.12279],[140.16803,37.1228],[140.15215,37.11722],[140.14614,37.11084],[140.13881,37.1069],[140.13831,37.10556],[140.13944,37.10165],[140.13743,37.09829],[140.13367,37.095],[140.13173,37.08932],[140.13143,37.0844],[140.1287,37.0771],[140.12577,37.07285],[140.12357,37.07137],[140.121,37.0709],[140.11741,37.06782],[140.11581,37.06517],[140.10713,37.05789],[140.10559,37.05156],[140.10004,37.04405],[140.09804,37.03863],[140.09515,37.03571],[140.09202,37.02452],[140.08193,37.01574],[140.07317,37.01217],[140.06991,37.00782],[140.06461,37.00467],[140.06301,36.9991],[140.06316,36.99693],[140.07303,36.97943],[140.07245,36.97765],[140.06867,36.97324],[140.06789,36.96562],[140.06628,36.96232],[140.05807,36.95453],[140.04987,36.94829],[140.04404,36.94481],[140.03456,36.94085],[140.02644,36.93073],[140.00242,36.91845],[139.9874,36.90692],[139.98613,36.90478],[139.98603,36.89997],[139.98513,36.89791],[139.96056,36.87835],[139.94388,36.85864],[139.94556,36.85401],[139.95075,36.84646],[139.95317,36.84088],[139.95343,36.83835],[139.94899,36.83259],[139.94741,36.82475],[139.9478,36.81861],[139.94581,36.81331],[139.94256,36.80981],[139.94154,36.80733],[139.94415,36.796],[139.94746,36.78622],[139.94686,36.78156],[139.94378,36.77464],[139.94339,36.76478],[139.94413,36.76244],[139.95081,36.75169],[139.95532,36.74827],[139.95734,36.74572],[139.9607,36.73815],[139.95877,36.72069],[139.95679,36.71571],[139.95884,36.70463],[139.96301,36.69257],[139.95878,36.68627],[139.95844,36.68418],[139.96099,36.67679],[139.96004,36.67126],[139.963,36.66546],[139.96752,36.66137],[139.96846,36.65878],[139.96732,36.65633],[139.96208,36.65275],[139.96144,36.65048],[139.96784,36.64132],[139.97433,36.623],[139.97546,36.6173],[139.97523,36.61076],[139.97419,36.60971],[139.96592,36.60802],[139.93428,36.58858],[139.93752,36.58532],[139.93962,36.58187],[139.94265,36.56779],[139.94045,36.55106],[139.93587,36.54226],[139.91941,36.51998],[139.91818,36.51578],[139.91654,36.4995],[139.90898,36.48557],[139.90991,36.46995],[139.90922,36.4587],[139.90452,36.42831],[139.90055,36.41715],[139.89147,36.40468],[139.87602,36.39132],[139.86332,36.37172],[139.86038,36.36039],[139.85285,36.34647],[139.85206,36.32143],[139.85082,36.31809],[139.84479,36.30824],[139.83904,36.28651],[139.82872,36.26896],[139.81199,36.25609],[139.80827,36.25151],[139.80441,36.23688],[139.79861,36.22647],[139.79535,36.20356],[139.78608,36.18777],[139.78007,36.18064],[139.77817,36.17666],[139.77801,36.17163],[139.78029,36.16601],[139.7807,36.16263],[139.77618,36.14701],[139.773,36.14234],[139.75197,36.11982],[139.74803,36.11076],[139.74872,36.10663],[139.75345,36.09853],[139.76669,36.08656],[139.77432,36.07148],[139.77484,36.06767],[139.77195,36.05722],[139.77199,36.05376],[139.78017,36.04098],[139.78588,36.02874],[139.7885,36.00822],[139.79393,35.99506],[139.79286,35.9767],[139.79529,35.95431],[139.79187,35.94028],[139.78665,35.92796],[139.77016,35.91178],[139.76658,35.90101],[139.77734,35.87674],[139.78043,35.86289],[139.79234,35.83097],[139.79378,35.81217],[139.79504,35.81017],[139.80054,35.80642],[139.80146,35.80498],[139.80386,35.76274],[139.79775,35.74397],[139.79818,35.74079],[139.79673,35.73695],[139.77681,35.71107],[139.77496,35.69194],[139.77555,35.68943],[139.77466,35.69186],[139.77661,35.71137],[139.77839,35.71273],[139.79665,35.73699],[139.79799,35.74075],[139.79754,35.74388],[139.80378,35.76274],[139.80136,35.80498],[139.80035,35.80643],[139.79523,35.80985],[139.79375,35.812],[139.79232,35.83068],[139.78033,35.86286],[139.77729,35.87663],[139.76649,35.901],[139.77024,35.91209],[139.78573,35.92695],[139.79177,35.94041],[139.79516,35.9543],[139.79273,35.97671],[139.79378,35.99523],[139.78831,36.00819],[139.7857,36.02867],[139.77998,36.04093],[139.77176,36.05391],[139.77173,36.0571],[139.77463,36.06755],[139.7742,36.07126],[139.76666,36.08632],[139.75529,36.09612],[139.75281,36.09914],[139.74846,36.10696],[139.74791,36.11094],[139.75186,36.11986],[139.77295,36.14258],[139.77602,36.14703],[139.78051,36.1626],[139.78016,36.16582],[139.7778,36.172],[139.77816,36.17717],[139.77994,36.18069],[139.7861,36.18805],[139.79522,36.2036],[139.79837,36.22617],[139.80428,36.23697],[139.80812,36.25153],[139.81184,36.25619],[139.82866,36.26909],[139.83888,36.2865],[139.84457,36.30812],[139.85185,36.32107],[139.85266,36.34645],[139.85983,36.35949],[139.86332,36.37197],[139.87629,36.39182],[139.89174,36.40518],[139.90076,36.41821],[139.90454,36.42893],[139.90895,36.45781],[139.90975,36.47038],[139.90882,36.48551],[139.91643,36.49951],[139.91798,36.51549],[139.91927,36.51995],[139.93604,36.54273],[139.94032,36.55123],[139.94245,36.56435],[139.94243,36.56838],[139.93938,36.582],[139.93738,36.58525],[139.93402,36.58847],[139.94089,36.5933],[139.94388,36.59433],[139.9566,36.60197],[139.96514,36.60763],[139.96682,36.60958],[139.97383,36.61037],[139.97479,36.61114],[139.97534,36.61731],[139.97438,36.6225],[139.96775,36.64128],[139.96131,36.65048],[139.96198,36.6528],[139.96725,36.65639],[139.96836,36.65903],[139.96742,36.66132],[139.96312,36.66512],[139.96005,36.6709],[139.96087,36.67678],[139.95831,36.68439],[139.95866,36.68632],[139.96288,36.69266],[139.95874,36.7046],[139.95667,36.71573],[139.95861,36.72048],[139.96061,36.73814],[139.95667,36.7465],[139.95128,36.75093],[139.94815,36.75571],[139.94375,36.76305],[139.94337,36.7661]],[[139.77445,35.68406],[139.77461,35.68458],[139.77454,35.68405]],[[141.13695,39.16848],[141.14201,39.16872],[141.14254,39.16773],[141.1416,39.16912],[141.12918,39.16829],[141.12637,39.16959],[141.12395,39.17215],[141.12184,39.17621],[141.11981,39.18443],[141.11345,39.19421],[141.10785,39.20744],[141.09279,39.22913],[141.09178,39.23173],[141.09859,39.24174],[141.09992,39.25239],[141.09899,39.26284],[141.10278,39.28322],[141.10871,39.30454],[141.11271,39.3125],[141.1113,39.32456],[141.10716,39.34482],[141.11434,39.36288],[141.11676,39.36447],[141.12259,39.36598],[141.13509,39.37117],[141.14414,39.38626],[141.14388,39.39007],[141.13858,39.40648],[141.13576,39.40934],[141.12878,39.41206],[141.12717,39.41555],[141.14193,39.46318],[141.14092,39.4673],[141.14133,39.47059],[141.13929,39.47387],[141.13897,39.47673],[141.14237,39.48679],[141.14191,39.49083],[141.144,39.49957],[141.1504,39.50768],[141.15768,39.51085],[141.16348,39.52895],[141.16934,39.54035],[141.16737,39.55159],[141.16764,39.55677],[141.16705,39.56129],[141.16604,39.56331],[141.1657,39.57005],[141.16637,39.57671],[141.16903,39.58085],[141.17,39.58443],[141.17077,39.60345],[141.17219,39.61576],[141.17403,39.6215],[141.17472,39.62677],[141.17268,39.63535],[141.16946,39.63925],[141.16524,39.64695],[141.1649,39.65198],[141.15557,39.67263],[141.15604,39.68178],[141.1575,39.68349],[141.16248,39.68581],[141.16483,39.68805],[141.17036,39.7058],[141.16353,39.70862],[141.15433,39.7151],[141.1471,39.71662],[141.14203,39.71868],[141.13548,39.72273],[141.12531,39.72529],[141.12286,39.72791],[141.12554,39.73703],[141.13188,39.74689],[141.13555,39.75601],[141.13165,39.765],[141.13056,39.77037],[141.12702,39.77569],[141.12495,39.7855],[141.12217,39.79078],[141.12414,39.79416],[141.12278,39.80071],[141.12937,39.81074],[141.13387,39.81529],[141.13628,39.81958],[141.13973,39.82181],[141.14191,39.82499],[141.14829,39.82751],[141.14929,39.82996],[141.15085,39.83124],[141.16016,39.83502],[141.16928,39.8364],[141.17258,39.83868],[141.17373,39.84103],[141.17519,39.85459],[141.18004,39.86194],[141.18112,39.86719],[141.1844,39.87178],[141.18996,39.88266],[141.19235,39.88463],[141.19593,39.88996],[141.19708,39.89499],[141.20025,39.9025],[141.20159,39.90935],[141.20027,39.91205],[141.19652,39.91429],[141.19483,39.91628],[141.19467,39.91865],[141.19602,39.92246],[141.19485,39.9254],[141.19505,39.9273],[141.19961,39.93112],[141.20204,39.93517],[141.20977,39.93932],[141.21434,39.94255],[141.21572,39.94465],[141.21752,39.94832],[141.21755,39.95042],[141.21192,39.95569],[141.21107,39.95747],[141.21089,39.96207],[141.2128,39.9688],[141.21529,39.97343],[141.22703,39.98038],[141.23037,39.99317],[141.23792,40.00346],[141.23867,40.0088],[141.23669,40.01498],[141.23771,40.01826],[141.23748,40.02557],[141.23866,40.03305],[141.23826,40.03828],[141.23697,40.03976],[141.23776,40.04412],[141.23692,40.04608],[141.23263,40.04807],[141.23105,40.05365],[141.23207,40.05851],[141.23026,40.06945],[141.23189,40.07415],[141.23411,40.0775],[141.23324,40.08168],[141.23368,40.08331],[141.23688,40.0857],[141.24452,40.087],[141.25089,40.08928],[141.25634,40.09693],[141.26084,40.10072],[141.26201,40.10354],[141.26171,40.1066],[141.26055,40.10857],[141.26137,40.11044],[141.2591,40.11432],[141.25869,40.11705],[141.26013,40.12132],[141.26331,40.12668],[141.26982,40.13064],[141.27613,40.13169],[141.28849,40.13719],[141.29649,40.14277],[141.30525,40.14523],[141.30741,40.14649],[141.30825,40.14812],[141.30864,40.16127],[141.30733,40.16319],[141.30321,40.16604],[141.30252,40.16788],[141.30374,40.17152],[141.30374,40.17631],[141.30859,40.18095],[141.30847,40.18379],[141.31083,40.18689],[141.30887,40.18837],[141.30717,40.1943],[141.3038,40.19821],[141.30789,40.20769],[141.30645,40.21169],[141.30594,40.2176],[141.30066,40.22297],[141.29569,40.22599],[141.29278,40.22683],[141.29066,40.22908],[141.28456,40.22877],[141.28132,40.23048],[141.27657,40.23752],[141.27581,40.24038],[141.27069,40.24596],[141.26958,40.24922],[141.27056,40.25078],[141.27726,40.25249],[141.28028,40.25439],[141.28118,40.25576],[141.28176,40.26242],[141.2931,40.27086],[141.29409,40.28072],[141.29088,40.28799],[141.29105,40.29162],[141.29583,40.29796],[141.3008,40.3012],[141.30387,40.30537],[141.30724,40.30769],[141.31038,40.31334],[141.31055,40.31572],[141.30671,40.32249],[141.30531,40.32702],[141.30044,40.33383],[141.29482,40.33703],[141.27844,40.33988],[141.27659,40.34181],[141.27628,40.34607],[141.26812,40.35095],[141.26025,40.35112],[141.25508,40.35313],[141.25374,40.35503],[141.25257,40.3592],[141.24772,40.36246],[141.24553,40.36687],[141.24039,40.3696],[141.23982,40.37292],[141.2458,40.38072],[141.25181,40.38318],[141.25563,40.38666],[141.26154,40.38778],[141.26316,40.38878],[141.26376,40.39048],[141.26265,40.39629],[141.26311,40.3997],[141.26457,40.40146],[141.27424,40.40754],[141.27757,40.41083],[141.28511,40.41338],[141.2895,40.41615],[141.29676,40.4165],[141.29977,40.41424],[141.30168,40.41439],[141.30614,40.41752],[141.30717,40.42197],[141.30838,40.42349],[141.32511,40.4313],[141.33691,40.44596],[141.33569,40.44697],[141.33127,40.44717],[141.32759,40.44859],[141.32628,40.45225],[141.32017,40.4547],[141.31415,40.4637],[141.3083,40.46762],[141.30789,40.47109],[141.30604,40.47405],[141.30879,40.47784],[141.30897,40.48199],[141.32009,40.49236],[141.32046,40.49377],[141.31653,40.49916],[141.31462,40.50653],[141.31224,40.50915],[141.30991,40.51035],[141.3034,40.51139],[141.29849,40.51431],[141.29348,40.51506],[141.29123,40.51667],[141.28964,40.52118],[141.28626,40.52591],[141.28805,40.5311],[141.28341,40.53988],[141.28435,40.54435],[141.28328,40.5473],[141.27754,40.55397],[141.2769,40.55613],[141.27382,40.55825],[141.27256,40.56497],[141.2685,40.56776],[141.26085,40.57671],[141.2585,40.58943],[141.26101,40.61555],[141.26008,40.61903],[141.24359,40.63544],[141.23967,40.63799],[141.23454,40.63912],[141.22311,40.63888],[141.19889,40.64468],[141.19183,40.65878],[141.18758,40.66369],[141.18329,40.67101],[141.17705,40.67459],[141.17113,40.68033],[141.16879,40.69035],[141.16948,40.69437],[141.16902,40.69678],[141.16261,40.70398],[141.1605,40.70919],[141.15656,40.71511],[141.15705,40.71843],[141.16181,40.72919],[141.16254,40.7356],[141.16168,40.73741],[141.15795,40.74042],[141.14325,40.7666],[141.14477,40.77181],[141.14825,40.79805],[141.13801,40.80234],[141.13363,40.8068],[141.12669,40.81205],[141.12472,40.81465],[141.1221,40.82139],[141.12206,40.82358],[141.1275,40.82928],[141.12946,40.83399],[141.1269,40.84007],[141.12611,40.84662],[141.12103,40.85212],[141.11447,40.85536],[141.113,40.86209],[141.10977,40.8665],[141.09452,40.87465],[141.08272,40.88578],[141.07863,40.89559],[141.06968,40.90375],[141.05682,40.90959],[141.0513,40.91032],[141.04628,40.91302],[141.03809,40.91511],[141.0198,40.92595],[141.01446,40.92652],[140.99347,40.93293],[140.98765,40.93239],[140.98217,40.93067],[140.97717,40.92644],[140.9746,40.92527],[140.962,40.92535],[140.95468,40.92272],[140.9461,40.92164],[140.93849,40.9184],[140.91805,40.91719],[140.91056,40.91576],[140.90641,40.91711],[140.88831,40.92006],[140.87419,40.91787],[140.87044,40.91542],[140.86763,40.9069],[140.86224,40.9035],[140.86102,40.90194],[140.86023,40.89723],[140.86105,40.8915],[140.86034,40.8888],[140.85693,40.88599],[140.85215,40.88475],[140.85048,40.8828],[140.84984,40.87819],[140.85156,40.87509],[140.85121,40.87247],[140.84636,40.86672],[140.84476,40.86192],[140.83913,40.85438],[140.83709,40.84801],[140.83437,40.84523],[140.82717,40.84154],[140.81795,40.8311],[140.8151,40.82979],[140.80005,40.82658],[140.78619,40.82848],[140.76514,40.82461],[140.74531,40.8229],[140.74133,40.82349]],[[139.77999,35.92119],[139.78292,35.92383],[139.78221,35.92724],[139.7777,35.93423],[139.77567,35.94643],[139.7765,35.95591],[139.77164,35.963],[139.76136,35.98136],[139.75996,35.98542],[139.75289,35.99138],[139.75217,35.99485],[139.75252,36.00246],[139.75487,36.01068],[139.7547,36.01269],[139.74049,36.02457],[139.72386,36.03479],[139.71476,36.05703],[139.71743,36.06867],[139.72291,36.07464],[139.72417,36.07739],[139.723,36.08455],[139.72116,36.08892],[139.72085,36.09383],[139.72296,36.10046],[139.72387,36.11312],[139.72263,36.11534],[139.71163,36.12631],[139.7081,36.13171],[139.70333,36.14203],[139.71336,36.14896],[139.70375,36.14152],[139.70805,36.13199],[139.71173,36.12632],[139.72369,36.11397],[139.72315,36.1012],[139.72208,36.09784]],[[140.87364,38.26275],[140.88095,38.25072],[140.87903,38.24395],[140.88417,38.24089],[140.88818,38.2352],[140.88395,38.24095],[140.87894,38.24386],[140.88075,38.25065],[140.87339,38.26282]],[[140.87464,38.47192],[140.87495,38.46919],[140.87828,38.46253],[140.87961,38.45433],[140.88992,38.44767],[140.89167,38.44589],[140.89225,38.44384],[140.89109,38.43484],[140.89125,38.42714],[140.88696,38.41246],[140.88646,38.40589],[140.88339,38.39454],[140.87262,38.38035],[140.87401,38.3746],[140.87409,38.36888],[140.87289,38.36505],[140.87385,38.3604],[140.8711,38.35664],[140.87075,38.35444],[140.89152,38.33172],[140.89665,38.32123],[140.90052,38.3159],[140.90206,38.31051],[140.90401,38.30765],[140.90808,38.30531],[140.916,38.30425],[140.92026,38.30252],[140.92986,38.2957],[140.93687,38.28826],[140.93845,38.28479],[140.93887,38.27383],[140.93796,38.26072],[140.93574,38.25662],[140.92858,38.25126],[140.91914,38.24085],[140.90847,38.23261],[140.89555,38.21943],[140.89344,38.21604],[140.89257,38.21199],[140.88959,38.1615],[140.87337,38.12534],[140.87329,38.12324],[140.87633,38.11433],[140.87166,38.10293],[140.86097,38.09343],[140.85747,38.09139],[140.82574,38.08423],[140.81919,38.07917],[140.81346,38.07256],[140.80968,38.07028],[140.80615,38.06984],[140.80077,38.0711],[140.79475,38.0696],[140.78867,38.06992],[140.77733,38.06568],[140.76701,38.06644],[140.76419,38.06529],[140.75889,38.06111],[140.75534,38.05989],[140.75016,38.06021],[140.74397,38.0626],[140.74057,38.06226],[140.73653,38.05951],[140.72551,38.04706],[140.71368,38.04487],[140.70186,38.03824],[140.68648,38.0383],[140.67627,38.0404],[140.668,38.04357],[140.66331,38.04438],[140.65853,38.04444],[140.65361,38.04317],[140.64037,38.03604],[140.63056,38.02946],[140.62022,38.0167],[140.61137,38.00985],[140.61041,38.00737],[140.612,37.99974],[140.61159,37.99322],[140.61189,37.99961],[140.61031,38.00735],[140.61146,38.01009],[140.6202,38.01682],[140.63065,38.0297],[140.64029,38.03609],[140.65393,38.04339],[140.65848,38.04451],[140.66481,38.04431],[140.67619,38.04052],[140.68638,38.0384],[140.7016,38.03828],[140.71363,38.04496],[140.72534,38.04707],[140.73655,38.05968],[140.74025,38.06223],[140.74408,38.06267],[140.75047,38.06024],[140.7549,38.05993],[140.7585,38.06099],[140.7645,38.0656],[140.7668,38.0665],[140.77809,38.06588],[140.78774,38.06982],[140.79463,38.06968],[140.80045,38.07116],[140.80594,38.06995],[140.8092,38.07022],[140.81348,38.07271],[140.81917,38.07928],[140.82579,38.08436],[140.85731,38.09143],[140.86101,38.09361],[140.87153,38.10292],[140.8762,38.11428],[140.87311,38.12502],[140.8895,38.16155],[140.89308,38.2155],[140.89553,38.21959],[140.90853,38.23287],[140.91947,38.24132],[140.92721,38.25017],[140.93646,38.25774],[140.93792,38.26105],[140.93873,38.27382],[140.93804,38.27828],[140.93835,38.28435],[140.93642,38.28856],[140.92966,38.29571],[140.92011,38.30248],[140.91582,38.30421],[140.90787,38.30529],[140.90372,38.30776],[140.90195,38.31047],[140.90039,38.31592],[140.89636,38.32152],[140.89144,38.33166],[140.87068,38.35431],[140.87092,38.35657],[140.8737,38.36063],[140.87277,38.36503],[140.87398,38.36885],[140.87392,38.37436],[140.87257,38.38062],[140.88329,38.39459],[140.88637,38.40591],[140.88681,38.41226],[140.89113,38.42715],[140.89097,38.43501],[140.89212,38.44377],[140.89035,38.44719],[140.87948,38.4543],[140.87825,38.46206],[140.8748,38.46917],[140.87472,38.47229],[140.8779,38.47966],[140.88182,38.49353],[140.88832,38.50352],[140.89677,38.51232],[140.91131,38.51973],[140.9228,38.52182],[140.9361,38.52019],[140.93928,38.52192],[140.93994,38.52862],[140.94528,38.53425],[140.94943,38.54136],[140.95303,38.55232],[140.95269,38.55399],[140.94896,38.55877],[140.94569,38.57892],[140.9463,38.58194],[140.95286,38.58838],[140.96282,38.59181],[140.9695,38.59883],[140.98055,38.60465],[140.98269,38.60868],[140.98433,38.62004],[140.98233,38.62622],[140.98253,38.6306],[140.98525,38.63324],[140.9866,38.63803],[140.98886,38.64078],[140.99106,38.64148],[140.99968,38.64174],[141.0022,38.64289],[141.00614,38.6518],[141.00618,38.65392],[141.00369,38.65952],[141.00349,38.6625],[141.00478,38.66533],[141.00887,38.6693],[141.00967,38.67378],[141.00871,38.67604],[141.00492,38.67981],[141.00236,38.6842],[141.0031,38.68887],[141.00137,38.6933],[141.00146,38.69549],[141.00308,38.69788],[141.02019,38.71269],[141.02426,38.72028],[141.02398,38.72232],[141.02101,38.72526],[141.02258,38.73163],[141.02221,38.73681],[141.01551,38.74395],[141.01449,38.74926],[141.02635,38.75686],[141.03367,38.75839],[141.03547,38.75949],[141.0431,38.77268],[141.04467,38.78026],[141.04961,38.78556],[141.05122,38.79199],[141.05567,38.79972],[141.07338,38.80646],[141.07717,38.80982],[141.07775,38.81157],[141.07665,38.81721],[141.08289,38.83179],[141.09258,38.84023],[141.09841,38.85639],[141.10261,38.85938],[141.10924,38.86771],[141.11757,38.87242],[141.11868,38.87372],[141.1181,38.88764],[141.11336,38.8997],[141.11248,38.90715],[141.10752,38.91598],[141.10836,38.91839],[141.11805,38.93156],[141.11883,38.93927],[141.11818,38.93155],[141.1132,38.92499]],[[139.83033,35.90079],[139.82676,35.89279],[139.82599,35.88868],[139.83009,35.86017],[139.82961,35.85389],[139.83032,35.84909],[139.82906,35.85269],[139.82968,35.86043],[139.82551,35.88806],[139.82621,35.89237],[139.82981,35.90084]],[[139.71336,36.14896],[139.71957,36.16071],[139.7202,36.16353],[139.7179,36.18725],[139.71891,36.20166],[139.71765,36.20473],[139.7124,36.20998],[139.7114,36.21228],[139.71339,36.21911],[139.71384,36.22532],[139.71891,36.23111],[139.73056,36.23832],[139.7418,36.24857],[139.75966,36.25999],[139.76354,36.26406],[139.77243,36.27461],[139.77521,36.27957],[139.77913,36.28425],[139.78583,36.28982],[139.78617,36.29644],[139.79156,36.30359],[139.80028,36.31251],[139.8036,36.3218],[139.80369,36.32544],[139.8061,36.32901],[139.81049,36.33382],[139.8189,36.33889],[139.82921,36.3548],[139.83198,36.36162],[139.84285,36.38062],[139.85718,36.40203],[139.86141,36.41543],[139.86348,36.42771],[139.86498,36.44795],[139.86901,36.46074],[139.87152,36.47692],[139.87232,36.49326],[139.87447,36.50084],[139.87796,36.51955],[139.8812,36.52867],[139.88092,36.53723],[139.88298,36.53946],[139.90322,36.54828],[139.90608,36.55017],[139.91558,36.56194],[139.91663,36.57435],[139.91747,36.57644],[139.9342,36.58865]],[[141.13746,39.40799],[141.12875,39.41196],[141.12734,39.41371],[141.12709,39.41582],[141.14182,39.46317],[141.14084,39.46721],[141.14125,39.47055],[141.13922,39.47379],[141.13888,39.47673],[141.14227,39.4868],[141.1418,39.49084],[141.14347,39.49568],[141.14388,39.4996],[141.15036,39.50774],[141.1561,39.50972],[141.15771,39.5111],[141.16331,39.52878],[141.16913,39.54006],[141.16726,39.55163],[141.16749,39.55712],[141.16593,39.56336],[141.16561,39.57006],[141.1662,39.57651],[141.16896,39.58098],[141.1699,39.58441],[141.17067,39.60344],[141.17214,39.61614],[141.17397,39.62153],[141.17463,39.62677],[141.17259,39.63533],[141.16939,39.63925],[141.16517,39.64693],[141.16482,39.65199],[141.15546,39.67293],[141.15601,39.68194],[141.16474,39.68808],[141.1702,39.70589],[141.16372,39.70843],[141.15437,39.71501],[141.14724,39.7165],[141.14213,39.71857],[141.13547,39.72265],[141.12504,39.72533],[141.12274,39.72777],[141.12547,39.73706],[141.13183,39.74699],[141.13548,39.75603],[141.13121,39.76503],[141.13059,39.76994],[141.12655,39.77583],[141.12452,39.78478],[141.12203,39.7908],[141.12405,39.79413],[141.12274,39.80118],[141.12905,39.81029]],[[141.11883,38.93927],[141.11531,38.94457],[141.12111,38.95188],[141.12272,38.95763],[141.11818,38.97327],[141.12296,38.98215],[141.12371,38.98701],[141.12156,38.99297],[141.11406,38.99798],[141.11276,39.00192],[141.1174,39.01037],[141.11719,39.01233],[141.11468,39.01667],[141.11856,39.03668],[141.12016,39.03877],[141.12682,39.04214],[141.12894,39.04404],[141.13572,39.05973],[141.1353,39.06569],[141.13118,39.07188],[141.13173,39.07411],[141.13464,39.07746],[141.13679,39.08742],[141.13467,39.09267],[141.13399,39.09716],[141.13809,39.10498],[141.14228,39.11001],[141.14632,39.11678],[141.14615,39.12675],[141.15007,39.13183],[141.1491,39.1528],[141.14461,39.1588],[141.14395,39.16417],[141.14254,39.16773]],[[141.11667,39.02705],[141.11479,39.01668],[141.11601,39.01391]],[[140.89045,38.23098],[140.88818,38.2352]],[[140.88945,38.23282],[140.89065,38.23099]],[[140.89528,38.51115],[140.8987,38.51357],[140.91131,38.51981],[140.92238,38.52189],[140.93566,38.52026],[140.93878,38.52136],[140.93988,38.52873],[140.94523,38.53446],[140.94951,38.54172],[140.95291,38.55231],[140.95258,38.55395],[140.94881,38.55892],[140.94559,38.57891],[140.94617,38.58197],[140.95277,38.58844],[140.96274,38.59187],[140.96942,38.59889],[140.97925,38.60362],[140.98274,38.60906]],[[140.61159,37.99322],[140.61001,37.98902],[140.61079,37.98723],[140.61375,37.98437],[140.61426,37.98223],[140.61109,37.9742],[140.61245,37.96887],[140.61236,37.96595],[140.60813,37.95628],[140.61125,37.94763],[140.61117,37.94018],[140.60264,37.9264],[140.59802,37.92083],[140.59042,37.91309],[140.5861,37.91146],[140.58158,37.90824],[140.57928,37.90415],[140.57112,37.8979],[140.57021,37.8927],[140.56847,37.88963],[140.56121,37.88505]],[[141.03551,38.74737],[141.03863,38.74342],[141.03862,38.73994],[141.03262,38.72807],[141.02427,38.72106]],[[140.29947,37.19238],[140.29489,37.18854],[140.29885,37.19216],[140.3058,37.19471],[140.29947,37.19238]],[[141.13914,39.1062],[141.14259,39.1085],[141.15334,39.10749],[141.15736,39.10894],[141.15914,39.11131],[141.16263,39.12593],[141.16297,39.14479],[141.16062,39.15766],[141.15769,39.1607],[141.15089,39.16381],[141.14668,39.16815],[141.14232,39.16893]],[[141.11988,39.18423],[141.12119,39.18156],[141.1225,39.17512],[141.12408,39.17218],[141.12717,39.16923],[141.13148,39.16805]],[[140.22091,37.14223],[140.22946,37.14],[140.23613,37.14123],[140.24245,37.14498],[140.24523,37.148],[140.24896,37.15013],[140.25022,37.15378],[140.25164,37.15523],[140.28387,37.16692],[140.2861,37.16986],[140.28726,37.18118],[140.29489,37.18854]],[[139.77461,35.68458],[139.77298,35.68862],[139.77555,35.68943]],[[139.77991,35.92127],[139.78288,35.92414]],[[140.74136,40.8236],[140.74532,40.82301],[140.76119,40.82428],[140.77299,40.82569],[140.78619,40.82856],[140.80012,40.82669],[140.81384,40.82962],[140.81906,40.83212],[140.82749,40.84191],[140.83558,40.84629]],[[140.06973,36.97493],[140.06849,36.97222],[140.06765,36.9644],[140.06302,36.95884],[140.04846,36.94724],[140.03432,36.94064]],[[140.3058,37.19471],[140.31913,37.19943],[140.32153,37.20119],[140.32482,37.21155],[140.32791,37.21612],[140.33167,37.23185]],[[141.12945,39.0448],[141.13409,39.05555]],[[141.10839,39.33835],[141.1114,39.32456],[141.11283,39.31249],[141.10882,39.30452],[141.10287,39.28318],[141.09911,39.26284],[141.09998,39.24993]],[[139.94546,36.79283],[139.94315,36.79985]],[[141.12212,39.79088],[141.12207,39.79069]],[[141.19964,40.64438],[141.19819,40.64572]],[[141.01091,38.7044],[141.01653,38.71003]],[[141.13267,39.07516],[141.13138,39.07312]],[[140.86142,40.90259],[140.86036,40.89769],[140.86116,40.89229],[140.86075,40.88937],[140.85815,40.88655],[140.85401,40.88528]],[[141.10944,39.20299],[141.11611,39.19037]],[[140.61404,37.98136],[140.61325,37.98498]],[[139.88104,36.53745],[139.88112,36.53294]],[[141.09406,39.22747],[141.09642,39.224]],[[141.11222,38.92364],[141.11107,38.92209]]]}}]}