{"type":"FeatureCollection","features":[{"type":"Feature","properties":{"route_id":"435","route_number":435,"name":"国道435号","source":"OpenStreetMap contributors (ODbL)","osm_relations":[9865109,9868620,9868816,9869305]},"geometry":{"type":"MultiLineString","coordinates":[[[130.89655,34.31612],[130.89917,34.31415],[130.90117,34.31368],[130.90422,34.30813],[130.90626,34.30724],[130.90808,34.30508],[130.91134,34.30573],[130.91816,34.30466],[130.92274,34.30142],[130.92721,34.30004],[130.93098,34.29752],[130.9439,34.29321],[130.95693,34.29538],[130.96044,34.29469],[130.96444,34.28881],[130.97471,34.28208],[130.97588,34.27818],[130.97968,34.27693],[130.98281,34.27423],[130.98971,34.27157],[130.99231,34.26849],[130.99207,34.26654],[130.993,34.26587],[131.00053,34.26543],[131.00641,34.26369],[131.01441,34.25881],[131.02278,34.26012],[131.02938,34.25733],[131.03136,34.25907],[131.03318,34.25901],[131.03549,34.25713],[131.03508,34.2536],[131.03952,34.24741],[131.04336,34.24436],[131.04584,34.24032],[131.04639,34.23425],[131.04395,34.23156],[131.04351,34.22985],[131.04458,34.22386],[131.04418,34.22185],[131.04772,34.2185],[131.05401,34.21436],[131.05956,34.21291],[131.06758,34.20823],[131.07579,34.20791],[131.08213,34.20906],[131.09559,34.20526],[131.1027,34.20616],[131.10945,34.20526],[131.12375,34.19732],[131.13795,34.19511],[131.1421,34.19061],[131.14422,34.18606],[131.15138,34.18127],[131.15336,34.17561],[131.15554,34.17255],[131.15841,34.17077],[131.16051,34.16821],[131.16335,34.1677],[131.16678,34.16878],[131.17468,34.16879],[131.17807,34.17033],[131.18174,34.1701],[131.18604,34.17272],[131.1911,34.16907],[131.19877,34.16765],[131.20021,34.16552],[131.20422,34.16697],[131.20701,34.16709],[131.21504,34.16716],[131.2213,34.16598],[131.2256,34.16769],[131.22878,34.16703],[131.23943,34.17303],[131.2554,34.1731],[131.25918,34.17375],[131.26511,34.1763],[131.27189,34.18069],[131.27203,34.18553],[131.27321,34.18687],[131.27748,34.18898],[131.27678,34.19322],[131.27749,34.19456],[131.2809,34.19682],[131.28277,34.19996],[131.28834,34.20098],[131.28841,34.20318],[131.29121,34.20974],[131.29871,34.21095],[131.30354,34.21381],[131.30883,34.21308],[131.31417,34.21484],[131.31641,34.21297],[131.31837,34.20964],[131.31807,34.20559],[131.31954,34.20321],[131.32588,34.20032],[131.33329,34.19867],[131.33731,34.19524],[131.33978,34.19418],[131.34188,34.19447],[131.3462,34.19725],[131.3588,34.19692],[131.36344,34.20001],[131.36796,34.20859],[131.36879,34.21193],[131.37143,34.21335],[131.37421,34.21267],[131.3791,34.20746],[131.38312,34.20516],[131.38593,34.20123],[131.38946,34.19948],[131.39167,34.1957],[131.39454,34.19374],[131.40701,34.193],[131.41062,34.19552],[131.4123,34.19827],[131.416,34.19829],[131.42302,34.18754],[131.42468,34.18749],[131.42924,34.18992],[131.43092,34.18941],[131.43021,34.18441],[131.43109,34.18127],[131.42927,34.17674],[131.43005,34.17362],[131.43446,34.16658],[131.4365,34.16654],[131.4395,34.16482],[131.44395,34.16393]],[[131.22863,34.16697],[131.23845,34.17282],[131.24626,34.17352]]]}}]}