{"type":"FeatureCollection","features":[{"type":"Feature","properties":{"route_id":"181","route_number":181,"name":"国道181号","source":"OpenStreetMap contributors (ODbL)","osm_relations":[7756814]},"geometry":{"type":"MultiLineString","coordinates":[[[133.3639,35.4077],[133.37035,35.40286],[133.37778,35.39869],[133.35458,35.4132],[133.35066,35.41991],[133.33876,35.42915],[133.3504,35.42028],[133.35456,35.4133],[133.3639,35.4077]],[[133.37778,35.39869],[133.38105,35.39572],[133.38398,35.38725],[133.38909,35.3801],[133.39661,35.37646],[133.40433,35.37663],[133.41571,35.37287],[133.42611,35.3628],[133.43,35.35836],[133.43169,35.35507],[133.43276,35.34869],[133.43534,35.34233],[133.43682,35.33484],[133.4384,35.33031],[133.44063,35.32703],[133.45851,35.31721],[133.46053,35.31085],[133.46573,35.31152],[133.4664,35.30984],[133.46539,35.3067],[133.46624,35.30919]],[[133.46539,35.3067],[133.46469,35.30469],[133.46939,35.30351],[133.47637,35.29173],[133.47839,35.28995],[133.48161,35.29006],[133.48439,35.28836],[133.48505,35.28515],[133.48396,35.28039],[133.48222,35.27669],[133.47932,35.27537],[133.48007,35.27278],[133.47556,35.26983],[133.47748,35.26521],[133.47658,35.26327],[133.46567,35.26129],[133.45294,35.25065],[133.44881,35.24467],[133.44696,35.2435],[133.44054,35.2421],[133.43938,35.23654],[133.43924,35.23364],[133.43994,35.23208],[133.44241,35.23089],[133.44768,35.22464],[133.44816,35.22282],[133.45113,35.22126],[133.45331,35.21883],[133.45967,35.21653],[133.46871,35.2105],[133.4732,35.20959],[133.47398,35.21172],[133.47563,35.21287],[133.47972,35.21316],[133.48172,35.21449],[133.48434,35.21223],[133.48671,35.2126],[133.4882,35.21096],[133.49026,35.21037],[133.49472,35.20579],[133.49711,35.20449],[133.50309,35.20371],[133.50888,35.20449],[133.50986,35.20371],[133.508,35.20368],[133.50753,35.20295],[133.51336,35.20294],[133.51573,35.19878],[133.51891,35.19566],[133.53466,35.18371],[133.5433,35.18183],[133.5463,35.18272],[133.54812,35.18238],[133.55086,35.18012],[133.55894,35.17813],[133.56687,35.17921],[133.56944,35.17864],[133.57119,35.17698],[133.57215,35.17327],[133.57906,35.17067],[133.58005,35.16763],[133.57926,35.16402],[133.58038,35.163],[133.58435,35.16208],[133.59156,35.16456],[133.6051,35.16311],[133.60772,35.16213],[133.61628,35.15613],[133.61854,35.15588],[133.62096,35.15721],[133.62444,35.15747],[133.62721,35.15619],[133.63132,35.14604],[133.63313,35.1439],[133.63106,35.14123],[133.6322,35.13938],[133.63155,35.13686],[133.63343,35.13485],[133.63174,35.13327],[133.62854,35.13283],[133.62789,35.13205],[133.63301,35.12622],[133.63089,35.12385],[133.63111,35.12132],[133.63638,35.11626],[133.6369,35.11457],[133.64012,35.11361],[133.64309,35.11],[133.64312,35.10758],[133.64762,35.10606],[133.64781,35.10327],[133.65222,35.10097],[133.65313,35.09898],[133.65278,35.09483],[133.65345,35.0915],[133.64947,35.08996],[133.64685,35.08413],[133.6476,35.08266],[133.64972,35.08248],[133.65258,35.08071],[133.6521,35.07935],[133.6496,35.07786],[133.6491,35.07605],[133.64725,35.07403],[133.65005,35.0731],[133.65235,35.0713],[133.6522,35.06714],[133.65314,35.06594],[133.65689,35.06512],[133.6619,35.06595],[133.66282,35.06427],[133.66482,35.06453],[133.6653,35.06768],[133.66842,35.06902],[133.67187,35.07399],[133.67449,35.07492],[133.67588,35.07428],[133.6761,35.0708],[133.67849,35.06908],[133.67999,35.07078],[133.68099,35.07466],[133.68797,35.07696],[133.6991,35.0845],[133.70557,35.08517],[133.70768,35.08364],[133.72447,35.08321],[133.73827,35.07966],[133.74326,35.07994],[133.75034,35.07786],[133.75526,35.07532],[133.76271,35.0742],[133.77516,35.07573],[133.7853,35.07582],[133.79143,35.07395],[133.79425,35.07168],[133.7992,35.06946],[133.80672,35.06819],[133.80984,35.06522],[133.81655,35.06089],[133.82456,35.06256],[133.83111,35.06183],[133.838,35.06244],[133.84158,35.06415],[133.85566,35.06492],[133.858,35.06038],[133.86101,35.05941],[133.87122,35.06163],[133.87436,35.06115],[133.8828,35.06187],[133.8896,35.0592],[133.89377,35.05943],[133.9032,35.05822],[133.91052,35.05511],[133.91766,35.05419],[133.92121,35.05562],[133.93673,35.05583],[133.95028,35.06009]],[[133.33876,35.42915],[133.3339,35.43319]]]}}]}