{"type":"FeatureCollection","features":[{"type":"Feature","properties":{"route_id":"122","route_number":122,"name":"国道122号","source":"OpenStreetMap contributors (ODbL)","osm_relations":[3248775,3248776]},"geometry":{"type":"MultiLineString","coordinates":[[[139.63958,36.01123],[139.6383,36.01264],[139.63742,36.01631],[139.62931,36.03185],[139.62599,36.04458],[139.626,36.04673],[139.62949,36.05566],[139.62807,36.06013],[139.61612,36.07372],[139.58631,36.08694],[139.58435,36.08906],[139.5818,36.09541],[139.57048,36.10293],[139.56394,36.11235],[139.55831,36.11795],[139.55865,36.12999],[139.55678,36.13479],[139.5566,36.13857],[139.55548,36.14162],[139.5533,36.14311],[139.54497,36.14517],[139.54128,36.14737],[139.53153,36.15802],[139.52265,36.17171],[139.50943,36.18249],[139.50897,36.18706],[139.51461,36.20176],[139.51501,36.20452],[139.51274,36.21187],[139.51359,36.22079],[139.50866,36.23283],[139.51576,36.23516],[139.52003,36.23549],[139.5158,36.23508],[139.50873,36.23275],[139.51366,36.22092],[139.51282,36.21208],[139.51513,36.20411],[139.50903,36.18675],[139.50971,36.18223],[139.52275,36.17176],[139.53162,36.15806],[139.54077,36.14795],[139.54454,36.14542],[139.55324,36.14321],[139.55557,36.14167],[139.55677,36.13827],[139.5569,36.13481],[139.55874,36.13],[139.5584,36.11796],[139.56405,36.1124],[139.57013,36.10342],[139.58159,36.0959],[139.5847,36.08864],[139.5864,36.08702],[139.61619,36.0738],[139.62842,36.05983],[139.62953,36.05512],[139.62596,36.04568],[139.62932,36.03214],[139.63741,36.01656],[139.63866,36.01223],[139.64786,36.00316],[139.64885,35.99892],[139.65112,35.99508],[139.64877,35.99888],[139.64747,36.00365],[139.63943,36.01111],[139.64851,35.99425],[139.65073,35.99195],[139.65353,35.98347],[139.65953,35.9741],[139.66258,35.97087],[139.66923,35.96684],[139.66581,35.97343],[139.66224,35.97586],[139.65325,35.99181],[139.66236,35.97591],[139.66676,35.97324],[139.67169,35.96431],[139.68362,35.95859],[139.69326,35.95199],[139.69794,35.95066],[139.69254,35.94477],[139.68607,35.94242],[139.68199,35.95221],[139.67346,35.96112],[139.66923,35.96684]],[[139.72801,35.74421],[139.73732,35.7509],[139.73634,35.75233],[139.73801,35.75344],[139.73708,35.75475],[139.73745,35.76128],[139.73312,35.77272],[139.73306,35.77713],[139.72838,35.78192],[139.72054,35.7837],[139.72657,35.79471],[139.72655,35.79765],[139.73252,35.80294],[139.73806,35.82318],[139.73723,35.82808],[139.73407,35.83574],[139.73483,35.83926],[139.73381,35.85247],[139.73441,35.87348],[139.7329,35.87647],[139.7258,35.88371],[139.72196,35.89021],[139.71442,35.90031],[139.70814,35.91083],[139.70169,35.926],[139.69019,35.93722],[139.68607,35.94242]],[[139.60431,36.75371],[139.60229,36.75307],[139.59636,36.75437],[139.59268,36.75387],[139.58917,36.75207],[139.57883,36.75012],[139.57445,36.74726],[139.56904,36.74599],[139.56714,36.74409],[139.56562,36.73961],[139.56192,36.73496],[139.55542,36.73211],[139.5528,36.73186],[139.55057,36.73258],[139.54821,36.72817],[139.54251,36.72415],[139.53679,36.72475],[139.53497,36.72252],[139.53446,36.7202],[139.50792,36.70126],[139.50777,36.69939],[139.50562,36.69779],[139.50574,36.69546],[139.49993,36.69205],[139.49784,36.6868],[139.4942,36.68591],[139.48947,36.68163],[139.48673,36.67761],[139.48303,36.67517],[139.47991,36.67092],[139.47504,36.66741],[139.47248,36.66716],[139.47145,36.6656],[139.46642,36.66545],[139.46001,36.66261],[139.45914,36.65972],[139.45635,36.65718],[139.45413,36.65364],[139.45378,36.65008],[139.45076,36.64799],[139.45215,36.646],[139.45215,36.64202],[139.44851,36.63949],[139.44224,36.63268],[139.43607,36.63066],[139.43145,36.62574],[139.4267,36.62268],[139.42441,36.61968],[139.42033,36.61856],[139.41527,36.61587],[139.41044,36.61522],[139.40294,36.60929],[139.40292,36.60793],[139.40502,36.60694],[139.40602,36.60532],[139.40349,36.5961],[139.40398,36.5947],[139.40023,36.5935],[139.40043,36.58877],[139.39467,36.58114],[139.3904,36.58001],[139.38506,36.57459],[139.3813,36.57419],[139.3789,36.57254],[139.37837,36.57114],[139.37898,36.57029],[139.37892,36.56664],[139.3774,36.56589],[139.37581,36.56264],[139.37613,36.56144],[139.37495,36.5607],[139.37582,36.55754],[139.37505,36.55625],[139.37316,36.55607],[139.37353,36.55511],[139.37212,36.5519],[139.37262,36.55035],[139.37207,36.54735],[139.37105,36.54669],[139.37095,36.54522],[139.36926,36.54449],[139.36892,36.5435],[139.36966,36.54257],[139.36902,36.54117],[139.36718,36.54085],[139.36583,36.54161],[139.36455,36.54105],[139.36357,36.54191],[139.36287,36.54079],[139.35947,36.5401],[139.34589,36.53991],[139.34024,36.53842],[139.3367,36.53559],[139.33333,36.53437],[139.33129,36.5316],[139.32921,36.53107],[139.32594,36.53163],[139.31895,36.52764],[139.31343,36.52739],[139.3035,36.51958],[139.30261,36.51676],[139.30056,36.51573],[139.2962,36.51113],[139.29507,36.50582],[139.29091,36.50157],[139.28576,36.50067],[139.28179,36.50152],[139.27668,36.50004],[139.27475,36.49787],[139.27551,36.49581],[139.27472,36.49138],[139.26897,36.4906],[139.26493,36.48823],[139.26247,36.48371],[139.25696,36.47963],[139.25788,36.47291],[139.25641,36.47044],[139.2596,36.46192],[139.26361,36.45901],[139.26355,36.45761],[139.26618,36.45406],[139.2674,36.454],[139.27016,36.45143],[139.27442,36.4506],[139.27521,36.44648],[139.27743,36.44126],[139.2748,36.43506],[139.27536,36.42923],[139.28391,36.42827],[139.29662,36.4251],[139.30141,36.42302],[139.30856,36.4175],[139.31282,36.41518],[139.30918,36.41149],[139.31524,36.40689],[139.32389,36.39674],[139.33963,36.38218],[139.35439,36.37087],[139.36345,36.36605],[139.37161,36.3595],[139.38899,36.33678],[139.39517,36.33172],[139.39204,36.32806],[139.39092,36.32528],[139.39176,36.31703],[139.40011,36.29805],[139.40758,36.28867],[139.41857,36.28337],[139.42418,36.27773],[139.43425,36.27452],[139.44605,36.26923],[139.45075,36.26876],[139.46505,36.26987],[139.49949,36.27063],[139.50655,36.2697],[139.5107,36.26677],[139.52004,36.25601],[139.52071,36.24498],[139.52003,36.23549]],[[139.65112,35.99508],[139.65325,35.99181]],[[139.33439,36.38723],[139.35334,36.37176],[139.36353,36.36612],[139.37184,36.35943],[139.38979,36.33597],[139.39546,36.33187],[139.39122,36.32608],[139.39153,36.31876],[139.40087,36.29703],[139.4082,36.2883],[139.41795,36.28384],[139.42429,36.27777],[139.42869,36.27623]],[[139.73753,35.75081],[139.72807,35.74414]],[[139.68651,35.94259],[139.69005,35.93844],[139.69256,35.9375],[139.69331,35.93523],[139.70249,35.92565],[139.70858,35.91098],[139.71488,35.90039],[139.71868,35.89572],[139.72135,35.89391],[139.72602,35.88433],[139.73329,35.87664],[139.7349,35.87359],[139.73503,35.86111],[139.73404,35.85314],[139.73493,35.83929],[139.73416,35.83576],[139.73708,35.82896],[139.73814,35.82318],[139.73259,35.80289],[139.72671,35.79774],[139.72667,35.79467],[139.72069,35.78379],[139.72864,35.7819],[139.73321,35.77709],[139.73326,35.77266],[139.7377,35.76093],[139.73719,35.75479],[139.73816,35.75342],[139.73651,35.75211]],[[139.56688,36.7433],[139.56677,36.74119],[139.56539,36.73925]],[[139.58893,36.75203],[139.59004,36.75253]],[[139.57613,36.7488],[139.57396,36.74707]],[[139.67169,35.96431],[139.67104,35.964]]]}}]}