{"type":"FeatureCollection","features":[{"type":"Feature","properties":{"route_id":"430","route_number":430,"name":"国道430号","source":"OpenStreetMap contributors (ODbL)","osm_relations":[9977958]},"geometry":{"type":"MultiLineString","coordinates":[[[133.95315,34.49376],[133.94212,34.49328],[133.93988,34.49106],[133.93899,34.48832],[133.93642,34.48808],[133.93225,34.48604],[133.93169,34.48338],[133.92985,34.48178],[133.93085,34.47927],[133.93119,34.47495],[133.93037,34.47215],[133.92924,34.4711],[133.92471,34.47082],[133.92239,34.46951],[133.92041,34.4637],[133.92318,34.45938],[133.92141,34.45628],[133.92026,34.45578],[133.91559,34.45614],[133.91098,34.45792],[133.90289,34.45657],[133.89885,34.45725],[133.8939,34.45647],[133.88867,34.45732],[133.88153,34.45656],[133.86823,34.46712],[133.86421,34.46924],[133.84748,34.4708],[133.84603,34.47329],[133.84392,34.47265],[133.84022,34.47333],[133.83679,34.47543],[133.83357,34.47619],[133.82917,34.47569],[133.82012,34.46981],[133.80987,34.46611],[133.80861,34.46447],[133.80716,34.45682],[133.78903,34.45543],[133.78563,34.45935],[133.78164,34.46168],[133.77429,34.46398],[133.7718,34.4666],[133.77202,34.4734],[133.76934,34.47919],[133.77058,34.48436],[133.77066,34.48973],[133.76976,34.49296],[133.77076,34.49697],[133.76954,34.50222],[133.77263,34.51138],[133.77207,34.5141],[133.77272,34.51825],[133.77104,34.52274],[133.75459,34.52319],[133.74678,34.52659],[133.7395,34.52686],[133.73261,34.52834],[133.71423,34.52828],[133.70766,34.53103],[133.7065,34.53229],[133.70485,34.54148],[133.70359,34.5445],[133.70312,34.55363],[133.70522,34.55507],[133.7037,34.56137]],[[133.70441,34.55847],[133.7033,34.5591]],[[133.70444,34.55871],[133.7053,34.5551],[133.70321,34.55365],[133.70353,34.54561],[133.70653,34.53254],[133.70767,34.53112],[133.7144,34.52833],[133.73267,34.5284],[133.73971,34.52694],[133.74669,34.52669],[133.75454,34.52327],[133.77112,34.52282],[133.77281,34.51826],[133.77216,34.51411],[133.77272,34.51141],[133.76963,34.50207],[133.77085,34.49697],[133.76985,34.49297],[133.77075,34.48972],[133.77067,34.48435],[133.76944,34.4789],[133.77211,34.47341],[133.77159,34.46874],[133.77197,34.46634],[133.77328,34.46476],[133.78243,34.46137],[133.78604,34.4591],[133.78882,34.45561],[133.79377,34.45551],[133.80171,34.45692],[133.80706,34.45694],[133.80879,34.46508],[133.81019,34.4664],[133.81512,34.46806]],[[133.70377,34.56113],[133.70433,34.55937]],[[133.80699,34.45691],[133.80724,34.4569]]]}}]}