{"type":"FeatureCollection","features":[{"type":"Feature","properties":{"route_id":"463","route_number":463,"name":"国道463号","source":"OpenStreetMap contributors (ODbL)","osm_relations":[9028205]},"geometry":{"type":"MultiLineString","coordinates":[[[139.64617,35.86634],[139.66361,35.86786],[139.65747,35.86256],[139.653,35.8612],[139.65411,35.85747],[139.64738,35.8562],[139.64585,35.86892],[139.64468,35.87107],[139.63296,35.87017],[139.6245,35.87039],[139.60549,35.86497],[139.57546,35.84691],[139.56265,35.83592]],[[139.37925,35.82359],[139.38608,35.82178],[139.39162,35.81625],[139.39864,35.81154],[139.41946,35.7995],[139.4403,35.79366],[139.44458,35.79158],[139.43504,35.79523],[139.41938,35.79947],[139.39857,35.81146],[139.39154,35.81618],[139.38592,35.82177],[139.37921,35.82354]],[[139.60054,35.86206],[139.57492,35.84665],[139.55645,35.83132],[139.55419,35.82853],[139.5477,35.81544],[139.54245,35.81231],[139.53859,35.81118],[139.51512,35.8085],[139.49962,35.80029],[139.46866,35.79417],[139.46414,35.79519],[139.45943,35.79444],[139.45617,35.79588],[139.43676,35.80801],[139.42341,35.81437],[139.41103,35.82412],[139.40808,35.8281],[139.3978,35.83385],[139.38687,35.83561],[139.38745,35.83663],[139.38647,35.84223]],[[139.44458,35.79158],[139.44693,35.79229],[139.45155,35.79096],[139.45971,35.79093],[139.4578,35.79506]],[[139.56081,35.83453],[139.55473,35.82917],[139.54771,35.81526],[139.54315,35.81256],[139.53864,35.8111],[139.51471,35.80831],[139.50204,35.80112],[139.49197,35.79861]],[[139.64616,35.86643],[139.65404,35.86676]],[[139.76666,35.9002],[139.7624,35.89786],[139.75888,35.8973],[139.74733,35.90057],[139.74085,35.90008],[139.72652,35.89152],[139.7179,35.88876],[139.71161,35.8896],[139.70876,35.88917],[139.69705,35.88183],[139.6915,35.87998],[139.67897,35.87399],[139.67196,35.87254],[139.66678,35.87028],[139.66361,35.86786],[139.66645,35.87021],[139.67188,35.87262],[139.67893,35.87407],[139.69141,35.88006],[139.69706,35.88193],[139.70871,35.88925],[139.71168,35.88969],[139.718,35.88885],[139.72672,35.8917],[139.74093,35.90021],[139.74694,35.90071],[139.75887,35.89748],[139.76258,35.89813],[139.76664,35.90029]],[[139.66361,35.86786],[139.66627,35.86768],[139.67394,35.87134],[139.67966,35.87221],[139.69826,35.87195],[139.70755,35.87791],[139.7189,35.88214],[139.72326,35.88301],[139.72688,35.88571],[139.73333,35.88332],[139.73937,35.88494],[139.74561,35.89311]]]}}]}