{"type":"FeatureCollection","features":[{"type":"Feature","properties":{"route_id":"156","route_number":156,"name":"国道156号","source":"OpenStreetMap contributors (ODbL)","osm_relations":[8519028,9137105,9137106]},"geometry":{"type":"MultiLineString","coordinates":[[[136.96394,36.60742],[136.96498,36.61349],[136.96076,36.62061],[136.9564,36.63051],[136.96041,36.64565],[136.97082,36.65951],[136.97289,36.66617],[136.97698,36.67165],[136.97607,36.68104],[136.97701,36.68956],[136.98327,36.69582],[136.99223,36.71882],[137.00285,36.73234],[137.0036,36.73908],[137.00279,36.73237],[136.99221,36.71899],[136.98319,36.69589],[136.97711,36.69008],[136.97596,36.68115],[136.97688,36.67175],[136.97279,36.66621],[136.9708,36.65968],[136.96065,36.64656],[136.9563,36.63101],[136.96044,36.62099],[136.96495,36.61312],[136.96322,36.60273],[136.965,36.59816],[136.96435,36.59277],[136.96583,36.58047],[136.98013,36.57373],[136.99216,36.5692],[136.99309,36.56806],[136.99289,36.56459],[136.99434,36.56334],[137.00279,36.56372],[137.00339,36.55962],[137.00736,36.55567],[137.00892,36.5529],[137.00891,36.55156],[137.00742,36.54965],[137.00304,36.54736],[137.00248,36.54523],[137.0005,36.54294],[137.00019,36.54037],[136.99401,36.53937],[136.99249,36.53845],[136.99063,36.53145],[136.98923,36.5284],[136.988,36.52785],[136.98938,36.52379],[136.98801,36.51682],[136.98933,36.51493],[136.99234,36.51377],[136.99298,36.51256],[136.9914,36.50662],[136.99139,36.49845],[136.99086,36.49729],[136.98832,36.49653],[136.98502,36.49303],[136.9849,36.48747],[136.98076,36.4862],[136.97946,36.4849],[136.97869,36.48299],[136.98086,36.48139],[136.98037,36.4786],[136.97675,36.4754],[136.97453,36.47253],[136.97449,36.47124],[136.97134,36.46991],[136.97176,36.46817],[136.96866,36.46839],[136.96896,36.46738],[136.96801,36.46547],[136.97211,36.46274],[136.96992,36.46042],[136.97098,36.45864],[136.9679,36.45727],[136.96901,36.45646],[136.9726,36.4566],[136.97,36.45629],[136.96927,36.45497],[136.97107,36.45206],[136.97067,36.45059],[136.97362,36.4423],[136.97231,36.43993],[136.96966,36.43886],[136.97061,36.43686],[136.97027,36.43557],[136.96656,36.43765],[136.96366,36.43568],[136.96099,36.43601],[136.96048,36.4342],[136.95918,36.43321],[136.95554,36.43198],[136.9545,36.43036],[136.94788,36.42799],[136.94732,36.42823],[136.94846,36.42972],[136.95309,36.43148],[136.95204,36.43406],[136.94652,36.4322],[136.94391,36.42961],[136.94205,36.4291],[136.93876,36.42351],[136.93563,36.42062],[136.93124,36.41065],[136.92906,36.40896],[136.92886,36.40683],[136.92495,36.40536],[136.9231,36.40328],[136.9191,36.40101],[136.91716,36.40066],[136.91414,36.40172],[136.90934,36.39919],[136.90643,36.39852],[136.90402,36.39923],[136.90102,36.40175],[136.89437,36.40318],[136.89027,36.40228],[136.88787,36.4034],[136.88574,36.40342],[136.88281,36.40178],[136.87978,36.39895],[136.87789,36.38921],[136.87455,36.38433],[136.87274,36.38435],[136.87147,36.38274],[136.8712,36.37842],[136.86865,36.37574],[136.86839,36.37451],[136.86936,36.36992],[136.87277,36.36773],[136.87351,36.363],[136.87524,36.35872],[136.87432,36.35605],[136.87206,36.35387],[136.87158,36.35141],[136.87233,36.34896],[136.8759,36.34654],[136.88378,36.33699],[136.88752,36.33618],[136.88873,36.33515],[136.89016,36.33199],[136.88951,36.3244],[136.89685,36.32163],[136.90028,36.3189],[136.8991,36.31525],[136.89471,36.31216],[136.89151,36.30839],[136.89187,36.30128],[136.88918,36.29448],[136.89031,36.2918],[136.90141,36.28293],[136.90062,36.26739],[136.90181,36.26572],[136.90432,36.26517],[136.90649,36.26177],[136.90411,36.26065],[136.8983,36.25495],[136.89642,36.25418],[136.89329,36.25468],[136.891,36.25403],[136.89164,36.25168],[136.89079,36.24926],[136.89197,36.24744],[136.89147,36.24439],[136.88889,36.24245],[136.88568,36.23712],[136.88529,36.23263],[136.8841,36.23154],[136.8805,36.23111],[136.87929,36.23024],[136.87751,36.22654],[136.87744,36.22395],[136.88228,36.21874],[136.883,36.2167],[136.88614,36.21561],[136.8918,36.21147],[136.89454,36.20622],[136.89809,36.20241],[136.89915,36.19357],[136.8971,36.18743],[136.90034,36.18134],[136.90072,36.17523],[136.90371,36.16835],[136.90296,36.16563],[136.90441,36.16301],[136.90564,36.15743],[136.90705,36.15491],[136.9097,36.15246],[136.91072,36.14871],[136.91067,36.14677],[136.90905,36.14411],[136.90796,36.1441],[136.90747,36.14639],[136.90717,36.14462],[136.90571,36.14352],[136.90704,36.14211],[136.9065,36.14015],[136.90792,36.13757],[136.90829,36.13441],[136.91106,36.12923],[136.91063,36.12844],[136.90585,36.12663],[136.91721,36.11941],[136.92074,36.11557],[136.92025,36.1129],[136.92251,36.11287],[136.92323,36.11115],[136.92741,36.10731],[136.92743,36.10517],[136.92887,36.10314],[136.92594,36.09884],[136.92921,36.09674],[136.93188,36.09855],[136.93395,36.09872],[136.93608,36.09657],[136.93541,36.0933],[136.9364,36.0909],[136.93911,36.09022],[136.94335,36.08683],[136.94613,36.08086],[136.94509,36.07735],[136.94335,36.07677],[136.94122,36.07378],[136.9417,36.07126],[136.94488,36.06939],[136.94333,36.05914],[136.9421,36.05652],[136.94612,36.05043],[136.949,36.04896],[136.94731,36.04647],[136.94648,36.0465],[136.94525,36.04884],[136.94342,36.04673],[136.9403,36.04619],[136.9403,36.04439],[136.94292,36.04294],[136.94208,36.03991],[136.94281,36.03792],[136.94197,36.03693],[136.93464,36.03227],[136.93107,36.03144],[136.92948,36.02848],[136.92595,36.0287],[136.92367,36.02639],[136.91863,36.02349],[136.91815,36.02182],[136.91403,36.01836],[136.90878,36.00739],[136.90295,36.00225],[136.90168,35.99854],[136.89715,35.9971],[136.8942,35.99854],[136.89107,35.99819],[136.88999,36],[136.88971,35.99846],[136.89083,35.99556],[136.8892,35.99062],[136.89081,35.9876],[136.89073,35.98606],[136.89017,35.98486],[136.88835,35.98664],[136.88924,35.98494],[136.88719,35.98658],[136.886,35.98624],[136.88536,35.98345],[136.88275,35.98046],[136.88101,35.97361],[136.88309,35.9696],[136.88121,35.96839],[136.87981,35.96886],[136.88102,35.96764],[136.88042,35.96571],[136.87757,35.96373],[136.87814,35.96127],[136.87676,35.95957],[136.87759,35.95683],[136.87684,35.95167],[136.86628,35.94462],[136.86043,35.93856],[136.85776,35.93859],[136.85545,35.9405],[136.85256,35.94148],[136.84856,35.94034],[136.8452,35.93817],[136.8402,35.94024],[136.83607,35.93833],[136.83436,35.93364],[136.83017,35.93047],[136.83146,35.92171],[136.83314,35.91872],[136.84238,35.91247],[136.84627,35.9052],[136.85302,35.89653],[136.85447,35.8854],[136.85417,35.88089],[136.85865,35.87887],[136.85872,35.87536],[136.86095,35.87249],[136.85974,35.86851],[136.8626,35.86234],[136.87124,35.8536],[136.87625,35.85103],[136.87997,35.84802],[136.8809,35.84186],[136.88305,35.83931],[136.88451,35.83574],[136.88731,35.83358],[136.88773,35.82914],[136.89034,35.82452],[136.89268,35.82064],[136.89629,35.81777],[136.90092,35.80966],[136.9053,35.80484],[136.90946,35.79794],[136.91293,35.78935],[136.91368,35.78254],[136.91739,35.78047],[136.9235,35.78016],[136.92589,35.77729],[136.93047,35.77493],[136.92939,35.77158],[136.93781,35.76935],[136.94021,35.76755],[136.94015,35.76074],[136.9471,35.75053],[136.94843,35.74737],[136.94825,35.74413],[136.94656,35.74343],[136.94662,35.7413],[136.94823,35.73821],[136.95319,35.73443],[136.95455,35.72882],[136.94723,35.72216],[136.94787,35.72032],[136.95334,35.71447],[136.95284,35.70751],[136.94944,35.70461],[136.94879,35.70268],[136.95219,35.6974],[136.95234,35.69553],[136.9491,35.6933],[136.94897,35.6913],[136.95085,35.687],[136.95209,35.68592],[136.96061,35.68657],[136.9657,35.68459],[136.96762,35.68189],[136.96683,35.67802],[136.96505,35.67752],[136.96367,35.67553],[136.96456,35.67069],[136.95908,35.66497],[136.95604,35.66348],[136.95521,35.66226],[136.95766,35.65732],[136.95749,35.65538],[136.95635,35.6539],[136.95243,35.65284],[136.95159,35.65122],[136.95204,35.64834],[136.95067,35.64557],[136.94734,35.64363],[136.94657,35.64236],[136.94696,35.63812],[136.9489,35.63439],[136.94736,35.62592],[136.94612,35.62355],[136.94561,35.6199],[136.94195,35.61835],[136.94045,35.61613],[136.9431,35.60962],[136.94194,35.60796],[136.93734,35.60564],[136.93631,35.60417],[136.93748,35.60184],[136.94542,35.59689],[136.94744,35.59657],[136.94868,35.59432],[136.94332,35.58572],[136.94261,35.58044],[136.9407,35.5765],[136.936,35.57633],[136.93261,35.57459],[136.92862,35.56902],[136.91973,35.56851],[136.91466,35.56261],[136.91371,35.55964],[136.91367,35.55677],[136.91489,35.55324],[136.9139,35.54871],[136.9089,35.54587],[136.90757,35.54141],[136.90855,35.53219],[136.90725,35.52366],[136.90842,35.53208],[136.90781,35.53519]],[[136.8166,35.42959],[136.81616,35.43009],[136.8164,35.42941],[136.82027,35.43192],[136.82609,35.43381],[136.83571,35.43995],[136.85031,35.45645],[136.85623,35.46559],[136.85949,35.46833],[136.86143,35.47343],[136.86061,35.4781],[136.86467,35.48324],[136.8674,35.4849],[136.86883,35.48699],[136.90292,35.49963],[136.90538,35.50751],[136.90725,35.52366]],[[136.75457,35.38847],[136.76686,35.3879],[136.78477,35.38842],[136.7846,35.40355],[136.78548,35.42023],[136.78634,35.42242],[136.79775,35.42852],[136.81616,35.43009]],[[136.81616,35.42997],[136.7977,35.42836],[136.78633,35.4219],[136.78555,35.41985],[136.78483,35.40585],[136.78491,35.38816],[136.75456,35.38823]],[[136.91065,36.12994],[136.90952,36.12816]],[[136.90098,36.27827],[136.89844,36.27803],[136.8961,36.27492],[136.89626,36.27187],[136.8977,36.26856]],[[136.87741,35.95536],[136.87717,35.95783]],[[137.02127,36.75329],[137.01649,36.74855],[137.01195,36.74588],[137.01643,36.74862],[137.02127,36.75329],[137.01442,36.75647],[137.01064,36.75668],[137.00698,36.75792],[137.00275,36.76075]],[[137.0036,36.73908],[137.00716,36.74304],[137.01195,36.74588]]]}}]}