{"type":"FeatureCollection","features":[{"type":"Feature","properties":{"route_id":"23","route_number":23,"name":"国道23号","source":"OpenStreetMap contributors (ODbL)","osm_relations":[2281009,2281010,2281011,2281012,2281028,8549439,9040856,19890501]},"geometry":{"type":"MultiLineString","coordinates":[[[136.51627,34.61489],[136.51615,34.61551],[136.51799,34.61293],[136.51973,34.60706],[136.52212,34.60443],[136.54106,34.59586],[136.54762,34.58908],[136.5544,34.58569],[136.56186,34.58388],[136.5684,34.58343],[136.59633,34.58723],[136.61724,34.58205],[136.62072,34.57983],[136.63309,34.56895],[136.65534,34.55238],[136.66237,34.54297],[136.67969,34.53395],[136.68224,34.53074],[136.68496,34.52177],[136.68632,34.51952],[136.70153,34.50792],[136.70448,34.50665],[136.70791,34.50639],[136.71606,34.50911],[136.71965,34.50935],[136.72789,34.50603],[136.73422,34.50555],[136.73634,34.50472],[136.74126,34.49662],[136.74206,34.49162],[136.74037,34.48989],[136.73192,34.48625],[136.72965,34.48386],[136.72991,34.47345],[136.72741,34.47045],[136.72494,34.46966],[136.72176,34.46687],[136.72128,34.46403],[136.72209,34.45973]],[[137.1264,34.85679],[137.12401,34.85895],[137.12034,34.86041],[137.1,34.86258],[137.0867,34.86908],[137.08342,34.87173],[137.07381,34.89601],[137.05828,34.91116],[137.05378,34.92471],[137.05169,34.92712],[137.04524,34.93152],[137.0426,34.9353],[137.0375,34.94946],[137.03711,34.96167],[137.03414,34.97046],[137.03487,34.97434],[137.03998,34.98446],[137.04002,34.9871],[137.02912,34.99976],[137.02427,35.01135],[137.01327,35.0203],[137.01176,35.02378],[137.01073,35.03165],[137.00641,35.03803],[137.0041,35.03943],[136.98959,35.04366],[136.98043,35.04256],[136.95579,35.04419],[136.94729,35.04819],[136.93567,35.05572],[136.93176,35.05964],[136.92864,35.06599],[136.92575,35.0739],[136.92053,35.09464],[136.91817,35.09718],[136.91479,35.09782],[136.90031,35.09519],[136.88195,35.10086],[136.86419,35.10078],[136.84607,35.09356],[136.83507,35.09109],[136.82371,35.07948],[136.82069,35.07781],[136.76988,35.07659],[136.76624,35.07533],[136.75397,35.06828],[136.74118,35.06558],[136.72085,35.05772],[136.702,35.05313],[136.69825,35.05119],[136.6943,35.04551],[136.68146,35.02068],[136.68038,35.01541],[136.673,35.00889],[136.66711,35.00676],[136.65813,35.00184],[136.65047,34.99277],[136.64684,34.98982],[136.64482,34.9847],[136.64418,34.97948],[136.63823,34.96875],[136.63335,34.96394],[136.63005,34.95814],[136.62592,34.9542],[136.61943,34.94542],[136.61529,34.93541],[136.61537,34.92682],[136.6147,34.92384],[136.60698,34.91549],[136.60541,34.91253],[136.60587,34.90321],[136.60534,34.90038],[136.60101,34.89208],[136.59452,34.87522],[136.58964,34.86805],[136.58639,34.86497],[136.58648,34.86129],[136.59002,34.85276],[136.58773,34.83658],[136.57857,34.82722],[136.56962,34.81443],[136.56109,34.80421],[136.54802,34.79192],[136.53325,34.78049],[136.52703,34.77119],[136.52086,34.74753],[136.51577,34.74133],[136.51141,34.72778],[136.51078,34.71941],[136.50686,34.70402],[136.51051,34.69217],[136.51681,34.68746],[136.51775,34.68577],[136.51997,34.65331],[136.51547,34.61971],[136.51603,34.61602],[136.51785,34.61356],[136.52059,34.60598],[136.52395,34.60347],[136.5412,34.5959],[136.54906,34.58831],[136.55866,34.5846],[136.5709,34.58366],[136.59581,34.58734],[136.6169,34.58235],[136.62067,34.57998],[136.63273,34.56939],[136.65541,34.55244],[136.66267,34.54287],[136.6798,34.53402],[136.68258,34.53028],[136.6849,34.52228],[136.68656,34.5194],[136.70158,34.508],[136.7045,34.50677],[136.70787,34.50651],[136.7159,34.50921],[136.71932,34.5095],[136.72786,34.50619],[136.73638,34.50481],[136.74148,34.49637],[136.74212,34.49143],[136.74075,34.48995],[136.73213,34.48625],[136.72996,34.48411],[136.72932,34.48245],[136.72981,34.47288],[136.72739,34.47032],[136.72502,34.46957],[136.72232,34.46737],[136.72155,34.46609]],[[136.51615,34.61551],[136.51544,34.62083],[136.51988,34.65393],[136.51763,34.68575],[136.51684,34.68727],[136.5104,34.69213],[136.50671,34.70433],[136.5106,34.71941],[136.51126,34.7278],[136.51565,34.74137],[136.52077,34.74756],[136.52647,34.77039],[136.53299,34.78036],[136.54795,34.79197],[136.56061,34.80388],[136.56953,34.81448],[136.57827,34.827],[136.58735,34.83613],[136.58994,34.85274],[136.58638,34.86127],[136.58634,34.86559],[136.58978,34.8685],[136.59445,34.87528],[136.60071,34.89167],[136.60524,34.90046],[136.60538,34.91283],[136.60689,34.91555],[136.61478,34.92428],[136.61518,34.93544],[136.6193,34.94543],[136.62605,34.95452],[136.62995,34.95818],[136.63326,34.96398],[136.63817,34.96882],[136.64409,34.9795],[136.64466,34.98445],[136.64677,34.98986],[136.6504,34.99281],[136.65806,35.00189],[136.66715,35.00687],[136.67296,35.00895],[136.6802,35.01529],[136.6813,35.02093],[136.69401,35.04524],[136.698,35.05105],[136.7004,35.05271],[136.7202,35.05759],[136.74198,35.06589],[136.7539,35.06833],[136.76617,35.0754],[136.76987,35.07669],[136.81626,35.07735],[136.82099,35.07802],[136.82358,35.07955],[136.835,35.09116],[136.84606,35.09366],[136.8641,35.10085],[136.88208,35.10092],[136.90028,35.09526],[136.91442,35.09787],[136.91805,35.09734],[136.92065,35.09461],[136.92628,35.07265],[136.92871,35.06616],[136.93206,35.05943],[136.93512,35.05637],[136.94679,35.04862],[136.95587,35.04429],[136.98091,35.04278],[136.98995,35.04379],[137.00301,35.03996],[137.00655,35.03801],[137.0108,35.03179],[137.01186,35.0238],[137.0134,35.02035],[137.02435,35.01142],[137.02943,34.9995],[137.04011,34.98712],[137.04007,34.98442],[137.03498,34.97433],[137.03422,34.97049],[137.03726,34.96145],[137.03755,34.94972],[137.04274,34.93523],[137.04524,34.93164],[137.05146,34.92738],[137.05385,34.9248],[137.05836,34.91122],[137.07406,34.89579],[137.08345,34.87186],[137.08572,34.86975],[137.09875,34.86306],[137.10409,34.86177],[137.11436,34.86153],[137.12069,34.86038],[137.12677,34.85692]],[[136.5458,34.83871],[136.5523,34.84856],[136.54987,34.84597],[136.54429,34.83667],[136.53621,34.83148],[136.53298,34.82808],[136.52561,34.81508],[136.52255,34.8031],[136.51826,34.79653],[136.51567,34.79426],[136.50639,34.78921],[136.50104,34.78353],[136.49849,34.7783],[136.49448,34.76448],[136.48434,34.75126],[136.48327,34.74731],[136.48367,34.7385],[136.47153,34.7188],[136.47011,34.7112],[136.47135,34.70668],[136.47388,34.70243],[136.48935,34.68745],[136.48038,34.69597]],[[137.12403,34.859],[137.13031,34.85211],[137.13297,34.85036],[137.14808,34.84687],[137.15778,34.84717],[137.1681,34.85246],[137.18048,34.855],[137.18543,34.85429],[137.1993,34.84789],[137.20587,34.84653],[137.21415,34.8466],[137.2237,34.85042],[137.22925,34.85073],[137.23341,34.84974],[137.23997,34.84565],[137.2479,34.84276],[137.25897,34.84126],[137.26694,34.84242],[137.27467,34.84218],[137.29552,34.83625],[137.30089,34.83389],[137.30962,34.83259],[137.31334,34.8311],[137.32815,34.81833],[137.33748,34.80807],[137.33734,34.80418],[137.33181,34.79644],[137.33093,34.79381],[137.33288,34.78419],[137.33239,34.76355],[137.33576,34.74908],[137.33728,34.74588],[137.34451,34.73789],[137.35251,34.73148],[137.3543,34.72872],[137.35482,34.72516],[137.35227,34.71438],[137.35217,34.71102],[137.35217,34.71441],[137.35464,34.72456],[137.35421,34.72868],[137.35248,34.73136],[137.34459,34.73766],[137.33707,34.74598],[137.33552,34.74951],[137.33233,34.76317],[137.33284,34.78419],[137.33088,34.79381],[137.33177,34.79645],[137.33717,34.8039],[137.33743,34.80805],[137.33558,34.81077],[137.32171,34.82443],[137.31337,34.83103],[137.30982,34.83251],[137.30086,34.83386],[137.29594,34.83608],[137.2746,34.84216],[137.26686,34.84237],[137.25918,34.84121],[137.24812,34.84266],[137.24047,34.84536],[137.23289,34.8499],[137.22925,34.85069],[137.22371,34.85038],[137.21417,34.84657],[137.20539,34.84653],[137.19929,34.84786],[137.18578,34.85413],[137.18019,34.85495],[137.16761,34.85224],[137.15773,34.8471],[137.14739,34.8469],[137.13294,34.85033],[137.13037,34.85199],[137.12401,34.85895]],[[136.49221,34.66533],[136.49469,34.67927],[136.49456,34.68157],[136.49344,34.68351],[136.49462,34.68006],[136.49142,34.65877],[136.4923,34.65247],[136.49521,34.64529],[136.4992,34.63841],[136.50365,34.6228],[136.50559,34.62139],[136.51261,34.61894],[136.51792,34.61336]],[[137.33165,34.78751],[137.33284,34.78595],[137.33299,34.78373]],[[137.33264,34.78353],[137.33218,34.78684]],[[137.43081,34.69292],[137.43898,34.69241],[137.42956,34.69305],[137.40904,34.69607],[137.3924,34.69582],[137.37178,34.69704],[137.36662,34.69886],[137.357,34.70423],[137.35366,34.70746],[137.35217,34.71102]],[[137.4888,34.69119],[137.4864,34.69308],[137.48311,34.69425],[137.46828,34.69496],[137.46381,34.69471],[137.45245,34.69193],[137.43898,34.69241]],[[137.48872,34.69105],[137.48593,34.69318],[137.48866,34.691]],[[137.48593,34.69318],[137.48152,34.69438],[137.46828,34.69492],[137.45973,34.69366]],[[136.58978,34.8685],[136.58532,34.86477],[136.58206,34.86351],[136.57886,34.8634],[136.57214,34.86478],[136.56809,34.86388],[136.56581,34.86215],[136.559,34.85323],[136.5523,34.84856]],[[136.49344,34.68351],[136.48935,34.68745]],[[136.58986,34.86841],[136.58537,34.86475],[136.58197,34.86341],[136.57897,34.86327],[136.57272,34.86467],[136.5686,34.864],[136.566,34.86221],[136.56118,34.85575]],[[137.48598,34.69329],[137.4889,34.69132]],[[136.51769,34.61356],[136.51708,34.6146]],[[136.52732,34.81782],[136.52499,34.81314],[136.5228,34.80379]],[[136.51616,34.6149],[136.516,34.61569]],[[137.41847,34.69472],[137.41265,34.6956]],[[136.57954,34.86329],[136.57826,34.86349]],[[136.5615,34.91467],[136.56271,34.90684],[136.56078,34.90009],[136.56104,34.88277],[136.55854,34.86772],[136.5582,34.85967],[136.55927,34.85563],[136.55899,34.85371]],[[136.55871,34.85356],[136.55909,34.85532],[136.55799,34.85938],[136.55825,34.86652],[136.56081,34.88252],[136.56063,34.90023],[136.56261,34.90687],[136.56134,34.91468]]]}}]}