{"type":"FeatureCollection","features":[{"type":"Feature","properties":{"route_id":"389","route_number":389,"name":"国道389号","source":"OpenStreetMap contributors (ODbL)","osm_relations":[9365391,9573881,9574003,9574004]},"geometry":{"type":"MultiLineString","coordinates":[[[130.44277,33.03322],[130.43618,33.02372],[130.42971,33.01799],[130.42834,32.99999],[130.4299,32.9958],[130.43095,32.98959],[130.43085,32.97632],[130.43085,32.98959],[130.42824,33.00012],[130.42958,33.01799],[130.43608,33.02373],[130.4427,33.03326],[130.44634,33.0318]],[[130.00675,32.40184],[130.00571,32.40308],[130.00618,32.40453],[130.00908,32.40648],[130.00789,32.40838],[130.00517,32.40329],[130.00607,32.4015],[130.00793,32.40223],[130.00776,32.40096],[130.0092,32.3996],[130.00752,32.39888],[130.00514,32.40023],[130.0043,32.39973],[130.0037,32.40072],[130.003,32.39972],[130.00223,32.40015],[130.00116,32.39953],[130.00029,32.39803],[130.00068,32.39672],[129.999,32.39629],[130.00088,32.38677],[129.99976,32.38431],[130.00071,32.38191],[129.9999,32.38021],[129.99975,32.37472],[130.00201,32.3666],[130.00065,32.36433],[129.99459,32.35974],[129.99315,32.35591],[129.99731,32.33661],[129.99655,32.33453],[129.99344,32.33207],[129.99298,32.33074],[129.99758,32.32327],[130.01429,32.31481],[130.01779,32.3144],[130.02253,32.31627],[130.03309,32.31606],[130.04096,32.31495],[130.04373,32.31188],[130.04609,32.3107],[130.05447,32.30945],[130.05627,32.30715],[130.05734,32.30338],[130.06373,32.30459],[130.07202,32.31123],[130.07299,32.3205],[130.08158,32.31709],[130.08381,32.31184],[130.08068,32.30992],[130.07906,32.30706],[130.0761,32.30497],[130.07114,32.29932],[130.07113,32.29386],[130.06981,32.29085],[130.06989,32.2857],[130.06466,32.28218],[130.06159,32.27603],[130.05846,32.27416],[130.05775,32.27129],[130.05893,32.26834],[130.06277,32.26601],[130.06453,32.26373],[130.06236,32.26199],[130.06259,32.25972],[130.05263,32.25013],[130.0516,32.24774],[130.05282,32.24503],[130.0527,32.24349],[130.0474,32.23858],[130.04489,32.23216],[130.04008,32.22787],[130.03853,32.22938],[130.0365,32.22672],[130.03452,32.22691],[130.03263,32.21557],[130.0287,32.2146],[130.02937,32.20933],[130.03163,32.20365],[130.03176,32.20051],[130.02671,32.19865],[130.02593,32.19772],[130.02616,32.19428],[130.03,32.19283],[130.10246,32.19052],[130.10264,32.1856],[130.10583,32.18312],[130.1055,32.17949],[130.10816,32.17597],[130.1112,32.17399],[130.10874,32.17204],[130.10901,32.17097],[130.11078,32.16979],[130.10959,32.16792],[130.11003,32.16463],[130.10937,32.16198],[130.1123,32.16098],[130.11292,32.15893],[130.11571,32.15802],[130.11819,32.15486],[130.11777,32.15342],[130.11882,32.15126],[130.11759,32.1503],[130.11648,32.14771],[130.11657,32.13994],[130.11762,32.137],[130.11695,32.13395],[130.12174,32.12667],[130.12376,32.12506],[130.12671,32.1195],[130.12939,32.11911],[130.13304,32.11573],[130.13645,32.1147],[130.13951,32.10982],[130.14233,32.10991],[130.14516,32.11125],[130.14506,32.1076],[130.15053,32.10463],[130.15344,32.09881],[130.16021,32.10044],[130.16123,32.09766],[130.16492,32.09611],[130.16601,32.09879],[130.16765,32.10042],[130.16646,32.10188],[130.16675,32.10337],[130.16541,32.10451],[130.16602,32.10741],[130.16807,32.10884],[130.1701,32.10857],[130.17662,32.10457],[130.17689,32.09539],[130.17799,32.09338],[130.18077,32.09343],[130.18227,32.09057],[130.18664,32.0897],[130.18809,32.08989],[130.18987,32.09163],[130.19153,32.09148],[130.19568,32.08513],[130.20387,32.08077],[130.20556,32.07779],[130.21206,32.07457],[130.21686,32.07117],[130.22202,32.06444],[130.22656,32.0619]],[[130.00789,32.40838],[130.00836,32.41146],[130.00356,32.41642],[130.00467,32.42181],[130.00772,32.4256],[130.00726,32.42809],[130.00837,32.42922],[130.00831,32.43037],[130.0122,32.43253],[130.01487,32.43653],[130.0193,32.44016],[130.02354,32.44631],[130.02452,32.44939],[130.02844,32.45598],[130.0312,32.45797],[130.03254,32.46116],[130.038,32.46587],[130.03754,32.46973],[130.0422,32.48212],[130.04579,32.48491],[130.0472,32.49025],[130.05036,32.49278],[130.05021,32.49479],[130.04721,32.50113],[130.04709,32.50485],[130.04208,32.50911],[130.05185,32.50949],[130.05673,32.51306],[130.0677,32.5156],[130.07179,32.52076],[130.07956,32.52351],[130.08355,32.5241],[130.0876,32.52629],[130.089,32.52795],[130.09246,32.5292],[130.09714,32.53388],[130.10203,32.53564],[130.10489,32.53804],[130.11618,32.54099],[130.11944,32.54446],[130.12184,32.54551],[130.13512,32.54571],[130.13968,32.54739],[130.14579,32.54814],[130.14786,32.54955],[130.15474,32.54925],[130.16164,32.55045],[130.16583,32.54947],[130.17448,32.55042],[130.17991,32.54981],[130.18589,32.54752],[130.19237,32.54815],[130.19958,32.60576],[130.18807,32.60985],[130.18862,32.61219],[130.18764,32.61444],[130.18812,32.61601],[130.18952,32.61707],[130.1903,32.61987],[130.19157,32.62482],[130.19111,32.62782],[130.18757,32.6329],[130.18209,32.63712],[130.18375,32.63798],[130.18685,32.64472],[130.19013,32.64773],[130.18966,32.65023],[130.19192,32.64949],[130.19556,32.65298],[130.19916,32.65342],[130.19872,32.65792],[130.19972,32.65972],[130.19792,32.66077],[130.19769,32.66324],[130.19359,32.66409],[130.18566,32.66058],[130.18075,32.66037],[130.17936,32.66119],[130.17704,32.66481],[130.17997,32.66518],[130.18306,32.66669],[130.18474,32.66929],[130.18452,32.67092],[130.18997,32.67055],[130.19539,32.67244],[130.19644,32.67375],[130.19438,32.67751],[130.19606,32.67843],[130.19745,32.68193],[130.20128,32.68545],[130.19772,32.68183],[130.19626,32.67837],[130.19444,32.6771]],[[130.44409,32.92867],[130.44038,32.93228],[130.44398,32.92861],[130.44184,32.92719],[130.43943,32.92263],[130.31002,32.87602],[130.30719,32.8739],[130.30862,32.87137],[130.30042,32.85975],[130.29548,32.84918],[130.29634,32.84081],[130.29479,32.8376],[130.29134,32.83458],[130.29199,32.82715],[130.2909,32.82181],[130.29154,32.81862],[130.29444,32.81354],[130.29201,32.80215],[130.28934,32.79776],[130.28164,32.79352],[130.28135,32.79219],[130.28338,32.78817],[130.28361,32.78604],[130.28175,32.78343],[130.28043,32.78303],[130.27643,32.78445],[130.27461,32.78079],[130.27298,32.78211],[130.27351,32.77796],[130.27293,32.7732],[130.27155,32.773],[130.27291,32.77156],[130.26941,32.77303],[130.27138,32.77121],[130.27208,32.76768],[130.27147,32.76663],[130.27238,32.76505],[130.27777,32.76149],[130.27581,32.75629],[130.27437,32.75536],[130.2769,32.75489],[130.27718,32.75307],[130.27552,32.75427],[130.27388,32.7541],[130.27375,32.75335],[130.27589,32.75142],[130.27453,32.75135],[130.27568,32.74984],[130.27425,32.75007],[130.27383,32.74751],[130.26924,32.74568],[130.26783,32.7441],[130.26116,32.74485],[130.26083,32.74202],[130.2627,32.73856],[130.26,32.73748],[130.25969,32.73519],[130.25801,32.73422],[130.25543,32.72832],[130.25081,32.72491]],[[130.44038,32.93228],[130.43875,32.94025],[130.44027,32.94176],[130.43934,32.94213],[130.43549,32.95499],[130.43388,32.96341],[130.43317,32.97547],[130.43124,32.97564],[130.43085,32.97632]],[[130.20313,32.68652],[130.20128,32.68545]],[[130.30601,32.86803],[130.30464,32.87113],[130.30719,32.8739]]]}}]}