{"type":"FeatureCollection","features":[{"type":"Feature","properties":{"route_id":"493","route_number":493,"name":"国道493号","source":"OpenStreetMap contributors (ODbL)","osm_relations":[31622]},"geometry":{"type":"MultiLineString","coordinates":[[[133.94078,33.48213],[133.94204,33.48055],[133.93422,33.48999],[133.92502,33.49347],[133.9212,33.49675],[133.91293,33.49934],[133.91081,33.50156],[133.89645,33.50395],[133.88862,33.50193],[133.87242,33.50411],[133.86839,33.50383],[133.85774,33.50688],[133.84933,33.50742],[133.84523,33.50681],[133.83903,33.50905],[133.83709,33.51271],[133.83341,33.51611],[133.831,33.51671],[133.82447,33.51637],[133.81443,33.51858],[133.7876,33.51947],[133.78226,33.51899],[133.77638,33.51689],[133.77148,33.51677],[133.76079,33.52451],[133.75733,33.53211],[133.75479,33.53444],[133.74653,33.53758],[133.73542,33.5398],[133.72338,33.54014],[133.72065,33.54621],[133.7157,33.55159],[133.71245,33.55295],[133.70551,33.558],[133.69021,33.55806],[133.65452,33.56492],[133.64745,33.5676],[133.64237,33.56824],[133.63542,33.56693],[133.61779,33.56768],[133.61287,33.56536],[133.60778,33.56558],[133.60415,33.56479],[133.58454,33.55707],[133.57065,33.55628],[133.56591,33.5574],[133.54129,33.55962],[133.53223,33.55804]],[[134.26803,33.50162],[134.2609,33.50561],[134.2539,33.50669],[134.24499,33.50078],[134.24278,33.49963],[134.2414,33.49984],[134.24202,33.49781],[134.24046,33.49668],[134.23244,33.49622],[134.22957,33.49721],[134.22931,33.4997],[134.22724,33.49984],[134.22617,33.50171],[134.2266,33.5026],[134.22457,33.5041],[134.21667,33.50543],[134.21846,33.50611],[134.22097,33.50568],[134.21904,33.50644],[134.21506,33.50692],[134.21441,33.50608],[134.21292,33.50636],[134.21055,33.5088],[134.20991,33.51064],[134.20855,33.50988],[134.20835,33.51135],[134.20694,33.51144],[134.20695,33.51222],[134.20604,33.51205],[134.20518,33.51303],[134.20406,33.51242],[134.20408,33.5135],[134.19789,33.51401],[134.19573,33.51529],[134.19531,33.51713],[134.19603,33.51758],[134.18182,33.51721],[134.1814,33.51592],[134.18005,33.51682],[134.1777,33.51501],[134.17382,33.51532],[134.17194,33.51651],[134.16877,33.51521],[134.16843,33.51164],[134.1644,33.51079],[134.16469,33.50674],[134.16667,33.50456],[134.1661,33.50203],[134.16498,33.50117],[134.16433,33.50252],[134.16268,33.50211],[134.16096,33.50287],[134.15661,33.50203],[134.15472,33.50483],[134.15262,33.50581],[134.14695,33.50584],[134.1464,33.507],[134.14747,33.51052],[134.14627,33.51427],[134.14445,33.51571],[134.14299,33.5159],[134.13932,33.51413],[134.13687,33.51385],[134.1287,33.51679],[134.12813,33.51621],[134.12844,33.51353],[134.12747,33.51349],[134.12533,33.51044],[134.12192,33.511],[134.12083,33.51302],[134.1184,33.51238],[134.11681,33.51319],[134.1154,33.51258],[134.1146,33.51112],[134.11503,33.50997],[134.11401,33.50937],[134.11404,33.50703],[134.11505,33.50618],[134.11944,33.50584],[134.1141,33.50348],[134.1019,33.50297],[134.10026,33.50161],[134.09848,33.49826],[134.09283,33.49608],[134.09075,33.49239],[134.08533,33.48956],[134.07923,33.48768],[134.07806,33.48672],[134.07873,33.48592],[134.07482,33.48348],[134.07906,33.48011],[134.07459,33.47756],[134.07463,33.47638],[134.07694,33.47414],[134.07458,33.47188],[134.0731,33.46915],[134.07307,33.46718],[134.07159,33.46534],[134.07315,33.46104],[134.07002,33.46144],[134.06723,33.46438],[134.06469,33.46963],[134.06245,33.47087],[134.05789,33.47049],[134.05642,33.46899],[134.05743,33.46652],[134.0602,33.46551],[134.06129,33.46404],[134.06133,33.46223],[134.06021,33.46105],[134.05558,33.45959],[134.05319,33.4624],[134.04996,33.4642],[134.04749,33.46401],[134.04564,33.4627],[134.04543,33.4582],[134.04794,33.4555],[134.04672,33.4532],[134.04259,33.45166],[134.0428,33.44874],[134.02914,33.43946],[134.02446,33.42951],[134.01926,33.42578],[134.01736,33.42737],[134.0128,33.42918],[134.00507,33.43004],[134.00033,33.42791],[133.98945,33.43034],[133.98678,33.43169],[133.98262,33.43578],[133.97697,33.43726],[133.97279,33.43988],[133.96257,33.44325],[133.95933,33.44782],[133.95219,33.45087],[133.9492,33.45301],[133.94508,33.4599],[133.94633,33.47035],[133.9441,33.47728],[133.94204,33.48055]],[[133.53221,33.55819],[133.54143,33.55975],[133.56665,33.55755],[133.57065,33.55636],[133.58454,33.55715],[133.60413,33.56486],[133.60772,33.56565],[133.61284,33.56544],[133.61776,33.56777],[133.63542,33.56703],[133.64312,33.5683],[133.64747,33.56769],[133.65454,33.565],[133.69026,33.55813],[133.7058,33.55803],[133.7127,33.55289],[133.71554,33.55185],[133.71996,33.54698]],[[134.06652,33.46609],[134.06708,33.4648],[134.06993,33.46716],[134.07326,33.48149],[134.07484,33.48368],[134.07861,33.4861]]]}}]}