{"type":"FeatureCollection","features":[{"type":"Feature","properties":{"route_id":"143","route_number":143,"name":"国道143号","source":"OpenStreetMap contributors (ODbL)","osm_relations":[2124106,9087496]},"geometry":{"type":"MultiLineString","coordinates":[[[137.97351,36.23121],[137.96534,36.23149],[137.97351,36.23121],[137.97712,36.25172],[137.97504,36.2579],[137.97667,36.26245],[137.97682,36.26735],[137.97478,36.27073],[137.97535,36.27775],[137.97412,36.28069],[137.97152,36.28231],[137.97033,36.28705],[137.96648,36.28891],[137.96396,36.2918],[137.96135,36.29634],[137.96148,36.30056],[137.95762,36.30475],[137.96474,36.30732],[137.97083,36.30778],[137.97385,36.31139],[137.97919,36.31363],[137.98622,36.31516],[137.98936,36.31745],[137.99797,36.32004],[137.99618,36.33127],[137.99408,36.33535],[137.99423,36.33693],[137.9975,36.34106],[137.99662,36.3437],[137.99699,36.34583],[138.00802,36.34788],[138.0177,36.35296],[138.02381,36.35521],[138.03074,36.35623],[138.03486,36.35542],[138.03935,36.3592],[138.04623,36.36179],[138.05274,36.37149],[138.05241,36.37242],[138.05414,36.37323],[138.05249,36.37282],[138.05156,36.37481],[138.04995,36.37291],[138.05074,36.37425],[138.05033,36.37662],[138.05136,36.37661],[138.05184,36.37776],[138.05254,36.37715],[138.05453,36.37845],[138.05659,36.37868],[138.05679,36.37759],[138.0575,36.37753],[138.05946,36.37952],[138.06034,36.37887],[138.0596,36.37751],[138.06027,36.37691],[138.06155,36.37698],[138.06204,36.37779],[138.06232,36.37699],[138.06323,36.37749],[138.0637,36.37657],[138.06585,36.37633],[138.06732,36.37495],[138.06736,36.37594],[138.06875,36.37672],[138.06694,36.37757],[138.06683,36.3788],[138.06506,36.3788],[138.06457,36.38016],[138.0692,36.38203],[138.0713,36.38064],[138.07255,36.38079],[138.07507,36.37854],[138.08116,36.37885],[138.08228,36.37807],[138.08239,36.37972],[138.08128,36.38188],[138.08045,36.38118],[138.08188,36.38007],[138.08184,36.37927],[138.0792,36.37983],[138.07824,36.38097],[138.07624,36.3807],[138.07561,36.38173],[138.07821,36.38249],[138.07935,36.38376],[138.07947,36.38499],[138.0769,36.38463],[138.07859,36.38624],[138.07782,36.38692],[138.08101,36.38664],[138.08036,36.38797],[138.08291,36.38777],[138.08441,36.38886],[138.08474,36.3905],[138.08544,36.39021],[138.08556,36.38879],[138.08667,36.38846],[138.09155,36.39053],[138.09615,36.38986],[138.09673,36.3926],[138.09761,36.39292],[138.09738,36.38939],[138.10333,36.38681],[138.10519,36.3817],[138.11186,36.37436],[138.12049,36.37101],[138.12297,36.37155],[138.12768,36.36949],[138.15313,36.37492],[138.17264,36.37778],[138.19495,36.38694],[138.20904,36.38908],[138.20945,36.39287],[138.20747,36.39864],[138.20944,36.40197],[138.20998,36.40469],[138.21372,36.40615],[138.22096,36.41596]],[[137.95634,36.23169],[137.96355,36.2332],[137.96534,36.23149]],[[138.21007,36.40483],[138.20956,36.40194],[138.20758,36.39867],[138.20954,36.39287],[138.20904,36.38908]],[[137.95648,36.23168],[137.95633,36.23164]]]}}]}