{"type":"FeatureCollection","features":[{"type":"Feature","properties":{"route_id":"208","route_number":208,"name":"国道208号","source":"OpenStreetMap contributors (ODbL)","osm_relations":[9361957,10120296]},"geometry":{"type":"MultiLineString","coordinates":[[[130.27376,33.25625],[130.27111,33.27137],[130.27589,33.24601],[130.2772,33.24253],[130.27895,33.24084],[130.28119,33.2401],[130.30046,33.23887],[130.31442,33.24016],[130.35348,33.22272],[130.36,33.22299],[130.36632,33.22073],[130.36931,33.21621],[130.38063,33.20628],[130.38002,33.19865],[130.38116,33.19605],[130.39511,33.17908],[130.39772,33.17743],[130.41279,33.17626],[130.41513,33.17474],[130.4165,33.16992],[130.4166,33.16136],[130.41739,33.15859],[130.42414,33.15423],[130.42744,33.15102],[130.42729,33.14526],[130.43525,33.12317],[130.44293,33.11868],[130.44573,33.11241],[130.45803,33.10163],[130.45905,33.09438],[130.45872,33.09041],[130.45988,33.08615],[130.46371,33.07828],[130.46426,33.07201],[130.46801,33.06876],[130.46773,33.06364],[130.46342,33.05207],[130.4551,33.04132],[130.45365,33.03813],[130.44999,33.03699],[130.44643,33.03217],[130.44149,33.02238],[130.43883,33.01416],[130.43858,32.99944],[130.43455,32.99],[130.43787,32.98693],[130.44017,32.97657],[130.44409,32.97349],[130.44643,32.96937],[130.44801,32.96441],[130.45404,32.95967],[130.46049,32.95997],[130.46392,32.95926],[130.46923,32.96165],[130.47688,32.95955],[130.4906,32.95773],[130.49228,32.95672],[130.49379,32.95432],[130.49878,32.95191],[130.50122,32.94908],[130.50349,32.94807],[130.5053,32.94218],[130.52017,32.93745],[130.53413,32.93709],[130.538,32.93852],[130.54521,32.94286],[130.55055,32.94407],[130.56727,32.94032],[130.57186,32.93763],[130.58298,32.92276],[130.58536,32.92138],[130.59732,32.92118],[130.60342,32.91995],[130.62512,32.91791],[130.63771,32.9185],[130.64346,32.92088],[130.65153,32.92171],[130.65429,32.92132],[130.65961,32.90862],[130.67211,32.90832],[130.67627,32.90547],[130.67659,32.90154],[130.67996,32.8977],[130.68979,32.89599],[130.69094,32.88819],[130.69295,32.8832],[130.70077,32.87802],[130.70177,32.87261],[130.70497,32.86803],[130.70711,32.86654],[130.70923,32.86167],[130.70974,32.85652],[130.71624,32.84493],[130.72266,32.82889],[130.72254,32.82314],[130.71676,32.8166],[130.71307,32.80218]],[[130.5526,32.94396],[130.56857,32.93997],[130.57152,32.93814],[130.57352,32.93565]],[[130.71296,32.80221],[130.71663,32.81651],[130.72252,32.82337],[130.72252,32.82924],[130.72115,32.83295]],[[130.58248,32.92346],[130.58478,32.92166],[130.58813,32.92126]],[[130.456,33.04237],[130.45371,33.03803],[130.45013,33.03697],[130.44846,33.03487],[130.44197,33.02336]],[[130.27111,33.27137],[130.27104,33.27203]]]}}]}