{"type":"FeatureCollection","features":[{"type":"Feature","properties":{"route_id":"50","route_number":50,"name":"国道50号","source":"OpenStreetMap contributors (ODbL)","osm_relations":[2954629,2954632,9315584,9315585,9315586,9315587,9315588,9315589,9315590,9315591,9315592,17497051,17497052,17497053]},"geometry":{"type":"MultiLineString","coordinates":[[[139.06771,36.39093],[139.07341,36.38835],[139.07729,36.38561],[139.10635,36.38074],[139.12508,36.37398],[139.14504,36.36991],[139.16062,36.36858],[139.15007,36.36907],[139.13783,36.37104],[139.12373,36.37425],[139.1063,36.38065],[139.09832,36.38208]],[[140.40019,36.38315],[140.39392,36.38586],[140.37805,36.38746],[140.37394,36.38612],[140.37159,36.38215],[140.3697,36.38062],[140.35207,36.3737],[140.34833,36.37364],[140.344,36.37537],[140.33723,36.37555],[140.34398,36.37548],[140.34888,36.37364],[140.35203,36.37379],[140.36946,36.38061],[140.37149,36.38221],[140.37378,36.38614],[140.37732,36.38745],[140.39393,36.38595],[140.40019,36.38315],[140.40337,36.38283],[140.42194,36.38865],[140.43213,36.38925],[140.43755,36.38859],[140.44084,36.38631],[140.44901,36.38268],[140.46557,36.37825],[140.47294,36.375],[140.47565,36.3721]],[[139.27887,36.39254],[139.28029,36.39339],[139.29225,36.39506],[139.30342,36.39252],[139.31679,36.38713],[139.33094,36.38713],[139.33497,36.38614],[139.35447,36.37093],[139.36294,36.36652],[139.37136,36.35986],[139.38979,36.33597],[139.39998,36.32865],[139.41297,36.32252],[139.42199,36.3167],[139.42955,36.31392],[139.44488,36.30954],[139.45691,36.3088],[139.46692,36.3067],[139.47108,36.30449],[139.48503,36.29426],[139.51398,36.28511],[139.51978,36.28587],[139.52912,36.29241],[139.53309,36.2936],[139.53675,36.29332],[139.54866,36.28974],[139.56415,36.28784],[139.59017,36.29287],[139.60073,36.29629],[139.61321,36.29537],[139.62395,36.29601],[139.63084,36.29879],[139.63925,36.30703],[139.64229,36.30905],[139.65794,36.31399],[139.66308,36.31464],[139.67688,36.31308],[139.68838,36.30536],[139.69623,36.303],[139.70349,36.30238],[139.7129,36.30253],[139.72907,36.3078],[139.73452,36.30886],[139.74541,36.30983],[139.76827,36.30878],[139.77643,36.31045],[139.78163,36.31049],[139.78483,36.30925],[139.78914,36.30498],[139.80279,36.30081],[139.82077,36.29796],[139.8391,36.29658],[139.84601,36.29698],[139.85348,36.2931],[139.85941,36.29157],[139.86976,36.28738],[139.87385,36.28663],[139.88117,36.28681],[139.89723,36.2927],[139.91568,36.29114],[139.92475,36.29263],[139.9158,36.29102],[139.89747,36.29262],[139.88096,36.28664],[139.87384,36.28654],[139.86922,36.28745],[139.85912,36.29158],[139.85381,36.29288],[139.84597,36.29688],[139.83923,36.29647],[139.82078,36.29785],[139.80228,36.30083],[139.78907,36.3049],[139.78472,36.3092],[139.78166,36.3104],[139.77645,36.31036],[139.76848,36.30869],[139.74541,36.30973],[139.73451,36.30878],[139.71297,36.30245],[139.70022,36.30239],[139.68804,36.3054],[139.67673,36.31302],[139.66265,36.31456],[139.65754,36.31377],[139.642,36.30881],[139.63093,36.29871],[139.62428,36.29599],[139.61302,36.29527],[139.60039,36.29616],[139.59025,36.29279],[139.56453,36.28777],[139.54926,36.28954],[139.53679,36.29322],[139.53315,36.2935],[139.52919,36.29234],[139.51984,36.28578],[139.51468,36.28493],[139.48503,36.29415],[139.471,36.30441],[139.46685,36.3066],[139.45688,36.30872],[139.44435,36.30956],[139.42291,36.3162],[139.41337,36.32218],[139.39991,36.32855],[139.38973,36.33591],[139.37129,36.35978],[139.36345,36.36605],[139.35439,36.37087],[139.33618,36.38534],[139.33297,36.38676],[139.31668,36.38706],[139.30335,36.39245],[139.29127,36.39497],[139.27998,36.3932],[139.26598,36.38414],[139.24674,36.37885],[139.23609,36.37811],[139.23147,36.37875],[139.22124,36.37664],[139.19122,36.37495],[139.17996,36.37147],[139.16446,36.36848],[139.16062,36.36858]],[[140.33723,36.37555],[140.32974,36.37825],[140.32462,36.38189],[140.32091,36.38201],[140.31387,36.38054],[140.30636,36.38327],[140.29814,36.38327],[140.28905,36.38929],[140.28559,36.39059],[140.25276,36.39393],[140.24925,36.39372],[140.23842,36.38959],[140.22376,36.37765],[140.21016,36.36944],[140.20444,36.36347],[140.19064,36.35432],[140.17381,36.34943],[140.16772,36.34968],[140.15799,36.35652],[140.15528,36.35753],[140.1257,36.35909],[140.11089,36.3642],[140.10544,36.36466],[140.09592,36.3626],[140.08969,36.35878],[140.07489,36.35257],[140.05412,36.34971],[140.04066,36.34304],[140.03454,36.34206],[140.03115,36.33749],[140.01057,36.3234],[140.00676,36.32182],[140.00093,36.3217],[139.99131,36.32483],[139.97715,36.32526],[139.96424,36.32666],[139.96103,36.3263],[139.9578,36.32452],[139.95613,36.32184],[139.95388,36.31036],[139.95563,36.30255],[139.9539,36.29996],[139.94811,36.29617],[139.92475,36.29263]],[[140.48143,36.34085],[140.46842,36.34671],[140.46262,36.34759],[140.45416,36.34733],[140.42271,36.35472],[140.40495,36.37091],[140.40117,36.38197],[140.39638,36.38487]],[[140.39646,36.38498],[140.40136,36.38185],[140.40504,36.37096],[140.42233,36.35503],[140.45419,36.34743],[140.4626,36.34767],[140.46836,36.34682],[140.47381,36.34493],[140.48169,36.34082]],[[139.97154,36.32581],[139.97502,36.32545]],[[139.95128,36.29788],[139.95451,36.30141],[139.95502,36.30302]],[[140.07451,36.35258],[140.08963,36.35887],[140.0953,36.36246],[140.10468,36.3647],[140.11034,36.36446],[140.1222,36.36015]],[[140.23406,36.38609],[140.23973,36.39053],[140.24869,36.3937],[140.25248,36.39405],[140.26201,36.39304]],[[140.02306,36.33213],[140.02454,36.33575],[140.02385,36.34377],[140.02493,36.34568],[140.04674,36.34901],[140.05156,36.3486]]]}}]}