{"type":"FeatureCollection","features":[{"type":"Feature","properties":{"route_id":"200","route_number":200,"name":"国道200号","source":"OpenStreetMap contributors (ODbL)","osm_relations":[2326876,9491581,9491582,9491583]},"geometry":{"type":"MultiLineString","coordinates":[[[130.74523,33.77804],[130.746,33.78468],[130.7446,33.79193],[130.74299,33.78955],[130.73294,33.78338],[130.73115,33.78081],[130.73084,33.77732],[130.73452,33.77094],[130.73716,33.76378],[130.74097,33.75781],[130.74129,33.75377],[130.74012,33.75219],[130.73597,33.75027],[130.7312,33.74962],[130.72931,33.74201],[130.72458,33.73314],[130.71295,33.72511],[130.70877,33.71524],[130.70671,33.71215],[130.70696,33.70511],[130.71365,33.69193],[130.71262,33.68792],[130.7107,33.68567],[130.71029,33.68167],[130.70849,33.67885],[130.70571,33.67741],[130.69542,33.66846],[130.68637,33.66328],[130.68282,33.6545],[130.68305,33.65167],[130.67802,33.64591],[130.67607,33.63357],[130.66964,33.62496],[130.67194,33.60784],[130.67445,33.59665],[130.67377,33.59165],[130.66843,33.58545],[130.66735,33.58248],[130.66434,33.57875],[130.65603,33.57155],[130.6536,33.56733],[130.65059,33.56575],[130.64513,33.56074],[130.64263,33.55656],[130.6409,33.54947],[130.63987,33.53728],[130.63338,33.52975],[130.63054,33.52254],[130.62893,33.52143],[130.62922,33.51956],[130.6282,33.51925],[130.6277,33.51784],[130.62867,33.51388],[130.63132,33.51239],[130.633,33.51254],[130.63157,33.51086],[130.62707,33.5113],[130.62174,33.50993],[130.61426,33.50981],[130.60329,33.506],[130.60117,33.50695],[130.59992,33.50551],[130.60004,33.50375],[130.59445,33.50207],[130.5941,33.49973],[130.5923,33.49762],[130.59345,33.4954],[130.59149,33.493],[130.58772,33.49164],[130.58447,33.4893],[130.57661,33.48143],[130.57454,33.47803],[130.56326,33.47429],[130.5715,33.46705],[130.56861,33.46308],[130.56691,33.45797],[130.56932,33.46411],[130.57642,33.47281],[130.57816,33.47864],[130.58419,33.48506],[130.59194,33.49145],[130.59214,33.49758],[130.59436,33.50226],[130.59791,33.50378],[130.61053,33.50592],[130.6272,33.51638],[130.62902,33.52177],[130.63241,33.52439],[130.63318,33.52962],[130.63978,33.53731],[130.6408,33.54949],[130.64244,33.55638],[130.64423,33.55969],[130.65052,33.56579],[130.65368,33.56752],[130.65625,33.57193],[130.66388,33.57837],[130.66707,33.58221],[130.66832,33.58545],[130.67343,33.5911],[130.67435,33.59663],[130.67186,33.60783],[130.66955,33.62497],[130.67601,33.63367],[130.67712,33.64347],[130.67823,33.64643],[130.6826,33.65157],[130.69101,33.65366],[130.69729,33.66181],[130.70508,33.66274],[130.71403,33.6654],[130.71555,33.66662],[130.7193,33.67508],[130.71983,33.68676],[130.72153,33.68858],[130.72774,33.69067],[130.72934,33.69239],[130.72952,33.69347],[130.7281,33.69628],[130.72799,33.70332],[130.73133,33.70667],[130.74312,33.72707],[130.74485,33.73216],[130.74833,33.73587],[130.75122,33.74498],[130.75658,33.75196],[130.7559,33.76075],[130.74549,33.77146],[130.7446,33.77439],[130.74523,33.77804]],[[130.54733,33.45199],[130.56198,33.45125],[130.56517,33.45333],[130.56691,33.45797]],[[130.7615,33.86575],[130.76166,33.85086],[130.7627,33.84796],[130.76053,33.84517],[130.76009,33.84185],[130.75022,33.8418],[130.74719,33.83936],[130.74631,33.83752],[130.74649,33.83059],[130.74419,33.82465],[130.74591,33.82018],[130.74387,33.81578],[130.74231,33.80626],[130.74253,33.80227],[130.74502,33.79234],[130.74391,33.7907]],[[130.76169,33.86578],[130.76173,33.85087],[130.76278,33.84795],[130.76061,33.84516],[130.7601,33.84159],[130.75044,33.84179],[130.74649,33.83807]],[[130.74502,33.79234],[130.74641,33.78458],[130.74487,33.77313],[130.7467,33.77007],[130.75577,33.76126],[130.75695,33.75453],[130.75627,33.75089],[130.75124,33.74478],[130.74843,33.73585],[130.74489,33.73206],[130.74319,33.72701],[130.73138,33.7066],[130.72799,33.70315],[130.72814,33.69658],[130.72942,33.69237],[130.72802,33.69074],[130.72176,33.68864],[130.71991,33.68673],[130.71938,33.67501],[130.71555,33.66646],[130.7137,33.6652],[130.70511,33.66267],[130.69765,33.66189],[130.6957,33.66031],[130.69077,33.65339],[130.68305,33.65167]],[[130.7446,33.79193],[130.74331,33.79577],[130.74164,33.80667],[130.74361,33.81466]],[[130.63222,33.52723],[130.6328,33.52886]],[[130.62883,33.5205],[130.62905,33.52195],[130.63081,33.52318]],[[130.5716,33.46696],[130.57631,33.47286],[130.57828,33.47896],[130.58412,33.48513],[130.58969,33.48912]],[[130.63297,33.52902],[130.6324,33.52414],[130.62987,33.52241]]]}}]}