{"type":"FeatureCollection","features":[{"type":"Feature","properties":{"route_id":"475","route_number":475,"name":"国道475号","source":"OpenStreetMap contributors (ODbL)","osm_relations":[10901520,10901529,10901530]},"geometry":{"type":"MultiLineString","coordinates":[[[137.19867,35.0435],[137.19508,35.04445],[137.19401,35.04733],[137.19773,35.05282],[137.20475,35.05976],[137.2084,35.06509],[137.21278,35.07682],[137.2225,35.09298],[137.22355,35.09857],[137.22267,35.10358],[137.21933,35.1091],[137.20826,35.11933],[137.19946,35.13144],[137.19664,35.13354],[137.18782,35.13772],[137.18118,35.14467],[137.17911,35.14922],[137.17928,35.15626],[137.17859,35.15982],[137.17171,35.1752],[137.16386,35.18439],[137.141,35.20362],[137.13729,35.20941],[137.13569,35.21587],[137.13737,35.22754],[137.13655,35.23613],[137.14021,35.24911],[137.14403,35.25387],[137.15379,35.26081],[137.15952,35.26648],[137.17398,35.28658],[137.18009,35.29667],[137.18047,35.30374],[137.17702,35.3141],[137.1746,35.33378],[137.17271,35.33716],[137.16675,35.34277],[137.16437,35.34618],[137.16323,35.35064],[137.16405,35.35752],[137.16353,35.36125],[137.15598,35.37354],[137.14958,35.37901],[137.13702,35.3847],[137.12696,35.39211],[137.12116,35.40163],[137.10304,35.4221],[137.10064,35.42824],[137.10011,35.44254],[137.09684,35.44765],[137.08642,35.45255],[137.07411,35.46111],[137.06724,35.46454],[137.05504,35.46866],[137.04933,35.4698],[137.0433,35.47007],[137.03017,35.46902],[137.0237,35.46978],[137.0171,35.47312],[137.01178,35.47978],[137.01681,35.47353],[137.02303,35.4701],[137.02949,35.46913],[137.04078,35.46993]],[[137.09518,35.44887],[137.09841,35.44643],[137.10017,35.44318],[137.10061,35.42878],[137.10324,35.4219],[137.12144,35.40135],[137.12695,35.39221],[137.13704,35.38474],[137.1509,35.37821],[137.15669,35.37274],[137.16371,35.3611],[137.16419,35.3579],[137.16336,35.35065],[137.16431,35.34663],[137.16651,35.34321],[137.17297,35.337],[137.17523,35.33209],[137.17717,35.31411],[137.18081,35.30326],[137.18042,35.29667],[137.17371,35.28556],[137.15983,35.2663],[137.15372,35.26034],[137.14478,35.25437],[137.14052,35.24942],[137.13669,35.23612],[137.1375,35.22754],[137.13578,35.21641],[137.13718,35.21003],[137.14,35.2053],[137.14406,35.20112],[137.16478,35.18403],[137.17188,35.17551],[137.17881,35.15954],[137.17926,35.14902],[137.18105,35.14502],[137.18762,35.13801],[137.19647,35.13376],[137.19976,35.1313],[137.20911,35.11853],[137.21999,35.10886],[137.22328,35.1028],[137.22383,35.09788],[137.2228,35.09314],[137.21263,35.07623],[137.20825,35.06451],[137.20496,35.05979],[137.19807,35.05303],[137.19344,35.04598],[137.1896,35.04365]],[[136.58205,35.36362],[136.58718,35.37022],[136.59078,35.37895],[136.59456,35.38241],[136.59118,35.37935],[136.58729,35.37016],[136.58205,35.36362],[136.58086,35.35558],[136.57876,35.34977],[136.5781,35.33903],[136.58129,35.33138],[136.58197,35.32652],[136.57867,35.30937],[136.57776,35.29883],[136.57807,35.29249]],[[136.76961,35.50802],[136.77674,35.51081],[136.78905,35.5115],[136.79774,35.51144],[136.81261,35.50909],[136.82328,35.51242],[136.83443,35.51329],[136.84111,35.51174],[136.85349,35.50456],[136.86036,35.50347],[136.86466,35.50427],[136.87382,35.50848],[136.88286,35.51109],[136.89308,35.51658],[136.8995,35.51836],[136.9126,35.52044],[136.91807,35.52002],[136.9272,35.5179],[136.93764,35.51876],[136.94636,35.51573],[136.96273,35.50744],[136.96771,35.50698],[136.97796,35.50855],[136.98471,35.50684],[136.98794,35.50446],[136.99566,35.4934],[137.01178,35.47978]],[[136.96042,35.50828],[136.94365,35.51685]],[[137.19625,35.05061],[137.19478,35.04756],[137.1949,35.04582],[137.19652,35.04438],[137.19931,35.04376]],[[136.57808,35.29374],[136.57442,35.27895],[136.56918,35.27123],[136.56833,35.2657],[136.56928,35.26148],[136.57119,35.25801],[136.57819,35.25157],[136.57977,35.24906],[136.58051,35.2457],[136.57965,35.24189],[136.57419,35.23228],[136.56835,35.22529],[136.55435,35.21764],[136.52746,35.20666],[136.5215,35.20238],[136.51996,35.19986],[136.51837,35.19417],[136.5176,35.18158],[136.51552,35.17088],[136.51551,35.16426],[136.51209,35.1568],[136.51156,35.15314],[136.51234,35.1479],[136.51439,35.1439],[136.51897,35.13922],[136.52537,35.13021],[136.53392,35.12308],[136.54295,35.11255],[136.54919,35.09998],[136.55484,35.0953],[136.56033,35.08921],[136.56589,35.07873],[136.57792,35.06829],[136.58125,35.0645],[136.58383,35.05745],[136.58435,35.04795],[136.57813,35.04638]],[[136.73462,35.47491],[136.74389,35.47831],[136.75013,35.48243],[136.7654,35.50415],[136.76889,35.50753]],[[136.59456,35.38241],[136.60508,35.38839],[136.60846,35.39199],[136.60977,35.39529],[136.6104,35.40267],[136.61583,35.41038],[136.61691,35.41768],[136.61909,35.42167],[136.62303,35.42488],[136.62734,35.42692],[136.64265,35.42916],[136.64821,35.43197],[136.65118,35.43589],[136.65594,35.45016],[136.66074,35.45536],[136.66434,35.45719],[136.67401,35.46003],[136.69308,35.47226],[136.7089,35.47945],[136.71572,35.47967],[136.72591,35.4753],[136.734,35.47481]],[[136.59031,35.04878],[136.58533,35.04775],[136.58396,35.04836],[136.58389,35.05615],[136.58247,35.06166],[136.58025,35.06571],[136.57567,35.07027]],[[136.58417,35.05197],[136.58532,35.04867],[136.5895,35.04883]],[[136.57911,35.04682],[136.58312,35.04821],[136.584,35.05198]],[[137.19026,35.04459],[137.19341,35.04643],[137.19579,35.0501]],[[136.62707,35.42625],[136.62533,35.4261]],[[136.89024,35.51512],[136.89703,35.51793],[136.9126,35.52044]],[[136.57826,35.30449],[136.57919,35.31396],[136.58197,35.32652]],[[136.68352,35.46569],[136.67368,35.45976],[136.6613,35.4556],[136.65757,35.45241],[136.65514,35.44837]]]}}]}