{"type":"FeatureCollection","features":[{"type":"Feature","properties":{"route_id":"402","route_number":402,"name":"国道402号","source":"OpenStreetMap contributors (ODbL)","osm_relations":[8907070]},"geometry":{"type":"MultiLineString","coordinates":[[[138.55159,37.36038],[138.55086,37.365],[138.54903,37.36826],[138.5533,37.36943],[138.55317,37.37102],[138.55104,37.37332],[138.55978,37.3814],[138.56891,37.38406],[138.58052,37.40776],[138.58214,37.40735],[138.58614,37.40826],[138.58875,37.40961],[138.58971,37.41166],[138.59528,37.41502],[138.59568,37.41725],[138.60373,37.41902],[138.60805,37.42543],[138.61128,37.43213],[138.61222,37.44008],[138.6111,37.44185],[138.60588,37.44423],[138.60528,37.44834],[138.60979,37.45564],[138.61155,37.46098],[138.61797,37.47296],[138.6193,37.48205],[138.62111,37.48345],[138.62751,37.48536],[138.63266,37.48793],[138.63471,37.49484],[138.64168,37.49868],[138.64435,37.5029],[138.64869,37.50578],[138.65053,37.51061],[138.65644,37.51624],[138.65618,37.52052],[138.66177,37.52459],[138.67051,37.53398],[138.67722,37.53803],[138.68227,37.53975],[138.68723,37.54395],[138.69459,37.54655],[138.69951,37.55094],[138.70717,37.554],[138.71332,37.55833],[138.71764,37.56327],[138.7251,37.57439],[138.73301,37.5886],[138.73356,37.59164],[138.74076,37.59862],[138.7446,37.60055],[138.74884,37.60547],[138.75074,37.61175],[138.75276,37.61369],[138.75682,37.62271],[138.75729,37.62531],[138.76202,37.63],[138.76216,37.63348],[138.76104,37.63427],[138.76238,37.63734],[138.7745,37.65175],[138.77663,37.65645],[138.7817,37.66344],[138.78274,37.66602],[138.78083,37.6674],[138.78019,37.6702],[138.78282,37.67327],[138.78555,37.68153],[138.7867,37.6883],[138.78597,37.69233],[138.78722,37.70112],[138.78567,37.70688],[138.78745,37.70852],[138.78807,37.71034],[138.78714,37.71304],[138.78464,37.71556],[138.78571,37.71861],[138.79138,37.72313],[138.79382,37.72631],[138.79377,37.72938],[138.79707,37.74004],[138.79642,37.74255],[138.79956,37.74483],[138.79917,37.74636],[138.80028,37.75131],[138.80385,37.75237],[138.80686,37.75188],[138.81047,37.7527],[138.8142,37.75865],[138.81346,37.76054],[138.81762,37.76608],[138.8149,37.769],[138.81062,37.76854],[138.81198,37.77298],[138.81617,37.77944],[138.81635,37.78703],[138.81841,37.78818],[138.81959,37.79249],[138.82089,37.793],[138.82274,37.79247],[138.82391,37.79436],[138.83221,37.80035],[138.83968,37.80182]],[[138.83971,37.80199],[138.84036,37.8051],[138.83921,37.80931],[138.84106,37.8118],[138.84503,37.81419],[138.84942,37.819],[138.85305,37.8213],[138.87435,37.83977],[138.88939,37.8492],[138.90871,37.8582],[138.91102,37.85954],[138.91406,37.86296],[138.95283,37.88149],[138.99797,37.90558],[139.00925,37.90957],[139.01213,37.90536],[139.0186,37.90954],[139.02055,37.91238],[139.02479,37.91491],[139.0354,37.91728],[139.03286,37.91718]],[[139.0354,37.91728],[139.03736,37.91654],[139.04125,37.92256],[139.04684,37.92159]],[[138.83982,37.80181],[138.83982,37.80181]],[[138.83898,37.80179],[138.83964,37.80192]],[[138.83983,37.80232],[138.83985,37.80197]]]}}]}