{"type":"FeatureCollection","features":[{"type":"Feature","properties":{"route_id":"288","route_number":288,"name":"国道288号","source":"OpenStreetMap contributors (ODbL)","osm_relations":[9095602,10452464,10452465,10452466,10452467,10452468,10452469]},"geometry":{"type":"MultiLineString","coordinates":[[[141.00864,37.44745],[141.00456,37.44699],[141.00259,37.44109],[140.99158,37.43211],[140.98343,37.43105],[140.98021,37.42891],[140.97251,37.42594],[140.9704,37.4257],[140.9681,37.42674],[140.96438,37.4252],[140.96052,37.42612],[140.95262,37.42477],[140.95196,37.42382],[140.95203,37.41865],[140.94989,37.41645],[140.94688,37.41508],[140.93749,37.41376],[140.93091,37.41461],[140.92411,37.41367],[140.91765,37.41515],[140.91292,37.4132],[140.90765,37.41642],[140.89962,37.4172],[140.89864,37.41957],[140.89483,37.41852],[140.89072,37.41894],[140.88633,37.41543],[140.88445,37.41144],[140.87979,37.40941],[140.88,37.40449],[140.87854,37.40291],[140.87609,37.40216],[140.8653,37.40405],[140.85131,37.41009],[140.84243,37.40988],[140.83665,37.41038],[140.83335,37.41178],[140.83101,37.41121],[140.83053,37.4129],[140.82662,37.4146],[140.82205,37.42205],[140.81549,37.4255],[140.81248,37.42806],[140.81044,37.433],[140.80638,37.4317],[140.80348,37.43259],[140.79947,37.43556],[140.79761,37.43805],[140.78735,37.44356],[140.78028,37.44631],[140.77623,37.44599],[140.77246,37.44805],[140.76921,37.45093],[140.76671,37.4517],[140.76269,37.4567],[140.75488,37.45985],[140.75108,37.45932],[140.74758,37.46088],[140.73085,37.4575],[140.72523,37.45864],[140.71506,37.45713],[140.70462,37.45789],[140.70308,37.45701],[140.69599,37.45659],[140.68821,37.45432],[140.68012,37.45322],[140.67719,37.45012],[140.67261,37.45065],[140.67123,37.45001],[140.67017,37.44229],[140.66741,37.43892],[140.66551,37.43481],[140.66418,37.4342],[140.66104,37.43432],[140.65903,37.43713],[140.65274,37.43591],[140.6484,37.43858],[140.63826,37.4386],[140.63337,37.4408],[140.62583,37.44172],[140.62262,37.44046],[140.6177,37.44265],[140.60157,37.44128],[140.60002,37.44171],[140.59264,37.43776],[140.5894,37.43436],[140.57265,37.43912],[140.56627,37.43981],[140.56168,37.44163],[140.55615,37.44022],[140.5519,37.43636],[140.54932,37.43725],[140.54312,37.43756],[140.54106,37.43917],[140.54827,37.43967],[140.55728,37.44339],[140.55849,37.44351],[140.55957,37.44144]],[[140.37925,37.44745],[140.38009,37.43846],[140.38331,37.42543],[140.38623,37.41881],[140.38665,37.41374],[140.38619,37.41873],[140.38336,37.42507],[140.38003,37.43848],[140.37913,37.44751]],[[140.42086,37.4283],[140.42351,37.42957],[140.42645,37.43397],[140.43097,37.43648],[140.43974,37.43525],[140.44911,37.4357],[140.46421,37.44198],[140.47665,37.44008],[140.48146,37.43712],[140.48671,37.43588],[140.49114,37.43343],[140.49356,37.43275],[140.49692,37.43318],[140.50116,37.43659],[140.50267,37.43972],[140.50451,37.44121],[140.51158,37.44407],[140.51475,37.44632],[140.5176,37.44676],[140.52102,37.44613],[140.51704,37.44865],[140.51331,37.44858],[140.51066,37.44665],[140.50658,37.447],[140.50349,37.446],[140.49756,37.44697],[140.49063,37.44216],[140.48918,37.44246],[140.48522,37.44023],[140.47402,37.44105],[140.4737,37.4395],[140.4666,37.43787],[140.46662,37.4353],[140.46489,37.43275],[140.45764,37.42809],[140.45475,37.42425],[140.45082,37.42359],[140.44679,37.42123],[140.44367,37.42246],[140.44261,37.42053],[140.44094,37.42042],[140.43806,37.41856],[140.43571,37.41887],[140.43416,37.4175],[140.4323,37.41722],[140.4293,37.41836],[140.42357,37.42201],[140.41692,37.42304],[140.40535,37.41941],[140.39606,37.41281],[140.38665,37.41374]],[[140.42245,37.42877],[140.41902,37.42813],[140.40562,37.42854],[140.4023,37.42777],[140.39967,37.42614]],[[140.43539,37.43614],[140.43926,37.4353]],[[140.52104,37.44581],[140.53043,37.44628],[140.53641,37.44333],[140.54106,37.43949]],[[140.55849,37.44351],[140.56535,37.44401],[140.57074,37.44838],[140.58085,37.4522],[140.59067,37.44725],[140.59809,37.44664],[140.59943,37.44521],[140.60002,37.44171]]]}}]}