{"type":"FeatureCollection","features":[{"type":"Feature","properties":{"route_id":"51","route_number":51,"name":"国道51号","source":"OpenStreetMap contributors (ODbL)","osm_relations":[2955358,6903690,9349448,9349449,9349450,9349451,9349452]},"geometry":{"type":"MultiLineString","coordinates":[[[140.44803,35.84333],[140.44405,35.84337],[140.4405,35.84245],[140.45076,35.84413],[140.45516,35.84352],[140.45993,35.84626],[140.46641,35.85257],[140.47164,35.86721],[140.47088,35.87025],[140.4712,35.8723],[140.47621,35.88006],[140.48315,35.88722],[140.4848,35.89082],[140.48446,35.8935],[140.48557,35.89901],[140.49034,35.90456],[140.49092,35.91257],[140.48906,35.91519],[140.48406,35.91849],[140.48226,35.92578],[140.48255,35.92817],[140.49473,35.94531],[140.50449,35.95266],[140.50633,35.95765],[140.50981,35.96166],[140.51332,35.96338],[140.51701,35.96257],[140.52675,35.9563],[140.5394,35.9434],[140.54162,35.94249],[140.55423,35.94563],[140.55911,35.94932],[140.57228,35.95186],[140.57844,35.95533],[140.58593,35.95685],[140.59794,35.95489],[140.59945,35.95564],[140.60094,35.95825],[140.61154,35.96585],[140.61728,35.96764],[140.62506,35.97182],[140.63821,35.9817],[140.64023,35.98522],[140.64405,36.00264],[140.64387,36.00539],[140.63963,36.01408],[140.6387,36.01769],[140.63149,36.03083],[140.62677,36.04237],[140.62481,36.04509],[140.6183,36.05923],[140.60424,36.07889],[140.59989,36.08626],[140.59618,36.09894],[140.58819,36.11739],[140.58369,36.12475],[140.58269,36.12985],[140.58294,36.13536],[140.58027,36.1404],[140.5789,36.14588],[140.57612,36.15033],[140.57439,36.15979],[140.57161,36.16499],[140.57076,36.1755],[140.56824,36.17786],[140.55641,36.18236],[140.54889,36.18656],[140.54649,36.18945],[140.54646,36.19157],[140.54983,36.20331],[140.54892,36.2132],[140.54968,36.21602],[140.54986,36.22562],[140.54872,36.24506],[140.54937,36.2513],[140.55025,36.25416],[140.55519,36.2616],[140.55651,36.26505],[140.55616,36.27496],[140.55708,36.28987],[140.55867,36.29776],[140.55355,36.31049],[140.55708,36.32231],[140.55643,36.32969],[140.55474,36.33269],[140.55255,36.33448],[140.52621,36.34557],[140.51076,36.35479],[140.49789,36.36788],[140.49043,36.36597],[140.48456,36.36576],[140.48417,36.36989],[140.48296,36.37145],[140.47986,36.37241],[140.47793,36.37164],[140.47565,36.3721]],[[140.12455,35.61058],[140.12602,35.61093],[140.12894,35.61376],[140.14272,35.61738],[140.15365,35.6173],[140.15524,35.62484],[140.16038,35.63263],[140.14442,35.62262],[140.14193,35.62414]],[[140.33416,35.78821],[140.33088,35.78738],[140.32436,35.78062],[140.31629,35.77403],[140.31056,35.76771],[140.30782,35.76318],[140.3039,35.75973],[140.30146,35.75378],[140.30368,35.7596],[140.30787,35.76336],[140.3108,35.76816],[140.31631,35.77419],[140.32428,35.78068],[140.33097,35.78763],[140.33416,35.78821],[140.33608,35.78968],[140.3388,35.79545],[140.34374,35.79773],[140.34811,35.79773],[140.35413,35.80303],[140.35784,35.80307],[140.36357,35.80046],[140.37406,35.8004],[140.3832,35.80722],[140.38921,35.8133],[140.39795,35.81668],[140.40297,35.81759],[140.40476,35.81914],[140.406,35.82171],[140.40933,35.82339],[140.41407,35.83085],[140.41852,35.83205],[140.42352,35.83486],[140.42867,35.83416],[140.43175,35.83709],[140.4405,35.84245]],[[140.24212,35.68433],[140.24293,35.688],[140.24151,35.68172],[140.23602,35.67687],[140.23405,35.67205],[140.22118,35.66517],[140.21542,35.65859],[140.21116,35.65676],[140.20742,35.65698],[140.20198,35.65596],[140.19896,35.65323],[140.19396,35.65156],[140.18273,35.64563],[140.17583,35.64001],[140.16518,35.63583],[140.16038,35.63263],[140.16471,35.63578],[140.17441,35.63936],[140.17934,35.64233]],[[140.55496,36.26133],[140.55639,36.26485],[140.55606,36.2754],[140.55697,36.28987],[140.55857,36.29776],[140.55343,36.3105],[140.55691,36.32207],[140.55675,36.32846],[140.55497,36.33216],[140.55299,36.3341],[140.53577,36.34188]],[[140.64394,36.00494],[140.64406,36.00173],[140.63979,35.98371],[140.63706,35.98047],[140.62818,35.97393]],[[140.59945,35.95564],[140.61157,35.96408],[140.61455,35.9649]],[[140.14197,35.62491],[140.14479,35.62301],[140.16036,35.6328]],[[140.24293,35.688],[140.24551,35.69339],[140.25055,35.69914],[140.25068,35.70402],[140.25182,35.70714],[140.25578,35.70991],[140.26048,35.71468],[140.26274,35.71883],[140.2678,35.72319],[140.27046,35.73063],[140.27526,35.73871],[140.2777,35.7404],[140.28873,35.74493],[140.29168,35.74805],[140.30002,35.75232],[140.30146,35.75378]],[[140.50391,35.95196],[140.4948,35.94522],[140.48256,35.92792],[140.48406,35.91879],[140.49038,35.91394],[140.49119,35.91174],[140.49094,35.90862],[140.49025,35.90393],[140.48565,35.89895],[140.48458,35.89347],[140.48491,35.89081],[140.48353,35.88767],[140.47721,35.88123]],[[140.26521,35.72097],[140.26794,35.72355],[140.27038,35.73068],[140.2724,35.73353]]]}}]}