{"type":"FeatureCollection","features":[{"type":"Feature","properties":{"route_id":"199","route_number":199,"name":"国道199号","source":"OpenStreetMap contributors (ODbL)","osm_relations":[9483642,9483643,9483644,9483645,9483646]},"geometry":{"type":"MultiLineString","coordinates":[[[130.70035,33.85813],[130.70247,33.85885],[130.70492,33.85857],[130.70684,33.85959],[130.70712,33.86149],[130.70597,33.86535],[130.70653,33.86656],[130.70926,33.8683],[130.71698,33.87077],[130.72403,33.87648],[130.73649,33.89293],[130.74202,33.89271],[130.74106,33.89018],[130.73473,33.88239],[130.73498,33.87708],[130.73186,33.8735],[130.73151,33.87091],[130.73215,33.86989],[130.72613,33.868],[130.72104,33.86525],[130.71137,33.86487],[130.70991,33.86382],[130.70749,33.85978],[130.70467,33.85832],[130.70152,33.85848]],[[130.82642,33.90201],[130.82707,33.89899],[130.83779,33.89757],[130.85592,33.8904],[130.85963,33.89029],[130.86809,33.88652],[130.87073,33.88769],[130.87693,33.88594],[130.87878,33.88461],[130.88832,33.8827],[130.89109,33.883]],[[130.88819,33.88705],[130.8886,33.88622],[130.89192,33.88649],[130.90422,33.89215],[130.91539,33.89381],[130.92186,33.89788],[130.93315,33.9089],[130.93463,33.91214],[130.93806,33.91569],[130.93964,33.91929],[130.93971,33.92243],[130.94185,33.92562],[130.9429,33.93085],[130.94718,33.93767],[130.95806,33.94298],[130.95387,33.94083]],[[130.87309,33.88705],[130.87033,33.88761],[130.86809,33.88642],[130.86425,33.88759],[130.85989,33.89014],[130.85614,33.89028],[130.85402,33.89126]],[[130.88922,33.88644],[130.88709,33.8884],[130.88236,33.88958],[130.87597,33.88904],[130.86972,33.89035],[130.86231,33.89606],[130.85084,33.90106],[130.84579,33.89956],[130.83202,33.90139],[130.82734,33.90046],[130.82417,33.90177],[130.81983,33.90148],[130.81247,33.90445],[130.80907,33.90494],[130.80596,33.90405],[130.80612,33.9018],[130.80357,33.89951],[130.80279,33.89698],[130.79716,33.89161],[130.79274,33.89301],[130.77894,33.89377],[130.77452,33.89178],[130.76871,33.89124],[130.75619,33.88652],[130.75329,33.88727],[130.74431,33.89249],[130.73654,33.8928],[130.73156,33.88709],[130.72519,33.87735],[130.71701,33.87071],[130.70933,33.86823],[130.70632,33.86618],[130.70725,33.8602],[130.70477,33.85835]],[[130.70531,33.85871],[130.70715,33.85958]],[[130.86318,33.89548],[130.86537,33.89551],[130.87123,33.89256],[130.87157,33.88963]],[[130.93213,33.90797],[130.92216,33.89802],[130.91667,33.89425],[130.90431,33.8921],[130.89634,33.88896],[130.89418,33.88715],[130.89038,33.8861],[130.88704,33.88828],[130.88282,33.88936],[130.87607,33.88894],[130.86948,33.89027],[130.86181,33.89595],[130.8511,33.90077],[130.84918,33.90087]],[[130.888,33.88277],[130.89104,33.88309]],[[130.82718,33.8998],[130.82414,33.90159],[130.81874,33.90112]],[[130.8271,33.89915],[130.82719,33.89988]],[[130.74202,33.89271],[130.74471,33.89243],[130.75307,33.88746],[130.7565,33.8866],[130.76862,33.89127],[130.7745,33.89185],[130.77901,33.89383],[130.79293,33.89306],[130.79741,33.89174],[130.80271,33.89699],[130.80354,33.89958],[130.806,33.90184],[130.80581,33.90406],[130.80905,33.90502],[130.81252,33.90452],[130.81984,33.90155],[130.82471,33.90189],[130.82824,33.90066]],[[130.82484,33.90206],[130.82741,33.90184],[130.8272,33.90053]],[[130.95949,33.94399],[130.95806,33.94298]],[[130.82636,33.90021],[130.82651,33.90021]]]}}]}