{"type":"FeatureCollection","features":[{"type":"Feature","properties":{"route_id":"219","route_number":219,"name":"国道219号","source":"OpenStreetMap contributors (ODbL)","osm_relations":[9633189,9633190,9634468,10143200,10143201,10143202]},"geometry":{"type":"MultiLineString","coordinates":[[[130.71307,32.80218],[130.71005,32.79801],[130.70217,32.79464],[130.70311,32.7917],[130.69784,32.78343],[130.69654,32.77682],[130.68998,32.76354],[130.68705,32.75295],[130.68854,32.74498],[130.6888,32.73518],[130.68693,32.73261],[130.68043,32.72945],[130.67905,32.72792],[130.67069,32.68995],[130.6772,32.68909],[130.68067,32.6855],[130.68429,32.67771],[130.68869,32.66351],[130.69109,32.66109],[130.69647,32.65802],[130.69926,32.65347],[130.69949,32.64999],[130.69787,32.64529],[130.69796,32.64327],[130.70544,32.62498],[130.70438,32.61881],[130.70459,32.61253],[130.70557,32.60948],[130.70221,32.60365],[130.70273,32.58878],[130.68878,32.56624],[130.6813,32.5568],[130.67698,32.54595],[130.66996,32.53725],[130.6618,32.52948],[130.6536,32.51378],[130.64944,32.50809],[130.64563,32.50479],[130.6355,32.50162],[130.62393,32.50102],[130.62182,32.49262],[130.62393,32.4912],[130.62814,32.48479],[130.63026,32.47543],[130.63384,32.47236],[130.64138,32.46925],[130.64451,32.46533],[130.65151,32.46021],[130.6586,32.45985],[130.66108,32.45802],[130.65892,32.45606],[130.65291,32.45502],[130.65167,32.4536],[130.65201,32.44854],[130.65497,32.44529],[130.65882,32.44454],[130.65978,32.44295],[130.6589,32.44054],[130.65443,32.43603],[130.65455,32.4318],[130.65226,32.4311],[130.64211,32.43133],[130.6393,32.42902],[130.64002,32.42677],[130.64464,32.4243],[130.64584,32.42205],[130.6458,32.42035],[130.64248,32.41715],[130.64111,32.41396],[130.65022,32.40148],[130.65148,32.39814],[130.65103,32.39398],[130.65163,32.39176],[130.65455,32.38875],[130.6584,32.38703],[130.65232,32.38066],[130.65258,32.37826],[130.65403,32.37595],[130.65363,32.37383],[130.64684,32.37074],[130.64397,32.36815],[130.64283,32.36564],[130.6424,32.36002],[130.63954,32.35641],[130.63217,32.35258],[130.62825,32.35182],[130.61798,32.34708],[130.61013,32.34702],[130.60426,32.34157],[130.60144,32.32793],[130.60815,32.31757],[130.61157,32.31552],[130.61347,32.3122],[130.61124,32.30644],[130.60565,32.30189],[130.60497,32.29978],[130.60073,32.29418],[130.6015,32.29297],[130.60428,32.29244],[130.60538,32.2909],[130.60504,32.2877],[130.60584,32.28357],[130.60486,32.28074],[130.61439,32.27898],[130.61518,32.27793],[130.61486,32.27425],[130.62079,32.2668],[130.62796,32.26097],[130.63308,32.25955],[130.63776,32.25658],[130.64722,32.25382],[130.65073,32.25167],[130.65288,32.25261],[130.65784,32.25128],[130.65969,32.24838],[130.65861,32.24256],[130.65986,32.24243],[130.66382,32.24437],[130.66872,32.24496],[130.68581,32.24498],[130.68971,32.23939],[130.69349,32.2382],[130.70116,32.23302],[130.70705,32.23183],[130.70838,32.22994],[130.72783,32.22737],[130.74261,32.21148],[130.74328,32.20567],[130.74474,32.20402],[130.75527,32.20002],[130.76767,32.19923],[130.77181,32.20033],[130.77595,32.19974],[130.77887,32.19707],[130.78561,32.19631],[130.79253,32.19323],[130.79747,32.19643],[130.80306,32.19485],[130.80879,32.19679],[130.8145,32.19547],[130.82415,32.19588],[130.83699,32.19978],[130.84606,32.20604],[130.85415,32.20884],[130.86827,32.22218],[130.8799,32.22606],[130.89988,32.23873],[130.90727,32.24152],[130.91814,32.25099],[130.94415,32.26733],[130.95544,32.27087],[130.97717,32.28336],[130.99535,32.27697],[131.01906,32.27266],[131.02533,32.26961],[131.02863,32.27113],[131.03323,32.27115],[131.03515,32.2749],[131.03707,32.27328],[131.03931,32.27304],[131.04244,32.27324],[131.04624,32.27499],[131.0466,32.27416],[131.04275,32.26921],[131.0448,32.26702],[131.04811,32.26581],[131.06128,32.26361],[131.06416,32.26172],[131.07024,32.26013],[131.07172,32.26044],[131.07268,32.25928],[131.07528,32.25845],[131.07705,32.25889],[131.08377,32.2549],[131.09676,32.25111],[131.09843,32.24952],[131.10133,32.24843],[131.10234,32.24666],[131.10572,32.24625],[131.11179,32.23997],[131.11699,32.23635],[131.12057,32.23718],[131.12263,32.23652],[131.12632,32.23698],[131.12928,32.23555],[131.13505,32.23665],[131.13932,32.23407],[131.14214,32.23375],[131.14389,32.23061],[131.14578,32.23052],[131.14947,32.22788],[131.15174,32.22828],[131.15342,32.22575],[131.15621,32.22621],[131.15912,32.22914],[131.16153,32.22887],[131.1641,32.2265],[131.16617,32.22097],[131.16791,32.22058],[131.17229,32.2214],[131.17418,32.21882],[131.17915,32.21945],[131.1809,32.21811],[131.18084,32.21555],[131.18234,32.21333],[131.18842,32.21216],[131.19025,32.21099],[131.19466,32.20453],[131.19383,32.19886],[131.19492,32.19587],[131.19787,32.19611],[131.2128,32.18822],[131.21643,32.18837],[131.22152,32.18726],[131.22528,32.18817],[131.22855,32.18551],[131.23223,32.18485],[131.23279,32.18594],[131.23398,32.18571],[131.23512,32.18699],[131.23521,32.18942],[131.23677,32.19024],[131.23847,32.18934],[131.24075,32.1903],[131.23833,32.1935],[131.23861,32.19563],[131.24457,32.19861],[131.24609,32.20153],[131.25263,32.20486],[131.25278,32.2062],[131.25457,32.20569],[131.25778,32.20706],[131.26414,32.21769],[131.26743,32.2203],[131.2687,32.22048],[131.26916,32.22242],[131.27068,32.2232],[131.27129,32.22548],[131.27689,32.22532],[131.27879,32.22608],[131.27765,32.22463],[131.28149,32.22446],[131.28326,32.2219],[131.28659,32.22136],[131.2876,32.22008],[131.29132,32.21866],[131.29216,32.21448],[131.29764,32.20942],[131.30396,32.20903],[131.30623,32.20579],[131.30834,32.20639],[131.30733,32.20813],[131.30684,32.2118],[131.30829,32.21311],[131.31401,32.21477],[131.31681,32.21447],[131.3186,32.21267],[131.31892,32.21118],[131.31805,32.20828],[131.32293,32.19799],[131.32516,32.19734],[131.32784,32.19877],[131.3308,32.19803],[131.33134,32.19499],[131.33447,32.19212],[131.33763,32.18513],[131.33952,32.18476],[131.34333,32.18594],[131.34742,32.18333],[131.34707,32.17634],[131.34824,32.17269],[131.34989,32.17227],[131.35467,32.17397],[131.36011,32.1736],[131.36095,32.17266],[131.36152,32.16807],[131.36464,32.16721],[131.36572,32.16605],[131.36619,32.16472],[131.36544,32.16345],[131.3615,32.16133],[131.35468,32.16303],[131.35307,32.15913],[131.3534,32.15807],[131.36053,32.15715],[131.36248,32.1558],[131.36402,32.15258],[131.36956,32.15163],[131.37278,32.14994],[131.37217,32.14768],[131.37347,32.14582],[131.37923,32.14309],[131.38702,32.13491],[131.39292,32.13216],[131.40631,32.11599],[131.40961,32.10746],[131.40895,32.09654],[131.40642,32.09197],[131.41099,32.07176],[131.41654,32.0638],[131.41457,32.05729],[131.41951,32.05075],[131.4184,32.04387],[131.42006,32.0348],[131.424,32.02788],[131.43151,32.02268],[131.43445,32.02188],[131.44159,32.01774],[131.44469,32.01273],[131.44333,32.00523],[131.43968,31.99623],[131.43989,31.97912],[131.44051,31.97694],[131.43997,31.97399]],[[131.29966,32.20884],[131.30288,32.2085],[131.30499,32.20714]],[[130.79027,32.19456],[130.79259,32.19337],[130.79476,32.19477]],[[130.69926,32.63996],[130.6979,32.64432],[130.6997,32.65103],[130.69839,32.65572],[130.69603,32.65852],[130.69071,32.66146],[130.68866,32.66378],[130.6844,32.67773],[130.68054,32.68583],[130.67739,32.68911],[130.67069,32.68995],[130.67069,32.69047],[130.67879,32.72762],[130.68035,32.72952],[130.68701,32.73277],[130.6887,32.73517],[130.68842,32.74496],[130.68692,32.75293],[130.68964,32.76287],[130.69651,32.77701],[130.69784,32.78365],[130.70303,32.79172],[130.70205,32.79469],[130.71006,32.79812],[130.71296,32.80221]],[[131.43071,32.02326],[131.45325,32.01766],[131.46085,32.01295],[131.46485,32.01215]],[[130.6529,32.51275],[130.64942,32.50793],[130.6454,32.50459],[130.63502,32.50143],[130.63008,32.50168],[130.62684,32.50076],[130.62426,32.50141]]]}}]}