{"type":"FeatureCollection","features":[{"type":"Feature","properties":{"route_id":"359","route_number":359,"name":"国道359号","source":"OpenStreetMap contributors (ODbL)","osm_relations":[8250033,15466321,15466322,15466323,15466324,15466327,15466328]},"geometry":{"type":"MultiLineString","coordinates":[[[136.71263,36.6053],[136.70661,36.60852],[136.69986,36.60952],[136.70135,36.60722],[136.70529,36.60433],[136.71349,36.60519],[136.71881,36.60359],[136.72175,36.6036],[136.72921,36.60019],[136.73529,36.60354],[136.7441,36.60481],[136.74937,36.61197],[136.75757,36.61575],[136.76743,36.61732],[136.77009,36.61926],[136.7733,36.62033],[136.77782,36.62043],[136.78064,36.61962],[136.78375,36.62208],[136.7871,36.62224],[136.78885,36.62436],[136.7951,36.62474],[136.80726,36.62876],[136.81176,36.62973],[136.81656,36.62962],[136.81832,36.63102],[136.82526,36.63189],[136.83472,36.63269],[136.8698,36.63141],[136.88399,36.62706],[136.8889,36.62674],[136.8933,36.62762],[136.90841,36.62553],[136.93436,36.61863],[136.93821,36.62001],[136.947,36.62696],[136.95781,36.62764],[136.95641,36.63091],[136.9588,36.63926],[136.9563,36.63101],[136.95768,36.62765],[136.95487,36.62703]],[[136.69986,36.60952],[136.69128,36.61298],[136.68861,36.61074],[136.68154,36.60102],[136.67613,36.58853],[136.6703,36.57907],[136.66389,36.57098],[136.65585,36.57208]],[[136.997,36.62993],[137.00564,36.62808],[136.997,36.62993],[136.98809,36.63],[136.99027,36.63688],[137.00017,36.63899],[137.0229,36.63499],[137.02866,36.63769],[137.03344,36.6369],[137.04123,36.63738],[137.04565,36.63858],[137.06447,36.63186],[137.06727,36.62919],[137.07028,36.62836],[137.07386,36.62871],[137.08182,36.6344],[137.09309,36.63676],[137.10587,36.64254],[137.11332,36.64817],[137.12094,36.65154],[137.12473,36.65673],[137.12611,36.65757],[137.13122,36.65698],[137.1633,36.65902],[137.17021,36.66037],[137.18284,36.66701],[137.21017,36.6668]],[[136.99027,36.63688],[136.98339,36.63573],[136.97258,36.63704],[136.96469,36.63698],[136.95889,36.63923]],[[137.00564,36.62808],[137.01474,36.62722],[137.01722,36.62985],[137.02067,36.63115],[137.02258,36.63573],[137.02396,36.63694],[137.02523,36.63767],[137.02692,36.63686]],[[137.21017,36.66671],[137.18286,36.66695],[137.17134,36.66074],[137.16566,36.65937],[137.15472,36.65805],[137.14924,36.65836],[137.12991,36.65695]]]}}]}