{"type":"FeatureCollection","features":[{"type":"Feature","properties":{"route_id":"244","route_number":244,"name":"国道244号","source":"OpenStreetMap contributors (ODbL)","osm_relations":[6645422]},"geometry":{"type":"MultiLineString","coordinates":[[[144.2681,44.01972],[144.27867,44.02078],[144.28387,44.01865],[144.28396,44.0175],[144.28068,44.01477],[144.27988,44.01126],[144.28097,44.00942],[144.28588,44.00635],[144.28691,44.00343],[144.28945,44.00182],[144.2924,43.99693],[144.29741,43.99226],[144.29494,43.98761],[144.29645,43.98363],[144.29972,43.98036],[144.3139,43.97343],[144.31658,43.97145],[144.31792,43.96889],[144.32477,43.96626],[144.33396,43.96463],[144.34759,43.95991],[144.35485,43.95734],[144.35862,43.9548],[144.37284,43.95181],[144.41238,43.94114],[144.43242,43.93739],[144.44466,43.93404],[144.45371,43.93328],[144.45583,43.93086],[144.45749,43.91257],[144.45845,43.91158],[144.52707,43.91471],[144.52967,43.91401],[144.53406,43.91058],[144.54249,43.90993],[144.56621,43.90141],[144.57227,43.89685],[144.68079,43.9016],[144.70318,43.88762],[144.73617,43.88874],[144.74076,43.88151],[144.75181,43.86729],[144.76758,43.85518],[144.77151,43.85034],[144.78927,43.84024],[144.78934,43.83806],[144.791,43.83548],[144.78861,43.83021],[144.79118,43.82453],[144.79164,43.82054],[144.79084,43.81692],[144.79633,43.80995],[144.79733,43.80054],[144.79538,43.79561],[144.79567,43.79196],[144.79809,43.78708],[144.79671,43.78391],[144.79722,43.78059],[144.79318,43.77696],[144.79295,43.77591],[144.79532,43.77567],[144.79524,43.77358],[144.79892,43.771],[144.79778,43.76922],[144.79498,43.76836],[144.79427,43.76643],[144.79218,43.76526],[144.79243,43.76465],[144.8041,43.7606],[144.80632,43.75791],[144.81749,43.75455],[144.81941,43.7549],[144.82258,43.75829],[144.8309,43.75878],[144.84571,43.75141],[144.84987,43.75043],[144.87634,43.75164],[144.90414,43.74975],[144.90712,43.74812],[144.91485,43.73953],[144.92021,43.73711],[144.92846,43.7348],[144.94283,43.7342],[144.96011,43.73177],[144.97116,43.72542],[144.98691,43.7225],[144.99773,43.72153],[145.11184,43.69413],[145.12047,43.68206],[145.12724,43.66889],[145.12481,43.67413]],[[145.12724,43.66889],[145.13209,43.66221],[145.13311,43.6601],[145.13373,43.65501],[145.13695,43.65057],[145.14714,43.64446],[145.16196,43.63912],[145.17112,43.63113],[145.17817,43.62771],[145.18076,43.62242],[145.17903,43.6152],[145.1796,43.61368],[145.18269,43.6113],[145.18606,43.61032],[145.18816,43.60733],[145.19185,43.60474],[145.19455,43.59981],[145.20924,43.58931],[145.2119,43.5862],[145.21226,43.58371],[145.21122,43.58049],[145.21378,43.57699],[145.21664,43.5753],[145.21815,43.57305],[145.22002,43.56802],[145.22191,43.55735],[145.23354,43.54026],[145.23491,43.53609],[145.2386,43.52938],[145.23798,43.52532],[145.23845,43.52272],[145.24233,43.52011],[145.24401,43.51599],[145.24535,43.50923],[145.24504,43.50679],[145.24813,43.49287],[145.24837,43.4845],[145.25198,43.48111],[145.25612,43.4718],[145.26152,43.44765],[145.26198,43.43733],[145.26952,43.41643],[145.28096,43.39512],[145.28765,43.38615],[145.27987,43.36691],[145.26936,43.35978],[145.26362,43.35883],[145.24792,43.36048],[145.2431,43.36313],[145.2364,43.36548],[145.23187,43.36639],[145.22239,43.36623],[145.21978,43.36472],[145.21929,43.36153],[145.21554,43.35222],[145.21474,43.34302],[145.21491,43.32929],[145.21568,43.3252],[145.21328,43.3186],[145.21335,43.30453],[145.22491,43.28433],[145.22532,43.27978],[145.22984,43.27624],[145.23639,43.27367],[145.24073,43.26419],[145.2454,43.2582],[145.24843,43.25048],[145.25164,43.2461],[145.24961,43.23393],[145.25172,43.22963]],[[144.32477,43.96626],[144.31782,43.96884],[144.31653,43.97136],[144.31381,43.97338],[144.29966,43.9803],[144.2968,43.98298],[144.29482,43.98754],[144.29734,43.99139],[144.29716,43.99245],[144.29233,43.99683],[144.28949,44.00161],[144.28682,44.00338],[144.28567,44.00643],[144.28085,44.00937],[144.27976,44.01123],[144.28066,44.01498],[144.284,44.01779],[144.28356,44.01879],[144.28201,44.01907]]]}}]}