{"type":"FeatureCollection","features":[{"type":"Feature","properties":{"route_id":"343","route_number":343,"name":"国道343号","source":"OpenStreetMap contributors (ODbL)","osm_relations":[572350,11129413,11129414,11129415,11129425,11129426,11129427]},"geometry":{"type":"MultiLineString","coordinates":[[[141.15011,39.13317],[141.16307,39.12507],[141.16464,39.12198],[141.16525,39.11852],[141.16811,39.11492],[141.16997,39.09679],[141.17259,39.09509],[141.19042,39.09353],[141.19402,39.09099],[141.19218,39.0883],[141.19847,39.08735],[141.20476,39.08434],[141.20781,39.08156],[141.20798,39.07788],[141.21576,39.07261],[141.21875,39.07222],[141.22232,39.07006],[141.22185,39.0676],[141.2248,39.06493],[141.22356,39.0621],[141.22707,39.05875],[141.22658,39.0552],[141.22746,39.05294],[141.23738,39.04261],[141.24232,39.04275],[141.2437,39.04105],[141.25049,39.03658],[141.25829,39.0348],[141.26366,39.03176],[141.28333,39.03047],[141.2984,39.0334],[141.30246,39.03201],[141.30447,39.02974],[141.31362,39.02841],[141.31968,39.02622],[141.32154,39.02402],[141.32506,39.02255],[141.32748,39.01967],[141.33766,39.01805],[141.34618,39.01563],[141.35229,39.01564],[141.35853,39.01674],[141.36501,39.01489],[141.37078,39.0155],[141.37575,39.01333],[141.39222,39.01241],[141.40129,39.01444],[141.40948,39.01286],[141.42012,39.01523],[141.42488,39.01456],[141.42625,39.0161],[141.42681,39.01478],[141.42924,39.01395],[141.4304,39.01524],[141.43229,39.01406],[141.43488,39.01555],[141.44111,39.01319],[141.44547,39.01492],[141.45005,39.01495],[141.45147,39.0157],[141.4525,39.01463],[141.45446,39.01502],[141.46773,39.01361],[141.47052,39.0119],[141.47166,39.013],[141.4713,39.01519],[141.47216,39.01579],[141.47297,39.01539],[141.47456,39.01141],[141.47413,39.01068],[141.47285,39.01085],[141.47301,39.01198],[141.47492,39.01198],[141.47916,39.00963],[141.48263,39.00913],[141.4851,39.01156],[141.4836,39.01423],[141.48518,39.01438],[141.48645,39.01186],[141.48458,39.00961],[141.48552,39.00869],[141.48982,39.00939],[141.49473,39.01347],[141.49745,39.01435],[141.49692,39.01629],[141.49823,39.02045],[141.50336,39.02649],[141.51379,39.02716],[141.52007,39.03202],[141.53006,39.03035],[141.53264,39.02658],[141.53647,39.02356],[141.53919,39.02361],[141.54854,39.02138],[141.55483,39.02105],[141.55582,39.02157],[141.5561,39.02372],[141.55719,39.02415],[141.56256,39.02439],[141.56589,39.02372],[141.56938,39.02454],[141.57434,39.02235],[141.57889,39.02497],[141.58427,39.02535],[141.59468,39.02912],[141.59776,39.03234],[141.6003,39.03311],[141.60276,39.03534],[141.60556,39.03417],[141.61321,39.0334],[141.61704,39.03172],[141.62272,39.03135],[141.62561,39.02921],[141.62589,39.02666],[141.62423,39.02393],[141.62206,39.02145],[141.61626,39.01744],[141.61647,39.00854],[141.61786,39.00442],[141.61901,39.00341]]]}}]}