{"type":"FeatureCollection","features":[{"type":"Feature","properties":{"route_id":"392","route_number":392,"name":"国道392号","source":"OpenStreetMap contributors (ODbL)","osm_relations":[6653406]},"geometry":{"type":"MultiLineString","coordinates":[[[143.60524,43.11726],[143.61017,43.11401],[143.61113,43.11257],[143.60739,43.1075],[143.60481,43.10563],[143.60492,43.1042],[143.60676,43.10354],[143.64898,43.11372],[143.65597,43.11794],[143.66963,43.12399],[143.67783,43.1267],[143.68486,43.1313],[143.68991,43.13659],[143.69565,43.13995],[143.69806,43.14233],[143.70347,43.1445],[143.7096,43.14572],[143.71313,43.14785],[143.71936,43.14757],[143.72519,43.14539],[143.72926,43.14699],[143.73171,43.14651],[143.73578,43.14788],[143.74462,43.14817],[143.75013,43.15036],[143.75982,43.14837],[143.76386,43.14844],[143.76445,43.1475],[143.76342,43.14498],[143.76553,43.14262],[143.76711,43.1423],[143.77538,43.14678],[143.7802,43.15181],[143.78835,43.15516],[143.79082,43.15885],[143.79547,43.16246],[143.80115,43.16485],[143.80394,43.16397],[143.80555,43.16446],[143.80936,43.16831],[143.80964,43.17012],[143.81238,43.17194],[143.81872,43.17117],[143.82478,43.17169],[143.82758,43.17419],[143.83593,43.17738],[143.83777,43.17901],[143.84097,43.1793],[143.84743,43.18195],[143.84939,43.18181],[143.85373,43.17808],[143.86027,43.18011],[143.86499,43.17886],[143.86936,43.17951],[143.87905,43.17423],[143.89003,43.16654],[143.89034,43.1641],[143.89173,43.16166],[143.8883,43.15676],[143.88565,43.15527],[143.88783,43.15234],[143.88517,43.1491],[143.88697,43.14676],[143.88732,43.14458],[143.88433,43.14133],[143.87972,43.13203],[143.8829,43.12868],[143.88652,43.12789],[143.88963,43.1244],[143.89395,43.12256],[143.89634,43.11601],[143.89461,43.11371],[143.89458,43.11246],[143.89938,43.10513],[143.90165,43.10345],[143.90598,43.09535],[143.91092,43.09429],[143.91531,43.09159],[143.91835,43.0914],[143.92072,43.08962],[143.94119,43.08261],[143.94707,43.0754],[143.94883,43.07582],[143.94923,43.07758],[143.95159,43.07843],[143.95298,43.08073],[143.9567,43.08197],[143.95961,43.08139],[143.96029,43.08083],[143.96047,43.07823],[143.96418,43.07637],[143.96742,43.07603],[143.97183,43.07203],[143.97291,43.06622],[143.9745,43.06402],[143.97752,43.0623],[143.985,43.0612],[143.98863,43.05982],[143.99972,43.06258],[144.00553,43.06104],[144.00861,43.05876],[144.00544,43.05303],[144.00316,43.05051],[144.00493,43.04306],[144.00608,43.04134],[144.01143,43.0402],[144.02146,43.03388],[144.02029,43.02828],[144.02318,43.0214],[144.02935,43.01231],[144.03009,43.00751],[144.02941,43.0015],[144.03068,42.99866],[144.06046,42.98987],[144.07383,42.95888],[144.07346,42.95457],[144.08288,42.95434],[144.08977,42.95315],[144.0951,42.95646],[144.10608,42.95939],[144.11278,42.9626],[144.11803,42.96709],[144.12831,42.97309],[144.13453,42.97957],[144.13677,42.98078],[144.14702,42.98283],[144.16603,42.9845],[144.20096,42.99381],[144.25201,43.00297],[144.25421,43.00442],[144.25604,43.00924],[144.25908,43.00956],[144.26559,43.01191]],[[144.25746,43.00928],[144.25291,43.00315],[144.23286,42.99965]],[[144.26453,43.01163],[144.26557,43.01202]]]}}]}