{"type":"FeatureCollection","features":[{"type":"Feature","properties":{"route_id":"289","route_number":289,"name":"国道289号","source":"OpenStreetMap contributors (ODbL)","osm_relations":[6334848,10459233,10459234,10459235,10459236,10459237,10459238]},"geometry":{"type":"MultiLineString","coordinates":[[[140.75145,36.90596],[140.76055,36.89956],[140.76747,36.89939],[140.78811,36.89407],[140.76744,36.89929],[140.76007,36.89965],[140.744,36.91039],[140.73181,36.90916],[140.72699,36.90747],[140.72437,36.9056],[140.72268,36.90565],[140.71644,36.91783],[140.71102,36.91973],[140.70506,36.92044],[140.6954,36.92658],[140.69303,36.92953],[140.68849,36.93199],[140.68349,36.93401],[140.66864,36.93793],[140.65561,36.94457],[140.64427,36.94464],[140.63899,36.94657],[140.63291,36.94561],[140.62925,36.94634],[140.62403,36.95657],[140.62451,36.96064],[140.61726,36.96528],[140.61486,36.96796],[140.61227,36.97384],[140.61037,36.97509],[140.60878,36.97498],[140.60749,36.97347],[140.60817,36.96058],[140.60723,36.95869],[140.60515,36.95751],[140.59773,36.96079],[140.59575,36.95972],[140.59337,36.95571],[140.58979,36.95334],[140.58146,36.95129],[140.578,36.95308],[140.57417,36.95356],[140.57022,36.95585],[140.56857,36.95813],[140.56587,36.9576],[140.56507,36.95602],[140.56243,36.95523],[140.55988,36.95587],[140.55706,36.95517],[140.55367,36.9564],[140.55022,36.95647],[140.54824,36.95728],[140.54909,36.95974],[140.54574,36.96267],[140.54459,36.96517],[140.5422,36.96694],[140.54214,36.97087],[140.54138,36.97254],[140.54632,36.97644],[140.54553,36.98047],[140.54191,36.98177],[140.54163,36.98506],[140.53894,36.98758],[140.53186,36.98892],[140.52726,36.99124],[140.52205,36.99175],[140.51854,36.99033],[140.51271,36.99365],[140.50525,36.99118],[140.49954,36.99111],[140.49686,36.9878],[140.48556,36.98764],[140.48142,36.98223],[140.47577,36.98355],[140.47368,36.98247],[140.4702,36.98264],[140.46337,36.98114],[140.4562,36.97805],[140.4556,36.97668],[140.45209,36.97625],[140.44916,36.97291],[140.44635,36.97196],[140.44517,36.96919],[140.44404,36.96839],[140.43338,36.96682],[140.43126,36.97312],[140.42805,36.97611],[140.41929,36.9799],[140.41606,36.98318],[140.41177,36.98378],[140.40942,36.99106],[140.40714,36.99352],[140.40455,36.99378],[140.40281,36.99491],[140.39914,36.99377],[140.39622,36.99569],[140.38874,36.99691],[140.3863,36.99852],[140.38397,37.01615],[140.38102,37.01988],[140.37939,37.02343],[140.37516,37.02566],[140.37166,37.03611],[140.37231,37.04136],[140.3752,37.04325],[140.37387,37.04916],[140.37448,37.05604],[140.36688,37.05635],[140.35958,37.05303],[140.33478,37.05737],[140.32238,37.05508],[140.32011,37.05382],[140.2979,37.05586],[140.29241,37.05802],[140.28317,37.07446],[140.26401,37.08854],[140.22144,37.10575],[140.21494,37.10725],[140.19641,37.11668],[140.19456,37.12106],[140.19892,37.1289],[140.19114,37.13101],[140.17619,37.13044],[140.15505,37.13922],[140.14551,37.14195],[140.13503,37.14608],[140.12766,37.15089],[140.11952,37.15251],[140.11516,37.15047],[140.11018,37.15379],[140.10365,37.15355],[140.09339,37.15804],[140.08622,37.16381],[140.07249,37.16713],[140.06706,37.16702],[140.06121,37.16803],[140.05556,37.17213],[140.05215,37.1723],[140.0446,37.17496],[140.03465,37.17661],[140.00739,37.17384],[140.00036,37.17722],[139.99399,37.17773],[139.9511,37.19943],[139.94542,37.20512],[139.9381,37.20862],[139.93344,37.20779],[139.93008,37.20244],[139.92715,37.20107],[139.91902,37.20217],[139.91711,37.20411],[139.91609,37.20713],[139.91421,37.20809],[139.91197,37.20782],[139.90886,37.20524],[139.9065,37.20526],[139.90512,37.20625],[139.90476,37.20789],[139.90823,37.21169],[139.90843,37.21366],[139.907,37.2152],[139.89605,37.22131],[139.89686,37.22658],[139.89511,37.23671],[139.89002,37.24148],[139.8845,37.2422],[139.87884,37.24736],[139.87702,37.25071],[139.87085,37.25397],[139.86843,37.25624],[139.86236,37.2517],[139.85904,37.25112],[139.85403,37.24663],[139.84946,37.24428],[139.84432,37.2382],[139.83896,37.2355],[139.83693,37.23355],[139.83421,37.22838],[139.83071,37.22508],[139.82544,37.22265],[139.82011,37.22323],[139.80728,37.21997],[139.79614,37.21527],[139.79332,37.21292],[139.7901,37.21235],[139.78059,37.20138],[139.77027,37.2013],[139.76522,37.20322],[139.75523,37.20206],[139.74375,37.20513],[139.73324,37.20372],[139.72163,37.20347],[139.70314,37.19949],[139.69638,37.19913],[139.69234,37.19986],[139.68981,37.19799],[139.68036,37.19602],[139.67323,37.19173],[139.66734,37.1923],[139.66517,37.19134],[139.66164,37.19174],[139.6609,37.19101],[139.66156,37.18842],[139.66109,37.18741],[139.65398,37.18475],[139.64881,37.18181],[139.64304,37.18389],[139.63451,37.18536],[139.63053,37.18395],[139.62333,37.18372],[139.60024,37.19381],[139.59749,37.19237],[139.59355,37.19399],[139.59068,37.19414],[139.58969,37.19329],[139.58886,37.19014],[139.58781,37.18988],[139.58534,37.19983],[139.57604,37.20144],[139.55715,37.20895],[139.55207,37.21459],[139.5483,37.21664],[139.54592,37.21932],[139.54243,37.2215],[139.53878,37.2225],[139.54404,37.22741],[139.54656,37.23218],[139.54819,37.23745],[139.5484,37.24164],[139.5436,37.24816],[139.54137,37.2576],[139.53932,37.26033],[139.53947,37.26534],[139.5329,37.27388],[139.52132,37.27804],[139.51496,37.28295],[139.51213,37.28355],[139.50946,37.28538],[139.50388,37.28574],[139.49979,37.28867],[139.4953,37.29],[139.49305,37.29041],[139.48672,37.28904],[139.48198,37.29079],[139.46589,37.29769],[139.45719,37.30767],[139.45424,37.30804],[139.45055,37.3106],[139.44748,37.30955],[139.44304,37.31192],[139.41796,37.30849],[139.40677,37.31037],[139.39885,37.30976],[139.38927,37.30558],[139.37155,37.30199],[139.36732,37.30384],[139.36516,37.30577],[139.34771,37.31071],[139.34624,37.31177],[139.34376,37.31619],[139.33918,37.32029],[139.33477,37.32573],[139.32674,37.33062],[139.32457,37.33313],[139.32135,37.33982],[139.32043,37.34468],[139.31864,37.34756],[139.31655,37.34888],[139.3214,37.35405],[139.32189,37.35609],[139.32039,37.36799],[139.31611,37.37072],[139.30535,37.3685],[139.30119,37.36264],[139.29848,37.36141],[139.28743,37.35942],[139.28527,37.36225],[139.2823,37.36431],[139.28164,37.36758],[139.27983,37.37052],[139.27465,37.37532],[139.27254,37.38182],[139.27324,37.38338],[139.2731,37.38793],[139.2709,37.38806],[139.26842,37.39009],[139.26732,37.39505],[139.26498,37.3956],[139.26202,37.39386],[139.25934,37.39505],[139.25941,37.39749],[139.25411,37.39787],[139.25236,37.39926],[139.25131,37.39799],[139.25093,37.39881],[139.24979,37.39875],[139.24717,37.39513],[139.24421,37.39491],[139.24088,37.39562],[139.23639,37.39479],[139.23595,37.39595],[139.23384,37.39538],[139.23313,37.39614],[139.23328,37.39757],[139.23105,37.39856],[139.22942,37.3969],[139.22905,37.39491],[139.22668,37.39482],[139.22349,37.39711],[139.21916,37.39838],[139.21739,37.39712],[139.21721,37.39412],[139.21447,37.39364],[139.20988,37.39651],[139.20658,37.39667],[139.20585,37.39785],[139.20366,37.39849],[139.20244,37.39788],[139.20269,37.40192],[139.20037,37.40559],[139.19865,37.40687],[139.19488,37.40737],[139.18883,37.40548],[139.18807,37.40932],[139.18456,37.41012],[139.18193,37.41199],[139.17493,37.41355],[139.17224,37.41295],[139.1714,37.41365],[139.17259,37.41359],[139.17124,37.41448],[139.17142,37.41718],[139.16965,37.41945],[139.17233,37.42289],[139.17629,37.42319],[139.17738,37.42256],[139.18231,37.42383],[139.18337,37.4229],[139.1858,37.42376],[139.18497,37.42676],[139.18618,37.42749],[139.18828,37.42674],[139.18727,37.4284],[139.18778,37.42897],[139.1826,37.43211],[139.18236,37.43495],[139.18129,37.43517],[139.17887,37.4378],[139.17913,37.43974],[139.18001,37.43984],[139.1789,37.43983],[139.17794,37.43739],[139.17711,37.43944],[139.17818,37.44134],[139.18119,37.44382],[139.18296,37.44743],[139.18572,37.44896],[139.19032,37.44944],[139.19141,37.45281],[139.19219,37.45246],[139.19188,37.45447],[139.18954,37.45828],[139.18574,37.46202],[139.18207,37.46399],[139.17953,37.46644],[139.17678,37.46697],[139.17456,37.47266],[139.17559,37.47566],[139.17535,37.47799],[139.1716,37.48244],[139.16446,37.48513],[139.16084,37.4853],[139.15563,37.48419],[139.1522,37.48584],[139.15296,37.49088],[139.15205,37.49827],[139.15646,37.50023],[139.15778,37.50573],[139.15196,37.51563],[139.14937,37.51863],[139.13712,37.5244],[139.13458,37.5337],[139.13052,37.53451],[139.127,37.53803],[139.1156,37.54002],[139.10838,37.54261],[139.10181,37.54304],[139.09759,37.54226],[139.09522,37.54376],[139.08996,37.54524],[139.08043,37.54477],[139.07388,37.54944],[139.06458,37.55065],[139.04986,37.5558],[139.04413,37.55912],[139.03872,37.56318],[139.02929,37.57675],[139.02425,37.58161],[139.0014,37.59829],[139.00065,37.59952],[139.00064,37.60405],[138.99517,37.61114],[138.99046,37.62278],[138.98105,37.62855],[138.98023,37.62813],[138.97766,37.63138],[138.9772,37.6343],[138.97412,37.63558],[138.96927,37.63579],[138.965,37.63821],[138.9536,37.64134],[138.94398,37.6478],[138.93768,37.65402],[138.9332,37.6514],[138.93001,37.65397],[138.92962,37.65516],[138.92712,37.65475],[138.92496,37.65959],[138.91906,37.66477],[138.9159,37.67014],[138.89882,37.67655],[138.88389,37.68076],[138.88045,37.68254],[138.88604,37.69103],[138.88482,37.70485],[138.88829,37.71274],[138.89436,37.7235],[138.89379,37.7363],[138.89819,37.74034],[138.89919,37.74251],[138.90124,37.7538],[138.90212,37.77177],[138.90443,37.77451],[138.92132,37.78615],[138.92327,37.78849],[138.92374,37.7903],[138.92238,37.80659],[138.92446,37.81923],[138.92874,37.83238],[138.93216,37.83802],[138.93697,37.84455],[138.93886,37.84596],[138.95435,37.84903],[138.98025,37.86301],[138.99332,37.86682],[139.00456,37.86864],[139.00736,37.8716],[139.01284,37.87481],[139.01416,37.878],[139.01334,37.8801],[139.0153,37.87694],[139.01622,37.87718],[139.0154,37.87727],[139.00719,37.87044],[139.00659,37.86738],[139.0033,37.86816],[138.99488,37.86704],[138.98084,37.86311],[138.97528,37.86077],[138.95441,37.84896],[138.93945,37.84617]],[[138.93863,37.66957],[138.93883,37.66428],[138.93616,37.65977],[138.93654,37.65584],[138.93882,37.65256],[138.94384,37.64803],[138.95376,37.64127]],[[138.92964,37.65509],[138.92712,37.65475]],[[139.01259,37.88149],[139.01913,37.88447],[139.01259,37.88149],[139.01334,37.8801]],[[139.01871,37.90962],[139.02638,37.90301],[139.02139,37.89798],[139.02624,37.90296],[139.01876,37.90948],[139.02034,37.91219],[139.02479,37.91491],[139.02914,37.91625],[139.03457,37.91749],[139.03736,37.91654],[139.04125,37.92256],[139.04684,37.92159]],[[139.01913,37.88447],[139.01851,37.89093],[139.02139,37.89798]],[[139.7595,37.20513],[139.77645,37.20498]],[[139.78393,37.20502],[139.77808,37.20502]],[[138.93625,37.65667],[138.93778,37.65406]],[[139.0354,37.91728],[139.03286,37.91718]],[[139.78326,37.20515],[139.76487,37.20482]],[[138.93312,37.65147],[138.93771,37.65415]]]}}]}