{"type":"FeatureCollection","features":[{"type":"Feature","properties":{"route_id":"284","route_number":284,"name":"国道284号","source":"OpenStreetMap contributors (ODbL)","osm_relations":[947961,10427575,10427576,10427577,10427578,10427579,10427580]},"geometry":{"type":"MultiLineString","coordinates":[[[141.13362,38.92291],[141.13688,38.92211],[141.13944,38.92013],[141.14107,38.91793],[141.14253,38.91356],[141.14664,38.909],[141.14977,38.90879],[141.15344,38.911],[141.15805,38.91191],[141.16261,38.90896],[141.15819,38.91197],[141.15395,38.91126],[141.1497,38.90883],[141.1467,38.90906],[141.14249,38.91375],[141.14111,38.91798],[141.13928,38.92039],[141.13702,38.92211],[141.13362,38.92291],[141.13558,38.92684],[141.1224,38.93102],[141.11944,38.92837],[141.11669,38.92396],[141.11107,38.92209]],[[141.16261,38.90896],[141.16742,38.90795],[141.17323,38.90483],[141.1868,38.89939],[141.19049,38.89973],[141.19591,38.89884],[141.20355,38.89957],[141.21229,38.90459],[141.2196,38.90487],[141.22287,38.90281],[141.22421,38.89951],[141.22751,38.89634],[141.2307,38.8947],[141.23473,38.89514],[141.2399,38.89691],[141.24508,38.8961],[141.24943,38.89815],[141.25363,38.89629],[141.2599,38.89702],[141.26718,38.90003],[141.27508,38.89882],[141.28219,38.90047],[141.29397,38.89962],[141.30011,38.89715],[141.30829,38.89851],[141.31654,38.89696],[141.32413,38.9028],[141.32867,38.91351],[141.341,38.92093],[141.34442,38.92146],[141.34878,38.92581],[141.3598,38.92634],[141.36079,38.92883],[141.36191,38.9295],[141.36866,38.93035],[141.37424,38.92988],[141.3761,38.93131],[141.38362,38.93273],[141.39015,38.9373],[141.39387,38.93847],[141.40312,38.93784],[141.41157,38.93848],[141.41766,38.93588],[141.42199,38.93512],[141.43193,38.93724],[141.43593,38.93679],[141.44351,38.93233],[141.45177,38.93089],[141.45551,38.92435],[141.45695,38.91924],[141.459,38.91751],[141.46148,38.91674],[141.4817,38.91659],[141.48682,38.91761],[141.49703,38.91751],[141.50042,38.91646],[141.50535,38.91656],[141.51071,38.91402],[141.52144,38.91599],[141.53211,38.91224],[141.53571,38.91328],[141.54043,38.91234],[141.55177,38.913],[141.54909,38.91418],[141.54836,38.9138],[141.55068,38.91531],[141.54977,38.91425],[141.55119,38.91348]],[[141.55068,38.91531],[141.57433,38.92004],[141.58598,38.92099],[141.58994,38.9206],[141.59385,38.92453],[141.5976,38.92641],[141.60286,38.92597],[141.61523,38.93088],[141.61646,38.93181],[141.61585,38.93377],[141.62077,38.9291],[141.62459,38.92836],[141.62942,38.93009],[141.63337,38.93323],[141.63662,38.93324],[141.63929,38.93561],[141.63809,38.93805],[141.63998,38.94032],[141.63771,38.94194],[141.63363,38.9482],[141.6311,38.94894],[141.62912,38.951],[141.62966,38.95388],[141.63129,38.95653],[141.63166,38.96429],[141.63412,38.96673],[141.63135,38.96909],[141.63067,38.97385],[141.62844,38.97603],[141.625,38.97711],[141.62187,38.98004],[141.62094,38.98478],[141.61941,38.98596],[141.61621,38.9867],[141.61416,38.9908],[141.61456,38.99191],[141.6173,38.99319],[141.62186,38.99706],[141.62167,38.99851],[141.61884,39.00187],[141.61901,39.00341],[141.62624,39.00803]],[[141.30921,38.89844],[141.30573,38.89783]],[[141.43262,38.93729],[141.44004,38.93831],[141.44537,38.9373],[141.45793,38.93888],[141.46534,38.93543],[141.46666,38.93376],[141.46605,38.9287],[141.4637,38.92324],[141.4657,38.91851],[141.46764,38.91671]]]}}]}