{"type":"FeatureCollection","features":[{"type":"Feature","properties":{"route_id":"41","route_number":41,"name":"国道41号","source":"OpenStreetMap contributors (ODbL)","osm_relations":[31351,2867720,2867721,9090184,9090185,9090186,9090189,9090190,9090191,12309648]},"geometry":{"type":"MultiLineString","coordinates":[[[137.22711,35.76949],[137.22489,35.76829],[137.22446,35.76642],[137.22701,35.76441],[137.22757,35.77086],[137.22483,35.77286],[137.22208,35.77704],[137.22263,35.7786],[137.22767,35.78226],[137.23028,35.78279],[137.23697,35.77797],[137.24569,35.77812],[137.25385,35.78027],[137.2563,35.79056],[137.25782,35.7932],[137.25739,35.79776],[137.25632,35.79933],[137.25082,35.80278],[137.24701,35.80754],[137.2401,35.82337],[137.23461,35.82828],[137.23203,35.83462],[137.23151,35.8404],[137.22509,35.84661],[137.22276,35.85194],[137.22392,35.85754],[137.22259,35.86062],[137.21873,35.86437],[137.21397,35.86691],[137.20846,35.8744],[137.20828,35.87962],[137.21053,35.88296],[137.21171,35.88745],[137.20411,35.90606],[137.20415,35.9157],[137.20321,35.91908],[137.20375,35.92241],[137.20462,35.92453],[137.20731,35.92506],[137.2118,35.92468],[137.21502,35.92353],[137.22097,35.92393],[137.22545,35.92684],[137.23274,35.92691],[137.24638,35.92995],[137.24875,35.93182],[137.25014,35.93381],[137.25258,35.94123],[137.25783,35.94444],[137.26223,35.95061],[137.26027,35.95962],[137.26074,35.96386],[137.25976,35.96629],[137.26115,35.97039],[137.26549,35.97271],[137.26999,35.97878],[137.27099,35.98137],[137.27142,35.9865],[137.27353,35.98995],[137.28243,35.99667],[137.28475,36.00023],[137.29226,36.00411],[137.29167,36.00858],[137.29245,36.01193],[137.2913,36.015],[137.28746,36.01878],[137.28931,36.02092],[137.29543,36.0241],[137.29616,36.02614],[137.29589,36.02747],[137.29433,36.02884],[137.2904,36.02995],[137.29079,36.03384],[137.29006,36.03504],[137.28791,36.03553],[137.28443,36.03787],[137.27943,36.03868],[137.27738,36.04046],[137.27642,36.04394],[137.27384,36.04664],[137.27347,36.04963],[137.27444,36.05515],[137.26807,36.06524],[137.26748,36.07047],[137.26631,36.07254],[137.24771,36.08097],[137.24953,36.08614],[137.25473,36.09309],[137.25803,36.09595],[137.25922,36.09901],[137.26343,36.1016],[137.26207,36.10501],[137.26617,36.10861],[137.26221,36.12028],[137.2549,36.12739],[137.2567,36.12473],[137.2571,36.11678],[137.26082,36.11136],[137.25843,36.10721],[137.25835,36.09742],[137.25588,36.0942]],[[137.01001,35.43914],[137.01041,35.43654],[137.01003,35.43972],[137.01408,35.45297],[137.01586,35.45387],[137.02085,35.45401],[137.02304,35.45507],[137.02747,35.46494],[137.03029,35.46865],[137.04517,35.4784],[137.04964,35.48299],[137.05871,35.48862],[137.0649,35.49642],[137.07028,35.49724],[137.06603,35.49707],[137.06998,35.49786],[137.07205,35.50145],[137.07457,35.50307],[137.07192,35.50116],[137.07013,35.49791],[137.06597,35.49701]],[[137.01041,35.43654],[137.01165,35.4323],[137.01154,35.42956],[137.00649,35.41807],[137.01,35.41269],[137.01009,35.40978],[137.00302,35.40255],[136.9937,35.3863],[136.9898,35.38375],[136.97986,35.38163],[136.96756,35.37337],[136.95176,35.36825],[136.93173,35.35343],[136.92922,35.35014],[136.92681,35.34168],[136.92143,35.33487],[136.91323,35.31745],[136.91264,35.3071],[136.90778,35.29741],[136.90581,35.29068],[136.90814,35.26477],[136.90769,35.25526],[136.90984,35.23408],[136.91037,35.21785],[136.91448,35.17408]],[[137.23849,36.47382],[137.23615,36.47739],[137.239,36.4837],[137.23577,36.49444],[137.23626,36.49691],[137.2326,36.50453],[137.22967,36.50735],[137.22828,36.51098],[137.22854,36.51385],[137.23098,36.5182],[137.23104,36.52328],[137.23011,36.52552],[137.22652,36.52964],[137.2259,36.53481],[137.22754,36.53597],[137.23121,36.53585],[137.22929,36.54002],[137.22957,36.54242],[137.22725,36.54638],[137.22553,36.54771],[137.2238,36.55154],[137.22013,36.55328],[137.21807,36.55586],[137.21565,36.55722],[137.21472,36.561],[137.21083,36.56687],[137.20926,36.57353],[137.20662,36.57932],[137.20384,36.59476],[137.20326,36.60286],[137.20545,36.61796],[137.20446,36.62613],[137.20526,36.62788],[137.20807,36.62977],[137.20898,36.63129],[137.20986,36.66449],[137.21089,36.6806],[137.21256,36.69189],[137.22734,36.69274],[137.23081,36.69433],[137.23738,36.69579],[137.25235,36.69647],[137.25597,36.69754],[137.25901,36.70135],[137.25923,36.71409],[137.26314,36.72037]],[[136.91417,35.17407],[136.91032,35.21575],[136.90958,35.23408],[136.9074,35.25526],[136.90792,35.26414],[136.90547,35.2911],[136.90742,35.29749],[136.91259,35.30746],[136.9131,35.3175],[136.92132,35.33493],[136.9267,35.34171],[136.92911,35.35017],[136.93144,35.35333],[136.95168,35.36832],[136.9675,35.37343],[136.97976,35.38168],[136.98976,35.38383],[136.99358,35.38631],[137.00268,35.40225],[137.00994,35.40977],[137.0098,35.41287],[137.00675,35.41658],[137.00638,35.41808],[137.01155,35.4303],[137.00974,35.43906]],[[137.21271,36.69188],[137.211,36.6806],[137.20997,36.66448],[137.20909,36.63125],[137.20483,36.62707],[137.20426,36.62323],[137.20012,36.61647],[137.19502,36.604],[137.19393,36.59798],[137.18949,36.59195],[137.18783,36.58744],[137.19021,36.57779],[137.19855,36.56629],[137.19918,36.56278],[137.19799,36.55876],[137.19907,36.55467],[137.2026,36.55122],[137.22072,36.54186],[137.2236,36.53915],[137.2259,36.53481]],[[137.19161,35.57459],[137.19229,35.5711],[137.18666,35.55904],[137.18134,35.55548],[137.17191,35.55494],[137.17597,35.55429],[137.18103,35.55111],[137.18343,35.551],[137.18489,35.55179],[137.18573,35.55369],[137.18403,35.56007],[137.18784,35.56637],[137.18904,35.57085],[137.19153,35.57341],[137.19156,35.57479],[137.18846,35.57838],[137.18695,35.57818],[137.18416,35.58012],[137.17434,35.58291],[137.17239,35.58514],[137.17121,35.58956],[137.16575,35.59626],[137.16357,35.5974],[137.15642,35.59842],[137.15598,35.59997],[137.15824,35.60248],[137.16094,35.60361],[137.16488,35.60268],[137.16825,35.60013],[137.17259,35.60129],[137.17338,35.60316],[137.17297,35.60634],[137.17503,35.60852],[137.17502,35.6097],[137.16787,35.61289],[137.16223,35.61666],[137.16103,35.61974],[137.16818,35.62481],[137.17838,35.62422],[137.18102,35.62477],[137.18216,35.62734],[137.18134,35.63183],[137.18183,35.63511],[137.18466,35.6395],[137.18759,35.64152],[137.18505,35.64343],[137.17989,35.6446],[137.17463,35.6446],[137.16655,35.64633],[137.16125,35.64585],[137.15923,35.64697],[137.15486,35.65291],[137.15455,35.65478],[137.15674,35.65812],[137.15648,35.66326],[137.1624,35.66699],[137.16477,35.66976],[137.16511,35.67552],[137.16364,35.6799],[137.16738,35.68692],[137.17267,35.69163],[137.17335,35.69436],[137.17169,35.69671],[137.17209,35.69857],[137.18111,35.70358],[137.18197,35.70766],[137.18424,35.71066],[137.19081,35.71237],[137.19315,35.71412],[137.19508,35.72053],[137.19917,35.72297],[137.19674,35.72661],[137.1962,35.7288],[137.19675,35.7307],[137.20146,35.7331],[137.20909,35.73489],[137.20981,35.73651],[137.2096,35.73889],[137.21151,35.74136],[137.20828,35.74356],[137.21085,35.75019],[137.21243,35.75033],[137.21604,35.74887],[137.21801,35.74924],[137.2217,35.75159],[137.22331,35.7562],[137.22536,35.7589],[137.22595,35.7573],[137.22865,35.75612],[137.22832,35.75466],[137.22581,35.7524],[137.2217,35.75159]],[[137.07457,35.50307],[137.07932,35.50603],[137.09536,35.52266],[137.09914,35.52262],[137.10826,35.52019],[137.11349,35.52163],[137.11453,35.52411],[137.11375,35.53736],[137.12196,35.53867],[137.12833,35.53835],[137.13466,35.54097],[137.13952,35.54028],[137.14733,35.54563],[137.15207,35.54788],[137.15441,35.54716],[137.16306,35.54128],[137.16583,35.54027],[137.16741,35.54154],[137.16719,35.54393],[137.16494,35.54823],[137.16493,35.55021],[137.16317,35.54768],[137.16064,35.5463],[137.15529,35.54655]],[[137.22527,36.1716],[137.22766,36.16852],[137.23318,36.16487],[137.23755,36.16275],[137.2422,36.1618],[137.24363,36.16066],[137.2451,36.15044],[137.24286,36.14386],[137.243,36.14077],[137.24918,36.1305],[137.25315,36.12833],[137.24925,36.13057],[137.24311,36.1407],[137.24296,36.14386],[137.24519,36.15044],[137.24375,36.15698],[137.2438,36.16068],[137.24239,36.16186],[137.23764,36.16283],[137.23264,36.16531],[137.22721,36.16902],[137.22489,36.1727],[137.22543,36.1774],[137.236,36.19334],[137.23625,36.19595],[137.23508,36.19854],[137.22689,36.20417],[137.21487,36.20866],[137.21164,36.20912],[137.20387,36.21592],[137.19471,36.21956],[137.1873,36.22666],[137.18092,36.2305],[137.17069,36.24497],[137.16373,36.24786],[137.16187,36.25317],[137.14925,36.25939],[137.14092,36.26253],[137.13915,36.26411],[137.13872,36.26734],[137.13971,36.26876],[137.14861,36.2721],[137.1553,36.27619],[137.15702,36.27637],[137.15571,36.27715],[137.15182,36.27691],[137.1579,36.27924],[137.16659,36.28503],[137.17109,36.28922],[137.17694,36.29186],[137.1793,36.29399],[137.18898,36.29487],[137.19457,36.29424],[137.19835,36.29604],[137.21185,36.29763],[137.21867,36.30025],[137.22705,36.30517],[137.23335,36.30539],[137.23378,36.30488],[137.23059,36.30496],[137.2338,36.30337],[137.23938,36.30336],[137.24761,36.30767],[137.24838,36.30709],[137.2477,36.30302],[137.25041,36.30184],[137.25114,36.30263],[137.25122,36.30661],[137.25425,36.30958],[137.25588,36.31281],[137.26482,36.31601],[137.27033,36.31706],[137.27309,36.31666],[137.27593,36.31912],[137.28252,36.32057],[137.28576,36.32331],[137.29037,36.32527],[137.29446,36.33227],[137.2938,36.33454],[137.29477,36.33688],[137.29462,36.34567],[137.28756,36.35258],[137.28857,36.36117],[137.28556,36.36312],[137.28444,36.36498],[137.28448,36.36683],[137.2828,36.36815],[137.28257,36.37193],[137.276,36.37469],[137.28005,36.38075],[137.27963,36.3821],[137.2763,36.38309],[137.27563,36.38513],[137.27633,36.38631],[137.27594,36.38924],[137.2775,36.39169],[137.28002,36.39239],[137.28605,36.39636],[137.29002,36.4007],[137.29788,36.40598],[137.29558,36.40901],[137.29249,36.4111],[137.28362,36.42534],[137.27907,36.42994],[137.2764,36.4352],[137.2737,36.43687],[137.27423,36.44032],[137.27323,36.44665],[137.27225,36.44836],[137.26802,36.45055],[137.26422,36.45053],[137.25457,36.45311],[137.24848,36.45991],[137.24275,36.46862],[137.2407,36.46999],[137.23911,36.47345],[137.23569,36.47426],[137.23379,36.47602],[137.23402,36.48003],[137.23828,36.48664]],[[137.01035,35.43639],[137.00998,35.43965],[137.01408,35.45311],[137.01606,35.45401],[137.0209,35.45408],[137.02316,35.45521],[137.02729,35.46468],[137.03027,35.46867],[137.04495,35.47828],[137.04947,35.48292],[137.05874,35.4887],[137.06406,35.49576],[137.06603,35.49707]],[[137.2614,36.12144],[137.26221,36.12028]],[[137.25913,36.70275],[137.25798,36.69921],[137.25479,36.69692],[137.24108,36.69595]],[[137.22991,36.20225],[137.23293,36.20033]],[[137.2524,35.77942],[137.25395,35.78038]],[[137.2549,36.12739],[137.25315,36.12833]],[[137.20999,35.74876],[137.2094,35.75011],[137.21106,35.75146],[137.21299,35.75124],[137.21525,35.74918]],[[137.22536,35.7589],[137.22701,35.76441]],[[137.16493,35.55021],[137.16499,35.55198],[137.16642,35.55334],[137.17191,35.55494]],[[137.2949,36.34177],[137.29074,36.34568],[137.28634,36.35228],[137.28572,36.35495],[137.28632,36.36082],[137.28543,36.3633]]]}}]}