{"type":"FeatureCollection","features":[{"type":"Feature","properties":{"route_id":"56","route_number":56,"name":"国道56号","source":"OpenStreetMap contributors (ODbL)","osm_relations":[12584,9437497,9437498,9437504,9437506,9437507,9437508,9437509,9437510,9437511,9437512,9437513,9437514,9437516,9437517,9437518,17282181,21296882]},"geometry":{"type":"MultiLineString","coordinates":[[[133.53221,33.55819],[133.54143,33.55975],[133.55499,33.55864],[133.55342,33.5522],[133.55177,33.5496],[133.54266,33.54542],[133.53258,33.5508],[133.52625,33.55108],[133.53417,33.55108],[133.5409,33.54614],[133.54337,33.5456],[133.55166,33.54966],[133.55317,33.55191],[133.55486,33.55849],[133.54129,33.55962],[133.53223,33.55804]],[[132.91437,32.98058],[132.91786,32.97905],[132.92705,32.97996],[132.93484,32.98382],[132.94274,32.98092],[132.9479,32.98383],[132.95097,32.98318],[132.96103,32.98548],[132.96221,32.98667],[132.96282,32.98947],[132.96202,32.98656],[132.9608,32.9855],[132.95086,32.98326],[132.9479,32.98399],[132.94272,32.98098],[132.93506,32.98389],[132.92743,32.98015],[132.91975,32.97918],[132.90874,32.98127],[132.90326,32.98022],[132.89944,32.98044],[132.89793,32.97969],[132.89709,32.97711],[132.89486,32.97595],[132.89232,32.97738],[132.88917,32.97813],[132.8856,32.97777],[132.87505,32.98117],[132.87082,32.97862],[132.86748,32.97849],[132.863,32.97468],[132.8595,32.97436],[132.85614,32.97243],[132.85374,32.97223],[132.84935,32.96798],[132.84684,32.96667],[132.8443,32.96674],[132.84237,32.96463],[132.83796,32.96574],[132.83376,32.96384],[132.82779,32.96257],[132.82529,32.96451],[132.81855,32.9643],[132.81245,32.96679],[132.81029,32.9669],[132.80677,32.96502],[132.80462,32.96272],[132.8007,32.96269],[132.79658,32.95846],[132.78562,32.95348],[132.78083,32.9543],[132.7747,32.95341],[132.7725,32.95255],[132.76425,32.94584],[132.76071,32.9441],[132.75526,32.94275],[132.75211,32.94484],[132.7481,32.94465],[132.74486,32.94155],[132.73573,32.93589],[132.72146,32.93286],[132.71937,32.93379],[132.71698,32.93648],[132.72033,32.94738],[132.71904,32.95057],[132.71469,32.95202],[132.71238,32.95411],[132.71152,32.95782],[132.71309,32.96009],[132.71282,32.96165],[132.70914,32.96238],[132.70723,32.95921],[132.70519,32.95924],[132.70002,32.96203],[132.70033,32.96528],[132.69625,32.96628],[132.69407,32.96809],[132.68929,32.96982],[132.68517,32.96984],[132.67824,32.97213],[132.67258,32.9724],[132.6708,32.97206],[132.6694,32.97067],[132.66517,32.97034],[132.66316,32.97177],[132.66074,32.97195],[132.65919,32.9691],[132.65348,32.96572],[132.64522,32.96326],[132.64437,32.96203],[132.64414,32.95872],[132.64239,32.95698],[132.63183,32.95501],[132.61926,32.95009],[132.60704,32.95252],[132.59214,32.9525],[132.58697,32.95431],[132.58412,32.95424],[132.57518,32.95837],[132.56047,32.95941],[132.55932,32.96034],[132.55805,32.96377],[132.54601,32.96677],[132.54468,32.96828],[132.54506,32.97027],[132.54406,32.97174],[132.5422,32.97238],[132.54047,32.972],[132.53867,32.97319],[132.53744,32.97557],[132.53109,32.978],[132.52955,32.98053],[132.52683,32.98047],[132.52543,32.98139],[132.52455,32.98336],[132.52123,32.9861],[132.51945,32.98877],[132.51364,32.99333],[132.51316,32.99872],[132.51416,33.00133],[132.5127,33.00401],[132.5058,33.00604],[132.50401,33.00743],[132.50364,33.00895],[132.49641,33.01266],[132.4962,33.01454],[132.49781,33.01704],[132.4966,33.02165],[132.48589,33.02392],[132.48206,33.02846],[132.48476,33.03597],[132.48795,33.03985],[132.48761,33.04153],[132.48576,33.04372],[132.48521,33.04668],[132.48228,33.05009],[132.48513,33.05518],[132.48291,33.06159],[132.48405,33.06407],[132.48821,33.06441],[132.48909,33.06568],[132.4869,33.06762],[132.48412,33.06795],[132.48206,33.07022],[132.48204,33.07285],[132.48715,33.07679],[132.4997,33.08083],[132.50096,33.08458],[132.50969,33.08563],[132.51549,33.08786],[132.51652,33.08935],[132.51657,33.09415],[132.51577,33.09606],[132.5113,33.09943],[132.51182,33.1069],[132.51944,33.11556],[132.51941,33.11982],[132.52271,33.1275],[132.52521,33.13746],[132.52529,33.14143],[132.53057,33.14893],[132.54475,33.15486],[132.54775,33.15876],[132.54831,33.16466],[132.55181,33.16905],[132.55327,33.17265],[132.54878,33.18247],[132.54621,33.19864],[132.55093,33.2009],[132.55789,33.20852],[132.5602,33.21673],[132.56227,33.21642],[132.56263,33.21826],[132.56557,33.2177],[132.56736,33.2189],[132.56336,33.22522],[132.56848,33.22956],[132.56804,33.23104],[132.569,33.23317],[132.56775,33.23562],[132.56819,33.23979],[132.56736,33.24164],[132.56866,33.24485],[132.56847,33.24824],[132.57378,33.25402],[132.57266,33.25766],[132.56869,33.26093],[132.56894,33.26329],[132.56202,33.26622],[132.55928,33.26653],[132.55464,33.26552],[132.54908,33.26295],[132.54704,33.26358],[132.54386,33.26317],[132.54198,33.26409],[132.54317,33.27051],[132.53809,33.27896],[132.53982,33.28099],[132.5391,33.28323],[132.54024,33.28526],[132.54058,33.29112],[132.53986,33.2952],[132.53795,33.29889],[132.539,33.30442],[132.53766,33.31329],[132.53513,33.31952],[132.52866,33.32536],[132.52611,33.32926],[132.52468,33.33401],[132.5155,33.34415],[132.51531,33.35184],[132.51908,33.35661],[132.51699,33.3605],[132.51352,33.36166],[132.509,33.36524],[132.5027,33.37897],[132.50346,33.38565],[132.50503,33.3885],[132.50573,33.3941],[132.50845,33.3986],[132.51036,33.41018],[132.51207,33.41365],[132.51214,33.41539],[132.5105,33.4178],[132.51146,33.42611],[132.51476,33.43032],[132.51562,33.43395],[132.51746,33.43607],[132.51918,33.44088],[132.52183,33.44248],[132.52428,33.44586],[132.53255,33.45314],[132.53349,33.45873],[132.54055,33.46143],[132.5426,33.4673],[132.54662,33.47179],[132.54366,33.47706],[132.5437,33.48482],[132.54008,33.49037],[132.54601,33.49533],[132.54561,33.49667],[132.54775,33.49797],[132.54591,33.49952],[132.54635,33.50172],[132.54426,33.50496],[132.54565,33.51239],[132.54867,33.5179],[132.56218,33.52703],[132.56659,33.52781],[132.57259,33.53123],[132.57921,33.53281],[132.59108,33.53429],[132.59557,33.53384],[132.60084,33.53561],[132.60436,33.5339],[132.60749,33.5346],[132.61587,33.53451],[132.62211,33.53323],[132.62803,33.53411],[132.63425,33.53733],[132.63842,33.53691],[132.64429,33.53764],[132.64945,33.54073],[132.65039,33.54238],[132.64964,33.54539],[132.65016,33.54794],[132.65114,33.54913],[132.65486,33.55084],[132.65699,33.55412],[132.65662,33.55907],[132.65926,33.5617],[132.65864,33.56436],[132.66116,33.56558],[132.66227,33.56707],[132.66479,33.56727],[132.6649,33.5687],[132.66612,33.56991],[132.66577,33.57183],[132.66406,33.57341],[132.66453,33.57505],[132.66312,33.57603],[132.6613,33.57603],[132.66111,33.57707],[132.66319,33.57812],[132.66361,33.57964],[132.66624,33.57975],[132.66672,33.58311],[132.66825,33.5846],[132.66714,33.58649],[132.66753,33.58826],[132.6717,33.59342],[132.67594,33.5962],[132.67691,33.59915],[132.67991,33.60254],[132.68153,33.60784],[132.68586,33.6107],[132.68895,33.61522],[132.69166,33.61739],[132.69185,33.61955],[132.69545,33.62036],[132.69724,33.62251],[132.69676,33.62382],[132.69814,33.62741],[132.7026,33.62865],[132.70539,33.63089],[132.70819,33.63181],[132.70767,33.63424],[132.70913,33.64116],[132.71151,33.64685],[132.71122,33.6503],[132.7085,33.65384],[132.70839,33.65593],[132.70634,33.65653],[132.70538,33.66073],[132.69969,33.66932],[132.69299,33.67097],[132.69154,33.67423],[132.6934,33.6805],[132.69467,33.68218],[132.69721,33.6835],[132.69775,33.6856],[132.70185,33.6877],[132.70669,33.69504],[132.7062,33.69914],[132.70735,33.70133],[132.70619,33.70231],[132.7049,33.70179],[132.70436,33.70236],[132.70742,33.70457],[132.70818,33.7096],[132.70809,33.71186],[132.70637,33.71403],[132.70612,33.71688],[132.70766,33.71937],[132.70762,33.72107],[132.70413,33.72556],[132.69651,33.7321],[132.69589,33.7334],[132.69654,33.73777],[132.70065,33.74587],[132.70733,33.75521],[132.70813,33.76002],[132.70832,33.77223],[132.70978,33.77718],[132.71295,33.78289],[132.72251,33.79359],[132.72667,33.80168],[132.73182,33.8093],[132.73489,33.81156],[132.75678,33.82261],[132.75893,33.82685],[132.75883,33.83932],[132.76475,33.83938]],[[133.50744,33.54987],[133.52033,33.55063],[133.50944,33.55022],[133.50647,33.5494],[133.49929,33.54279],[133.49327,33.54131],[133.48829,33.53902],[133.48062,33.53349],[133.47527,33.53099],[133.47439,33.52962],[133.47466,33.52333],[133.47329,33.52039],[133.47429,33.51482],[133.47384,33.51333],[133.46984,33.50894],[133.45866,33.50395],[133.45336,33.4993],[133.44844,33.49269],[133.44566,33.49234],[133.44299,33.49419],[133.43613,33.49677],[133.43261,33.50047],[133.42703,33.50138],[133.42321,33.50065],[133.41615,33.49511],[133.42302,33.50067],[133.42727,33.50147],[133.43265,33.50058],[133.43638,33.49674],[133.44289,33.49437],[133.44582,33.49244],[133.44762,33.49243],[133.45302,33.49924],[133.4586,33.50403],[133.46978,33.50901],[133.47374,33.51336],[133.47416,33.51483],[133.47316,33.52038],[133.47415,33.52328],[133.47457,33.53058],[133.4804,33.53347],[133.48822,33.53909],[133.49323,33.54138],[133.49928,33.54287],[133.50143,33.54547],[133.50744,33.54987]],[[133.41615,33.49511],[133.41365,33.49389],[133.40795,33.49347],[133.39823,33.49061],[133.39379,33.49164],[133.38763,33.4903],[133.38454,33.48788],[133.38176,33.48698],[133.37592,33.48708],[133.36814,33.48201],[133.36143,33.47589],[133.36002,33.47358],[133.35282,33.47065],[133.34952,33.46776],[133.34414,33.4566],[133.34189,33.4537],[133.33645,33.45193],[133.33267,33.44926],[133.32871,33.44943],[133.32326,33.44394],[133.31732,33.44111],[133.31066,33.44179],[133.30682,33.43933],[133.30319,33.43904],[133.30181,33.4371],[133.2973,33.43576],[133.29619,33.43358],[133.29631,33.42863],[133.29809,33.42363],[133.30163,33.4211],[133.3026,33.41954],[133.30294,33.4178],[133.30169,33.41375],[133.29921,33.41133],[133.2915,33.40687],[133.28385,33.3992],[133.28312,33.39631],[133.2766,33.39105],[133.27191,33.38454],[133.27307,33.38203],[133.27293,33.37858],[133.26911,33.37367],[133.26414,33.37277],[133.26329,33.36999],[133.26056,33.3704],[133.25789,33.36843],[133.2582,33.36554],[133.25602,33.36041],[133.2528,33.35796],[133.24205,33.35379],[133.23913,33.35433],[133.23664,33.35373],[133.23669,33.35121],[133.23463,33.34606],[133.22459,33.34305],[133.22387,33.33583],[133.22286,33.33294],[133.22579,33.32804],[133.22533,33.3266],[133.22361,33.32541],[133.22408,33.32245],[133.21974,33.32196],[133.21844,33.31945],[133.21619,33.31889],[133.21402,33.32016],[133.20938,33.31916],[133.20459,33.32161],[133.20328,33.3202],[133.19951,33.32122],[133.19833,33.3181],[133.19556,33.32116],[133.19289,33.32036],[133.1895,33.32122],[133.18915,33.31945],[133.18713,33.31685],[133.18538,33.3169],[133.18305,33.31566],[133.18296,33.31406],[133.18122,33.3101],[133.18009,33.30937],[133.17667,33.30057],[133.17173,33.29687],[133.17232,33.29365],[133.17105,33.28942],[133.17419,33.28761],[133.1756,33.28556],[133.17451,33.27785],[133.16864,33.27415],[133.168,33.27234],[133.17148,33.2664],[133.17011,33.2615],[133.16244,33.25137],[133.16189,33.24493],[133.15698,33.23923],[133.15306,33.23666],[133.14972,33.23048],[133.14491,33.22689],[133.14409,33.22356],[133.14083,33.21921],[133.14022,33.21054],[133.14311,33.20443],[133.14223,33.19816],[133.14457,33.19431],[133.14128,33.19047],[133.14212,33.18459],[133.1378,33.17692],[133.13763,33.17419],[133.13325,33.16973],[133.13308,33.16656],[133.13433,33.16523],[133.13654,33.16636],[133.14259,33.16388],[133.14446,33.16463],[133.14655,33.16359],[133.14577,33.16288],[133.14421,33.16365],[133.14099,33.16336],[133.13861,33.16228],[133.13912,33.1586],[133.13534,33.15335],[133.12974,33.14791],[133.1267,33.1462],[133.12414,33.1462],[133.12378,33.14324],[133.12533,33.13878],[133.12523,33.13655],[133.12417,33.13461],[133.12185,33.13292],[133.12064,33.13022],[133.11831,33.12923],[133.11869,33.12763],[133.12064,33.12643],[133.11942,33.12098],[133.11684,33.11869],[133.11755,33.11556],[133.11655,33.11475],[133.11337,33.11538],[133.11282,33.11232],[133.10922,33.10971],[133.09925,33.10819],[133.0987,33.10258],[133.09602,33.10077],[133.09544,33.09774],[133.09313,33.09441],[133.09376,33.09278],[133.09867,33.09136],[133.10197,33.08726],[133.10249,33.08555],[133.10121,33.08187],[133.1014,33.07989],[133.10444,33.07103],[133.10719,33.06889],[133.10802,33.0664],[133.10667,33.06468],[133.10655,33.06186],[133.1032,33.0615],[133.09888,33.05824],[133.0975,33.05397],[133.09762,33.05103],[133.09538,33.04882],[133.09587,33.04567],[133.09518,33.04427],[133.09594,33.04158],[133.09353,33.03932],[133.09301,33.03199],[133.09088,33.03159],[133.08168,33.03276],[133.07251,33.03807],[133.06227,33.03803],[133.05904,33.04044],[133.05613,33.04091],[133.05269,33.0386],[133.05045,33.03815],[133.04516,33.03944],[133.04038,33.03897],[133.02926,33.03438],[133.02246,33.03762],[133.01901,33.036],[133.01634,33.03085],[133.01367,33.02858],[133.01172,33.0254],[133.00972,33.02436],[133.00528,33.02406],[133.00122,33.01928],[132.99739,33.01642],[132.99235,33.01552],[132.9874,33.00923],[132.97808,33.00675],[132.97595,33.00487],[132.97095,33.00423],[132.96813,32.99951],[132.9643,32.99599],[132.96282,32.98947]],[[133.52033,33.55063],[133.52625,33.55108]],[[132.69589,33.7334],[132.69669,33.73858],[132.6988,33.74283],[132.70721,33.75518],[132.70802,33.76002],[132.70823,33.77223],[132.70964,33.77721],[132.71211,33.78182],[132.72252,33.79376],[132.72709,33.80259],[132.73225,33.80982],[132.75667,33.82268],[132.75879,33.82686],[132.75867,33.83942],[132.76462,33.83945]],[[132.5742,33.53155],[132.57746,33.52033]],[[132.57725,33.52053],[132.57396,33.5315]],[[132.54029,33.49088],[132.54286,33.49301]],[[132.63271,33.53679],[132.63456,33.53747],[132.63823,33.53705],[132.64442,33.53781],[132.64936,33.54077],[132.65026,33.54226],[132.64968,33.54713],[132.65093,33.54899]],[[132.73363,33.81093],[132.72343,33.81194],[132.72099,33.81385],[132.71875,33.81826],[132.71462,33.82093]],[[133.29793,33.42397],[133.29661,33.42762]],[[132.74661,32.94366],[132.7481,32.94465]],[[132.72523,32.93318],[132.72139,32.93278],[132.71853,32.93441],[132.71675,32.9371],[132.71827,32.94008]],[[132.71816,33.81879],[132.71456,33.82053]],[[132.74679,32.94818],[132.74467,32.94913],[132.74684,32.94822]],[[132.74467,32.94913],[132.73562,32.95215],[132.73255,32.9522],[132.72595,32.94986],[132.71471,32.93959],[132.70525,32.93581],[132.69856,32.93496],[132.68896,32.93548],[132.68139,32.93355],[132.67703,32.93336],[132.66703,32.93596],[132.6493,32.95609],[132.64426,32.95877],[132.64082,32.95873],[132.63035,32.95525],[132.62304,32.95476],[132.61581,32.9567],[132.6035,32.95681],[132.59853,32.95794],[132.59411,32.96024],[132.58927,32.96563],[132.58559,32.96799],[132.57798,32.96786],[132.57158,32.96927],[132.56182,32.9677],[132.55288,32.96794],[132.54768,32.9706],[132.53948,32.97285],[132.53606,32.97711],[132.52628,32.983],[132.52061,32.98798],[132.51257,32.99209],[132.51073,32.99701],[132.50971,33.00471],[132.50412,33.00917],[132.50235,33.01224],[132.50195,33.0166],[132.50323,33.01996]]]}}]}