{"type":"FeatureCollection","features":[{"type":"Feature","properties":{"route_id":"192","route_number":192,"name":"国道192号","source":"OpenStreetMap contributors (ODbL)","osm_relations":[12586,9418269,9418270]},"geometry":{"type":"MultiLineString","coordinates":[[[134.55367,34.07144],[134.54859,34.07301],[134.54449,34.07684],[134.52891,34.07897],[134.51494,34.07668],[134.5068,34.07229],[134.50266,34.07184],[134.4947,34.07344],[134.5024,34.07194],[134.50674,34.07237],[134.5148,34.07671],[134.52889,34.07905],[134.54438,34.07697],[134.54887,34.07299],[134.55346,34.07153],[134.55815,34.07164],[134.55367,34.07144]],[[134.5521,34.04272],[134.52908,34.04102],[134.51715,34.03794],[134.5033,34.04197],[134.49458,34.04275],[134.48976,34.04475],[134.48235,34.04954],[134.47795,34.05407],[134.4707,34.0706],[134.4947,34.07344]],[[133.83055,34.02942],[133.82387,34.0282],[133.82957,34.02906],[133.83382,34.03115],[133.84659,34.03278],[133.8512,34.03201],[133.86049,34.03207],[133.86874,34.03064],[133.87586,34.028],[133.88585,34.03187],[133.89484,34.03295],[133.90034,34.03166],[133.90447,34.03331],[133.91936,34.03669],[133.92422,34.03863],[133.92846,34.03912],[133.94255,34.03622],[133.95489,34.03659],[133.96571,34.03516],[133.97003,34.03698],[133.97422,34.03761],[133.98745,34.03707],[133.99648,34.03506],[134.0019,34.0364],[134.01219,34.03711],[134.02111,34.04117],[134.02447,34.04099],[134.02847,34.04201],[134.04015,34.04098],[134.04695,34.0427],[134.0558,34.04228],[134.07157,34.0447],[134.08359,34.04794],[134.08874,34.05178],[134.10002,34.05296],[134.10519,34.05163],[134.11715,34.05257],[134.11883,34.05318],[134.12136,34.05605],[134.12498,34.05672],[134.14582,34.05338],[134.15707,34.05639],[134.16468,34.05642],[134.17042,34.05211],[134.1727,34.05182],[134.17698,34.05315],[134.18199,34.05777],[134.19331,34.0641],[134.22189,34.05826],[134.23532,34.05651],[134.25013,34.05945],[134.25756,34.06241],[134.26807,34.06361],[134.28008,34.06358],[134.30213,34.06062],[134.3119,34.06096],[134.3154,34.0619],[134.31911,34.06482],[134.32647,34.06523],[134.33476,34.06941],[134.3579,34.06825],[134.36812,34.07059],[134.37776,34.07069],[134.39015,34.07365],[134.41686,34.06746],[134.42396,34.06754],[134.43198,34.06534],[134.43854,34.06756],[134.45229,34.06952],[134.47051,34.07058],[134.47689,34.05499],[134.48235,34.04954]],[[133.82387,34.0282],[133.81571,34.02959],[133.81032,34.03208],[133.79798,34.03147],[133.79503,34.0305],[133.7888,34.02443],[133.78635,34.02305],[133.78533,34.02163],[133.78509,34.01929],[133.77785,34.01791],[133.77337,34.01565],[133.77085,34.0156],[133.76887,34.01409],[133.76224,34.01331],[133.76069,34.01489],[133.75587,34.01582],[133.754,34.01368],[133.74307,34.01027],[133.73686,34.00887],[133.72915,34.00995],[133.72103,34.00638],[133.71192,34.00452],[133.70488,34.00158],[133.69929,34.0005],[133.68826,33.9967],[133.67901,33.99939],[133.67636,33.99897],[133.67273,33.99704],[133.66705,33.9965],[133.66529,33.99566],[133.6603,33.9971],[133.6574,33.99612],[133.65481,33.99684],[133.64926,33.99391],[133.64373,33.99291],[133.64196,33.99129],[133.64002,33.99118],[133.63871,33.9901],[133.63559,33.99054],[133.63325,33.98902],[133.63072,33.99066],[133.62753,33.99041],[133.62653,33.99227],[133.62481,33.99157],[133.61907,33.99281],[133.61657,33.9922],[133.60099,33.99266],[133.59367,33.99008],[133.58159,33.99117],[133.57332,33.9948],[133.56636,34.00195],[133.55077,33.99109],[133.54612,33.98657],[133.5414,33.98386],[133.54075,33.98245],[133.53499,33.97956],[133.53202,33.97554],[133.52347,33.97089],[133.51608,33.96823],[133.50577,33.96778],[133.49404,33.96608],[133.48052,33.96745],[133.4708,33.96514],[133.46567,33.96477],[133.46148,33.96296],[133.44493,33.96046],[133.44074,33.95843],[133.42521,33.95587],[133.40991,33.95197],[133.40244,33.95166],[133.38543,33.94502],[133.3769,33.94401],[133.37111,33.93926],[133.36658,33.93674],[133.35086,33.94268],[133.34573,33.94364],[133.34116,33.94336],[133.33348,33.93949],[133.30129,33.93647],[133.26491,33.9277],[133.24895,33.92123],[133.23979,33.91967],[133.23541,33.92012],[133.22028,33.91756],[133.21714,33.91566],[133.20052,33.91179],[133.19229,33.90853]],[[133.52942,33.9741],[133.5275,33.9731]],[[134.51163,34.03925],[134.51922,34.03833],[134.52881,34.04103],[134.5521,34.04286]],[[133.26856,33.9285],[133.26402,33.9273],[133.24962,33.92126],[133.23981,33.91957],[133.235,33.9198]],[[134.48221,34.04921],[134.48002,34.05129]],[[134.48022,34.0515],[134.48244,34.04965]],[[134.47051,34.07058],[134.4707,34.0706]]]}}]}