{"type":"FeatureCollection","features":[{"type":"Feature","properties":{"route_id":"124","route_number":124,"name":"国道124号","source":"OpenStreetMap contributors (ODbL)","osm_relations":[6604490,9055872,16272286]},"geometry":{"type":"MultiLineString","coordinates":[[[140.63595,35.90117],[140.63904,35.89972],[140.63584,35.90106],[140.63637,35.9017],[140.6353,35.90528],[140.64429,35.95209],[140.63813,35.97592],[140.63861,35.97852],[140.63694,35.98053],[140.64023,35.98522],[140.64391,36.00167],[140.64387,36.00539],[140.63963,36.01408],[140.63857,36.01797],[140.63149,36.03083],[140.62677,36.04237],[140.62481,36.04509],[140.6183,36.05923],[140.60424,36.07889],[140.59989,36.08626],[140.59618,36.09894],[140.58819,36.11739],[140.58369,36.12475],[140.58269,36.12985],[140.58294,36.13536],[140.58027,36.1404],[140.5789,36.14588],[140.57612,36.15033],[140.57439,36.15979],[140.57161,36.16499],[140.57076,36.1755],[140.56824,36.17786],[140.55641,36.18236],[140.54889,36.18656],[140.54643,36.18972],[140.54983,36.20331],[140.54892,36.2132],[140.54968,36.21602],[140.54986,36.22562],[140.54872,36.24506],[140.54944,36.2518],[140.55651,36.26505],[140.55616,36.27496],[140.55708,36.28987],[140.55867,36.29776],[140.55355,36.31049],[140.55708,36.32231],[140.5567,36.32899],[140.55474,36.33269],[140.55255,36.33448],[140.52621,36.34557],[140.51076,36.35479],[140.49789,36.36788],[140.49043,36.36597],[140.48456,36.36576],[140.48417,36.36989],[140.48296,36.37145],[140.47986,36.37241],[140.47793,36.37164],[140.47565,36.3721]],[[140.82342,35.73253],[140.82508,35.74648],[140.82468,35.74777],[140.81249,35.75388],[140.80043,35.75852],[140.78723,35.77255],[140.77653,35.77788],[140.75383,35.79736],[140.73248,35.82037],[140.72338,35.82728],[140.68518,35.87901],[140.6794,35.8828],[140.63904,35.89972]],[[140.64394,36.00494],[140.64406,36.00173],[140.64027,35.98488],[140.63706,35.98047],[140.63873,35.9785],[140.63823,35.97599],[140.64439,35.95207],[140.63547,35.90552],[140.63645,35.90177],[140.65288,35.91705],[140.65495,35.9208]],[[140.55496,36.26133],[140.55639,36.26485],[140.55606,36.2754],[140.55697,36.28987],[140.55857,36.29776],[140.55343,36.3105],[140.55691,36.32207],[140.55675,36.32846],[140.55497,36.33216],[140.55299,36.3341],[140.53577,36.34188]],[[140.77653,35.77788],[140.76473,35.7826],[140.75639,35.78831],[140.75215,35.78646],[140.74032,35.79999],[140.73243,35.80765],[140.72935,35.81471],[140.72595,35.81977],[140.72597,35.82251],[140.7246,35.82597],[140.73238,35.82033],[140.75432,35.79678],[140.77653,35.77788]],[[140.63757,35.90069],[140.63637,35.9017],[140.6386,35.90009],[140.6796,35.88288],[140.68463,35.87972],[140.69205,35.87065],[140.72474,35.82609]]]}}]}