{"type":"FeatureCollection","features":[{"type":"Feature","properties":{"route_id":"381","route_number":381,"name":"国道381号","source":"OpenStreetMap contributors (ODbL)","osm_relations":[9732772,9733035,9734691]},"geometry":{"type":"MultiLineString","coordinates":[[[132.5674,33.225],[132.56405,33.22402],[132.56875,33.2259],[132.57636,33.22619],[132.57958,33.2273],[132.58395,33.23392],[132.589,33.23736],[132.58962,33.24065],[132.59298,33.24221],[132.59549,33.24108],[132.60051,33.24148],[132.6072,33.23831],[132.61265,33.24047],[132.61998,33.2397],[132.62189,33.2412],[132.62646,33.24232],[132.63395,33.24604],[132.6437,33.24607],[132.64759,33.24496],[132.65178,33.24753],[132.65765,33.24807],[132.66708,33.24656],[132.67912,33.24899],[132.68658,33.25255],[132.68765,33.25374],[132.69133,33.25181],[132.69419,33.24787],[132.69636,33.24625],[132.69626,33.24427],[132.69792,33.24304],[132.69794,33.24128],[132.6995,33.24056],[132.70206,33.23684],[132.70356,33.23254],[132.70653,33.23202],[132.71094,33.22943],[132.71258,33.22639],[132.71493,33.22724],[132.71614,33.22978],[132.71829,33.23023],[132.72314,33.22878],[132.72509,33.22589],[132.7359,33.22533],[132.7432,33.22614],[132.75026,33.22435],[132.75074,33.2198],[132.74753,33.21722],[132.74719,33.21485],[132.74863,33.21318],[132.75721,33.21276],[132.76067,33.21122],[132.76248,33.2094],[132.76259,33.20647],[132.75837,33.2031],[132.75878,33.2006],[132.76234,33.19566],[132.76927,33.19067],[132.76913,33.18749],[132.76673,33.18081],[132.76745,33.17944],[132.77038,33.17756],[132.77388,33.17754],[132.78209,33.18],[132.79035,33.17679],[132.7922,33.18547],[132.79616,33.18944],[132.79496,33.19135],[132.78939,33.1949],[132.78862,33.19636],[132.78976,33.19975],[132.79524,33.20412],[132.7946,33.2055],[132.78906,33.21037],[132.78998,33.21447],[132.79231,33.2173],[132.79459,33.21855],[132.79678,33.21857],[132.80386,33.21568],[132.80978,33.2182],[132.8172,33.21823],[132.82311,33.21955],[132.82988,33.21826],[132.8336,33.22111],[132.83655,33.22587],[132.84134,33.22747],[132.84914,33.23299],[132.86492,33.23611],[132.87015,33.23545],[132.87371,33.23334],[132.87554,33.2299],[132.87472,33.22655],[132.87622,33.22523],[132.88184,33.22569],[132.89539,33.221],[132.90006,33.21542],[132.90312,33.21589],[132.90262,33.21759],[132.90321,33.22087],[132.90955,33.22629],[132.92182,33.22766],[132.92547,33.22655],[132.92696,33.22447],[132.92685,33.22176],[132.93047,33.21923],[132.935,33.21765],[132.94042,33.21095],[132.94822,33.20992],[132.95158,33.20724],[132.95523,33.20628],[132.96099,33.20827],[132.96431,33.2077],[132.96687,33.20501],[132.96947,33.20498],[132.97014,33.20198],[132.97176,33.19937],[132.97186,33.19481],[132.97017,33.19267],[132.97298,33.18756],[132.97171,33.18283],[132.9729,33.18127],[132.97691,33.18438],[132.97908,33.18471],[132.98091,33.18413],[132.98513,33.18005],[132.99434,33.18557],[132.99985,33.18562],[133.00483,33.18154],[133.01082,33.18166],[133.01244,33.18103],[133.01489,33.17822],[133.01743,33.17708],[133.03588,33.17677],[133.04148,33.17521],[133.04233,33.17588],[133.04236,33.1774],[133.04059,33.18165],[133.04105,33.18464],[133.04291,33.18658],[133.04461,33.18718],[133.04965,33.18665],[133.05359,33.18485],[133.05599,33.18298],[133.05721,33.18],[133.0589,33.17879],[133.07029,33.18385],[133.08012,33.18353],[133.08146,33.1857],[133.079,33.19471],[133.0809,33.19783],[133.08507,33.19852],[133.09018,33.19709],[133.09759,33.1918],[133.09935,33.18814],[133.10135,33.18766],[133.11135,33.19518],[133.11743,33.19752],[133.12192,33.2033],[133.12934,33.20936],[133.14044,33.20996],[133.14083,33.21921],[133.14409,33.22356],[133.14479,33.22672],[133.14972,33.23048],[133.15306,33.23666],[133.15698,33.23923],[133.16189,33.24493],[133.16244,33.25137],[133.17011,33.2615],[133.17148,33.2664],[133.168,33.27234],[133.16864,33.27415],[133.17451,33.27785],[133.1756,33.28556],[133.17419,33.28761],[133.17105,33.28942],[133.17232,33.29365],[133.17173,33.29687],[133.17667,33.30057],[133.18009,33.30937],[133.18122,33.3101],[133.18296,33.31406],[133.18311,33.31576],[133.18547,33.31693],[133.18713,33.31685],[133.18915,33.31945],[133.1895,33.32122],[133.19289,33.32036],[133.19556,33.32116],[133.19833,33.3181],[133.19951,33.32122],[133.20328,33.3202],[133.20459,33.32161],[133.20938,33.31916],[133.21402,33.32016],[133.21619,33.31889],[133.21844,33.31945],[133.21974,33.32196],[133.22398,33.32235],[133.22361,33.32541],[133.22533,33.3266],[133.22579,33.32804],[133.22286,33.33294],[133.22387,33.33583],[133.22459,33.34305],[133.23463,33.34606],[133.23669,33.35121],[133.23664,33.35373],[133.23913,33.35433],[133.24205,33.35379],[133.2528,33.35796],[133.25602,33.36041],[133.2582,33.36554],[133.25789,33.36843],[133.26056,33.3704],[133.26329,33.36999],[133.26414,33.37277],[133.26911,33.37367],[133.27293,33.37858],[133.27307,33.38203],[133.27191,33.38454],[133.27503,33.38846]],[[132.92415,33.22722],[132.91905,33.22745]],[[132.79494,33.20363],[132.79505,33.20485]]]}}]}