{"type":"FeatureCollection","features":[{"type":"Feature","properties":{"route_id":"479","route_number":479,"name":"国道479号","source":"OpenStreetMap contributors (ODbL)","osm_relations":[10040102]},"geometry":{"type":"MultiLineString","coordinates":[[[135.48573,34.60924],[135.54895,34.6093],[135.54894,34.63133],[135.54952,34.63569],[135.55309,34.64245],[135.55605,34.65933],[135.55947,34.69181],[135.56086,34.72599],[135.54388,34.74443],[135.53434,34.75031],[135.52803,34.74877],[135.53454,34.75035],[135.54415,34.74433],[135.56095,34.72612],[135.55958,34.6918],[135.55615,34.65934],[135.55319,34.64235],[135.54964,34.63569],[135.54901,34.6313],[135.54919,34.6092],[135.48568,34.60914]],[[135.51846,34.75921],[135.51652,34.76034],[135.51505,34.75837],[135.51653,34.7603],[135.51846,34.75921],[135.52803,34.74877]],[[135.47658,34.75787],[135.47924,34.75804],[135.47657,34.75771]],[[135.47924,34.75804],[135.48118,34.75855],[135.4832,34.75759],[135.5141,34.75718],[135.51505,34.75837]],[[135.48186,34.75815],[135.48009,34.75826]]]}}]}