{"type":"FeatureCollection","features":[{"type":"Feature","properties":{"route_id":"134","route_number":134,"name":"国道134号","source":"OpenStreetMap contributors (ODbL)","osm_relations":[31118,9073211]},"geometry":{"type":"MultiLineString","coordinates":[[[139.48717,35.30822],[139.48474,35.30739],[139.48195,35.30822],[139.47659,35.31344],[139.47066,35.31703],[139.46555,35.31694],[139.4411,35.32047],[139.42806,35.31982],[139.41733,35.31798],[139.40157,35.31861],[139.38484,35.31683],[139.38204,35.31738],[139.37621,35.32022],[139.36055,35.31634],[139.33512,35.31485],[139.32093,35.31086],[139.3347,35.31495],[139.3603,35.3164],[139.3762,35.32032],[139.37804,35.31999],[139.38211,35.31745],[139.38484,35.31692],[139.40168,35.31871],[139.41732,35.31808],[139.42769,35.31986],[139.44071,35.32082],[139.46557,35.31703],[139.47071,35.31712],[139.47668,35.31351],[139.4818,35.30842],[139.48441,35.30751],[139.49073,35.30829],[139.4945,35.30661],[139.50598,35.30608],[139.51893,35.30333],[139.52673,35.3028],[139.53109,35.30391],[139.53398,35.30883],[139.53787,35.31017],[139.54541,35.30928],[139.55188,35.30441],[139.5528,35.30186],[139.55804,35.29816],[139.56146,35.29312],[139.56574,35.29304],[139.56858,35.29464],[139.57189,35.29329],[139.57373,35.29049],[139.57442,35.28639],[139.57809,35.28347],[139.57994,35.28294],[139.57889,35.27388],[139.5807,35.27246],[139.58468,35.27122],[139.58545,35.26971],[139.57996,35.26176],[139.58158,35.25753],[139.58094,35.25394],[139.58404,35.25311],[139.59331,35.24743],[139.59492,35.24359],[139.60208,35.23773],[139.60718,35.23654],[139.60994,35.23384],[139.61691,35.23183],[139.62957,35.22216],[139.63346,35.22],[139.63242,35.21014],[139.63099,35.2088],[139.62716,35.20794],[139.62564,35.20395],[139.62597,35.19882],[139.62715,35.19544],[139.62697,35.18963],[139.62899,35.18507],[139.63231,35.1812],[139.63199,35.17792],[139.63995,35.16763],[139.64172,35.16696],[139.64284,35.17123],[139.6422,35.17335],[139.64276,35.17721],[139.64382,35.17885],[139.6511,35.18047],[139.652,35.18373],[139.65518,35.18503],[139.65821,35.18889],[139.66987,35.19796],[139.68276,35.20606],[139.6848,35.20865],[139.68856,35.21684],[139.69354,35.2182],[139.69459,35.22027],[139.70524,35.23129],[139.69625,35.23951],[139.68809,35.24443],[139.68626,35.24682],[139.6856,35.25455],[139.69099,35.25911],[139.69331,35.26377],[139.68682,35.26671],[139.69342,35.26376],[139.69106,35.25907],[139.68557,35.25426],[139.68578,35.24834],[139.68693,35.24584],[139.69632,35.23955],[139.70524,35.23129]],[[139.32191,35.31526],[139.32326,35.31688],[139.32761,35.31684],[139.33098,35.31374]],[[139.31649,35.31112],[139.31901,35.31025],[139.32093,35.31086]],[[139.62967,35.18417],[139.63231,35.1812]]]}}]}