{"type":"FeatureCollection","features":[{"type":"Feature","properties":{"route_id":"168","route_number":168,"name":"国道168号","source":"OpenStreetMap contributors (ODbL)","osm_relations":[8338767,9314798,9314799,9314800,9314801,9314802,9314803,9314804,9314805,9314806,9314807,9314808,9314809,9314810,9314811,9314812,9314813,9314814,10085014,10124232]},"geometry":{"type":"MultiLineString","coordinates":[[[135.78281,33.94529],[135.78679,33.9463],[135.79001,33.94545],[135.79308,33.94349],[135.79628,33.94299],[135.80005,33.94502],[135.80499,33.94608],[135.80436,33.94871],[135.80057,33.95083],[135.80125,33.95412],[135.79949,33.95656],[135.79736,33.95731],[135.79589,33.96145],[135.79763,33.9652],[135.80083,33.96618],[135.80136,33.96751],[135.80072,33.9692],[135.79866,33.97081],[135.79927,33.973],[135.80158,33.97495],[135.79881,33.97689],[135.79749,33.97937],[135.79765,33.9813],[135.79553,33.98309],[135.79891,33.98578],[135.79895,33.98709],[135.80041,33.98416],[135.8048,33.98021],[135.80583,33.97724],[135.80292,33.96964],[135.80258,33.95857],[135.80035,33.95097],[135.79603,33.94923],[135.78633,33.94729],[135.77191,33.94048],[135.7667,33.94152],[135.76113,33.93832],[135.76201,33.93425],[135.76165,33.93252],[135.76327,33.93111],[135.76486,33.93087],[135.7668,33.932],[135.77185,33.93296],[135.77421,33.93151],[135.77513,33.92801],[135.77177,33.92608],[135.77186,33.9241],[135.76931,33.92122],[135.77447,33.92112],[135.77633,33.91573],[135.77928,33.9154],[135.78097,33.9136],[135.77998,33.91098],[135.78076,33.90841],[135.77949,33.9057],[135.77524,33.90506],[135.77029,33.90281],[135.76925,33.90153],[135.76813,33.90163],[135.76054,33.89122],[135.75976,33.88829],[135.75991,33.87818],[135.76677,33.8711],[135.7678,33.86883],[135.76611,33.85636],[135.76805,33.85472],[135.7708,33.85482],[135.7707,33.8497],[135.77551,33.8402],[135.77039,33.83138],[135.77109,33.82806],[135.77446,33.82631],[135.77745,33.82608],[135.79054,33.82127],[135.79488,33.8222],[135.80109,33.82665],[135.8084,33.82575],[135.81369,33.82878],[135.82032,33.84164],[135.82289,33.84271],[135.82669,33.84252],[135.82847,33.84346],[135.8288,33.84461],[135.82779,33.84713],[135.82872,33.84852],[135.83013,33.84878],[135.83196,33.84763],[135.83521,33.8423],[135.83936,33.83896],[135.84672,33.83483],[135.85502,33.83232],[135.85625,33.82881],[135.85505,33.82058],[135.85681,33.81464],[135.86304,33.81024],[135.86632,33.80944],[135.87292,33.80619]],[[135.69987,34.54686],[135.69996,34.55255],[135.70351,34.54589],[135.70383,34.52974],[135.70523,34.52834],[135.70979,34.5264],[135.70975,34.52212],[135.71167,34.52049],[135.71155,34.51257],[135.71352,34.51107],[135.71584,34.51044],[135.74947,34.51058],[135.74947,34.50941],[135.742,34.50939],[135.74176,34.5052],[135.73642,34.50135],[135.73501,34.49896],[135.73484,34.49207],[135.73237,34.48504],[135.73318,34.46758],[135.73202,34.45878],[135.73319,34.45513],[135.72763,34.44148],[135.727,34.43782],[135.72168,34.43236],[135.71931,34.42847],[135.71969,34.42637],[135.71881,34.42254],[135.71953,34.41947],[135.71785,34.41051],[135.71604,34.40854],[135.71519,34.40267],[135.71561,34.40094],[135.71333,34.39735],[135.71505,34.39163],[135.71467,34.38695],[135.71701,34.37769],[135.71623,34.36325],[135.70957,34.35756],[135.6953,34.35166],[135.69658,34.34392],[135.69895,34.33989],[135.69696,34.33366],[135.69994,34.33258],[135.70124,34.33075],[135.70345,34.31615],[135.70569,34.31396],[135.70958,34.3146],[135.71136,34.31346],[135.71277,34.30955],[135.71094,34.30728],[135.71077,34.30574],[135.71408,34.30315],[135.7158,34.29969],[135.71988,34.29807],[135.72347,34.29534],[135.72482,34.28684],[135.72805,34.28674],[135.72942,34.29118],[135.73087,34.29213],[135.74044,34.28641],[135.74535,34.2846],[135.74833,34.28151],[135.7483,34.27351],[135.74467,34.2722],[135.74408,34.26973],[135.74572,34.26721],[135.74652,34.2635],[135.74438,34.26422],[135.74311,34.26287],[135.74095,34.26219],[135.73788,34.26276],[135.73142,34.26131],[135.73247,34.2603],[135.73243,34.25846],[135.73516,34.25965],[135.73555,34.25767],[135.73427,34.25479],[135.73829,34.24983],[135.73416,34.24621],[135.73038,34.24146],[135.73124,34.23894],[135.73322,34.23801],[135.73254,34.23754],[135.73201,34.23428],[135.73329,34.23553],[135.73399,34.23499],[135.73285,34.23497],[135.73245,34.2329],[135.73482,34.21939],[135.73433,34.21625],[135.73313,34.21438],[135.73273,34.2104],[135.73202,34.21032],[135.72966,34.21309],[135.73083,34.21498],[135.72827,34.21305],[135.72994,34.21079],[135.73014,34.20849],[135.73135,34.20745],[135.73211,34.20719],[135.73419,34.20911],[135.73588,34.20791],[135.73563,34.20653],[135.73672,34.20544],[135.73532,34.20509],[135.73328,34.20581],[135.73362,34.20219],[135.73086,34.20118],[135.73067,34.20023],[135.73123,34.19768],[135.73407,34.19707],[135.73689,34.19117],[135.74262,34.18554],[135.74254,34.18445],[135.7406,34.18262],[135.74739,34.17972],[135.74898,34.17802],[135.74928,34.17588],[135.75469,34.17294],[135.75718,34.16996],[135.75793,34.16542],[135.75391,34.16391],[135.7559,34.16647],[135.75641,34.16876],[135.75387,34.17233],[135.7544,34.17309]],[[135.70749,34.66602],[135.70593,34.6853],[135.7084,34.6895],[135.70949,34.69369],[135.70902,34.69864],[135.70682,34.70423],[135.70597,34.70965],[135.70404,34.71369],[135.70344,34.71719],[135.70468,34.72091],[135.70449,34.72372],[135.70293,34.72603],[135.7048,34.725],[135.70569,34.72258],[135.70779,34.72064],[135.70761,34.7159],[135.70408,34.71416],[135.70907,34.69865],[135.70957,34.69368],[135.70718,34.67554],[135.70827,34.67116],[135.70749,34.66602],[135.70864,34.66359],[135.70829,34.66021],[135.70616,34.65843],[135.70677,34.65599],[135.70596,34.65364],[135.70925,34.64322],[135.70718,34.63918],[135.7061,34.63174],[135.70698,34.62401],[135.7063,34.62168],[135.70658,34.61759],[135.70761,34.61381],[135.70936,34.61309],[135.7117,34.61391],[135.71357,34.61305],[135.71668,34.6074],[135.71151,34.6018],[135.71059,34.59943],[135.70832,34.59814],[135.70721,34.59562],[135.70585,34.58583],[135.70292,34.58034],[135.70193,34.57515],[135.70171,34.56538],[135.7004,34.56178],[135.69996,34.55255]],[[135.70293,34.72603],[135.70026,34.7319],[135.7005,34.7357],[135.6982,34.7394],[135.69764,34.74295],[135.69559,34.74455],[135.69466,34.74784],[135.69258,34.74956],[135.6927,34.75121],[135.69385,34.7518],[135.68963,34.75222],[135.68935,34.75351],[135.69053,34.75688],[135.68835,34.75871],[135.68891,34.76152],[135.68712,34.7624],[135.68708,34.76457],[135.68547,34.76489],[135.68233,34.7682],[135.68008,34.77154],[135.6797,34.77417],[135.67854,34.77472],[135.67346,34.78284],[135.67325,34.78393],[135.67415,34.7844],[135.67092,34.78773],[135.66977,34.7913],[135.66475,34.79509],[135.66003,34.80223],[135.66003,34.80511],[135.65649,34.80836]],[[135.67222,34.78054],[135.6688,34.78752],[135.67236,34.7806]],[[135.74679,34.07237],[135.74613,34.07352],[135.74202,34.07545],[135.74698,34.07643],[135.74861,34.07842],[135.74623,34.07083],[135.74481,34.0692],[135.74605,34.06704],[135.74624,34.06354],[135.74487,34.06141],[135.74497,34.06025],[135.74814,34.05967],[135.75214,34.06334],[135.75404,34.06338],[135.76095,34.05964],[135.76231,34.05996],[135.76475,34.059],[135.76515,34.05609],[135.77024,34.05266],[135.77792,34.05273],[135.77978,34.05065],[135.77969,34.04817],[135.77692,34.0456],[135.77975,34.04335],[135.78517,34.04516],[135.78599,34.04637],[135.78495,34.04718],[135.78476,34.04866],[135.78715,34.05008],[135.7859,34.05181],[135.79072,34.04894],[135.79375,34.04926],[135.79034,34.04041],[135.7873,34.03637],[135.78209,34.03275],[135.78021,34.02998],[135.78117,34.02825],[135.78413,34.02631],[135.78901,34.019],[135.7962,34.01228],[135.79483,34.00783],[135.79346,34.00682],[135.79274,34.00498],[135.79275,34.00082],[135.79493,33.99762],[135.79527,33.99556],[135.79221,33.99012],[135.79322,33.98852],[135.79745,33.98825],[135.79895,33.98709]],[[135.87391,33.7978],[135.88019,33.7983],[135.8861,33.8015],[135.89392,33.79542],[135.89607,33.79332],[135.89648,33.7917],[135.89577,33.78594],[135.90095,33.77967],[135.90565,33.7667],[135.90802,33.76572],[135.9137,33.76589],[135.91687,33.76478],[135.92035,33.75743],[135.92757,33.75272],[135.93143,33.75355],[135.93451,33.75596],[135.93558,33.75593],[135.93753,33.75163],[135.93783,33.7433],[135.93863,33.7423],[135.93895,33.73913],[135.94046,33.7353],[135.94398,33.73187],[135.94778,33.73038],[135.95211,33.7272],[135.95838,33.72499],[135.97738,33.71956],[135.98695,33.71917]],[[135.75204,34.16025],[135.75241,34.15875],[135.75178,34.15771],[135.74793,34.1563],[135.74586,34.15354],[135.74638,34.1462],[135.74798,34.14401],[135.75152,34.14289],[135.75429,34.14033],[135.75944,34.13874],[135.76128,34.13625],[135.76513,34.13505],[135.76537,34.13223],[135.76853,34.1297],[135.76742,34.12756],[135.7691,34.11971],[135.77245,34.11362],[135.77256,34.11159],[135.77441,34.11019],[135.77482,34.10876],[135.77394,34.10628],[135.77218,34.10485],[135.76779,34.10413],[135.7666,34.1011],[135.76249,34.09649],[135.76038,34.09517],[135.75721,34.09478],[135.75501,34.09072],[135.75293,34.08907],[135.75735,34.0868],[135.75871,34.08466],[135.75861,34.08311],[135.75581,34.08114],[135.753,34.08171],[135.75083,34.08123],[135.74861,34.07842]],[[135.66391,34.79468],[135.66897,34.78815],[135.66385,34.79466]],[[135.70874,34.64473],[135.70653,34.65095],[135.70681,34.64897],[135.70547,34.64782],[135.70636,34.64586],[135.7053,34.64526],[135.70421,34.64268],[135.70227,34.64189],[135.70101,34.64013],[135.70181,34.63747],[135.70051,34.63516],[135.70151,34.62911],[135.70457,34.62547],[135.70634,34.62192]],[[135.70862,34.68973],[135.70604,34.68529],[135.7071,34.66711]],[[135.75501,34.09072],[135.75541,34.08888],[135.7582,34.08551]],[[135.74194,34.18643],[135.74484,34.18337],[135.74796,34.17543],[135.75387,34.17233]],[[135.75377,34.16406],[135.75216,34.16242],[135.75139,34.15774]],[[135.70851,34.66463],[135.71037,34.66239],[135.70972,34.66081],[135.70824,34.66013]],[[135.70658,34.65103],[135.70601,34.6529]],[[135.93801,33.74826],[135.92757,33.75272]]]}}]}