{"type":"FeatureCollection","features":[{"type":"Feature","properties":{"route_id":"233","route_number":233,"name":"国道233号","source":"OpenStreetMap contributors (ODbL)","osm_relations":[6596367]},"geometry":{"type":"MultiLineString","coordinates":[[[142.33578,43.77196],[142.3424,43.77428],[142.34896,43.77236],[142.34224,43.77416],[142.3225,43.7683],[142.30873,43.77034],[142.29918,43.76861],[142.29421,43.76883],[142.29917,43.76867],[142.30813,43.77043],[142.32239,43.76838],[142.33578,43.77196]],[[142.24261,43.73859],[142.24043,43.73653],[142.24293,43.73912],[142.24573,43.74851],[142.24831,43.75099],[142.25548,43.75323],[142.2666,43.75275],[142.27049,43.75342],[142.27449,43.75576],[142.27989,43.76236],[142.28287,43.76778],[142.28902,43.76907],[142.29421,43.76883]],[[142.17897,43.71694],[142.18162,43.71873],[142.18819,43.72839],[142.19263,43.72951],[142.18798,43.72794],[142.18071,43.71776],[142.17169,43.71345],[142.15904,43.71286],[142.14377,43.71011],[142.1249,43.70912],[142.08452,43.70312],[142.07898,43.70328],[142.07435,43.70129],[142.07098,43.69861],[142.06534,43.70326],[142.05333,43.70809],[142.04863,43.71132],[142.04287,43.71899],[142.047,43.7203],[142.033,43.74345],[142.03119,43.74526],[142.02792,43.7465],[142.01476,43.74808],[141.99353,43.75373],[141.98505,43.75743],[141.97266,43.76689],[141.89978,43.76258],[141.88521,43.76579],[141.88068,43.76915],[141.8711,43.77029],[141.85531,43.779],[141.83825,43.79629],[141.83401,43.82417],[141.83139,43.82757],[141.83156,43.83072],[141.82716,43.83817],[141.82688,43.84064],[141.82429,43.8432],[141.82301,43.84621],[141.81553,43.84894],[141.80885,43.84924],[141.80231,43.85124],[141.79374,43.85005],[141.78954,43.8521],[141.78437,43.85324],[141.7789,43.85237],[141.76877,43.84569],[141.76608,43.84526],[141.76351,43.84595],[141.76008,43.84869],[141.75966,43.8519],[141.75658,43.8579],[141.75256,43.86026],[141.7499,43.86291],[141.74444,43.86516],[141.74389,43.86921],[141.73507,43.87822],[141.73521,43.88361],[141.73405,43.88545],[141.73091,43.88661],[141.72484,43.88613],[141.71712,43.88895],[141.71147,43.89303],[141.70893,43.89652],[141.7073,43.90045],[141.70167,43.90304],[141.6985,43.90647],[141.69213,43.9086],[141.69144,43.91018],[141.69206,43.91182],[141.69708,43.91408],[141.69819,43.91543],[141.698,43.91712],[141.6963,43.91934],[141.69422,43.92026],[141.68947,43.92063],[141.68419,43.91897],[141.67656,43.91954],[141.675,43.92102],[141.67144,43.93108],[141.66738,43.93379],[141.66433,43.93445]],[[142.19263,43.72951],[142.19903,43.73003],[142.21168,43.72668],[142.21691,43.72612],[142.22929,43.73219],[142.24043,43.73653]],[[142.27363,43.75497],[142.27987,43.76254],[142.28112,43.76521]],[[142.20475,43.72882],[142.21171,43.72677],[142.21687,43.72625],[142.23233,43.73348]],[[142.34896,43.77236],[142.3595,43.76932]],[[142.0709,43.69868],[142.07435,43.70129]],[[141.66437,43.93454],[141.66822,43.9335],[141.67206,43.93051],[141.676,43.92],[141.68223,43.91898]]]}}]}