{"type":"FeatureCollection","features":[{"type":"Feature","properties":{"route_id":"486","route_number":486,"name":"国道486号","source":"OpenStreetMap contributors (ODbL)","osm_relations":[9918207,9918288,9918379]},"geometry":{"type":"MultiLineString","coordinates":[[[133.41943,34.57269],[133.42864,34.57666],[133.41241,34.56964],[133.40948,34.56715],[133.40526,34.56133],[133.40237,34.55903],[133.39127,34.55717],[133.38522,34.55242],[133.3769,34.54923],[133.36249,34.54693],[133.35121,34.547],[133.31537,34.54132],[133.30205,34.54507],[133.28937,34.546],[133.27443,34.55223],[133.26163,34.55586],[133.22913,34.57318],[133.22516,34.57258],[133.21475,34.56484],[133.21152,34.55824],[133.20813,34.55494],[133.20073,34.55077],[133.19633,34.55071],[133.19524,34.55004],[133.19479,34.54537],[133.19372,34.54417],[133.18695,34.53936],[133.1822,34.53821],[133.18014,34.5354],[133.17545,34.53444],[133.17034,34.53012],[133.16657,34.53018],[133.15959,34.52424],[133.15396,34.51572],[133.14097,34.50912],[133.12118,34.49543],[133.11511,34.49356],[133.11346,34.49027],[133.10689,34.48414],[133.10338,34.479],[133.086,34.47538],[133.07742,34.47952],[133.076,34.47953],[133.07424,34.47864],[133.0731,34.47665],[133.0647,34.47336],[133.06119,34.46619],[133.05997,34.46701],[133.05204,34.46423],[133.04539,34.46306],[133.04407,34.46386],[133.04337,34.4668],[133.04516,34.47007],[133.04482,34.47153],[133.04108,34.47322],[133.03791,34.47599],[133.03406,34.48612],[133.02995,34.49101],[133.02563,34.49116],[133.0216,34.49351],[133.01838,34.49385],[133.00991,34.49785],[133.00083,34.49774],[132.99707,34.49684],[132.98216,34.501],[132.9793,34.50257],[132.972,34.50163],[132.96338,34.5026],[132.9603,34.50205],[132.9567,34.50274],[132.95615,34.50217],[132.95029,34.50445],[132.94636,34.50398],[132.94359,34.50486],[132.93718,34.50232],[132.9325,34.50486],[132.93014,34.50479],[132.92616,34.50916],[132.92036,34.51346],[132.92002,34.51542],[132.91799,34.51747],[132.90958,34.52027],[132.90661,34.52257],[132.89952,34.5256],[132.89486,34.52853],[132.87676,34.53342],[132.87259,34.53389],[132.87152,34.53557],[132.87278,34.5369],[132.87301,34.5393],[132.87433,34.54116],[132.87524,34.54397],[132.87485,34.54542],[132.87682,34.54794],[132.8755,34.55207],[132.87343,34.55399],[132.87022,34.55357],[132.86661,34.55563],[132.85938,34.55768],[132.85429,34.55816],[132.85119,34.56147],[132.84709,34.56359],[132.84328,34.56679],[132.84112,34.56949],[132.83789,34.56992],[132.83646,34.57163],[132.82681,34.57265],[132.82653,34.56995],[132.82362,34.56829],[132.82038,34.56464],[132.8104,34.56666],[132.80492,34.56188],[132.79726,34.55878],[132.7909,34.55367],[132.7878,34.55292],[132.7836,34.54461],[132.78121,34.54206],[132.78034,34.5353],[132.78211,34.53222],[132.78029,34.52834],[132.77619,34.5259],[132.77666,34.52426],[132.77933,34.52258],[132.78033,34.5202],[132.78333,34.51802],[132.78341,34.51342],[132.77734,34.50787],[132.77545,34.50711],[132.7768,34.50509],[132.77594,34.50297],[132.7715,34.49911],[132.76883,34.49558],[132.76023,34.47884],[132.76045,34.47714],[132.76337,34.4752],[132.76651,34.46678],[132.76895,34.46336],[132.7717,34.46204],[132.7735,34.45745],[132.76488,34.44511],[132.75941,34.44183],[132.75527,34.43769],[132.75423,34.43296],[132.75675,34.42858],[132.75696,34.42652],[132.75003,34.41665],[132.74018,34.42569],[132.73354,34.42655],[132.72391,34.43341],[132.7204,34.44055],[132.71619,34.44594],[132.69465,34.44819],[132.69144,34.44695],[132.68949,34.44501],[132.68272,34.44479]],[[132.74995,34.41671],[132.75685,34.42654],[132.75676,34.42827],[132.75407,34.43325],[132.75511,34.4376],[132.75931,34.44189],[132.76357,34.44396]],[[133.4757,34.5991],[133.47302,34.5993],[133.46115,34.59556],[133.44771,34.59028],[133.46112,34.59564],[133.47338,34.59941],[133.48698,34.598],[133.49183,34.59874],[133.50031,34.59381],[133.51223,34.59697],[133.53111,34.6002],[133.53795,34.60243],[133.54572,34.60681],[133.57468,34.61692],[133.57949,34.61963],[133.5819,34.62206],[133.58477,34.62297],[133.59296,34.62346],[133.59562,34.62274],[133.5984,34.62054],[133.60072,34.61605],[133.60379,34.61446],[133.61397,34.61546],[133.63281,34.615],[133.64631,34.61841],[133.6542,34.62151],[133.67439,34.62485],[133.67997,34.62344],[133.68895,34.62547],[133.69747,34.62962],[133.70243,34.63047],[133.71765,34.63697],[133.71516,34.64038],[133.71739,34.64243],[133.72299,34.64437],[133.73009,34.64441],[133.73101,34.65186],[133.7277,34.67096],[133.73462,34.67702]],[[133.42864,34.57666],[133.44034,34.58127],[133.44245,34.58581],[133.4372,34.58429],[133.42375,34.57804]],[[133.26187,34.55576],[133.26889,34.55344]],[[133.39268,34.55743],[133.39076,34.55684],[133.38525,34.55236],[133.37623,34.54901],[133.36246,34.54686],[133.35125,34.54692],[133.31616,34.54128],[133.30202,34.54497],[133.29171,34.54562]],[[133.44771,34.59028],[133.44385,34.58872],[133.44245,34.58581]]]}}]}