{"type":"FeatureCollection","features":[{"type":"Feature","properties":{"route_id":"188","route_number":188,"name":"国道188号","source":"OpenStreetMap contributors (ODbL)","osm_relations":[3717459,9400666,9400667,9400668,9400669]},"geometry":{"type":"MultiLineString","coordinates":[[[132.22605,34.17634],[132.22231,34.16716],[132.22268,34.16146],[132.2223,34.16411]],[[132.22268,34.16146],[132.22242,34.15976],[132.21383,34.14441],[132.19985,34.1301],[132.19931,34.12527],[132.20063,34.1216],[132.19873,34.11897],[132.19967,34.10907],[132.2014,34.10689],[132.20495,34.09621],[132.20476,34.09471],[132.20857,34.08805],[132.20904,34.08459],[132.20806,34.08136],[132.20878,34.07709],[132.20819,34.07254],[132.20645,34.07044],[132.20452,34.06552],[132.20604,34.06046],[132.20828,34.05653],[132.20837,34.05474],[132.21159,34.05118],[132.21405,34.03915],[132.21798,34.03597],[132.2165,34.03229],[132.21777,34.02883],[132.21748,34.02253],[132.21831,34.02067],[132.21688,34.01786],[132.21655,34.01343],[132.21508,34.01099],[132.2127,34.00201],[132.2064,33.99428],[132.20073,33.98891],[132.19957,33.98642],[132.20031,33.98285],[132.1981,33.9806],[132.19541,33.97523],[132.19172,33.97143],[132.18913,33.9658],[132.18559,33.96277],[132.18306,33.96273],[132.17801,33.9642],[132.1755,33.96246],[132.16848,33.96075],[132.16055,33.95749],[132.1525,33.95634],[132.13758,33.95759],[132.12008,33.95761],[132.11413,33.96226],[132.1063,33.96299],[132.09755,33.95915],[132.09542,33.95592],[132.08932,33.94985],[132.07958,33.94457],[132.07159,33.9438],[132.05872,33.93392],[132.05469,33.93208],[132.05071,33.92755],[132.05128,33.91923],[132.05038,33.91777],[132.04469,33.91503],[132.04297,33.91289],[132.03715,33.90907],[132.03012,33.90694],[132.02754,33.90473],[132.02617,33.90215],[132.02388,33.90233],[132.01904,33.90711],[132.00844,33.91047],[132.00369,33.91523],[131.99919,33.91577],[131.99702,33.91864],[131.98756,33.92568],[131.98422,33.92694],[131.98224,33.9294],[131.9772,33.93071],[131.9719,33.93043],[131.9696,33.93745],[131.96122,33.94872],[131.94145,33.9617],[131.93969,33.9654],[131.93531,33.96862],[131.9214,33.97255],[131.9164,33.97299],[131.91086,33.97223],[131.90292,33.974],[131.90046,33.97551],[131.8887,33.98546],[131.88579,33.99045],[131.88082,33.9931],[131.88049,33.99905],[131.87681,34.00444],[131.87355,34.01132],[131.87379,34.01742],[131.87266,34.02085],[131.86754,34.02732],[131.85918,34.03173]],[[131.86201,34.03038],[131.86784,34.02742],[131.87038,34.02404]],[[131.87071,34.02353],[131.86636,34.02795],[131.86168,34.03031]],[[132.19425,34.12159],[132.19385,34.12388],[132.19156,34.12681],[132.19143,34.12864],[132.19401,34.13479],[132.19746,34.14027],[132.2033,34.14642],[132.20731,34.15468],[132.20794,34.15983]],[[131.88301,33.99175],[131.88605,33.99036],[131.88876,33.98552],[131.90172,33.97466],[131.91059,33.97237],[131.9135,33.97252]],[[132.12811,33.95772],[132.13994,33.95708]],[[132.1005,33.96015],[132.1063,33.96299]]]}}]}