{"type":"FeatureCollection","features":[{"type":"Feature","properties":{"route_id":"302","route_number":302,"name":"国道302号","source":"OpenStreetMap contributors (ODbL)","osm_relations":[8512559]},"geometry":{"type":"MultiLineString","coordinates":[[[136.81665,35.19483],[136.81698,35.19678],[136.81632,35.17175],[136.81877,35.15436],[136.81496,35.13862],[136.81814,35.12781],[136.81835,35.12322],[136.816,35.10163],[136.81002,35.08959],[136.8177,35.07571],[136.81784,35.05194],[136.84531,35.05218],[136.87344,35.05445],[136.88473,35.05233],[136.90344,35.05156],[136.92373,35.04514],[136.92904,35.045],[136.95142,35.05201],[136.95452,35.05379],[136.96206,35.06151],[136.97015,35.07575],[136.98931,35.09461],[136.99209,35.09906],[137.00012,35.11716],[136.99999,35.14624],[137.00668,35.16291],[137.00634,35.1675],[137.0022,35.17858],[137.00119,35.18699],[136.99063,35.20566],[136.98885,35.20722],[136.98272,35.20975],[136.97599,35.21571],[136.97233,35.22109],[136.96693,35.22476],[136.95561,35.22483],[136.94655,35.22751],[136.92702,35.22991],[136.90108,35.22867],[136.88459,35.22383],[136.84129,35.22001],[136.85516,35.22196],[136.88482,35.22403],[136.901,35.22886],[136.92289,35.22992],[136.92997,35.23002],[136.94599,35.22779],[136.95381,35.22531]],[[136.96539,35.06794],[136.96938,35.07527],[136.99016,35.09645],[136.99913,35.11505],[137.00006,35.11958],[136.99947,35.14608],[137.00584,35.16036],[137.00657,35.16352],[137.00598,35.16806],[137.00217,35.17769],[137.00074,35.18737],[136.99023,35.20589],[136.9833,35.20908],[136.97938,35.21257]],[[136.96567,35.06774],[136.96158,35.06052],[136.95328,35.05255],[136.92753,35.04452],[136.92363,35.04493],[136.90195,35.05127],[136.88477,35.05218],[136.87343,35.05431],[136.84127,35.05169],[136.81768,35.05181],[136.8174,35.07573],[136.80963,35.08946],[136.81593,35.10218],[136.81811,35.12371],[136.81781,35.12805],[136.81471,35.13788],[136.81849,35.15453],[136.81611,35.17107],[136.81652,35.18735]],[[136.81698,35.19678],[136.8244,35.21157],[136.82646,35.21421],[136.83217,35.21845],[136.84129,35.22001]],[[136.82438,35.05154],[136.82288,35.05153]],[[136.79989,35.0519],[136.80778,35.05195]]]}}]}