{"type":"FeatureCollection","features":[{"type":"Feature","properties":{"route_id":"326","route_number":326,"name":"国道326号","source":"OpenStreetMap contributors (ODbL)","osm_relations":[9655888,10984545]},"geometry":{"type":"MultiLineString","coordinates":[[[131.67738,32.58662],[131.67597,32.58992],[131.6771,32.59592],[131.68167,32.59886],[131.68262,32.6013],[131.68343,32.60989],[131.68183,32.61534],[131.68379,32.61864],[131.68457,32.62293],[131.68682,32.62505],[131.6928,32.63399],[131.6877,32.64127],[131.69113,32.65166],[131.69091,32.65305],[131.68822,32.6555],[131.69377,32.66036],[131.69983,32.66373],[131.70258,32.66398],[131.70375,32.66512],[131.70354,32.66676],[131.70065,32.66966],[131.69995,32.67284],[131.69698,32.67532],[131.69548,32.6803],[131.69656,32.68421],[131.69213,32.68591],[131.69106,32.6881],[131.6911,32.69093],[131.68603,32.69411],[131.68242,32.6998],[131.68071,32.7051],[131.67795,32.70596],[131.67446,32.7107],[131.66954,32.71414],[131.66131,32.7166],[131.66038,32.72074],[131.65675,32.72344],[131.65547,32.72815],[131.65038,32.72875],[131.64818,32.7322],[131.64084,32.73672],[131.63493,32.73905],[131.63439,32.74398],[131.63133,32.74632],[131.62942,32.75005],[131.62886,32.75586],[131.62768,32.75744],[131.61964,32.76063],[131.61092,32.77264],[131.60608,32.77353],[131.6006,32.77182],[131.59781,32.77351],[131.59677,32.77558],[131.59822,32.77862],[131.60416,32.78436],[131.6075,32.79486],[131.60747,32.79741],[131.61239,32.80767],[131.61312,32.82102],[131.61561,32.82647],[131.61931,32.82925],[131.6206,32.83115],[131.6202,32.83562],[131.61751,32.8409],[131.61853,32.84539],[131.62266,32.84845],[131.62411,32.85456],[131.62875,32.85767],[131.63051,32.86469],[131.62804,32.86754],[131.62792,32.87066],[131.62648,32.873],[131.62682,32.87515],[131.62592,32.87742],[131.62786,32.88416],[131.62727,32.88647],[131.62259,32.89035],[131.61658,32.90171],[131.60972,32.90457],[131.60434,32.90799],[131.60106,32.91149],[131.59903,32.91561],[131.59605,32.9282],[131.5945,32.93039],[131.59387,32.9334],[131.59151,32.93601],[131.59195,32.94038],[131.58846,32.943],[131.58778,32.94649],[131.58627,32.94831],[131.5865,32.95031],[131.58491,32.95439],[131.58705,32.9566],[131.587,32.95926],[131.58191,32.96232],[131.58262,32.9646],[131.58182,32.96655],[131.58276,32.97402],[131.58206,32.97604],[131.58987,32.98376],[131.59933,32.98444],[131.60222,32.98758],[131.60881,32.98984],[131.6159,32.9955],[131.61624,32.99944],[131.61437,33.00454],[131.61841,33.01542],[131.62107,33.03133],[131.6236,33.03508],[131.62587,33.0366],[131.63448,33.03857],[131.64205,33.0468],[131.64185,33.04954],[131.63757,33.05687],[131.63629,33.06199],[131.63679,33.0639],[131.63386,33.07011],[131.63828,33.07219]],[[131.67725,32.58659],[131.67586,32.5899],[131.67697,32.59581],[131.68217,32.59983],[131.68301,32.61149]]]}}]}