{"type":"FeatureCollection","features":[{"type":"Feature","properties":{"route_id":"48","route_number":48,"name":"国道48号","source":"OpenStreetMap contributors (ODbL)","osm_relations":[2938899,2938900,9143163]},"geometry":{"type":"MultiLineString","coordinates":[[[140.32318,38.21443],[140.33162,38.2211],[140.33901,38.22911],[140.35038,38.23524],[140.35625,38.24615],[140.35655,38.24845],[140.35465,38.25419],[140.36061,38.26082],[140.36204,38.2646],[140.36007,38.27625],[140.36122,38.28507],[140.36041,38.29627],[140.36341,38.30719],[140.36232,38.31662],[140.3627,38.32083],[140.36891,38.33147],[140.37313,38.34106],[140.37611,38.34413],[140.38511,38.35023],[140.38842,38.3561],[140.38815,38.36119],[140.3829,38.37408],[140.39341,38.3785],[140.40051,38.38036],[140.40515,38.38549],[140.41595,38.39026],[140.41919,38.39503],[140.42347,38.39864],[140.43521,38.40321],[140.44436,38.40549],[140.44933,38.40889],[140.45299,38.41467],[140.46126,38.4168],[140.47534,38.41681],[140.48482,38.41519],[140.48948,38.41322],[140.50816,38.40829],[140.51231,38.40572],[140.52154,38.40248],[140.52382,38.40057],[140.52929,38.39848],[140.53433,38.39836],[140.54143,38.3958],[140.54463,38.39638],[140.54803,38.39559],[140.55698,38.3959],[140.56132,38.39467],[140.56437,38.39256],[140.56769,38.39202],[140.57453,38.38454],[140.57525,38.37505],[140.5818,38.37111],[140.5842,38.36849],[140.58742,38.36715],[140.58828,38.36451],[140.58626,38.36081],[140.59188,38.35702],[140.59536,38.35601],[140.59677,38.35413],[140.5976,38.34968],[140.60791,38.34502],[140.60893,38.3405],[140.61082,38.33849],[140.61069,38.33725],[140.61265,38.33671],[140.61293,38.33415],[140.61495,38.33204],[140.61662,38.32744],[140.62257,38.31891],[140.62548,38.31856],[140.62949,38.31674],[140.6372,38.31729],[140.64905,38.31341],[140.65275,38.31051],[140.65807,38.30933],[140.65953,38.30757],[140.66609,38.3033],[140.67243,38.30241],[140.6783,38.3],[140.68602,38.29388],[140.68671,38.28944],[140.69529,38.28131],[140.70936,38.27776],[140.72585,38.27143],[140.75046,38.27328],[140.75481,38.26898],[140.7576,38.26774],[140.77829,38.26681],[140.80275,38.26437],[140.81755,38.25974],[140.85457,38.26335],[140.8624,38.26083],[140.87339,38.26282],[140.8714,38.26622]],[[140.38302,38.3741],[140.38821,38.36143],[140.38854,38.35601],[140.38525,38.35026],[140.37666,38.3444],[140.37345,38.34129],[140.36903,38.33146],[140.36293,38.32125],[140.36241,38.31698],[140.36352,38.30726],[140.36054,38.2963],[140.36133,38.28442],[140.36014,38.27515],[140.36212,38.26428],[140.36071,38.26074],[140.35478,38.25418],[140.35657,38.24883],[140.3564,38.24626],[140.3501,38.23485],[140.33922,38.22915],[140.33208,38.22139],[140.32314,38.21432]],[[140.85957,38.26151],[140.86193,38.26068],[140.8664,38.26143],[140.86136,38.26065],[140.85715,38.26293],[140.85458,38.26326],[140.8179,38.25952],[140.8031,38.26424],[140.77802,38.26673],[140.75794,38.26759],[140.755,38.26871],[140.75259,38.27139]],[[140.8716,38.26623],[140.87364,38.26275],[140.8664,38.26143]]]}}]}