{"type":"FeatureCollection","features":[{"type":"Feature","properties":{"route_id":"348","route_number":348,"name":"国道348号","source":"OpenStreetMap contributors (ODbL)","osm_relations":[9384961]},"geometry":{"type":"MultiLineString","coordinates":[[[140.04465,38.05345],[140.0482,38.0554],[140.05011,38.05557],[140.06188,38.05144],[140.06033,38.05514],[140.05402,38.06069],[140.0505,38.06739],[140.03843,38.07931],[140.0427,38.08775],[140.04278,38.09025],[140.04147,38.09431],[140.0434,38.10416],[140.04297,38.11303],[140.04864,38.11485],[140.05076,38.11667],[140.05596,38.12549],[140.05719,38.13002],[140.05548,38.13554],[140.05587,38.13762],[140.06509,38.15222],[140.07488,38.15999],[140.08253,38.16392],[140.0917,38.17296],[140.0968,38.17956],[140.10318,38.18179],[140.10815,38.18555],[140.1141,38.18795],[140.11729,38.19126],[140.12074,38.19217],[140.12428,38.19219],[140.12854,38.19106],[140.13075,38.19179],[140.1333,38.19632],[140.13308,38.19944],[140.13436,38.20477],[140.13907,38.20511],[140.13963,38.20415],[140.13845,38.20265],[140.13958,38.20207],[140.14644,38.20523],[140.1496,38.20565],[140.14919,38.20685],[140.14555,38.20714],[140.1452,38.20807],[140.14605,38.20914],[140.14747,38.20951],[140.14962,38.20872],[140.15212,38.20995],[140.15595,38.20627],[140.15828,38.20604],[140.16046,38.20729],[140.16202,38.20719],[140.1698,38.20103],[140.17079,38.19783],[140.1758,38.19682],[140.17722,38.19365],[140.18331,38.19043],[140.1868,38.18994],[140.19314,38.19138],[140.20528,38.19628],[140.21048,38.1932],[140.21151,38.19096],[140.21473,38.18983],[140.21851,38.1865],[140.22315,38.18569],[140.22595,38.18633],[140.22941,38.18503],[140.24062,38.18875],[140.25545,38.19868],[140.26421,38.20995],[140.27313,38.21663],[140.27733,38.21616],[140.29045,38.22644],[140.29364,38.22759],[140.2964,38.22987],[140.30007,38.23122],[140.30502,38.23167],[140.30672,38.23821],[140.31323,38.23663],[140.33003,38.23469]],[[140.30495,38.23167],[140.30663,38.23833],[140.31325,38.23668],[140.33013,38.23479]]]}}]}