{"type":"FeatureCollection","features":[{"type":"Feature","properties":{"route_id":"396","route_number":396,"name":"国道396号","source":"OpenStreetMap contributors (ODbL)","osm_relations":[446121]},"geometry":{"type":"MultiLineString","coordinates":[[[141.16125,39.68532],[141.16679,39.67342],[141.17269,39.66395],[141.18064,39.65843],[141.18201,39.65655],[141.18625,39.63888],[141.18596,39.63698],[141.18439,39.63473],[141.18452,39.63259],[141.18316,39.62867],[141.18411,39.62319],[141.19144,39.61623],[141.19807,39.61454],[141.20233,39.61087],[141.2035,39.60852],[141.20495,39.60273],[141.20196,39.59816],[141.20246,39.59496],[141.20162,39.5913],[141.2028,39.58609],[141.20078,39.58056],[141.20621,39.57645],[141.20609,39.56969],[141.2043,39.56602],[141.2067,39.55689],[141.21012,39.55287],[141.2108,39.54778],[141.21351,39.54636],[141.21424,39.54399],[141.2176,39.54102],[141.21841,39.53719],[141.22233,39.53507],[141.22293,39.53243],[141.22548,39.52835],[141.22615,39.52387],[141.22918,39.52062],[141.22921,39.51915],[141.24165,39.50751],[141.24363,39.5019],[141.2495,39.4987],[141.25061,39.49739],[141.25142,39.49247],[141.25398,39.48802],[141.2538,39.48378],[141.25467,39.48208],[141.25819,39.47924],[141.26532,39.47636],[141.26959,39.4762],[141.28844,39.47002],[141.29034,39.46659],[141.29437,39.46348],[141.29534,39.46057],[141.29369,39.45526],[141.29489,39.452],[141.29735,39.44917],[141.30158,39.44886],[141.30447,39.44694],[141.30478,39.44394],[141.30782,39.44036],[141.30789,39.43782],[141.30576,39.43255],[141.30748,39.4251],[141.30971,39.42238],[141.3122,39.42107],[141.31286,39.41884],[141.3183,39.4167],[141.31972,39.41364],[141.3231,39.41104],[141.33364,39.40656],[141.33694,39.40339],[141.34066,39.39733],[141.34022,39.38359],[141.34419,39.38125],[141.35019,39.3828],[141.35035,39.38201],[141.34762,39.37833],[141.34945,39.37332],[141.35139,39.37178],[141.3521,39.36958],[141.35545,39.36677],[141.35791,39.36646],[141.35898,39.36719],[141.36065,39.36571],[141.36294,39.36577],[141.36512,39.36777],[141.37819,39.37405],[141.38188,39.37141],[141.38799,39.36957],[141.38893,39.36794],[141.39643,39.36914],[141.40025,39.36671],[141.40198,39.36297],[141.41295,39.36081],[141.42043,39.35412],[141.4248,39.35136],[141.43078,39.34897],[141.43452,39.34474],[141.44331,39.33841],[141.44533,39.33589],[141.44918,39.33447],[141.45318,39.33096],[141.46055,39.33079],[141.47238,39.33288],[141.48014,39.33104],[141.48198,39.32804]],[[141.16144,39.6853],[141.16691,39.67342],[141.17233,39.66464],[141.18113,39.65792]]]}}]}