{"type":"FeatureCollection","features":[{"type":"Feature","properties":{"route_id":"127","route_number":127,"name":"国道127号","source":"OpenStreetMap contributors (ODbL)","osm_relations":[9066741,9066742]},"geometry":{"type":"MultiLineString","coordinates":[[[139.92693,35.36799],[139.92276,35.36394],[139.92097,35.35862],[139.92027,35.35213],[139.92113,35.3468],[139.92063,35.34257],[139.92706,35.31606],[139.92694,35.3142],[139.92177,35.30858],[139.91629,35.30514],[139.91619,35.30323],[139.91789,35.29893],[139.91415,35.28237],[139.90927,35.27692],[139.90406,35.27508],[139.89657,35.27053],[139.89106,35.26515],[139.88537,35.26286],[139.88407,35.25816],[139.88413,35.25453],[139.8875,35.24854],[139.88709,35.24555],[139.88857,35.24261],[139.88757,35.23685],[139.88184,35.23329],[139.87842,35.23005],[139.87463,35.22896],[139.8725,35.21889],[139.86887,35.21447],[139.86461,35.2142],[139.86207,35.21686],[139.86075,35.21695],[139.85768,35.21492],[139.84891,35.2125],[139.84334,35.20489],[139.83801,35.20325],[139.83373,35.20417],[139.83215,35.2033],[139.82948,35.19932],[139.82398,35.19586],[139.82283,35.19307],[139.82009,35.18988],[139.81878,35.18444],[139.81932,35.17998],[139.81827,35.1767],[139.81937,35.17358],[139.81798,35.17113],[139.81965,35.16831],[139.82217,35.16692],[139.82278,35.16437],[139.82233,35.16339],[139.82013,35.16292],[139.81963,35.16162],[139.81986,35.15948],[139.81907,35.1574],[139.81983,35.15501],[139.82945,35.15183],[139.8354,35.14328],[139.83728,35.13866],[139.83844,35.1386],[139.83883,35.13742],[139.83803,35.13541],[139.83973,35.13141],[139.83964,35.12968],[139.83726,35.12779],[139.83649,35.12535],[139.83295,35.12004],[139.8319,35.11745],[139.83254,35.1146],[139.83167,35.11069],[139.83456,35.11008],[139.8466,35.10178],[139.84785,35.09939],[139.8486,35.09087],[139.84731,35.08826],[139.84484,35.08585],[139.84346,35.08576],[139.84289,35.0826],[139.84072,35.08115],[139.83815,35.07709],[139.83584,35.07561],[139.83261,35.07508],[139.83001,35.07216],[139.82417,35.07029],[139.82416,35.06535],[139.82702,35.06311],[139.8294,35.05529],[139.83224,35.05292],[139.83497,35.04805],[139.83526,35.045],[139.83291,35.04051],[139.83323,35.03946],[139.83679,35.03799],[139.84991,35.03885],[139.85203,35.03547],[139.85981,35.03047],[139.87085,35.01916],[139.87174,35.01491],[139.87146,35.00222],[139.87449,34.99645],[139.8735,34.99159]],[[139.85843,35.03157],[139.87147,35.01821],[139.87159,35.00221],[139.87461,34.99627],[139.87363,34.99161]],[[139.84991,35.03885],[139.85379,35.03418]],[[139.92709,35.36786],[139.92303,35.36417],[139.9211,35.3586],[139.92037,35.35209],[139.92125,35.34683],[139.92078,35.34246],[139.92712,35.31442],[139.92631,35.31271],[139.92201,35.30853],[139.91697,35.30588],[139.9162,35.30433],[139.91661,35.30253]],[[139.88814,35.23947],[139.88844,35.24283],[139.88698,35.24559],[139.88738,35.24868],[139.8843,35.25356]]]}}]}