{"type":"FeatureCollection","features":[{"type":"Feature","properties":{"route_id":"209","route_number":209,"name":"国道209号","source":"OpenStreetMap contributors (ODbL)","osm_relations":[9364404,10120374]},"geometry":{"type":"MultiLineString","coordinates":[[[130.44624,33.03183],[130.44999,33.03699],[130.45365,33.03813],[130.4551,33.04132],[130.46308,33.05151],[130.46794,33.06443],[130.46795,33.06896],[130.46426,33.07201],[130.46371,33.07828],[130.45999,33.08582],[130.45875,33.09017],[130.45905,33.09438],[130.45802,33.1018],[130.4713,33.14325],[130.47944,33.1581],[130.48487,33.16055],[130.49244,33.16085],[130.5057,33.16837],[130.50745,33.17066],[130.50768,33.17546],[130.50346,33.18479],[130.50194,33.19328],[130.50268,33.20131],[130.50214,33.20932],[130.50067,33.21381],[130.50088,33.21677],[130.5029,33.2214],[130.50373,33.22575],[130.50684,33.23095],[130.50738,33.23973],[130.50954,33.24842],[130.509,33.25281],[130.51104,33.26362],[130.51137,33.27507],[130.50879,33.30039],[130.51267,33.31459],[130.51769,33.31344],[130.5224,33.3134],[130.51784,33.31334],[130.51268,33.31448]],[[130.51033,33.28513],[130.50866,33.30026],[130.5108,33.30754]],[[130.456,33.04237],[130.45371,33.03803],[130.44994,33.03682],[130.44634,33.0318]]]}}]}