{"type":"FeatureCollection","features":[{"type":"Feature","properties":{"route_id":"434","route_number":434,"name":"国道434号","source":"OpenStreetMap contributors (ODbL)","osm_relations":[1181630,4261225,4261284,9919870,9921835]},"geometry":{"type":"MultiLineString","coordinates":[[[131.99568,34.33623],[131.99707,34.33866],[132.00181,34.34241],[132.00241,34.34375],[132.00205,34.34734],[132.00607,34.35053],[132.00772,34.35767],[132.01112,34.35991],[132.01167,34.36202],[132.01901,34.37023],[132.01947,34.3719],[132.02227,34.37347],[132.02239,34.37594],[132.02548,34.37825],[132.02522,34.38057],[132.02734,34.38318],[132.0281,34.38969],[132.02721,34.39452],[132.02783,34.39749],[132.02928,34.39947],[132.02873,34.40143],[132.0293,34.40286],[132.0326,34.40641],[132.03561,34.40704],[132.0366,34.40843],[132.0395,34.40865],[132.03983,34.41056],[132.04227,34.40938],[132.04871,34.41184],[132.052,34.41889],[132.05898,34.42359],[132.06015,34.42884],[132.06328,34.43384],[132.06649,34.43711],[132.0724,34.44059],[132.07225,34.43916],[132.07,34.43728],[132.06943,34.43304],[132.07278,34.43745],[132.07262,34.43588],[132.07558,34.43856],[132.07502,34.43672],[132.07681,34.43725],[132.07914,34.43584],[132.08222,34.43214],[132.08578,34.43034],[132.08819,34.43021],[132.09268,34.44037],[132.09448,34.4422],[132.0944,34.44372],[132.09308,34.44543],[132.09471,34.44985],[132.10329,34.45539],[132.10383,34.45837],[132.10547,34.45887],[132.11786,34.46973],[132.1183,34.47459],[132.12017,34.47691],[132.12747,34.4801],[132.13732,34.48043],[132.14557,34.48503],[132.14646,34.48631],[132.15327,34.49051],[132.15457,34.49289],[132.15697,34.49501],[132.16519,34.49844],[132.16663,34.50138],[132.17092,34.50439],[132.17251,34.50701],[132.1759,34.51012],[132.17721,34.51467],[132.18505,34.51731],[132.18898,34.52034],[132.19267,34.52169],[132.19379,34.52309],[132.19683,34.52457],[132.19808,34.52651],[132.19987,34.52668],[132.20095,34.5284],[132.20379,34.52896],[132.20513,34.52805],[132.20765,34.52897],[132.20842,34.53087],[132.20754,34.53275],[132.20849,34.53424],[132.21245,34.53547],[132.21553,34.53476],[132.2172,34.53657],[132.2195,34.53672],[132.22055,34.53959],[132.22236,34.53851],[132.22379,34.53886],[132.22529,34.53817],[132.22754,34.53904],[132.22865,34.54022],[132.22869,34.54308],[132.23219,34.54629],[132.23029,34.54787],[132.23688,34.55121],[132.24765,34.56244],[132.25654,34.56589],[132.2586,34.56743],[132.26144,34.56795],[132.26398,34.5667],[132.26691,34.56685],[132.26863,34.56907],[132.27117,34.57021],[132.26986,34.57258],[132.27103,34.57573],[132.27822,34.58055],[132.28152,34.58057],[132.28804,34.58542],[132.29447,34.58873],[132.29485,34.59122],[132.29599,34.59226],[132.30178,34.59356],[132.3017,34.59492],[132.2994,34.5963],[132.30065,34.59942],[132.30694,34.60294],[132.31069,34.60777],[132.3148,34.61046],[132.31515,34.61211],[132.31758,34.61225],[132.32182,34.6098],[132.32621,34.61023],[132.32767,34.61168],[132.32725,34.61451],[132.32818,34.61474],[132.32936,34.61358],[132.3306,34.61537],[132.333,34.61658],[132.33505,34.62028],[132.33872,34.62106],[132.33965,34.62356],[132.34359,34.62529],[132.35161,34.63285],[132.35662,34.63572],[132.36135,34.63986],[132.36655,34.64178],[132.36769,34.6431],[132.36795,34.64552],[132.37454,34.64962],[132.37704,34.65376],[132.37665,34.65033],[132.37726,34.6487],[132.37649,34.64898],[132.37697,34.64762],[132.37569,34.64665],[132.37486,34.64431],[132.37748,34.64372],[132.37877,34.64441],[132.37922,34.64241],[132.38018,34.64201],[132.38039,34.64279],[132.3823,34.64324],[132.38227,34.64435],[132.38398,34.64505],[132.38541,34.64444],[132.38823,34.64613],[132.39138,34.64682],[132.39338,34.64628],[132.39605,34.64785],[132.39777,34.64795],[132.40019,34.65029],[132.4027,34.65651],[132.40682,34.65839],[132.40801,34.66011],[132.40621,34.66439],[132.40688,34.66835],[132.40637,34.67146],[132.40832,34.67334],[132.40887,34.675],[132.41226,34.67593],[132.41499,34.67861],[132.41957,34.68077],[132.41921,34.68734],[132.42256,34.69075],[132.42383,34.69592],[132.42535,34.69854],[132.4288,34.70102],[132.42885,34.70359],[132.43144,34.70486],[132.43498,34.70946],[132.43984,34.71169],[132.44653,34.71625],[132.45575,34.71964],[132.4626,34.71799],[132.46761,34.71785],[132.47044,34.71413],[132.46947,34.71132],[132.4735,34.70704],[132.47709,34.70799],[132.47975,34.71041],[132.48223,34.71001],[132.48558,34.71086],[132.49249,34.71061],[132.49487,34.70889],[132.49938,34.70835],[132.50204,34.70717],[132.50178,34.709],[132.50529,34.71348],[132.50705,34.71997],[132.51341,34.72157],[132.51674,34.72411],[132.52169,34.72513],[132.52245,34.72788],[132.5259,34.73192],[132.53278,34.73306],[132.5374,34.73629],[132.54484,34.73669],[132.54916,34.73432],[132.55221,34.73584],[132.55439,34.73253],[132.55678,34.73605],[132.55903,34.73612],[132.56027,34.73385],[132.55984,34.73001],[132.56267,34.72859],[132.56206,34.72562],[132.56283,34.7251],[132.56543,34.72652],[132.57178,34.72702],[132.57347,34.72794],[132.57475,34.72749],[132.57519,34.72992],[132.57583,34.72928],[132.57665,34.73067],[132.57779,34.73072],[132.57888,34.73219],[132.57893,34.73405],[132.58052,34.73574],[132.57986,34.73661],[132.58057,34.73789],[132.57937,34.74064],[132.57808,34.74087],[132.57874,34.74156],[132.57728,34.74217],[132.57853,34.74288],[132.57854,34.74585],[132.58055,34.74538],[132.5802,34.74626],[132.58243,34.74802],[132.58052,34.74863],[132.58001,34.75019],[132.58205,34.74949],[132.58638,34.75181],[132.58747,34.75426],[132.58821,34.75426],[132.59468,34.76255],[132.59996,34.76614],[132.60729,34.76706],[132.61046,34.76646],[132.61328,34.7639],[132.61709,34.76336],[132.62242,34.76111],[132.62526,34.76192],[132.62992,34.76156],[132.63552,34.76322],[132.63939,34.76663],[132.64452,34.77337],[132.6475,34.77371],[132.65355,34.77138],[132.66101,34.77279],[132.66985,34.77266],[132.6745,34.76871],[132.67914,34.76807],[132.68113,34.7644],[132.68353,34.76315],[132.69143,34.76475],[132.69194,34.76853],[132.69705,34.77272],[132.70219,34.76958],[132.70904,34.77083],[132.71557,34.77036],[132.71592,34.77311],[132.71466,34.77621],[132.71243,34.77944],[132.70794,34.78193],[132.70636,34.78505],[132.70827,34.78643],[132.71057,34.79134],[132.70725,34.79384],[132.70341,34.7937],[132.70525,34.79702],[132.70496,34.79863],[132.70581,34.80162],[132.7072,34.80333],[132.7069,34.80534],[132.70768,34.80691],[132.71515,34.81425],[132.7142,34.81487],[132.71496,34.81847],[132.71807,34.81821],[132.72689,34.81481],[132.75149,34.81147],[132.75464,34.81004],[132.76181,34.80865],[132.76729,34.80959],[132.77349,34.80743],[132.78557,34.80675],[132.79177,34.80417],[132.80036,34.80834],[132.80632,34.80871],[132.81357,34.81407],[132.81621,34.81502],[132.81731,34.81685],[132.82021,34.81882],[132.82321,34.81944]],[[131.81503,34.0588],[131.82853,34.0658],[131.83086,34.068],[131.83355,34.07584],[131.83781,34.08274],[131.83781,34.08558],[131.84045,34.0869],[131.84347,34.09041],[131.84583,34.09148],[131.84067,34.09035],[131.84001,34.09132],[131.84048,34.09227],[131.84499,34.09236],[131.85039,34.09649],[131.85316,34.10034],[131.85389,34.10263],[131.85672,34.10559],[131.85707,34.10912],[131.86569,34.10985],[131.87214,34.11178],[131.87106,34.11605],[131.87271,34.11857],[131.87288,34.1245],[131.87636,34.12739],[131.87798,34.13104],[131.88051,34.13216],[131.88166,34.13445],[131.88357,34.13397],[131.88342,34.13221],[131.88582,34.13282],[131.8878,34.13206],[131.88924,34.13263],[131.89034,34.13487],[131.89138,34.13366],[131.89472,34.13327],[131.89889,34.13574],[131.90277,34.13683],[131.90431,34.14212],[131.90146,34.14257],[131.9014,34.14419],[131.90201,34.1459],[131.90497,34.14797],[131.90419,34.14904],[131.90217,34.14935],[131.9041,34.15161],[131.90767,34.15321],[131.90815,34.15497],[131.90548,34.15982],[131.90843,34.16274],[131.9109,34.16239],[131.91196,34.16311],[131.91028,34.16607],[131.91312,34.16762],[131.90987,34.17376],[131.91008,34.17818],[131.91511,34.18532],[131.91663,34.18633],[131.92062,34.18657],[131.92128,34.18897],[131.91983,34.19377],[131.91995,34.19965],[131.91229,34.20199],[131.90824,34.20779],[131.9067,34.20886],[131.90484,34.21621],[131.90268,34.22114],[131.90623,34.22373],[131.9082,34.22789],[131.91134,34.23053],[131.91027,34.23363],[131.91091,34.23573],[131.91608,34.23751],[131.91891,34.23947],[131.92049,34.24313],[131.92295,34.24589],[131.92328,34.2485],[131.92922,34.25424],[131.93155,34.25759],[131.93881,34.25996],[131.9426,34.25903],[131.94537,34.26015],[131.96107,34.26251],[131.96589,34.26454],[131.96778,34.26886],[131.97007,34.27049],[131.9713,34.27019],[131.9727,34.26834],[131.97518,34.26953],[131.97815,34.2677],[131.97934,34.26844],[131.97475,34.27423],[131.97408,34.2772],[131.97299,34.27852],[131.96672,34.28001],[131.96621,34.28204],[131.967,34.28376],[131.96704,34.28808],[131.96875,34.29159],[131.97072,34.29331],[131.97037,34.2958],[131.97172,34.29806],[131.97186,34.30006],[131.97309,34.30131],[131.97359,34.30489],[131.97617,34.306],[131.97977,34.31025],[131.98219,34.31129],[131.98315,34.31258],[131.9865,34.31182],[131.99083,34.31602],[131.99217,34.31893],[131.99142,34.32154],[131.99255,34.33003],[131.9948,34.33249],[131.99567,34.33618]],[[132.77901,34.80696],[132.78621,34.80805],[132.78803,34.80713],[132.78967,34.80475]],[[132.03226,34.40546],[132.03423,34.40657],[132.0383,34.40679],[132.04417,34.41003]]]}}]}