{"type":"FeatureCollection","features":[{"type":"Feature","properties":{"route_id":"468","route_number":468,"name":"国道468号","source":"OpenStreetMap contributors (ODbL)","osm_relations":[12086616]},"geometry":{"type":"MultiLineString","coordinates":[[[139.39089,35.35094],[139.37809,35.3531],[139.37705,35.35466],[139.37582,35.36015],[139.3731,35.36541],[139.37368,35.37005],[139.37806,35.38249],[139.37851,35.38616],[139.37742,35.39494],[139.37191,35.4107],[139.37222,35.41486],[139.37607,35.42562],[139.37689,35.43084],[139.37631,35.43975],[139.37369,35.44836],[139.37439,35.45253],[139.37205,35.45819],[139.37297,35.46044],[139.37676,35.46371],[139.37754,35.46641],[139.36552,35.49988],[139.36587,35.50713],[139.36084,35.51385],[139.35773,35.51984],[139.35543,35.52208],[139.34671,35.52682],[139.33359,35.53073],[139.32593,35.53635],[139.32161,35.54208],[139.31625,35.55398],[139.30885,35.56453],[139.29327,35.58148],[139.28635,35.59159],[139.28228,35.59488],[139.27179,35.59901],[139.26763,35.60214],[139.2651,35.60778],[139.26619,35.61533],[139.26547,35.61899],[139.25152,35.64691],[139.24986,35.65804],[139.24981,35.66635],[139.25104,35.67448],[139.25358,35.68248],[139.25693,35.68741],[139.26903,35.69721],[139.27498,35.70714],[139.28147,35.7142],[139.28354,35.71798],[139.28408,35.72254],[139.28136,35.74297],[139.28151,35.74811],[139.28288,35.75343],[139.28588,35.75968],[139.29021,35.77238],[139.2918,35.77494],[139.29542,35.77801],[139.29782,35.78184],[139.29907,35.78953],[139.30059,35.79141],[139.32289,35.79747],[139.33926,35.80567],[139.3528,35.80818],[139.36045,35.81382],[139.36816,35.81777],[139.37133,35.8207],[139.37395,35.82621],[139.37408,35.8317],[139.37218,35.83602],[139.36573,35.84616],[139.3651,35.84945],[139.36667,35.85263],[139.37582,35.86033],[139.37765,35.86294],[139.37794,35.86633],[139.37541,35.8734],[139.37614,35.87704],[139.37856,35.87954],[139.38533,35.88272],[139.38759,35.8857],[139.38767,35.89367],[139.39011,35.90236],[139.38961,35.90607],[139.38686,35.9136],[139.38794,35.91929],[139.39434,35.9266],[139.40764,35.93669],[139.41563,35.94664],[139.42507,35.95081],[139.43029,35.95732],[139.43827,35.9618],[139.44215,35.96647],[139.45103,35.97345],[139.47354,35.98501],[139.47983,35.98582],[139.49085,35.98484],[139.49856,35.9867],[139.51325,35.99511],[139.51954,36.0022],[139.52442,36.00549],[139.53609,36.01042],[139.5454,36.01088],[139.54932,36.01208],[139.57556,36.02707],[139.58891,36.0386],[139.59961,36.04293],[139.62072,36.04616],[139.63275,36.05079],[139.63676,36.05147],[139.65981,36.0492],[139.67355,36.04436]],[[139.29301,35.776],[139.29044,35.77283],[139.28199,35.74897],[139.28176,35.74137],[139.28427,35.72209],[139.28378,35.71786],[139.28176,35.71407],[139.27568,35.70755],[139.26931,35.69705],[139.2572,35.68721],[139.25402,35.6826],[139.25141,35.67452],[139.25018,35.66635],[139.25028,35.65805],[139.2517,35.64748],[139.26584,35.61906],[139.26653,35.61481],[139.26543,35.608],[139.26761,35.60266],[139.27113,35.59969],[139.28146,35.59558],[139.28611,35.59206],[139.29337,35.58156],[139.30913,35.56465],[139.3168,35.55344],[139.32219,35.54154],[139.32627,35.53647],[139.33414,35.53089],[139.34709,35.52697],[139.35569,35.52203],[139.35783,35.51989],[139.366,35.50742],[139.36566,35.49991],[139.37769,35.46643],[139.3769,35.46366],[139.37312,35.46038],[139.37222,35.45819],[139.37456,35.45251],[139.37389,35.44821],[139.37644,35.43977],[139.377,35.4319],[139.37641,35.42643],[139.37271,35.41617],[139.37198,35.41116],[139.37754,35.39497],[139.37863,35.38616],[139.37819,35.38253],[139.37396,35.37076],[139.37321,35.36538],[139.37596,35.36012],[139.37693,35.35539],[139.37815,35.35321],[139.39176,35.35084],[139.39258,35.34998],[139.39182,35.349]],[[139.91471,36.08018],[139.91927,36.07585],[139.9157,36.07933],[139.91162,36.08155],[139.90202,36.08399],[139.89093,36.0891],[139.88062,36.09028],[139.87675,36.0915],[139.8706,36.09611],[139.85817,36.10998],[139.85416,36.11175],[139.84568,36.11283],[139.84052,36.11448],[139.83613,36.11705],[139.83095,36.12195],[139.82743,36.124],[139.82206,36.12494],[139.81176,36.12414],[139.79662,36.12798],[139.7901,36.12779],[139.77651,36.12235],[139.76091,36.11262],[139.75828,36.11026],[139.75683,36.10737],[139.75669,36.10423],[139.76158,36.0957],[139.76205,36.09255],[139.7614,36.08941],[139.75653,36.08266],[139.7511,36.07195],[139.7385,36.06456],[139.73276,36.06275],[139.72534,36.06166],[139.70801,36.06486],[139.70338,36.0643],[139.68906,36.05321],[139.68228,36.04655],[139.67686,36.04436],[139.67112,36.04471],[139.65913,36.04922],[139.63665,36.05136],[139.63269,36.05065],[139.62013,36.0459],[139.59972,36.04285],[139.58958,36.03887],[139.57567,36.027],[139.54942,36.012],[139.54494,36.01072],[139.53612,36.0103],[139.52451,36.00541],[139.51963,36.00211],[139.51334,35.99502],[139.49863,35.98659],[139.49154,35.98478],[139.47839,35.9857],[139.47125,35.98405],[139.45111,35.97338],[139.44225,35.96642],[139.4383,35.9617],[139.43038,35.95726],[139.42516,35.95073],[139.41611,35.94688],[139.40747,35.93636],[139.39443,35.92652],[139.3884,35.91988],[139.38722,35.91712],[139.38698,35.91366],[139.38983,35.90572],[139.39022,35.90237],[139.38784,35.89389],[139.3877,35.88572],[139.3854,35.88265],[139.37887,35.87961],[139.37637,35.87721],[139.37553,35.87342],[139.37801,35.86654],[139.3778,35.86293],[139.37584,35.8602],[139.36681,35.85263],[139.36526,35.84971],[139.3656,35.84664],[139.37265,35.83549],[139.3743,35.83127],[139.37375,35.82507],[139.37106,35.82018],[139.36823,35.8177],[139.36051,35.81375],[139.35244,35.80793],[139.33931,35.80557],[139.32285,35.79735],[139.30021,35.79109]],[[140.43753,35.66229],[140.43471,35.66245],[140.43035,35.65913],[140.41791,35.65253],[140.40545,35.63998],[140.39549,35.63214],[140.38783,35.62228],[140.3813,35.61713],[140.37449,35.61398],[140.35313,35.60777],[140.33801,35.59687],[140.32505,35.59509],[140.31886,35.59221],[140.31588,35.58878],[140.31452,35.58414],[140.3172,35.56473],[140.31549,35.57693]],[[140.02512,36.06662],[140.04778,36.05728],[140.0533,36.05582],[140.05935,36.05558],[140.08425,36.05796],[140.10033,36.05432],[140.10428,36.05128],[140.1077,36.04515],[140.11065,36.04192],[140.1262,36.03146],[140.13737,36.0212],[140.1414,36.01576],[140.14596,36.00411],[140.15123,35.99796],[140.15649,35.99479],[140.16201,35.99313],[140.17551,35.99309],[140.17986,35.99224],[140.17518,35.99299],[140.162,35.99302],[140.15638,35.99472],[140.15169,35.99745],[140.14609,36.00369],[140.14104,36.01617],[140.13633,36.02218],[140.12611,36.03139],[140.1105,36.04189],[140.10758,36.0451],[140.10383,36.0516],[140.09822,36.05506],[140.08348,36.05786],[140.05814,36.05541],[140.05057,36.05626],[140.01985,36.06885],[140.01543,36.07208],[140.01086,36.07778],[140.00464,36.08026],[139.98347,36.07819],[139.96779,36.07353],[139.95682,36.07351],[139.9464,36.07169],[139.93283,36.07074],[139.92506,36.07196],[139.91927,36.07585]],[[140.17986,35.99224],[140.18867,35.99138],[140.20099,35.99526],[140.20952,35.99522],[140.21515,35.99314],[140.23571,35.98189],[140.25133,35.97981],[140.27202,35.97447],[140.28323,35.96699],[140.293,35.962],[140.30313,35.95295],[140.31207,35.94806],[140.31924,35.94272],[140.33612,35.9366],[140.34031,35.93441],[140.34431,35.93063],[140.3482,35.92305],[140.35195,35.91852],[140.3488,35.92192],[140.34517,35.92912],[140.34256,35.93243],[140.33836,35.93548],[140.33298,35.93759]],[[140.21625,35.37117],[140.22956,35.3752],[140.21855,35.37163],[140.19792,35.36868],[140.18157,35.35766],[140.17423,35.35555],[140.16986,35.35591],[140.15585,35.35964],[140.13981,35.36119],[140.12827,35.36439],[140.11632,35.36196],[140.09196,35.36267],[140.07088,35.35912],[140.04748,35.3591],[140.03736,35.35767],[140.02741,35.3578],[140.01488,35.35663],[140.00825,35.358],[139.99806,35.36438],[139.98693,35.36811],[139.98244,35.37176],[139.97973,35.37663]],[[139.97982,35.37673],[139.98234,35.37208],[139.9861,35.36875],[139.99819,35.36447],[140.00619,35.3591],[140.01115,35.35723],[140.01607,35.35674],[140.02695,35.3579],[140.03684,35.35774],[140.04661,35.35917],[140.05624,35.35913]],[[140.30457,35.95199],[140.29352,35.96154],[140.28228,35.96744],[140.27197,35.97438],[140.25129,35.97973],[140.24298,35.98051]],[[139.39014,35.35111],[139.39574,35.3508]],[[139.38982,35.34768],[139.39211,35.34992],[139.39111,35.3509],[139.3931,35.35026]],[[140.28458,35.49387],[140.26815,35.48763],[140.26487,35.48528],[140.26239,35.48219],[140.26732,35.4873],[140.28653,35.49472],[140.29011,35.49705],[140.29294,35.50022],[140.29479,35.50468],[140.29496,35.51221],[140.29592,35.51585],[140.3076,35.53368],[140.30837,35.53665],[140.30863,35.54627],[140.30998,35.54876],[140.31628,35.5558],[140.3172,35.56473]],[[140.39043,35.81326],[140.38514,35.82933],[140.3844,35.83383],[140.38619,35.84723],[140.39148,35.85931],[140.39176,35.86302],[140.39097,35.86676],[140.38104,35.89183],[140.37267,35.90724],[140.36768,35.91143],[140.35731,35.91512],[140.35195,35.91852]],[[140.37721,35.89917],[140.38138,35.89134],[140.3918,35.86401],[140.39117,35.85776],[140.38635,35.84733],[140.38455,35.83454],[140.38528,35.82936],[140.38998,35.81471]],[[139.69612,36.05849],[139.70091,36.06311],[139.70456,36.06475],[139.70827,36.06493],[139.71997,36.06236],[139.72738,36.06192],[139.73756,36.06428],[139.74953,36.0707],[139.75217,36.07362],[139.7562,36.08234],[139.76055,36.08799],[139.76178,36.09113],[139.76128,36.09617],[139.75657,36.10423],[139.7567,36.1074],[139.75811,36.11022],[139.76064,36.11256],[139.77726,36.12287],[139.79167,36.12819],[139.79718,36.12798],[139.81179,36.12424],[139.8229,36.12505],[139.8275,36.1241],[139.83099,36.1221],[139.83621,36.11712],[139.84059,36.11458],[139.84575,36.11293],[139.8542,36.11187],[139.85826,36.11007],[139.87069,36.09618],[139.87622,36.0919],[139.88067,36.0904],[139.89099,36.0892],[139.90014,36.08488]],[[140.40189,35.63707],[140.41559,35.65047]],[[140.32262,35.59438],[140.32601,35.59539],[140.3357,35.59629],[140.34094,35.5984]],[[140.26239,35.48219],[140.25928,35.47129],[140.24944,35.45334],[140.248,35.449],[140.2483,35.44357],[140.24962,35.43887],[140.25642,35.42839],[140.25785,35.42419],[140.25762,35.41864],[140.25435,35.40827],[140.2579,35.4195],[140.25807,35.42344],[140.2572,35.42675]],[[140.25435,35.40827],[140.24586,35.39746],[140.2445,35.38692],[140.24231,35.38237],[140.23746,35.37825],[140.22956,35.3752]],[[140.14401,35.36064],[140.13798,35.36149],[140.13029,35.36409],[140.12482,35.36389]],[[140.29502,35.50715],[140.29498,35.51277],[140.29651,35.51715]],[[140.43637,35.66221],[140.43746,35.66237]]]}}]}