{"type":"FeatureCollection","features":[{"type":"Feature","properties":{"route_id":"28","route_number":28,"name":"国道28号","source":"OpenStreetMap contributors (ODbL)","osm_relations":[12592]},"geometry":{"type":"MultiLineString","coordinates":[[[135.01822,34.64363],[135.0114,34.64415],[135.00274,34.64352],[134.99331,34.64433],[134.99296,34.6429],[134.99096,34.64135],[135.01413,34.59856],[135.01567,34.59173],[135.01823,34.58958],[135.02145,34.58931],[135.02256,34.58686],[135.02339,34.57931],[135.02457,34.57711],[135.02437,34.57481],[135.01671,34.56554],[135.00969,34.5586],[135.00667,34.55634],[135.00031,34.5541],[134.99504,34.54825],[134.99101,34.53636],[134.99116,34.53135],[134.99015,34.52497],[134.98677,34.51631],[134.98039,34.50997],[134.97727,34.50135],[134.97263,34.49725],[134.96089,34.4922],[134.95162,34.48142],[134.94888,34.47615],[134.94391,34.47041],[134.93658,34.46667],[134.93099,34.45932],[134.92187,34.45597],[134.9201,34.45307],[134.91735,34.45068],[134.91608,34.44698],[134.9062,34.43519],[134.9055,34.43316],[134.89809,34.42516],[134.89819,34.42307],[134.8956,34.42023],[134.89487,34.41706],[134.89537,34.41293],[134.89809,34.41031],[134.89854,34.40882],[134.89457,34.39949],[134.89494,34.39571],[134.89401,34.39124],[134.89587,34.38228],[134.89583,34.37812],[134.8976,34.37515],[134.8967,34.37324],[134.89771,34.36807],[134.89548,34.36623],[134.89555,34.35675],[134.89342,34.35422],[134.89322,34.35145],[134.89107,34.34696],[134.88447,34.34342],[134.88054,34.34331],[134.87588,34.33975],[134.8731,34.33603],[134.871,34.33495],[134.85944,34.33573],[134.8522,34.33462],[134.84718,34.33817],[134.83863,34.32921],[134.83175,34.32438],[134.82455,34.31496],[134.81423,34.30846],[134.80853,34.30576],[134.80456,34.30166],[134.79931,34.29849],[134.79709,34.29584],[134.77967,34.28899],[134.75983,34.27118],[134.74868,34.26922],[134.73386,34.26487],[134.72566,34.2598],[134.71924,34.25428],[134.71474,34.24359],[134.70878,34.24037],[134.62807,34.18467],[134.6246,34.18348],[134.61872,34.1872],[134.61561,34.18793],[134.61506,34.18731],[134.61623,34.1865],[134.61624,34.18534],[134.61072,34.18216],[134.60949,34.1803],[134.60819,34.17294],[134.60314,34.16983],[134.59275,34.16089],[134.59363,34.14359],[134.59307,34.14198],[134.58708,34.13677],[134.58086,34.1333],[134.57541,34.13329],[134.57541,34.13404],[134.57472,34.13396],[134.57388,34.12714],[134.57821,34.1221],[134.57872,34.12035],[134.57538,34.10118],[134.56494,34.08472],[134.55951,34.07965],[134.55719,34.06653]],[[134.55703,34.06655],[134.5594,34.07973],[134.56445,34.08435],[134.57526,34.10119],[134.57858,34.12043],[134.57774,34.12257],[134.57376,34.12708],[134.57449,34.13397],[134.57372,34.13406],[134.5736,34.13331],[134.57541,34.13329]],[[135.17831,34.68161],[135.15723,34.66805],[135.15184,34.66725],[135.15797,34.66102],[135.14928,34.65675],[135.13124,34.64502],[135.10899,34.64267],[135.10186,34.63768],[135.09616,34.63577],[135.08583,34.63413],[135.06385,34.62893],[135.04409,34.62835],[135.03645,34.6306],[135.03324,34.63294],[135.02801,34.63862],[135.02,34.64295],[135.01689,34.6438]],[[135.122,34.64405],[135.13094,34.64519],[135.14913,34.6569],[135.15769,34.66111],[135.1516,34.66733],[135.15706,34.66817],[135.17832,34.68179]],[[134.8503,34.33584],[134.84706,34.33805]]]}}]}