{"type":"FeatureCollection","features":[{"type":"Feature","properties":{"route_id":"371","route_number":371,"name":"国道371号","source":"OpenStreetMap contributors (ODbL)","osm_relations":[8778351,10057618]},"geometry":{"type":"MultiLineString","coordinates":[[[135.76281,33.48341],[135.76379,33.48597],[135.76307,33.48918],[135.76177,33.49004],[135.76139,33.49271],[135.75476,33.49434],[135.75022,33.49894],[135.75128,33.50133],[135.74939,33.50376],[135.74976,33.50616],[135.7509,33.50705],[135.74978,33.50765],[135.74936,33.50915],[135.74904,33.51202],[135.74968,33.51334],[135.74836,33.51548],[135.74829,33.51885],[135.74755,33.52053],[135.74737,33.51906],[135.74549,33.51939],[135.74473,33.52425],[135.74316,33.52249],[135.74482,33.5283],[135.74489,33.53042],[135.74361,33.53283],[135.74016,33.53451],[135.73568,33.53954],[135.7216,33.54392],[135.71503,33.55032],[135.70943,33.55203],[135.70594,33.55107],[135.70201,33.55278],[135.69996,33.5521],[135.69958,33.55007],[135.69868,33.54985],[135.69589,33.5543],[135.69246,33.55711],[135.68903,33.55805],[135.68831,33.56101],[135.68634,33.5637],[135.68616,33.56731],[135.68342,33.56816],[135.68264,33.56918],[135.67891,33.56928],[135.67792,33.57022],[135.67726,33.57414],[135.67819,33.57553],[135.6804,33.5767],[135.68356,33.57547],[135.68537,33.57559],[135.68745,33.57829],[135.68991,33.5862],[135.69254,33.587],[135.69345,33.58833],[135.69556,33.58852],[135.6955,33.58958],[135.6985,33.59036],[135.69937,33.59194],[135.69743,33.59401],[135.69659,33.59745],[135.69475,33.59873],[135.68786,33.60043],[135.68483,33.60466],[135.68283,33.60592],[135.68218,33.61704],[135.68426,33.6204],[135.68581,33.61849],[135.6887,33.61869],[135.68888,33.62073],[135.69062,33.62307],[135.69003,33.62416],[135.69228,33.62495],[135.69249,33.63473],[135.6891,33.63829],[135.68979,33.6403],[135.68718,33.6429],[135.68397,33.64871],[135.68355,33.65291],[135.68696,33.65729],[135.68678,33.65841],[135.68586,33.6586],[135.68591,33.66045],[135.6824,33.66474],[135.67905,33.66519],[135.6779,33.66699],[135.67629,33.66707],[135.67383,33.66911],[135.6743,33.67036],[135.67324,33.67194],[135.67381,33.67284],[135.67285,33.67585],[135.66543,33.68133],[135.65681,33.68026],[135.65517,33.68187],[135.65499,33.68075],[135.6538,33.68167],[135.6528,33.68134],[135.65064,33.68531],[135.64962,33.68528],[135.64699,33.689],[135.64614,33.6931],[135.64643,33.69457],[135.64718,33.69481],[135.64599,33.69562],[135.64548,33.6972],[135.64285,33.69882],[135.63396,33.69904],[135.63316,33.69698],[135.63319,33.69353],[135.63513,33.69038],[135.63392,33.68812],[135.63412,33.68578],[135.63555,33.68406],[135.63097,33.68085],[135.62689,33.68381],[135.62736,33.6861],[135.62143,33.68502],[135.61528,33.68879],[135.61421,33.68563],[135.61233,33.68474],[135.61394,33.68358],[135.61429,33.68227],[135.61239,33.68173],[135.61623,33.67996],[135.61588,33.67687],[135.61999,33.67393],[135.62118,33.66986],[135.61881,33.66908],[135.61676,33.67074],[135.61511,33.66691],[135.61599,33.66601],[135.61375,33.664],[135.60989,33.66395],[135.6108,33.66079],[135.60609,33.65998],[135.60323,33.65818],[135.60392,33.6557],[135.60914,33.6556],[135.60962,33.65445],[135.60133,33.65126],[135.59986,33.65173],[135.60005,33.65535],[135.59851,33.65622],[135.59336,33.6564],[135.59541,33.65747],[135.595,33.65952],[135.59131,33.65911],[135.59085,33.66036],[135.59247,33.66063],[135.59251,33.66171],[135.58846,33.66184],[135.58719,33.66337],[135.58403,33.66344],[135.58203,33.66459],[135.58184,33.66669],[135.57946,33.6681],[135.58052,33.66977],[135.57936,33.67107],[135.57974,33.67214],[135.57719,33.67297],[135.57825,33.67695],[135.57699,33.67843],[135.57622,33.68147],[135.57771,33.68287],[135.576,33.68387],[135.57477,33.6861],[135.57573,33.68718],[135.57427,33.68727],[135.57327,33.68833],[135.56956,33.68739],[135.56985,33.68853],[135.56843,33.68929],[135.56893,33.69022],[135.56792,33.69204],[135.56993,33.69438],[135.56748,33.6949],[135.56573,33.69764],[135.56838,33.6984],[135.5695,33.70381],[135.57211,33.70336],[135.574,33.70917],[135.5711,33.71173],[135.57081,33.71317],[135.57176,33.71457],[135.57499,33.71486],[135.57637,33.71815],[135.57388,33.72036],[135.57779,33.72205],[135.57808,33.72371],[135.57709,33.7246],[135.58009,33.72872],[135.57864,33.73064],[135.57563,33.72948],[135.57456,33.72987],[135.57665,33.73343],[135.57591,33.7357],[135.57494,33.73604],[135.57515,33.73724],[135.57717,33.73809],[135.5807,33.73811],[135.58172,33.73901],[135.58189,33.74132],[135.58629,33.74179],[135.58604,33.74495],[135.59158,33.75241],[135.58954,33.75951],[135.58992,33.76095],[135.5886,33.76827],[135.58269,33.77207],[135.57838,33.7736],[135.57943,33.77415],[135.57883,33.77529],[135.57617,33.77526],[135.57411,33.77785],[135.57186,33.77793],[135.57193,33.77949],[135.57021,33.77909],[135.56902,33.78008],[135.56543,33.78002],[135.56345,33.77896],[135.56109,33.77707],[135.562,33.77563],[135.56138,33.77512],[135.56016,33.77561],[135.55442,33.77359],[135.5483,33.77536],[135.54582,33.77347],[135.54167,33.77189],[135.54117,33.773],[135.53945,33.7722],[135.53818,33.77312],[135.5373,33.77206],[135.53522,33.77227],[135.53425,33.77082],[135.53012,33.7686],[135.52275,33.76987],[135.52032,33.76883],[135.51882,33.76944],[135.51663,33.76817],[135.51394,33.76967],[135.51375,33.77161],[135.51132,33.77441],[135.50841,33.77552],[135.50294,33.77517],[135.50274,33.77615],[135.50363,33.77924],[135.50584,33.78215],[135.50515,33.78535],[135.50642,33.78792],[135.50747,33.78834],[135.51161,33.78727],[135.51404,33.78845],[135.51851,33.79374],[135.51984,33.79809],[135.52383,33.79894],[135.52533,33.8008],[135.52111,33.8056],[135.51916,33.81166],[135.52074,33.81611],[135.52086,33.82294],[135.52222,33.82436],[135.52161,33.82655],[135.52211,33.82907],[135.52525,33.83295],[135.52447,33.83554],[135.52559,33.8381],[135.532,33.8412],[135.53366,33.84096],[135.53696,33.84386],[135.53719,33.84982],[135.53641,33.85208],[135.53723,33.85606],[135.53827,33.85422],[135.53959,33.85637],[135.54044,33.85416],[135.53895,33.85208],[135.54019,33.85073],[135.54346,33.85063],[135.54531,33.85225],[135.54498,33.85383],[135.54568,33.85563],[135.5479,33.8568],[135.5467,33.85787],[135.547,33.85934],[135.54567,33.86378],[135.54847,33.87299],[135.54566,33.87642],[135.54576,33.88178],[135.54399,33.88369],[135.5442,33.88593],[135.53852,33.89084],[135.53632,33.89434],[135.53643,33.89562],[135.53877,33.89859],[135.53438,33.90087],[135.53252,33.8999],[135.53105,33.89715],[135.52971,33.89664],[135.5245,33.89717],[135.524,33.90061],[135.5225,33.90157],[135.51891,33.89996],[135.50977,33.90034],[135.50603,33.8972],[135.50411,33.89846],[135.50198,33.89857],[135.49975,33.90028],[135.49509,33.89934],[135.49432,33.89509],[135.49285,33.89293],[135.49496,33.89023],[135.49381,33.88943],[135.4925,33.88975],[135.49033,33.89232],[135.48901,33.89219],[135.48708,33.89663],[135.48706,33.90038],[135.48923,33.90337],[135.48556,33.90487],[135.48484,33.90775],[135.48582,33.91191],[135.48416,33.91532],[135.4885,33.91651],[135.49281,33.91599],[135.49661,33.91649],[135.49843,33.91378],[135.50108,33.91398],[135.50508,33.91615],[135.50802,33.91974],[135.51564,33.91986],[135.52591,33.92574],[135.5308,33.92761],[135.53665,33.92761],[135.53996,33.93078],[135.54298,33.93227],[135.54658,33.93228],[135.54733,33.93325],[135.54623,33.93646],[135.54866,33.93914],[135.55805,33.93844],[135.55969,33.93932],[135.56084,33.94126],[135.56116,33.94406],[135.55658,33.94516],[135.55581,33.94622],[135.55626,33.9478],[135.56035,33.95031],[135.5621,33.96333],[135.56526,33.96632],[135.56448,33.96739],[135.56319,33.96724],[135.56208,33.96812],[135.56139,33.97055],[135.56227,33.97227],[135.56122,33.97424],[135.56405,33.97583],[135.56211,33.97805],[135.56409,33.97945],[135.56271,33.98213],[135.5607,33.98207],[135.55955,33.98375],[135.55756,33.98344],[135.5559,33.98454],[135.55575,33.98571],[135.55807,33.98644],[135.55808,33.98835],[135.55542,33.98881],[135.55442,33.99032],[135.55722,33.99329],[135.55865,33.99314],[135.55987,33.99196],[135.56177,33.99401],[135.56415,33.99361],[135.56519,33.99449],[135.56796,33.99422],[135.57029,33.99546],[135.57211,33.99522],[135.57616,33.99859],[135.57694,34.0003],[135.57587,34.00257],[135.57803,34.00449],[135.57648,34.01292],[135.57772,34.01606],[135.57636,34.01993],[135.57695,34.02097],[135.57565,34.02157],[135.576,34.02242],[135.57362,34.02534],[135.57899,34.03019],[135.57925,34.03276],[135.57742,34.03446],[135.57957,34.03609],[135.57897,34.03666],[135.57945,34.03731],[135.57827,34.03804],[135.58129,34.03998],[135.57802,34.03994],[135.57719,34.04049],[135.57756,34.04169],[135.57651,34.04237],[135.57807,34.04466],[135.58092,34.04614],[135.57879,34.04717],[135.58004,34.05058],[135.57706,34.05035],[135.57648,34.05158],[135.57698,34.05381],[135.57617,34.05457],[135.57388,34.05313],[135.57306,34.05494],[135.57104,34.05499],[135.57018,34.05324],[135.57083,34.04966],[135.56988,34.04871],[135.5692,34.04897],[135.56742,34.05301],[135.56292,34.05377],[135.56522,34.05497],[135.56597,34.05638],[135.56325,34.06326],[135.55614,34.06368],[135.55425,34.06462],[135.5522,34.06464],[135.55129,34.06388],[135.55025,34.0647],[135.54973,34.0669],[135.54678,34.06616],[135.54664,34.06769],[135.54509,34.06836],[135.54506,34.07032],[135.53909,34.07516],[135.53922,34.07696],[135.54243,34.0805],[135.543,34.08224],[135.5488,34.08427],[135.54965,34.0879],[135.54957,34.09413],[135.54921,34.09707],[135.54737,34.09813],[135.54748,34.09954],[135.55229,34.1031],[135.55516,34.10309],[135.55704,34.10474],[135.55789,34.1079],[135.55991,34.10995],[135.56169,34.11022],[135.56537,34.11424],[135.56765,34.11372],[135.56899,34.11455],[135.57054,34.11381],[135.57436,34.11598],[135.577,34.11585],[135.57832,34.1167],[135.58047,34.12417],[135.58248,34.12869],[135.58513,34.13217],[135.5856,34.1377],[135.58476,34.14101],[135.58763,34.1439],[135.58685,34.14758],[135.58845,34.14769],[135.5913,34.14947],[135.59388,34.14937],[135.6006,34.15364],[135.60357,34.15444],[135.60404,34.1555],[135.61168,34.15533],[135.61449,34.1569],[135.6177,34.15722],[135.62229,34.16039],[135.62265,34.16255],[135.61996,34.16604],[135.61997,34.16859],[135.61886,34.17059],[135.61644,34.1722],[135.61678,34.17263],[135.61842,34.17134],[135.62067,34.17111],[135.61918,34.17474],[135.61971,34.17627],[135.62157,34.17725],[135.61895,34.17713],[135.61612,34.17947],[135.61645,34.18091],[135.61506,34.18376],[135.6167,34.18422],[135.61342,34.18482],[135.61161,34.18619],[135.61196,34.18884],[135.61004,34.19021],[135.61111,34.1917],[135.61272,34.19138],[135.61321,34.19458],[135.61209,34.19521],[135.61015,34.19488],[135.60918,34.19644],[135.61047,34.19779],[135.61065,34.20058],[135.61202,34.20292],[135.61075,34.20815],[135.61154,34.20923],[135.60751,34.2102],[135.60816,34.2122],[135.6053,34.21467],[135.60534,34.21601],[135.61021,34.21732],[135.61265,34.21901],[135.61324,34.22128],[135.61467,34.22175],[135.61417,34.22273],[135.61504,34.22399],[135.61727,34.22308],[135.61781,34.22371],[135.61886,34.22256],[135.61962,34.22274],[135.61951,34.2235],[135.62155,34.22387],[135.62195,34.2247],[135.61974,34.2261],[135.61975,34.22772],[135.62479,34.22636],[135.63045,34.22791],[135.63094,34.2287],[135.63326,34.22844],[135.63947,34.23048],[135.63973,34.23243],[135.64073,34.23043],[135.64196,34.2301],[135.64211,34.2312],[135.64354,34.23161],[135.64396,34.23356],[135.64519,34.23418],[135.64427,34.23517],[135.64878,34.23568],[135.64951,34.23735],[135.65097,34.23776],[135.65091,34.23869],[135.65228,34.23957],[135.65204,34.24097],[135.65324,34.24179],[135.65213,34.24371],[135.65417,34.24601],[135.65353,34.24717],[135.65408,34.25006],[135.65087,34.25461],[135.65272,34.25607],[135.65117,34.25651],[135.65067,34.25778],[135.64947,34.25829],[135.64897,34.26008],[135.64965,34.26145],[135.64529,34.26401],[135.64485,34.26583],[135.64358,34.26589],[135.64571,34.26726],[135.64339,34.2684],[135.64082,34.26781],[135.64005,34.27027],[135.63866,34.27114],[135.63649,34.27076],[135.63536,34.27202],[135.63532,34.2766],[135.63274,34.27709],[135.63139,34.27807],[135.63145,34.27888],[135.63001,34.27847],[135.62834,34.27988],[135.62845,34.28255],[135.62587,34.28735],[135.62674,34.28988],[135.62963,34.29246],[135.62832,34.29502],[135.62884,34.29631],[135.62997,34.29631],[135.63005,34.29733],[135.63109,34.2976],[135.62922,34.30033],[135.63002,34.30061],[135.6287,34.30232],[135.62922,34.30255],[135.62801,34.30342],[135.62906,34.30376],[135.62419,34.30422],[135.62386,34.3062],[135.62263,34.30602],[135.62293,34.30805],[135.62216,34.30925],[135.62294,34.31051],[135.62184,34.31154],[135.61591,34.30982],[135.61445,34.31052],[135.61358,34.31239],[135.60897,34.30872],[135.60159,34.30726],[135.60213,34.31691],[135.60542,34.31948],[135.60751,34.32559]],[[135.55305,34.44514],[135.55872,34.44179],[135.55896,34.44033],[135.55778,34.43689],[135.55844,34.43513],[135.56381,34.43191],[135.5687,34.43042],[135.57158,34.42606],[135.57416,34.42479],[135.57004,34.43151],[135.5683,34.43743],[135.56933,34.44077],[135.56896,34.44972],[135.56988,34.45179]],[[135.60197,34.31394],[135.60212,34.31718],[135.60495,34.31901],[135.6063,34.32183],[135.60107,34.33487],[135.6021,34.33911],[135.60189,34.35546],[135.60339,34.35779],[135.60698,34.35812],[135.60568,34.36336],[135.60815,34.36978],[135.60148,34.38395],[135.60125,34.3887],[135.59467,34.39487],[135.59154,34.40511],[135.5886,34.40798],[135.58909,34.40996],[135.58806,34.41283],[135.58612,34.41449],[135.58572,34.41683],[135.58197,34.42054],[135.57819,34.42119],[135.57723,34.42371],[135.57416,34.42479]],[[135.60616,34.32247],[135.60096,34.33491],[135.60199,34.33933],[135.60136,34.34979],[135.60235,34.35687],[135.6038,34.35802],[135.60686,34.35816],[135.60559,34.36355],[135.60802,34.3701]],[[135.57805,34.42227],[135.58292,34.42119],[135.58887,34.41716],[135.59146,34.41394],[135.59236,34.41162],[135.59236,34.40775],[135.59543,34.39998],[135.60135,34.39084],[135.60839,34.37251],[135.6081,34.36917]],[[135.55348,34.44486],[135.553,34.44508]],[[135.60816,34.3695],[135.60856,34.37038]]]}}]}