{"type":"FeatureCollection","features":[{"type":"Feature","properties":{"route_id":"243","route_number":243,"name":"国道243号","source":"OpenStreetMap contributors (ODbL)","osm_relations":[6641549]},"geometry":{"type":"MultiLineString","coordinates":[[[144.19773,43.94027],[144.20027,43.94389],[144.21385,43.95069],[144.21658,43.9541],[144.21379,43.95076],[144.20102,43.94446],[144.19886,43.9427],[144.18933,43.91944],[144.18337,43.91331],[144.17996,43.91255],[144.17247,43.91482],[144.16781,43.91322],[144.1604,43.91605],[144.15719,43.91482],[144.13569,43.87805],[144.13347,43.8722],[144.12928,43.86763],[144.11778,43.8481],[144.11779,43.84663],[144.12488,43.83194],[144.12451,43.83007],[144.12294,43.82897],[144.12041,43.82874],[144.10443,43.83367],[144.10482,43.82626],[144.10306,43.82322],[144.16927,43.80278],[144.17186,43.80107],[144.17755,43.7918],[144.17737,43.78366],[144.17174,43.77362],[144.1768,43.75612],[144.17486,43.75106],[144.18003,43.73338],[144.18582,43.72152],[144.18904,43.71725],[144.19156,43.7024],[144.2024,43.69597],[144.2095,43.68221],[144.21202,43.67932],[144.22532,43.67134],[144.23833,43.66725],[144.24272,43.66106],[144.25365,43.65699],[144.25447,43.65565],[144.25419,43.65411],[144.24826,43.65076],[144.24787,43.64954],[144.24861,43.64849],[144.25274,43.64864],[144.2583,43.65119],[144.26206,43.65173],[144.25858,43.65054],[144.25613,43.6477],[144.25352,43.64625],[144.25343,43.64427],[144.25176,43.64259],[144.25263,43.6404],[144.25067,43.63506],[144.25334,43.63295],[144.25008,43.63129],[144.25085,43.62817],[144.24746,43.62656],[144.25152,43.62629],[144.25561,43.62788],[144.26061,43.62669],[144.26,43.62513],[144.25711,43.62425],[144.26149,43.6217],[144.25878,43.61701],[144.25904,43.603],[144.2632,43.59697],[144.2699,43.58981],[144.27231,43.58574],[144.27592,43.58221],[144.30951,43.56622],[144.31285,43.56301],[144.33222,43.5538],[144.35555,43.55521],[144.36405,43.55185],[144.37403,43.54665],[144.39044,43.54447],[144.40324,43.53339],[144.41415,43.51987],[144.42172,43.5185],[144.44486,43.51158],[144.4544,43.50002],[144.45495,43.49703],[144.45399,43.49303],[144.46735,43.48884],[144.47258,43.48517],[144.47562,43.48058],[144.48086,43.47733],[144.48486,43.47724],[144.49003,43.48056],[144.49703,43.48289],[144.50576,43.48276],[144.51444,43.4798],[144.52197,43.48457],[144.52447,43.48513],[144.53525,43.48376],[144.54053,43.4821],[144.54699,43.48274],[144.55251,43.48205],[144.56246,43.47759],[144.58541,43.47879],[144.60339,43.47359],[144.62472,43.47317],[144.66856,43.46333],[144.67127,43.46494],[144.67635,43.46553],[144.68014,43.46729],[144.69201,43.45777],[144.69304,43.45327],[144.74255,43.41423],[144.74936,43.41296],[144.76617,43.41304],[144.80234,43.39535],[144.80809,43.39095],[144.81909,43.3893],[144.84767,43.37748],[144.98524,43.36535],[144.99052,43.36696],[145.0144,43.37014],[145.02469,43.36875],[145.0556,43.37197],[145.06752,43.37546],[145.09279,43.38487],[145.10143,43.38693],[145.11343,43.39151],[145.12387,43.39446],[145.1289,43.38824],[145.13389,43.3793],[145.14465,43.3633],[145.15411,43.35754],[145.1561,43.35281],[145.16191,43.34869],[145.17309,43.34728],[145.18638,43.34101],[145.19428,43.33325],[145.19893,43.32408],[145.20666,43.32099],[145.20769,43.31516],[145.20955,43.31399],[145.21338,43.3137],[145.21342,43.30433],[145.22491,43.28433],[145.22532,43.27978],[145.22984,43.27624],[145.23639,43.27367],[145.24073,43.26419],[145.2454,43.2582],[145.24843,43.25048],[145.25179,43.24582],[145.24961,43.23393],[145.25172,43.22963]],[[144.2681,44.01972],[144.26754,44.02249],[144.26458,44.02697],[144.25646,44.02405],[144.2538,44.02053],[144.24877,44.02],[144.23902,44.01455],[144.23135,44.01307],[144.23194,44.0084],[144.23137,44.00535],[144.22296,44.00044],[144.22269,43.99926],[144.22389,43.99664],[144.22349,43.99424],[144.2189,43.99042],[144.22063,43.98485],[144.21694,43.98039],[144.21628,43.97816],[144.21842,43.97375],[144.21772,43.96768],[144.21813,43.95854],[144.21658,43.9541]]]}}]}