{"type":"FeatureCollection","features":[{"type":"Feature","properties":{"route_id":"139","route_number":139,"name":"国道139号","source":"OpenStreetMap contributors (ODbL)","osm_relations":[8842101,9086007,9086008,9086010,9086011,9086012,9086013]},"geometry":{"type":"MultiLineString","coordinates":[[[138.7225,35.48345],[138.72723,35.48246],[138.73397,35.48706],[138.73741,35.48853],[138.7567,35.49139],[138.76078,35.49075],[138.78019,35.48246],[138.76078,35.49086],[138.7556,35.49155],[138.73695,35.48847],[138.72685,35.48251],[138.71834,35.48472],[138.71258,35.4822],[138.69825,35.47967],[138.69288,35.47963],[138.68803,35.47745],[138.68317,35.47812],[138.6786,35.47769],[138.67549,35.4786],[138.66236,35.47723],[138.64466,35.48796],[138.63861,35.48605],[138.63557,35.48641],[138.63338,35.48565],[138.6243,35.48951],[138.62043,35.48783],[138.61783,35.48352],[138.60703,35.47812],[138.60765,35.47449],[138.61082,35.47441],[138.61367,35.4716],[138.61298,35.4699],[138.60577,35.46432],[138.6059,35.46177],[138.60947,35.45871],[138.60836,35.45717],[138.60895,35.45365],[138.60759,35.45143],[138.60859,35.44605],[138.60504,35.44291],[138.6015,35.43757],[138.59448,35.43009],[138.59053,35.42862],[138.59042,35.4271],[138.59271,35.42411],[138.58965,35.41344],[138.58523,35.40916],[138.58434,35.40526],[138.58234,35.40333],[138.5804,35.3985],[138.57617,35.39215],[138.57194,35.38797],[138.57271,35.38102],[138.57582,35.37458],[138.57768,35.35891],[138.58002,35.35422],[138.5866,35.34705],[138.58828,35.34173],[138.58796,35.3398],[138.58409,35.33553],[138.5841,35.33271],[138.58979,35.32509],[138.59068,35.32022],[138.59201,35.3178],[138.5945,35.31585],[138.60039,35.31336],[138.60325,35.31047],[138.6045,35.30642],[138.60332,35.3005],[138.60379,35.29761],[138.61042,35.28904],[138.6123,35.28538],[138.61273,35.28204],[138.61198,35.27512],[138.61483,35.26891],[138.6154,35.25625],[138.62142,35.23187],[138.62843,35.22401],[138.63717,35.22197],[138.64749,35.21578],[138.64962,35.20989],[138.65242,35.20625],[138.65662,35.20309],[138.66535,35.19877],[138.66943,35.19478],[138.67479,35.18752],[138.67753,35.17987],[138.67703,35.17724],[138.67366,35.17361],[138.67364,35.17274],[138.6759,35.17198],[138.67439,35.17284],[138.6773,35.17701],[138.67774,35.17912],[138.67699,35.17674],[138.67249,35.1709]],[[138.95348,35.69401],[138.95606,35.69419],[138.95717,35.69287],[138.95863,35.6929],[138.9604,35.69119],[138.96386,35.68983],[138.96473,35.68889],[138.96451,35.68673],[138.96968,35.68489],[138.97013,35.68388],[138.96721,35.67474],[138.96598,35.6729],[138.96551,35.66694],[138.96738,35.66588],[138.96733,35.66409],[138.96509,35.66123],[138.96477,35.65837],[138.96032,35.65379],[138.96088,35.65175],[138.96281,35.65012],[138.96259,35.6479],[138.95896,35.64498],[138.95538,35.64426],[138.9551,35.64197],[138.95632,35.63975],[138.95298,35.63781],[138.95186,35.63403],[138.94943,35.63428],[138.94896,35.63327],[138.94763,35.63303],[138.94506,35.63331],[138.94782,35.63181],[138.94758,35.62857],[138.95035,35.62751],[138.95093,35.62554],[138.95634,35.62233],[138.95594,35.6207],[138.95429,35.61992],[138.95382,35.61848],[138.94888,35.61795],[138.94843,35.61689],[138.94838,35.61399],[138.95321,35.61308],[138.95445,35.61215],[138.94802,35.61213],[138.94138,35.60877],[138.93963,35.60752],[138.94141,35.60473],[138.94125,35.60347],[138.93769,35.60244],[138.93021,35.59663],[138.93012,35.5917],[138.93278,35.58921],[138.93494,35.58845],[138.93796,35.58411],[138.93814,35.58256],[138.93582,35.58069],[138.93551,35.57897],[138.91537,35.56413],[138.90967,35.55721],[138.9093,35.55611],[138.91124,35.55485],[138.90364,35.54651],[138.891,35.54064],[138.88546,35.53889],[138.88125,35.53909],[138.87797,35.53833],[138.87072,35.53571],[138.86281,35.53083],[138.85256,35.52708],[138.84533,35.52332],[138.83559,35.51742],[138.82783,35.50949],[138.81911,35.50357],[138.81025,35.48116]],[[138.95291,35.69441],[138.95269,35.69678],[138.95041,35.69801],[138.94961,35.70065],[138.95204,35.7037],[138.95069,35.70582],[138.95119,35.70864],[138.94934,35.70922],[138.94249,35.70759],[138.94244,35.70957],[138.939,35.71373],[138.93839,35.7163],[138.93997,35.71987],[138.94299,35.72188],[138.96083,35.74242],[138.96118,35.74392],[138.95449,35.74938],[138.95527,35.75157],[138.95336,35.75112],[138.95374,35.75179],[138.95247,35.75558],[138.94825,35.757],[138.94747,35.75577],[138.94612,35.75748],[138.94013,35.75893],[138.94012,35.75978],[138.94532,35.75962],[138.95501,35.75745],[138.95743,35.75792],[138.96007,35.75963],[138.96546,35.75818],[138.96805,35.76094],[138.97041,35.76004],[138.97452,35.76068],[138.97902,35.7602],[138.9831,35.76322],[138.9903,35.76129],[138.99115,35.76236],[138.99311,35.76278],[138.9923,35.76499],[138.99404,35.76738],[138.9983,35.76776],[138.99697,35.7714],[138.99732,35.77285],[139.00047,35.77561]],[[138.80886,35.47737],[138.80339,35.46361],[138.80577,35.46928]],[[138.67214,35.17056],[138.67696,35.1769],[138.67755,35.17971]],[[138.61514,35.25878],[138.62099,35.23354],[138.6226,35.23022],[138.62848,35.22409],[138.63722,35.22206],[138.64775,35.2157],[138.64978,35.20981],[138.6525,35.20631],[138.65669,35.20315],[138.66541,35.19884],[138.67041,35.19375],[138.67502,35.18732],[138.6777,35.1794]],[[138.71379,35.14892],[138.71317,35.14715],[138.71369,35.14893]],[[138.89327,35.54193],[138.89692,35.54046],[138.90776,35.54693],[138.91185,35.54649],[138.92444,35.54997],[138.93629,35.55552],[138.93744,35.55724],[138.93736,35.55911],[138.93336,35.56396],[138.93116,35.5693],[138.93363,35.57538],[138.93208,35.57657]],[[138.81969,35.50412],[138.80443,35.49487],[138.804,35.49285],[138.79939,35.48514],[138.79182,35.47506],[138.78019,35.48246]],[[138.93803,35.60989],[138.93747,35.60956]],[[138.6759,35.17198],[138.67896,35.17051],[138.68005,35.16848],[138.6773,35.15625],[138.68705,35.15566],[138.70067,35.14908],[138.71317,35.14715]],[[138.80839,35.47642],[138.819,35.50336]]]}}]}