{"type":"FeatureCollection","features":[{"type":"Feature","properties":{"route_id":"113","route_number":113,"name":"国道113号","source":"OpenStreetMap contributors (ODbL)","osm_relations":[3128397,3128398,3128399,3128400,3128401,9090036,9090037,9090038,9090039,9090040,17869533]},"geometry":{"type":"MultiLineString","coordinates":[[[139.07324,37.93209],[139.06977,37.93006],[139.06659,37.92629],[139.06498,37.92578],[139.06951,37.93149],[139.0729,37.93327],[139.0732,37.93156],[139.06983,37.93003],[139.06705,37.9263]],[[140.93779,37.83728],[140.92842,37.83782],[140.91827,37.83695],[140.90915,37.84114],[140.90136,37.84178],[140.88978,37.84412],[140.90138,37.84187],[140.90918,37.84122],[140.91549,37.83783],[140.91857,37.83699],[140.92842,37.8379],[140.93777,37.83737]],[[139.25639,37.9985],[139.24408,37.98963],[139.25313,37.97142],[139.2454,37.98615],[139.24421,37.98914],[139.24448,37.99029],[139.25973,38.00059],[139.271,38.00669],[139.2802,38.01347],[139.28122,38.01563],[139.28632,38.02075],[139.28749,38.02651],[139.28871,38.02847],[139.30498,38.03939],[139.30815,38.04022],[139.31895,38.0511],[139.33248,38.06144],[139.34679,38.07444],[139.34911,38.07771],[139.35772,38.08606],[139.36044,38.09115],[139.36426,38.09346],[139.37384,38.10155],[139.37673,38.10537],[139.37849,38.1118],[139.39399,38.12981],[139.40374,38.12431],[139.41483,38.11622],[139.42134,38.11039],[139.42934,38.10676],[139.44301,38.10593],[139.48466,38.1088],[139.49067,38.10589],[139.49634,38.10423],[139.50436,38.10444],[139.51189,38.10161],[139.51788,38.10287],[139.52186,38.10273],[139.53684,38.097],[139.5409,38.09702],[139.54626,38.09887],[139.5533,38.09739],[139.56632,38.09282],[139.56949,38.08933],[139.57242,38.0876],[139.57887,38.0791],[139.5851,38.07557],[139.59004,38.07556],[139.59251,38.07689],[139.59518,38.0757],[139.597,38.07223],[139.59614,38.06941],[139.59704,38.06783],[139.60134,38.06789],[139.60385,38.06699],[139.60924,38.06945],[139.61505,38.06884],[139.62556,38.07233],[139.62849,38.07532],[139.63199,38.07732],[139.63556,38.07742],[139.63954,38.07566],[139.64269,38.07551],[139.64984,38.07918],[139.65607,38.0799],[139.66133,38.07835],[139.66398,38.07609],[139.66478,38.07202],[139.66357,38.06892],[139.66429,38.06484],[139.66694,38.06131],[139.66887,38.06084],[139.6798,38.06417],[139.69355,38.06332],[139.69793,38.06669],[139.69941,38.06956],[139.70433,38.07456],[139.71838,38.07655],[139.71979,38.07548],[139.72398,38.07547],[139.73179,38.07285],[139.73377,38.0711],[139.73487,38.06808],[139.73993,38.06401],[139.74332,38.05917],[139.75372,38.05643],[139.75897,38.04969],[139.7648,38.04494],[139.77013,38.04435],[139.77308,38.04288],[139.77809,38.0435],[139.78618,38.04715],[139.79885,38.05106],[139.80295,38.05044],[139.8145,38.05293],[139.81753,38.05248],[139.82783,38.04861],[139.8305,38.04453],[139.8337,38.0461],[139.83482,38.04797],[139.83774,38.04921],[139.84328,38.04831],[139.84747,38.04874],[139.85608,38.04724],[139.85739,38.04659],[139.86196,38.03899],[139.86734,38.03266],[139.87284,38.02902],[139.87748,38.02438],[139.88191,38.02172],[139.89252,38.01933],[139.8944,38.01671],[139.89585,38.0161],[139.89979,38.01601],[139.90569,38.01806],[139.91066,38.01825],[139.92804,38.01534],[139.93006,38.01448],[139.933,38.01157],[139.93728,38.01035],[139.94316,38.00652],[139.94603,38.00576],[139.95576,38.00703],[139.96107,38.00971],[139.96289,38.01249],[139.979,38.01669],[139.98888,38.02483],[139.99114,38.02587],[139.99664,38.02731],[140.01963,38.02943],[140.02342,38.03052],[140.02598,38.03215],[140.0297,38.03633],[140.03384,38.04397],[140.03699,38.04655],[140.03684,38.04768],[140.0482,38.0554],[140.05376,38.05474],[140.05904,38.05196],[140.07348,38.04938],[140.08084,38.05135],[140.08671,38.05131],[140.09813,38.05411],[140.11059,38.05994],[140.1093,38.05876],[140.11581,38.05785],[140.1303,38.05229],[140.13301,38.05013],[140.13972,38.04115],[140.14296,38.03831],[140.15405,38.03427],[140.15972,38.03072],[140.16664,38.02789],[140.17778,38.01894],[140.1848,38.01595],[140.19208,38.00959],[140.19676,38.00961],[140.20121,38.00599],[140.22286,38.00738],[140.23007,38.00874],[140.24079,38.01381],[140.24831,38.0145],[140.25351,38.01367],[140.25462,38.01471],[140.25641,38.02003],[140.26215,38.02798],[140.26037,38.02965],[140.25555,38.02847],[140.25484,38.03009],[140.26646,38.03344],[140.27022,38.0318],[140.27437,38.02854],[140.28001,38.01975],[140.28227,38.01793],[140.29589,38.01747],[140.29965,38.01663],[140.30441,38.01834],[140.31026,38.01859],[140.3159,38.01613],[140.31936,38.01285],[140.32656,38.0106],[140.33135,38.00534],[140.33277,38.00508],[140.33726,38.00494],[140.34285,38.00648],[140.35136,38.00433],[140.35939,38.00504],[140.36781,38.00878],[140.37202,38.01193],[140.37893,38.00955],[140.38182,38.01148],[140.39022,38.01466],[140.39364,38.01427],[140.4031,38.01573],[140.40756,38.01445],[140.41074,38.01106],[140.42391,38.00232],[140.42865,38.00159],[140.43316,37.99872],[140.44031,37.99658],[140.44586,37.99127],[140.44806,37.9903],[140.45035,37.9906],[140.45306,37.98685],[140.45828,37.98664],[140.46048,37.98482],[140.46859,37.98297],[140.47557,37.98297],[140.47939,37.98198],[140.48212,37.9801],[140.48459,37.98014],[140.48979,37.9781],[140.49736,37.97649],[140.49958,37.97407],[140.50516,37.97122],[140.51133,37.96452],[140.52267,37.95881],[140.52899,37.95872],[140.53187,37.95467],[140.53762,37.95222],[140.53848,37.95065],[140.53822,37.94738],[140.54157,37.94565],[140.54861,37.94807],[140.5549,37.94776],[140.55841,37.95176],[140.5591,37.95893],[140.55842,37.96079],[140.55984,37.96389],[140.56036,37.97005],[140.55938,37.97265],[140.5607,37.97747],[140.5632,37.97986],[140.56531,37.98343],[140.56728,37.9895],[140.566,37.99398],[140.5659,37.99823],[140.57004,38.00245],[140.57234,38.00607],[140.57625,38.00609]],[[140.58202,38.00466],[140.58641,38.00429],[140.58893,38.00278],[140.59124,38.00246],[140.60198,38.00311],[140.6043,38.00208],[140.61508,38.00613],[140.62474,38.00816],[140.63252,38.00769],[140.63527,38.0053],[140.63931,38.00546],[140.64283,38.00374],[140.64796,38.00552],[140.65873,38.00441],[140.66225,38.00612],[140.6672,38.00725],[140.66862,38.00672],[140.67233,38.00288],[140.67411,38.00233],[140.67682,37.99789],[140.67977,37.99817],[140.68495,37.99668],[140.68815,37.99706],[140.69124,37.99921],[140.69805,38.00109],[140.70193,38.00025],[140.7044,38.00162],[140.70718,38.00199],[140.71143,38.00103],[140.71461,38.00307],[140.71705,38.00166],[140.72024,38.00238],[140.72531,38.00112],[140.7264,37.99932],[140.73006,37.99641],[140.73319,37.99507],[140.74549,37.99353],[140.76327,37.99621],[140.76703,37.9876],[140.76963,37.98403],[140.77475,37.9817],[140.78493,37.97979],[140.78896,37.97724],[140.78736,37.97444],[140.7868,37.96764],[140.78587,37.96691],[140.78352,37.96021],[140.78199,37.95082],[140.78005,37.94845],[140.77966,37.94144],[140.77334,37.92716],[140.77305,37.91485],[140.7736,37.91317],[140.77576,37.91174],[140.78027,37.91128],[140.78919,37.90878],[140.80017,37.90186],[140.79921,37.89879],[140.80109,37.89512],[140.805,37.89193],[140.8132,37.88943],[140.81769,37.88533],[140.8228,37.87756],[140.82588,37.86763],[140.83187,37.86224],[140.84093,37.86136],[140.84695,37.8587],[140.85184,37.85433],[140.85398,37.85069],[140.85625,37.84957],[140.86112,37.84966],[140.86852,37.85266],[140.87344,37.85265],[140.87619,37.85197],[140.88017,37.84895],[140.8868,37.84794],[140.88978,37.84412]],[[139.04684,37.92159],[139.05017,37.92101],[139.0563,37.91805],[139.06498,37.92578]],[[139.13485,37.93537],[139.13165,37.93472],[139.12605,37.93819],[139.12257,37.9427],[139.12167,37.94824],[139.12249,37.94322],[139.12556,37.93885],[139.13174,37.93485],[139.13272,37.93496],[139.15449,37.94336],[139.15614,37.94502],[139.15889,37.95053],[139.1654,37.95017],[139.17086,37.95234],[139.17877,37.95338],[139.18962,37.95728],[139.20448,37.96396],[139.20937,37.96516],[139.21354,37.95706],[139.23139,37.96374],[139.21352,37.95716],[139.21273,37.95987],[139.20937,37.96516]],[[139.24624,37.9691],[139.24718,37.96942],[139.23139,37.96374]],[[139.0729,37.93327],[139.07203,37.93759],[139.08464,37.94187],[139.08987,37.94487],[139.102,37.94687],[139.10713,37.94596],[139.12167,37.94824]],[[139.25313,37.97142],[139.24718,37.96942]],[[139.13152,37.93483],[139.13174,37.93485]],[[140.1093,38.05876],[140.10928,38.05823],[140.11364,38.05837],[140.10942,38.05847],[140.10526,38.05745],[140.09586,38.0516],[140.09152,38.04983],[140.0749,38.04856],[140.063,38.04426],[140.05726,38.04428],[140.04437,38.0478],[140.04076,38.04773],[140.03699,38.04655]],[[140.1145,38.05822],[140.11364,38.05837]]]}}]}