{"type":"FeatureCollection","features":[{"type":"Feature","properties":{"route_id":"384","route_number":384,"name":"国道384号","source":"OpenStreetMap contributors (ODbL)","osm_relations":[9365392]},"geometry":{"type":"MultiLineString","coordinates":[[[129.72428,33.16749],[129.71983,33.16477],[129.72234,33.16245],[129.71386,33.11484],[129.67163,33.10046],[129.18205,33.02536],[129.1065,32.98878],[129.11601,32.98589],[129.11565,32.98393],[129.11768,32.98209],[129.11588,32.98059],[129.11394,32.981],[129.11399,32.97871],[129.10595,32.97941],[129.09797,32.97816],[129.09495,32.98018],[129.09032,32.98097],[129.08519,32.98511],[129.08252,32.98602],[129.08129,32.98542],[129.07934,32.9867],[129.07481,32.98571],[129.06711,32.98243],[129.06637,32.98053],[129.06197,32.98187],[129.0586,32.97899],[129.05837,32.9769],[129.05187,32.96974],[129.05274,32.96479],[129.05003,32.95908],[129.04987,32.95694],[129.04784,32.9547],[129.03779,32.94996],[129.03621,32.94841],[129.03595,32.94138],[129.03839,32.94004],[129.03913,32.93472],[129.04157,32.93069],[129.04436,32.92346],[129.05156,32.92069],[129.05221,32.91829],[129.05111,32.91388],[129.05242,32.91053],[129.05592,32.90896],[129.06037,32.90873],[129.06298,32.90971],[129.06347,32.90897],[129.06282,32.90597],[129.06688,32.90525],[129.0679,32.90428],[129.06492,32.90019],[129.06516,32.89783],[129.06311,32.89659],[129.06437,32.88959],[129.06339,32.88866],[129.06056,32.88807],[129.0578,32.88568],[129.05819,32.88398],[129.06042,32.88242],[129.06038,32.87862],[129.06277,32.87724],[129.06523,32.87787],[129.06572,32.87569],[129.06436,32.87308],[129.06494,32.87104],[129.0639,32.87182],[129.06286,32.87034],[129.06413,32.86798],[129.06368,32.86592],[129.06537,32.86199],[129.06211,32.85615],[129.06185,32.85267],[129.05987,32.85145],[129.05582,32.85234],[129.05649,32.85094],[129.05564,32.84925],[129.06058,32.84734],[129.06882,32.84741],[129.07228,32.81051],[128.96868,32.80849],[128.8518,32.69664],[128.84626,32.6953],[128.84096,32.69065],[128.81453,32.69449],[128.80708,32.69708],[128.799,32.70374],[128.79207,32.70575],[128.78876,32.70857],[128.7847,32.70831],[128.77898,32.70943],[128.77685,32.71221],[128.77898,32.7215],[128.77834,32.72601],[128.77879,32.73171],[128.77608,32.73426],[128.77225,32.73402],[128.77005,32.73491],[128.76882,32.74051],[128.76678,32.74197],[128.76659,32.74394],[128.76446,32.7472],[128.75378,32.75087],[128.74976,32.75046],[128.74621,32.7488],[128.74227,32.74366],[128.7383,32.74158],[128.73782,32.74049],[128.739,32.73674],[128.73618,32.73393],[128.7297,32.73478],[128.72699,32.73801],[128.72503,32.7384],[128.71933,32.73756],[128.71464,32.73937],[128.70769,32.73673],[128.70472,32.73649],[128.68111,32.73869],[128.67806,32.73791],[128.66387,32.72748],[128.65806,32.7165],[128.66126,32.70919],[128.66515,32.7061],[128.66652,32.70223],[128.66409,32.6994],[128.66638,32.69571],[128.6646,32.6933],[128.66403,32.6874],[128.66455,32.68493],[128.65844,32.67875],[128.66042,32.6762],[128.66074,32.67404],[128.6624,32.67249],[128.66578,32.67232],[128.66838,32.67318],[128.67351,32.67222],[128.67608,32.67305],[128.67781,32.67217],[128.67622,32.67177],[128.67515,32.67025],[128.6762,32.66817],[128.67353,32.66851],[128.67145,32.66808],[128.66908,32.66628],[128.66452,32.66627],[128.66362,32.6634],[128.66461,32.66138],[128.66643,32.66113],[128.66763,32.65698],[128.67234,32.65246],[128.67118,32.65119],[128.66909,32.65235],[128.66761,32.6509],[128.66617,32.65311],[128.66456,32.65341],[128.66496,32.65012],[128.66714,32.64779],[128.66703,32.64673],[128.66869,32.64615],[128.66716,32.64451],[128.6671,32.64334],[128.66845,32.64166],[128.66737,32.6374],[128.66925,32.633],[128.66586,32.62667],[128.66181,32.62695],[128.65694,32.62584],[128.6537,32.62172],[128.65147,32.62013],[128.65593,32.61269],[128.65104,32.60849],[128.65108,32.60691],[128.65717,32.60515],[128.6553,32.60606],[128.65555,32.6076],[128.6568,32.60779],[128.65763,32.60636],[128.66109,32.61002],[128.66384,32.6105],[128.66487,32.61432],[128.66861,32.61398],[128.67009,32.61492],[128.67138,32.61352],[128.6754,32.6132],[128.67655,32.61389],[128.67678,32.61289],[128.67438,32.61135],[128.67443,32.61017],[128.67745,32.60987],[128.67793,32.61128],[128.67925,32.60982],[128.68314,32.60918],[128.68386,32.60733],[128.68302,32.60638],[128.68704,32.60559],[128.68699,32.60441],[128.6891,32.6035],[128.68978,32.60434],[128.69272,32.60424],[128.69356,32.60487],[128.69346,32.60709],[128.69492,32.60918],[128.69578,32.60909],[128.69745,32.60672],[128.69882,32.60648],[128.69954,32.60698],[128.69916,32.60831],[128.70004,32.60872],[128.70095,32.60751],[128.70332,32.60841],[128.70307,32.61154],[128.70529,32.61083],[128.70788,32.61328],[128.71135,32.60962],[128.714,32.61108],[128.71593,32.61096],[128.71659,32.60983],[128.71896,32.60982],[128.72358,32.60651],[128.72519,32.60645],[128.72683,32.60904],[128.7265,32.61092],[128.72764,32.61133],[128.73061,32.6087],[128.73396,32.6095],[128.73477,32.60806],[128.73694,32.60815],[128.74016,32.60425],[128.74765,32.6075],[128.75694,32.6096],[128.76499,32.61432],[128.76622,32.61597]]]}}]}