{"type":"FeatureCollection","features":[{"type":"Feature","properties":{"route_id":"212","route_number":212,"name":"国道212号","source":"OpenStreetMap contributors (ODbL)","osm_relations":[9607577,9607578,9608067,10123868,16023144]},"geometry":{"type":"MultiLineString","coordinates":[[[130.92492,33.3102],[130.92449,33.31572],[130.92832,33.3295],[130.93257,33.33407],[130.93871,33.33569],[130.9326,33.3342],[130.92814,33.32936],[130.92438,33.31557],[130.9242,33.31278],[130.92532,33.30876],[130.928,33.30706],[130.92921,33.30357],[130.92882,33.30226],[130.93897,33.2988],[130.94371,33.29955],[130.94979,33.29747],[130.95054,33.29632],[130.95052,33.29469],[130.94781,33.29147],[130.94867,33.28967],[130.9539,33.28679],[130.9552,33.28426],[130.95562,33.28128],[130.95312,33.27908],[130.956,33.27481],[130.95655,33.27196],[130.95909,33.26928],[130.95968,33.26122],[130.9658,33.25764],[130.96927,33.25306],[130.97061,33.25235],[130.97214,33.24681],[130.97752,33.24216],[130.98021,33.23687],[130.9795,33.23352],[130.97993,33.23155],[130.9856,33.22568],[130.9876,33.22554],[130.98909,33.22438],[130.98928,33.2195],[130.98697,33.2161],[130.98711,33.21319],[130.98416,33.21069],[130.9839,33.20873],[130.98693,33.20567],[130.98736,33.19996],[130.99287,33.19638],[130.99247,33.19462],[130.99515,33.19264],[130.99418,33.18908],[130.99728,33.18742],[130.99703,33.18605],[130.99859,33.18263],[131.00214,33.18215],[131.00763,33.17869],[131.01106,33.17956],[131.01533,33.17805],[131.02817,33.18685],[131.0317,33.18194],[131.03572,33.1795],[131.03645,33.17489],[131.03852,33.16987],[131.04219,33.16795],[131.04474,33.16339],[131.04472,33.1611],[131.04583,33.15937],[131.05193,33.15697],[131.05346,33.15364],[131.0539,33.14889],[131.05502,33.14726],[131.06093,33.14324],[131.06304,33.1386],[131.0625,33.13634],[131.06356,33.13379],[131.06308,33.12872],[131.06409,33.12585],[131.05844,33.11714],[131.06073,33.11275],[131.06352,33.11033],[131.06408,33.10826],[131.06685,33.10635],[131.06825,33.09838],[131.06645,33.09487],[131.06774,33.08914],[131.06738,33.0871],[131.06104,33.07919],[131.06173,33.07604],[131.06372,33.0735],[131.06418,33.06878],[131.06618,33.06751],[131.06727,33.06573],[131.06685,33.06333],[131.06744,33.06166],[131.06571,33.05942],[131.06756,33.05791],[131.06702,33.05635],[131.06765,33.05446],[131.06699,33.05309],[131.06735,33.04821],[131.0691,33.04165],[131.06321,33.02877],[131.06794,33.02413],[131.06785,33.01807],[131.06901,33.01543],[131.06853,33.01206],[131.06529,33.00808],[131.06592,33.00636],[131.06705,33.00677],[131.06707,33.00512],[131.06487,33.00302],[131.06332,32.99652],[131.06441,32.99344],[131.06413,32.99186],[131.06699,32.9897],[131.06609,32.9904],[131.06342,32.98979],[131.06346,32.98799],[131.06207,32.98625],[131.06377,32.98507],[131.06126,32.98493],[131.06106,32.982],[131.06258,32.98072],[131.05991,32.97946],[131.06006,32.97745],[131.05807,32.9777],[131.05729,32.9769],[131.05531,32.97766],[131.05454,32.97686],[131.05341,32.97704],[131.04771,32.97048],[131.0586,32.96468],[131.06158,32.96072],[131.06856,32.95647],[131.07543,32.94601],[131.07953,32.94351],[131.0838,32.93734]],[[131.18791,33.44866],[131.18501,33.44904],[131.18311,33.44803],[131.17576,33.43702],[131.16982,33.43435],[131.16172,33.42572],[131.15726,33.42357],[131.10706,33.42769],[131.09929,33.42663],[131.09597,33.42492],[131.09066,33.42508],[131.08474,33.4278],[131.08131,33.42719],[131.07694,33.42323],[131.07218,33.4226],[131.07104,33.4218],[131.07137,33.41891],[131.06992,33.41464],[131.07089,33.41188],[131.07031,33.4092],[131.06817,33.40794],[131.06311,33.40741],[131.05789,33.40283],[131.04682,33.40144],[131.04497,33.40222],[131.04202,33.40528],[131.0378,33.40673],[131.03608,33.40621],[131.03483,33.40205],[131.03282,33.39967],[131.03251,33.39405],[131.02967,33.39039],[131.02676,33.38289],[131.02608,33.38007],[131.02651,33.37674],[131.02514,33.37279],[131.0181,33.37049],[131.01174,33.36983],[131.00767,33.3668],[130.99938,33.36688],[130.99541,33.36554],[130.99197,33.3665],[130.98009,33.36725],[130.96891,33.36467],[130.96452,33.36624],[130.96113,33.36572],[130.95966,33.36454],[130.95875,33.36099],[130.95528,33.35489],[130.94359,33.34833],[130.94121,33.33769],[130.93871,33.33569]],[[131.0991,33.42658],[131.10143,33.43015],[131.10155,33.4337],[131.10485,33.43678],[131.10246,33.43963],[131.10318,33.44204],[131.1117,33.44385],[131.11808,33.44665],[131.11356,33.4554],[131.11423,33.45649],[131.11849,33.4577],[131.11825,33.45887],[131.1156,33.4611],[131.11578,33.46231],[131.12213,33.46385],[131.12872,33.46821],[131.13458,33.46862],[131.13722,33.46714],[131.14001,33.46681],[131.14709,33.46955],[131.14961,33.4722],[131.14997,33.47891],[131.15365,33.48071],[131.16208,33.48269],[131.16241,33.48374],[131.16033,33.4872],[131.16071,33.48893],[131.16339,33.49144],[131.16738,33.49236],[131.17039,33.49427],[131.17118,33.49678],[131.17012,33.50164],[131.17795,33.50622],[131.1769,33.51146],[131.17209,33.51416],[131.16958,33.51845],[131.17466,33.52362],[131.17538,33.52899],[131.18077,33.53632],[131.18878,33.54511],[131.19037,33.54839],[131.19007,33.55221],[131.19157,33.55741],[131.19141,33.56041],[131.1887,33.5661],[131.18795,33.56998],[131.18565,33.57409],[131.18702,33.58787],[131.19005,33.59541]],[[131.18311,33.44803],[131.1851,33.4504],[131.18532,33.45396],[131.18306,33.45698],[131.17827,33.45954],[131.17659,33.46228],[131.17209,33.47544],[131.17268,33.48342],[131.17538,33.48709],[131.18825,33.49747],[131.20112,33.51319],[131.20854,33.51874],[131.21445,33.52079],[131.22936,33.52051],[131.23223,33.52152],[131.23492,33.52365],[131.23658,33.52669],[131.23927,33.53758],[131.24508,33.54551],[131.24436,33.55352],[131.24929,33.56119],[131.24863,33.5708]],[[131.24874,33.57093],[131.2485,33.56775]],[[131.24851,33.56746],[131.24842,33.57111]],[[131.17071,33.43489],[131.17588,33.43728],[131.18135,33.4462]]]}}]}