{"type":"FeatureCollection","features":[{"type":"Feature","properties":{"route_id":"429","route_number":429,"name":"国道429号","source":"OpenStreetMap contributors (ODbL)","osm_relations":[9995637,9997713,9999040,19145545]},"geometry":{"type":"MultiLineString","coordinates":[[[135.10367,35.30537],[135.10184,35.3053],[135.08595,35.29319],[135.0792,35.29224],[135.07506,35.2925],[135.07311,35.2901],[135.06982,35.2891],[135.06645,35.28609],[135.05837,35.28599],[135.05,35.2829],[135.04554,35.28384],[135.03825,35.28256],[135.03545,35.2828],[135.03283,35.27826],[135.02794,35.27613],[135.02425,35.27572],[135.01741,35.27731],[135.01606,35.27426],[135.01444,35.2735],[135.01411,35.2723],[135.01513,35.27107],[135.01608,35.27197],[135.01697,35.27067],[135.01915,35.27175],[135.01982,35.27033],[135.01947,35.2689],[135.01474,35.26551],[135.01322,35.26601],[135.01267,35.26743],[135.01112,35.26621],[135.01269,35.26707],[135.01154,35.26592],[135.00947,35.26541],[135.00879,35.26725],[135.00734,35.26675],[135.00583,35.26829],[135.00565,35.2662],[135.00614,35.26714],[135.00704,35.26451],[135.00557,35.26365],[135.00665,35.26352],[134.99828,35.25812],[134.99823,35.2499],[134.99338,35.25029],[134.99018,35.24931],[134.98633,35.25077],[134.96869,35.24921],[134.94755,35.24286],[134.94168,35.23778],[134.94186,35.23622],[134.93804,35.23528],[134.93712,35.23431],[134.93595,35.22792],[134.93039,35.22526],[134.92473,35.22117],[134.91115,35.22534],[134.90135,35.22684],[134.89732,35.22701],[134.89503,35.22374],[134.89044,35.22477],[134.8854,35.22417],[134.88146,35.22581],[134.88027,35.22362],[134.87774,35.22248],[134.87927,35.22176],[134.87921,35.2187],[134.88076,35.21793],[134.88042,35.21691],[134.87648,35.21712],[134.87622,35.21528],[134.87339,35.2144],[134.86986,35.20898],[134.86736,35.20837],[134.86903,35.20653],[134.86826,35.20559],[134.86587,35.20494],[134.86398,35.20335],[134.86088,35.20491],[134.85835,35.20493],[134.85553,35.20293],[134.85654,35.19937],[134.85426,35.19952],[134.85366,35.1977],[134.85159,35.19676],[134.85153,35.19458],[134.84874,35.19365],[134.84765,35.18816],[134.84476,35.18764],[134.84589,35.18512],[134.84236,35.18577],[134.84028,35.19004],[134.83806,35.19077],[134.83604,35.19029],[134.83643,35.19166],[134.83548,35.1937],[134.83412,35.19363],[134.83364,35.19116],[134.83096,35.1908],[134.83025,35.18876],[134.82867,35.18903],[134.82897,35.1881],[134.8264,35.18693],[134.82346,35.18787],[134.82117,35.18615],[134.81671,35.19017],[134.81766,35.18611],[134.81652,35.18387],[134.81974,35.18019],[134.81964,35.176],[134.81535,35.17422],[134.81605,35.17024],[134.81301,35.16773],[134.80828,35.16802],[134.80437,35.1658],[134.80053,35.16736],[134.79613,35.1665],[134.79336,35.16728],[134.79357,35.16841],[134.79123,35.17002],[134.79126,35.17173],[134.79308,35.17333],[134.79396,35.17579],[134.7947,35.18056],[134.79445,35.18378],[134.79221,35.18608],[134.79133,35.18893],[134.79244,35.19283],[134.79388,35.19493],[134.79554,35.20381],[134.7962,35.21674],[134.79453,35.22581],[134.79697,35.2293],[134.79334,35.22998],[134.78698,35.22862],[134.786,35.22953],[134.78074,35.23057],[134.77603,35.23641],[134.77148,35.23823],[134.76876,35.24069],[134.76256,35.24237],[134.7593,35.24543],[134.7562,35.2457],[134.75267,35.24817],[134.7485,35.24664],[134.74636,35.24761],[134.74274,35.24711],[134.73847,35.24985],[134.73163,35.25207],[134.72252,35.24853],[134.71919,35.24578],[134.71657,35.24168],[134.71685,35.23922],[134.7098,35.2321],[134.70954,35.23516],[134.70959,35.23397],[134.70816,35.23223],[134.70597,35.23265],[134.70407,35.23186],[134.70451,35.23346],[134.70411,35.23259],[134.70269,35.2331],[134.70111,35.23244],[134.7007,35.2319],[134.70357,35.22967],[134.70212,35.22928],[134.70241,35.22856],[134.69496,35.22522],[134.69095,35.2222],[134.68145,35.22009],[134.67993,35.21744],[134.68053,35.21575],[134.67971,35.21266],[134.67691,35.21077],[134.67405,35.21009],[134.67079,35.21228],[134.66756,35.20927],[134.6641,35.21038],[134.66057,35.20741],[134.65941,35.20539],[134.65776,35.20605],[134.65677,35.20525],[134.65183,35.20449],[134.65166,35.20243],[134.65046,35.20164],[134.65199,35.20023],[134.65254,35.1971],[134.65087,35.19398],[134.64557,35.19374],[134.64413,35.19199],[134.64385,35.19017],[134.63677,35.18769],[134.63211,35.18282],[134.62537,35.18183],[134.62288,35.1796],[134.61865,35.182],[134.61326,35.18012],[134.60744,35.18049],[134.59944,35.18495],[134.5984,35.18693],[134.59159,35.19172],[134.58883,35.1918],[134.58743,35.19132],[134.58838,35.19068],[134.58626,35.1906],[134.5902,35.18982],[134.58589,35.18969],[134.58468,35.18715],[134.58334,35.18727],[134.57929,35.19019],[134.5766,35.1938],[134.57615,35.19594],[134.57481,35.19427],[134.5727,35.19357],[134.57251,35.19218],[134.57234,35.19273],[134.56846,35.19201],[134.56559,35.1933],[134.56234,35.19078],[134.56219,35.19132],[134.55836,35.19069],[134.55635,35.18925],[134.55647,35.18335],[134.55303,35.17933],[134.5512,35.17494],[134.55181,35.17327],[134.54942,35.17257],[134.55021,35.16953],[134.54848,35.16785],[134.54452,35.16671],[134.54422,35.16078],[134.53986,35.16158],[134.52528,35.15453],[134.51054,35.15316],[134.50857,35.15133],[134.48759,35.14829],[134.48611,35.14892],[134.48416,35.15134],[134.48113,35.15281],[134.48061,35.1543],[134.47488,35.15736],[134.47009,35.15823],[134.45287,35.15858],[134.4464,35.15591],[134.44513,35.15395],[134.44565,35.15163],[134.44411,35.14651],[134.43981,35.14565],[134.43793,35.14623],[134.43763,35.14925],[134.43503,35.15124],[134.43243,35.15632],[134.42539,35.16106],[134.41917,35.16245],[134.41871,35.16434],[134.41567,35.1644],[134.4158,35.16551],[134.41471,35.16516],[134.41431,35.16633],[134.4123,35.16542],[134.41372,35.16278],[134.41251,35.1615],[134.41315,35.16094],[134.41271,35.15896],[134.40181,35.15856],[134.39444,35.1551],[134.39236,35.15514],[134.38935,35.15772],[134.39034,35.15863],[134.38807,35.16013],[134.38855,35.16272],[134.3879,35.16305],[134.38301,35.16112],[134.37909,35.16146],[134.37706,35.16065],[134.37391,35.16101],[134.37279,35.15995],[134.36803,35.15988],[134.36193,35.15193],[134.36217,35.15004],[134.35972,35.14893],[134.35926,35.14648],[134.35417,35.14438],[134.35187,35.14049],[134.3493,35.13899],[134.34235,35.13067],[134.33936,35.12557],[134.3325,35.12182],[134.32668,35.11988],[134.32674,35.10872],[134.32551,35.10556],[134.32305,35.1039],[134.32182,35.10077],[134.31849,35.10088],[134.31624,35.1001],[134.31248,35.10205],[134.30867,35.10171],[134.30498,35.10579],[134.30006,35.10681],[134.29775,35.10545],[134.29632,35.0951],[134.29562,35.09418],[134.29036,35.09575],[134.28742,35.09426],[134.2873,35.09339],[134.2821,35.0914],[134.28257,35.09506],[134.28101,35.09736],[134.27742,35.09934],[134.27514,35.09929],[134.27262,35.09731],[134.26959,35.09761],[134.26976,35.09582],[134.25929,35.09038],[134.25033,35.08404],[134.24499,35.0758],[134.24251,35.07409],[134.23882,35.06954],[134.23621,35.06889],[134.23373,35.06589],[134.22565,35.06658],[134.22028,35.06512],[134.21462,35.06196],[134.19984,35.06567],[134.19392,35.06555],[134.19158,35.06607],[134.19256,35.07229],[134.19135,35.07568],[134.18528,35.07417],[134.17212,35.07796],[134.17016,35.07759],[134.1629,35.07937],[134.15987,35.0815],[134.15496,35.08179],[134.1527,35.07996],[134.14942,35.08009],[134.1458,35.07898],[134.14196,35.07666],[134.13902,35.07667],[134.13209,35.07269],[134.12755,35.07331],[134.12295,35.07199],[134.11264,35.0718],[134.10616,35.07239],[134.08539,35.07662],[134.08284,35.07563],[134.07933,35.07194],[134.07372,35.07022],[134.06232,35.07112],[134.05624,35.07254],[134.05159,35.07025],[134.04985,35.06485],[134.04249,35.05919],[134.02756,35.05937],[134.02254,35.0624],[134.01956,35.06295],[134.01228,35.06135],[134.00702,35.05808],[134.00354,35.0576],[134.00707,35.05803],[134.01231,35.06128],[134.01954,35.06288],[134.02231,35.0624],[134.02763,35.0593],[134.04172,35.05895],[134.04425,35.05994],[134.04956,35.06454]],[[134.00356,35.05754],[134.00384,35.05629],[134.00291,35.05525],[133.99698,35.05454],[133.99274,35.05513],[133.98652,35.05731],[133.98073,35.0574],[133.97518,35.05314],[133.97355,35.04919],[133.97109,35.0468],[133.9688,35.03928],[133.96602,35.03523],[133.96166,35.03376],[133.95879,35.03056],[133.9539,35.02965],[133.94705,35.03206],[133.94643,35.03291],[133.94245,35.0327],[133.94005,35.03347],[133.93665,35.03192],[133.93214,35.03122],[133.92769,35.02775],[133.90869,35.0237],[133.90413,35.01852],[133.9038,35.01578],[133.9026,35.01493],[133.89423,35.0145],[133.88988,35.0133],[133.88207,35.00827],[133.86948,35.00308],[133.86748,35.00105],[133.86142,34.99744],[133.85894,34.99703],[133.85956,34.99393],[133.85709,34.99121],[133.85417,34.99092],[133.85258,34.99203],[133.85161,34.99174],[133.8495,34.98879],[133.84977,34.98661],[133.84681,34.98469],[133.84036,34.97791],[133.83596,34.97643],[133.83488,34.97445],[133.83044,34.97161],[133.82326,34.96864],[133.82454,34.96735],[133.82185,34.96572],[133.81951,34.96273],[133.81598,34.96092],[133.81496,34.95625],[133.80968,34.95228],[133.81028,34.94851],[133.81189,34.94737],[133.81031,34.94605],[133.81205,34.94403],[133.81331,34.94376],[133.81144,34.9423],[133.8108,34.93917],[133.8115,34.93352],[133.81339,34.9311],[133.81234,34.93009],[133.80777,34.92908],[133.80761,34.92566],[133.80234,34.92122],[133.80088,34.91834],[133.80171,34.91666],[133.80093,34.91243],[133.80197,34.91101],[133.80094,34.91019],[133.80422,34.90816],[133.80639,34.90824],[133.80741,34.90401],[133.80907,34.9026],[133.80887,34.90092],[133.81291,34.89724],[133.81385,34.89179],[133.81267,34.88857],[133.81208,34.88226],[133.80957,34.87902],[133.808,34.87387],[133.80424,34.86846],[133.802,34.86658],[133.80287,34.86501],[133.80198,34.86355],[133.80263,34.86263],[133.80753,34.86175],[133.80793,34.86063],[133.81232,34.85866],[133.81055,34.85661],[133.80988,34.85332],[133.80591,34.8509],[133.80532,34.8478],[133.80159,34.84603],[133.80011,34.84268],[133.8008,34.83955],[133.80206,34.8377],[133.80113,34.83591],[133.80111,34.83221],[133.80277,34.82891],[133.80643,34.82693],[133.80814,34.82261],[133.80397,34.81726],[133.80743,34.81258],[133.80357,34.80066],[133.79419,34.79329],[133.79429,34.7919],[133.79632,34.7906],[133.79732,34.78662],[133.79878,34.78554],[133.7958,34.78507],[133.79253,34.78181],[133.7905,34.77582],[133.7907,34.77373],[133.78972,34.77048],[133.79131,34.76145],[133.79714,34.75621],[133.79907,34.75238],[133.79914,34.74919],[133.80289,34.74676],[133.80225,34.74465],[133.79882,34.74034],[133.80081,34.73619],[133.80307,34.73415],[133.80561,34.72779],[133.80199,34.70714],[133.80577,34.6976],[133.80892,34.69346],[133.80147,34.69088],[133.79729,34.69087],[133.79113,34.68707],[133.78715,34.68565],[133.78028,34.68694],[133.76889,34.68576],[133.77077,34.6804],[133.77153,34.67021],[133.77607,34.65799],[133.77982,34.65436],[133.78036,34.65286],[133.77477,34.63664],[133.77597,34.63291],[133.77587,34.62612],[133.77776,34.61718],[133.76992,34.61348],[133.77621,34.6077],[133.76587,34.60025],[133.7678,34.60174]],[[133.7035,34.56014],[133.70413,34.56026],[133.70419,34.56279],[133.70599,34.56488],[133.75752,34.59425],[133.76587,34.60025]],[[133.80249,34.69119],[133.79732,34.69079],[133.79053,34.68665],[133.78682,34.6855],[133.7803,34.68685],[133.76892,34.68566]],[[133.70377,34.56165],[133.70426,34.55994],[133.70357,34.55915],[133.69666,34.55947],[133.69555,34.55838],[133.6965,34.55952],[133.70341,34.55917],[133.70413,34.56026]],[[133.64334,34.53997],[133.65673,34.54806],[133.66112,34.54719],[133.67726,34.54697],[133.69291,34.55037],[133.69467,34.55206],[133.69563,34.55822]],[[133.80007,34.94901],[133.79929,34.94578],[133.80048,34.94329],[133.80927,34.93931],[133.81091,34.93767]],[[133.76998,34.61372],[133.77766,34.61716],[133.77573,34.62639],[133.77591,34.63279],[133.77469,34.63657],[133.78028,34.65287],[133.7798,34.65425],[133.77598,34.65796],[133.7714,34.67023],[133.77067,34.6803],[133.7693,34.68459]],[[135.01703,35.27457],[135.01779,35.27185],[135.01607,35.26584],[135.01476,35.2648],[135.01065,35.26425]]]}}]}