{"type":"FeatureCollection","features":[{"type":"Feature","properties":{"route_id":"160","route_number":160,"name":"国道160号","source":"OpenStreetMap contributors (ODbL)","osm_relations":[8643289,9143074,9143075]},"geometry":{"type":"MultiLineString","coordinates":[[[137.00701,36.76199],[137.00537,36.7663],[137.00159,36.77015],[136.9999,36.77639],[136.99998,36.78676],[137.00204,36.79416],[137.00143,36.80216],[136.99737,36.80868],[136.99501,36.81819],[136.99472,36.82407],[136.99049,36.8347],[136.9822,36.84407],[136.97713,36.85394],[136.97578,36.86049],[136.97517,36.87543],[136.97781,36.87866],[136.98359,36.88155],[136.99317,36.88481],[136.99908,36.88911],[137.00374,36.89119],[137.0061,36.89402],[137.00701,36.89675],[137.01128,36.89981],[137.01441,36.90487],[137.01474,36.90671],[137.01625,36.90789],[137.01821,36.91163],[137.02026,36.91303],[137.02541,36.91428],[137.0256,36.91777],[137.02718,36.92018],[137.025,36.92392],[137.02638,36.92616],[137.02572,36.92775],[137.02614,36.93228],[137.02755,36.93415],[137.02687,36.93595],[137.02716,36.94001],[137.03017,36.94274],[137.0323,36.94351],[137.03982,36.95118],[137.04399,36.95298],[137.04469,36.9547],[137.04748,36.95605],[137.0485,36.95851],[137.0515,36.95915],[137.05189,36.96237],[137.05546,36.96461],[137.05653,36.96805],[137.04983,36.97702],[137.05045,36.97982],[137.04846,36.98642],[137.05232,36.99074],[137.0533,36.99436],[137.04717,37.00323],[137.04607,37.01179],[137.04658,37.01336],[137.04904,37.01576],[137.05096,37.02013],[137.05011,37.02492],[137.0466,37.0296],[137.04721,37.03344],[137.04609,37.03484],[137.04545,37.03784],[137.047,37.03977],[137.04647,37.04257],[137.04789,37.04698],[137.04735,37.04764],[137.04511,37.04726],[137.04185,37.0485],[137.03632,37.04725],[137.03392,37.04813],[137.03252,37.05023],[137.02817,37.05284],[137.02365,37.05165],[137.01995,37.05185],[137.0166,37.05021],[137.0145,37.05012],[137.00918,37.05254],[137.00668,37.05177],[137.00253,37.05425],[136.99448,37.05155],[136.98567,37.04627],[136.97733,37.04724],[136.97522,37.04615],[136.97286,37.04235],[136.96979,37.04196]],[[137.00694,36.76197],[137.00524,36.76634],[137.00143,36.77021],[136.99978,36.77639],[136.99988,36.78673],[137.00193,36.79416],[137.00132,36.80214],[136.99726,36.80865],[136.99483,36.81852],[136.99447,36.82457],[136.99054,36.8343],[136.98206,36.844],[136.97669,36.85429],[136.97565,36.86048],[136.97517,36.87543]]]}}]}