{"type":"FeatureCollection","features":[{"type":"Feature","properties":{"route_id":"471","route_number":471,"name":"国道471号","source":"OpenStreetMap contributors (ODbL)","osm_relations":[3796161,10166469]},"geometry":{"type":"MultiLineString","coordinates":[[[137.06554,36.51101],[137.06499,36.51126],[137.06538,36.5123],[137.06612,36.51215],[137.06481,36.51307],[137.06458,36.51137],[137.06426,36.51268],[137.06404,36.51153],[137.06391,36.51227],[137.06365,36.51144],[137.06184,36.51193],[137.06102,36.51072],[137.06024,36.51074],[137.06069,36.51171],[137.06025,36.51131],[137.06146,36.50858],[137.06313,36.50741],[137.0619,36.50622],[137.06195,36.50503],[137.06299,36.50611],[137.06336,36.50453],[137.06494,36.50519],[137.06425,36.50282],[137.06332,36.50214],[137.06432,36.49993],[137.06341,36.49755],[137.06384,36.49613],[137.06248,36.49323],[137.06381,36.49082],[137.06369,36.48785],[137.0668,36.4859],[137.06665,36.48431],[137.0691,36.48313],[137.06971,36.48163],[137.07255,36.48168],[137.07538,36.48004],[137.08095,36.4799],[137.08528,36.47565],[137.08604,36.4663],[137.0838,36.46142],[137.08486,36.45184],[137.08339,36.44754],[137.08421,36.44356],[137.08388,36.44241],[137.08073,36.43974],[137.08242,36.43105],[137.08188,36.42768],[137.08382,36.42199],[137.08199,36.42009],[137.08228,36.41913],[137.08141,36.41824],[137.08028,36.41311],[137.0781,36.41052],[137.07616,36.4061],[137.07647,36.40542],[137.07397,36.40211],[137.07506,36.40092],[137.07399,36.39894],[137.0749,36.39659],[137.07756,36.39586],[137.08018,36.39057],[137.08204,36.38957],[137.08226,36.38803],[137.08349,36.38812],[137.08533,36.38368],[137.08274,36.37821],[137.07977,36.37635],[137.07918,36.37336],[137.07512,36.36631],[137.07384,36.36598],[137.07164,36.36396],[137.07078,36.362],[137.06839,36.36049],[137.068,36.35763],[137.06689,36.35615],[137.06449,36.35477],[137.06442,36.35552],[137.06236,36.35389],[137.06416,36.35371],[137.06383,36.35116],[137.06484,36.35024],[137.06476,36.34754],[137.06531,36.34793],[137.06577,36.34699],[137.06764,36.34749],[137.07186,36.34558],[137.06942,36.34557],[137.0707,36.34464],[137.07277,36.34446],[137.07291,36.34523],[137.07463,36.34449],[137.07301,36.34371],[137.07359,36.34381],[137.07316,36.34347],[137.0756,36.33984],[137.07484,36.34044],[137.07606,36.33737],[137.07529,36.33769],[137.07464,36.33539],[137.07582,36.33314],[137.07528,36.33339],[137.07512,36.33136],[137.07802,36.32936],[137.08006,36.32434],[137.08095,36.32329],[137.08139,36.32407],[137.08239,36.32265],[137.08505,36.31404],[137.08861,36.31247],[137.08932,36.31345],[137.09043,36.31346],[137.08996,36.31385],[137.0909,36.3137],[137.09342,36.31192],[137.09389,36.30977],[137.09217,36.30618],[137.09703,36.3048],[137.10966,36.30466],[137.11281,36.30187],[137.11354,36.30243],[137.11476,36.30144],[137.11588,36.29857],[137.1156,36.29659],[137.11721,36.29521],[137.12237,36.29695],[137.12364,36.29814],[137.12736,36.2973],[137.12945,36.29592],[137.13006,36.29378],[137.12866,36.291],[137.12845,36.28711],[137.13101,36.28218],[137.13787,36.27532],[137.13763,36.26935],[137.13851,36.26803],[137.13854,36.26588],[137.13971,36.26876],[137.14861,36.2721],[137.1553,36.27619],[137.15702,36.27637],[137.15571,36.27715],[137.15182,36.27691],[137.1579,36.27924],[137.16659,36.28503],[137.17109,36.28922],[137.17694,36.29186],[137.1793,36.29399],[137.18898,36.29487],[137.19457,36.29424],[137.19835,36.29604],[137.21185,36.29763],[137.21867,36.30025],[137.22705,36.30517],[137.23335,36.30539],[137.23378,36.30488],[137.23059,36.30496],[137.2338,36.30337],[137.23938,36.30336],[137.24761,36.30767],[137.24838,36.30709],[137.24777,36.30287],[137.25053,36.30189],[137.25114,36.30263],[137.25122,36.30661],[137.25425,36.30958],[137.25588,36.31281],[137.26482,36.31601],[137.27033,36.31706],[137.27309,36.31666],[137.27593,36.31912],[137.28252,36.32057],[137.28576,36.32331],[137.28978,36.32473],[137.29446,36.33227],[137.2938,36.33454],[137.29475,36.33674],[137.29467,36.33964],[137.29498,36.34039],[137.29629,36.34023],[137.29824,36.33691],[137.30377,36.33394],[137.30831,36.32607],[137.31368,36.31942],[137.31493,36.31556],[137.3194,36.31435],[137.32042,36.31316],[137.32126,36.30925],[137.32809,36.30802],[137.32931,36.3061],[137.33154,36.3058],[137.33292,36.30349],[137.33586,36.30101],[137.34058,36.30211],[137.3445,36.30124],[137.34789,36.29946],[137.35423,36.2987],[137.35607,36.29756],[137.36341,36.29741],[137.36968,36.29575],[137.37217,36.29265],[137.37595,36.29071],[137.37662,36.28817],[137.37946,36.28577],[137.37992,36.28392],[137.38383,36.28232],[137.38477,36.28014],[137.39292,36.27348],[137.39259,36.27141],[137.39331,36.27085],[137.4039,36.26978],[137.40677,36.26881],[137.40979,36.26967],[137.41193,36.26882],[137.41578,36.26896],[137.41871,36.27003],[137.43002,36.26469],[137.43236,36.26147],[137.43726,36.25918],[137.442,36.261],[137.44635,36.26141],[137.4575,36.25895],[137.46649,36.25913],[137.47555,36.25528],[137.47947,36.25183],[137.48623,36.24942],[137.4968,36.24998],[137.50707,36.24813],[137.51567,36.24808],[137.51539,36.24637],[137.51851,36.24344],[137.52786,36.23961],[137.53022,36.23474],[137.53033,36.23007],[137.53114,36.23044],[137.53145,36.23439],[137.53286,36.23406],[137.53383,36.23107],[137.53274,36.22922],[137.53446,36.22661],[137.53453,36.22446],[137.53792,36.2221],[137.54175,36.22234],[137.54268,36.21721],[137.54366,36.21628],[137.54481,36.21217],[137.54673,36.2112],[137.55071,36.20704],[137.55201,36.20236],[137.55099,36.19748],[137.54817,36.19367],[137.54729,36.18986],[137.54905,36.18644],[137.55157,36.18619]],[[136.77391,36.81605],[136.77167,36.81195],[136.77168,36.80751],[136.76895,36.7943],[136.76314,36.79634],[136.75579,36.80043],[136.76209,36.80875],[136.77126,36.8307],[136.76744,36.8334],[136.76154,36.83538],[136.7691,36.85007],[136.76973,36.85875],[136.77304,36.87046],[136.77355,36.87539],[136.77591,36.87961],[136.77828,36.89144],[136.77737,36.8939]],[[136.87107,36.67242],[136.87346,36.66949],[136.86948,36.67479],[136.86192,36.67169],[136.85269,36.67313],[136.8476,36.67558],[136.84556,36.67937],[136.843,36.68135],[136.83751,36.68277],[136.83725,36.68465],[136.83471,36.68857],[136.8324,36.68956],[136.82898,36.68928],[136.82544,36.69165],[136.8235,36.69206],[136.82503,36.69472],[136.82439,36.6969],[136.81872,36.70055],[136.81674,36.70281],[136.81424,36.70389],[136.81419,36.70753],[136.81494,36.70837],[136.81252,36.71026],[136.81256,36.71141],[136.80974,36.71596],[136.81122,36.71791],[136.80735,36.71835],[136.8047,36.71979],[136.80505,36.723],[136.80242,36.72869],[136.80247,36.73028],[136.80424,36.73165],[136.80331,36.73277],[136.80179,36.73266],[136.80159,36.7349],[136.79611,36.73672],[136.79189,36.73623],[136.7845,36.7383],[136.78332,36.74046],[136.78346,36.743],[136.7819,36.74479],[136.77335,36.74943],[136.76994,36.75274],[136.76986,36.75357],[136.77156,36.7554],[136.77187,36.75881],[136.76462,36.76447],[136.76303,36.77029],[136.76118,36.7724],[136.76204,36.77442],[136.76151,36.77731],[136.76231,36.77993],[136.77042,36.78407],[136.77161,36.78847],[136.7709,36.79026],[136.76795,36.79183],[136.76895,36.7943]],[[136.87346,36.66949],[136.87524,36.65943],[136.88515,36.64474],[136.89112,36.63341],[136.89796,36.62695],[136.9062,36.62226],[136.90811,36.62043],[136.91247,36.61237],[136.91539,36.59825],[136.92524,36.5954],[136.9312,36.59223],[136.93222,36.59075],[136.9327,36.58448],[136.94723,36.57587],[136.96683,36.57222],[136.96743,36.56872],[136.96927,36.56694],[136.9743,36.56562],[136.97637,36.56628],[136.98518,36.57121],[136.98541,36.57214],[136.99263,36.56885],[136.99285,36.56471],[136.99412,36.56344],[137.00424,36.56401],[137.00724,36.56161]],[[137.06025,36.51131],[137.05933,36.51106],[137.06025,36.50728],[137.05886,36.50475],[137.05522,36.50329],[137.0537,36.50405],[137.05431,36.50235],[137.05235,36.50169],[137.05237,36.50269],[137.05061,36.50019],[137.04889,36.49935],[137.05002,36.4977],[137.04837,36.49218],[137.05065,36.48771],[137.0491,36.48685],[137.04896,36.48364],[137.04805,36.48251],[137.04963,36.47463],[137.04799,36.46566],[137.04624,36.46473],[137.04309,36.46084],[137.04063,36.45237],[137.02896,36.45403],[137.02797,36.45356],[137.02831,36.45479],[137.02645,36.45623],[137.02763,36.46172],[137.02651,36.46392],[137.02691,36.46567],[137.02561,36.47006],[137.01919,36.47449],[137.02092,36.4824],[137.01742,36.48539],[137.01354,36.49272],[137.01058,36.50732],[137.00677,36.51124],[137.00515,36.51414],[136.99885,36.51949],[136.99447,36.5244]],[[137.06596,36.5118],[137.06537,36.51132],[137.06592,36.50939],[137.06431,36.50825],[137.06523,36.50754],[137.06486,36.50533]],[[137.00707,36.56009],[137.0097,36.55724],[137.01107,36.55806],[137.01356,36.55806],[137.0115,36.5574],[137.01099,36.55589],[137.01174,36.54934],[137.00654,36.54535],[137.00614,36.54389],[137.00962,36.54205],[137.01149,36.53929],[137.01423,36.53987],[137.01465,36.53865],[137.01847,36.53785],[137.01828,36.53606],[137.01968,36.53453],[137.02322,36.53564],[137.02625,36.53518],[137.0255,36.53031],[137.02631,36.52864],[137.02788,36.52847],[137.02833,36.52673],[137.02748,36.52406],[137.02894,36.52292],[137.02809,36.52035],[137.03035,36.5186],[137.02867,36.51752],[137.02731,36.51303],[137.02755,36.51085],[137.02398,36.5108],[137.02297,36.50997],[137.02276,36.50776],[137.02197,36.50716],[137.02244,36.50536],[137.02021,36.50334],[137.02029,36.50242],[137.02242,36.50191],[137.0229,36.5],[137.0255,36.49898],[137.02656,36.49685],[137.02644,36.49571],[137.0242,36.49378],[137.02571,36.49136],[137.02495,36.4907],[137.02444,36.48756],[137.02662,36.48717],[137.02847,36.48783],[137.02901,36.48658],[137.02851,36.4857],[137.02985,36.48474],[137.03024,36.48256],[137.03134,36.48179],[137.03076,36.4796],[137.03313,36.4796],[137.03179,36.47701],[137.03023,36.47614],[137.03247,36.47552],[137.03296,36.47398],[137.0316,36.47204],[137.03152,36.46832],[137.03064,36.46687],[137.02796,36.46634],[137.02812,36.46371],[137.02933,36.46297],[137.02882,36.46218],[137.02994,36.46095],[137.028,36.46024],[137.02808,36.45837],[137.02698,36.45795]],[[137.13771,36.269],[137.13785,36.27094]],[[137.06347,36.49127],[137.06381,36.49082]],[[136.98863,36.52512],[136.99217,36.52592],[136.99449,36.52442]]]}}]}