{"type":"FeatureCollection","features":[{"type":"Feature","properties":{"route_id":"295","route_number":295,"name":"国道295号","source":"OpenStreetMap contributors (ODbL)","osm_relations":[9842733]},"geometry":{"type":"MultiLineString","coordinates":[[[140.33137,35.7878],[140.3349,35.78477],[140.34291,35.78511],[140.34869,35.78312],[140.35696,35.78317],[140.36545,35.78566],[140.37143,35.78552],[140.37631,35.78311],[140.3824,35.77659],[140.38154,35.77634],[140.3756,35.78302],[140.37101,35.7851],[140.36468,35.78504],[140.35715,35.78265],[140.3486,35.78302],[140.34291,35.78501],[140.33484,35.78468],[140.33128,35.78775]]]}}]}