{"type":"FeatureCollection","features":[{"type":"Feature","properties":{"route_id":"232","route_number":232,"name":"国道232号","source":"OpenStreetMap contributors (ODbL)","osm_relations":[6612480]},"geometry":{"type":"MultiLineString","coordinates":[[[141.66803,43.93765],[141.66437,43.93454],[141.66944,43.93893],[141.66163,43.9417],[141.65395,43.94554],[141.64625,43.95101],[141.64415,43.95512],[141.64414,43.95818],[141.6429,43.96106],[141.64322,43.96279],[141.64594,43.9664],[141.6469,43.97125],[141.64636,43.97912],[141.64844,43.98538],[141.65083,43.98973],[141.65235,43.99662],[141.65728,44.00116],[141.65946,44.00539],[141.66155,44.01266],[141.65957,44.00536],[141.65637,44.00006]],[[141.66155,44.01266],[141.66288,44.02184],[141.66651,44.02487],[141.66837,44.03089],[141.6674,44.03389],[141.66263,44.04046],[141.66345,44.05217],[141.66296,44.07374],[141.66025,44.09754],[141.66057,44.10173],[141.6564,44.12236],[141.65677,44.12501],[141.65393,44.14064],[141.65492,44.14398],[141.65439,44.15068],[141.65877,44.15763],[141.65958,44.16337],[141.65829,44.1745],[141.65882,44.18278],[141.6578,44.19605],[141.65808,44.2043],[141.65639,44.21108],[141.65503,44.22189],[141.65577,44.22499],[141.65527,44.22703],[141.65655,44.23005],[141.65644,44.23395],[141.65827,44.24186],[141.65634,44.25531],[141.65717,44.2589],[141.655,44.26836],[141.65746,44.27304],[141.65772,44.27781],[141.65915,44.28216],[141.6545,44.29016],[141.65287,44.30036],[141.65428,44.30977],[141.66186,44.31413],[141.67641,44.32719],[141.68076,44.33619],[141.69218,44.34901],[141.69313,44.35747],[141.69393,44.35904],[141.71082,44.37273],[141.71099,44.37948],[141.71242,44.38398],[141.71957,44.3964],[141.73532,44.41282],[141.73936,44.41607],[141.74719,44.42527],[141.75294,44.44118],[141.75652,44.44676],[141.76214,44.46223],[141.76305,44.46806],[141.7623,44.47881],[141.76514,44.48563],[141.76478,44.50844],[141.76645,44.51356],[141.76544,44.52502],[141.76723,44.53548],[141.76604,44.54018],[141.7666,44.54585],[141.77088,44.54961],[141.77628,44.55221],[141.78568,44.55965],[141.78598,44.56496],[141.78752,44.5698],[141.78552,44.57475],[141.78605,44.57998],[141.78996,44.58499],[141.78981,44.5895],[141.79151,44.60047],[141.79861,44.60834],[141.8009,44.61697],[141.80359,44.62332],[141.80198,44.63163],[141.79599,44.6367],[141.79326,44.6443],[141.79291,44.66722],[141.7936,44.67964],[141.78963,44.71015],[141.79308,44.7165],[141.79287,44.72158],[141.79631,44.72186],[141.79926,44.72619],[141.79016,44.78605],[141.79025,44.79154],[141.78071,44.81968],[141.7713,44.82692],[141.76392,44.84921],[141.75774,44.85356],[141.75218,44.86974],[141.74668,44.89252],[141.74646,44.89606],[141.75063,44.90425],[141.75444,44.92996],[141.75954,44.93887],[141.75987,44.94398],[141.75873,44.94947],[141.76003,44.96186],[141.76403,44.97033],[141.76768,44.97219],[141.78601,44.97402],[141.79289,44.97905],[141.81238,44.989],[141.82059,44.99004],[141.82605,44.98895],[141.83251,44.99654],[141.81648,44.99578],[141.81643,45.00086],[141.81225,45.00471],[141.80897,45.00524],[141.78947,45.00395],[141.77845,45.00959],[141.77683,45.01159],[141.77565,45.0169],[141.77194,45.02107],[141.77039,45.02807],[141.76135,45.03467],[141.75271,45.04672],[141.74986,45.05347],[141.74852,45.05834],[141.74821,45.0674],[141.75374,45.07428],[141.75339,45.07917],[141.75442,45.08126],[141.77716,45.09467],[141.77805,45.09615],[141.77613,45.10659],[141.7713,45.1087],[141.76617,45.11337],[141.76355,45.11937],[141.75907,45.12377],[141.75451,45.13526],[141.75176,45.14521],[141.75055,45.16084],[141.74268,45.17953],[141.73897,45.19776],[141.73446,45.20799],[141.73462,45.21482],[141.73794,45.22157],[141.74594,45.22705],[141.75213,45.23537],[141.75292,45.23845],[141.75208,45.24166],[141.73826,45.26804],[141.73426,45.27213],[141.73228,45.28085],[141.72746,45.2847],[141.72312,45.29039],[141.7254,45.29887],[141.71924,45.32012],[141.72057,45.33377],[141.72176,45.3358],[141.7357,45.3491],[141.73676,45.35213],[141.73045,45.36092],[141.72701,45.36837],[141.71199,45.37642],[141.70655,45.38547],[141.70597,45.39532],[141.69114,45.39732],[141.68115,45.40085],[141.67589,45.40434],[141.67535,45.40547],[141.67627,45.41723]],[[141.67636,45.41723],[141.67584,45.40542],[141.67706,45.4035],[141.68419,45.39956],[141.69082,45.3975],[141.70609,45.3954],[141.70668,45.38553],[141.71211,45.37635],[141.72696,45.36856],[141.73057,45.36099],[141.73673,45.35277],[141.73613,45.34943],[141.72168,45.33555],[141.72069,45.33372],[141.71945,45.31975],[141.72556,45.29883],[141.72325,45.29042],[141.72776,45.28452],[141.7324,45.28086],[141.73416,45.27256],[141.73823,45.2683],[141.75152,45.24292],[141.75288,45.23966],[141.75273,45.23675]],[[141.74668,44.89252],[141.76142,44.89508],[141.76203,44.89588],[141.75583,44.91426],[141.76078,44.92095],[141.75612,44.93374]],[[141.83045,44.99685],[141.83261,44.99655],[141.82605,44.98895]]]}}]}