{"type":"FeatureCollection","features":[{"type":"Feature","properties":{"route_id":"464","route_number":464,"name":"国道464号","source":"OpenStreetMap contributors (ODbL)","osm_relations":[11621854]},"geometry":{"type":"MultiLineString","coordinates":[[[139.99938,35.77201],[140.00143,35.77596],[140.0027,35.78409],[140.05541,35.78506],[140.08697,35.78833],[140.09276,35.78967],[140.09762,35.79182],[140.1082,35.79819],[140.12448,35.80323],[140.14107,35.80594],[140.15395,35.80605],[140.16576,35.80446],[140.1716,35.80277],[140.18811,35.79362],[140.19565,35.7904],[140.21218,35.78558],[140.2267,35.78304],[140.23173,35.78273],[140.23678,35.78348],[140.25339,35.7902],[140.25563,35.78635],[140.26142,35.78411],[140.26396,35.78209],[140.2665,35.77494],[140.27067,35.77341],[140.27174,35.77153],[140.2759,35.7705],[140.27715,35.76509],[140.27589,35.76272],[140.2798,35.76014]],[[140.22097,35.777],[140.22114,35.78084],[140.22354,35.78334],[140.20899,35.78571],[140.19627,35.78938],[140.18919,35.79218],[140.17014,35.80235],[140.15331,35.80533],[140.14258,35.80525],[140.12436,35.80238],[140.10839,35.79739],[140.09612,35.79031],[140.08784,35.78805],[140.05582,35.78432],[140.00264,35.78367]],[[140.30176,35.76572],[140.30661,35.76211],[140.30167,35.7657]],[[139.99913,35.77225],[139.99403,35.77582],[139.9878,35.77798],[139.9809,35.78377],[139.9742,35.77998],[139.97239,35.77458],[139.95206,35.76412],[139.94664,35.76239],[139.93852,35.76241],[139.93442,35.76359],[139.92616,35.7681],[139.92317,35.76878],[139.91389,35.77449],[139.90264,35.77489]],[[140.00276,35.78408],[140.00206,35.77968]],[[140.00198,35.77912],[140.00068,35.77444]]]}}]}