{"type":"FeatureCollection","features":[{"type":"Feature","properties":{"route_id":"22","route_number":22,"name":"国道22号","source":"OpenStreetMap contributors (ODbL)","osm_relations":[2191283,9040091]},"geometry":{"type":"MultiLineString","coordinates":[[[136.75457,35.38847],[136.76686,35.3879],[136.78492,35.38842],[136.78268,35.36281],[136.78306,35.36064],[136.79085,35.35165],[136.80887,35.32258],[136.81864,35.31105],[136.82289,35.30034],[136.82965,35.28717],[136.83067,35.27314],[136.83305,35.26953],[136.83932,35.26475],[136.84131,35.26209],[136.84589,35.24397],[136.85632,35.21881],[136.8595,35.2142],[136.86726,35.20706],[136.87022,35.20566],[136.88148,35.20299],[136.88183,35.19809],[136.88295,35.19676],[136.87572,35.18787],[136.89384,35.18269],[136.89614,35.18127],[136.8983,35.16205],[136.89927,35.13991],[136.89999,35.13739],[136.9067,35.12804],[136.90738,35.12193],[136.90648,35.128],[136.89979,35.13733],[136.89901,35.14011],[136.89806,35.16209],[136.89603,35.18113],[136.89356,35.1826],[136.87554,35.18781],[136.88281,35.19679],[136.88165,35.19807],[136.88135,35.20287],[136.86749,35.20671],[136.85944,35.21406],[136.85661,35.21791],[136.8458,35.24352],[136.84112,35.26194],[136.83891,35.26484],[136.83304,35.26928],[136.83045,35.2731],[136.8293,35.28755],[136.82303,35.29956],[136.8185,35.311],[136.80849,35.32289],[136.7909,35.35129],[136.78281,35.36082],[136.78476,35.38816],[136.75456,35.38823]],[[136.78476,35.38816],[136.78477,35.38842]]]}}]}