{"type":"FeatureCollection","features":[{"type":"Feature","properties":{"route_id":"401","route_number":401,"name":"国道401号","source":"OpenStreetMap contributors (ODbL)","osm_relations":[6491957]},"geometry":{"type":"MultiLineString","coordinates":[[[139.92514,37.47861],[139.91908,37.47932],[139.91088,37.4789],[139.90162,37.47628],[139.91072,37.47896],[139.91923,37.47939],[139.92514,37.47861],[139.92864,37.49842],[139.93246,37.50723],[139.93279,37.50944],[139.93157,37.51337],[139.93314,37.51794]],[[139.39563,37.03113],[139.39601,37.03246],[139.4021,37.03732],[139.40396,37.04511],[139.40264,37.04882],[139.40296,37.04996],[139.40926,37.05173],[139.40893,37.05378],[139.40809,37.05437],[139.40852,37.05602],[139.41008,37.05876],[139.41352,37.0622],[139.4124,37.06608],[139.41742,37.07024],[139.41598,37.0742],[139.41626,37.07558],[139.41843,37.07754],[139.41986,37.08023],[139.42418,37.08066],[139.42613,37.08471],[139.42905,37.0857],[139.43374,37.08936],[139.43619,37.09034],[139.43928,37.09401],[139.4447,37.09654],[139.45064,37.10413],[139.45209,37.10889],[139.45377,37.10909],[139.45421,37.1125],[139.45891,37.12121],[139.46517,37.12393],[139.46851,37.12832],[139.47375,37.13215],[139.47645,37.13555],[139.48292,37.13839],[139.49044,37.1469],[139.49355,37.14896],[139.49889,37.14909],[139.50242,37.15442],[139.50861,37.15219],[139.51139,37.15391],[139.51258,37.1559],[139.51481,37.15634],[139.51673,37.15775],[139.52159,37.16923],[139.52843,37.17758],[139.52915,37.18281],[139.53121,37.18901],[139.53034,37.1935],[139.53188,37.19884],[139.53094,37.20654],[139.53135,37.21309],[139.53345,37.21657],[139.53425,37.2197],[139.54042,37.22373],[139.54404,37.22741],[139.54665,37.23239],[139.54819,37.23745],[139.5483,37.24221],[139.54369,37.24793],[139.54137,37.2576],[139.53932,37.26033],[139.53958,37.26495],[139.53888,37.26604],[139.55096,37.26848],[139.55506,37.2706],[139.55814,37.27168],[139.5594,37.27123],[139.56264,37.27294],[139.56715,37.27158],[139.57019,37.2719],[139.57458,37.26844],[139.57865,37.26769],[139.58074,37.26481],[139.58437,37.26342],[139.58353,37.26315],[139.58482,37.26295],[139.58442,37.26229],[139.58911,37.26036],[139.59236,37.25994],[139.59269,37.25912],[139.59434,37.25908],[139.59735,37.26074],[139.59935,37.26021],[139.59846,37.26078],[139.59873,37.26133],[139.59927,37.26068],[139.59933,37.26153],[139.60165,37.26061],[139.60241,37.26106],[139.60241,37.26052],[139.60872,37.26472],[139.6094,37.26447],[139.61011,37.26755],[139.61192,37.26823],[139.61278,37.26963],[139.61582,37.27076],[139.62016,37.27562],[139.61949,37.28154],[139.61858,37.28277],[139.61959,37.28416],[139.61886,37.28504],[139.61914,37.28788],[139.62172,37.28916],[139.62618,37.28863],[139.62971,37.29314],[139.62887,37.29685],[139.63636,37.30069],[139.63974,37.30491],[139.63996,37.30688],[139.64258,37.31065],[139.64243,37.31151],[139.64011,37.3131],[139.6359,37.3126],[139.63327,37.3137],[139.63141,37.31913],[139.63188,37.32424],[139.6407,37.31996],[139.65303,37.31754],[139.65822,37.31478],[139.65828,37.31782],[139.65927,37.31793],[139.65973,37.31655],[139.66118,37.32001],[139.66529,37.3212],[139.66712,37.32258],[139.66662,37.3215],[139.66721,37.32134],[139.6701,37.32401],[139.66922,37.32529],[139.67157,37.32406],[139.673,37.32416],[139.67895,37.32955],[139.68237,37.32887],[139.68978,37.32387],[139.69522,37.32228],[139.69818,37.32053],[139.70863,37.32203]],[[139.07713,36.65693],[139.07356,36.65497],[139.06599,36.65252],[139.07662,36.65681],[139.09229,36.66094],[139.09687,36.66305],[139.10804,36.66461],[139.1177,36.66459],[139.13302,36.66291],[139.14375,36.66369],[139.14825,36.66156],[139.1536,36.66092],[139.16015,36.6613],[139.16399,36.65898],[139.16776,36.65859],[139.17046,36.65944],[139.18055,36.66624],[139.18865,36.66844],[139.19012,36.67046],[139.19476,36.6695],[139.19688,36.67189],[139.20321,36.67566],[139.20408,36.67804],[139.20694,36.68173],[139.20781,36.69043],[139.20991,36.69527],[139.2081,36.69771],[139.20871,36.69937],[139.20816,36.70152],[139.21009,36.71048],[139.20949,36.71307],[139.21511,36.72017],[139.21949,36.72305],[139.22376,36.72736],[139.22569,36.73119],[139.22579,36.73481],[139.22873,36.73566],[139.23049,36.73724],[139.2335,36.74283],[139.23352,36.74861],[139.22975,36.75503],[139.22847,36.7589]],[[139.90162,37.47628],[139.89464,37.4752],[139.89075,37.47378],[139.87193,37.47108],[139.84178,37.46947],[139.83739,37.45665],[139.83157,37.4485],[139.82699,37.44401],[139.8138,37.43419],[139.81008,37.43366],[139.80553,37.43137],[139.79762,37.42366],[139.7951,37.41734],[139.79544,37.4149],[139.79479,37.4132],[139.79625,37.41123],[139.7955,37.40509],[139.79628,37.40344],[139.79611,37.39841],[139.79484,37.39137],[139.79325,37.38943],[139.79385,37.38708],[139.78958,37.3818],[139.78906,37.37797],[139.78575,37.37478],[139.7799,37.36641],[139.77351,37.35325],[139.77055,37.35066],[139.76782,37.34525],[139.75843,37.33983],[139.75421,37.34032],[139.75279,37.33926],[139.7496,37.33957],[139.74782,37.33992],[139.74692,37.34134],[139.74682,37.34048],[139.74165,37.33909],[139.74295,37.33836],[139.74158,37.33812],[139.74332,37.33738],[139.74265,37.33789],[139.73948,37.33742],[139.73825,37.33891],[139.73849,37.33749],[139.73431,37.33988],[139.73352,37.34134],[139.73338,37.34023],[139.73274,37.34134],[139.73314,37.33933],[139.73139,37.3383],[139.73182,37.33992],[139.73051,37.33895],[139.73058,37.33793],[139.72906,37.33989],[139.72862,37.33889],[139.72927,37.33789],[139.72753,37.3381],[139.7272,37.3366]],[[139.3077,36.87613],[139.30514,36.87209],[139.30308,36.87134],[139.29914,36.86777],[139.29787,36.86592],[139.29755,36.86327],[139.29363,36.86178],[139.28677,36.85423],[139.28412,36.85351],[139.27924,36.84881],[139.27418,36.84872],[139.27118,36.84745],[139.26885,36.84885],[139.25907,36.85121],[139.25648,36.84774],[139.2562,36.84608],[139.25286,36.8432],[139.2507,36.84006],[139.24485,36.83664],[139.24566,36.83494],[139.24468,36.8338],[139.24572,36.82953],[139.24033,36.82513],[139.24184,36.82212],[139.24195,36.8186],[139.23817,36.81636],[139.23684,36.80871],[139.23474,36.8065],[139.23315,36.80078],[139.23271,36.79353],[139.22897,36.78438],[139.2316,36.78202],[139.22907,36.77731],[139.23026,36.77323],[139.22631,36.77257],[139.22574,36.76925],[139.22796,36.76726],[139.22876,36.76169]],[[139.39483,37.03015],[139.39167,37.02845],[139.38693,37.02223],[139.38401,37.02044],[139.38219,37.01706],[139.38046,37.01601],[139.3785,37.01277],[139.37295,37.00725],[139.36944,37.00453],[139.36612,37.00352],[139.36028,36.99995],[139.35976,36.99688],[139.35638,36.99328],[139.35433,36.98972],[139.34855,36.9853],[139.33761,36.98625],[139.33645,36.98591],[139.33796,36.98518],[139.33663,36.98428],[139.33681,36.98505],[139.33565,36.98467],[139.33251,36.98651],[139.33389,36.98431],[139.33504,36.98394],[139.3351,36.98273],[139.33308,36.98385],[139.33243,36.98516],[139.32933,36.98574],[139.32873,36.98526],[139.33138,36.98469],[139.33262,36.982],[139.32708,36.98193],[139.3173,36.98026],[139.30967,36.98089],[139.30814,36.98343],[139.30571,36.98467]],[[139.06599,36.65252],[139.05895,36.65035],[139.0556,36.64829],[139.04823,36.6471],[139.04859,36.64582],[139.04162,36.64301],[139.04061,36.63546],[139.03877,36.63449],[139.03679,36.63187]],[[139.22839,36.75944],[139.22841,36.75926]]]}}]}