{"type":"FeatureCollection","features":[{"type":"Feature","properties":{"route_id":"196","route_number":196,"name":"国道196号","source":"OpenStreetMap contributors (ODbL)","osm_relations":[9444472,9444473,9444474]},"geometry":{"type":"MultiLineString","coordinates":[[[133.03216,34.01613],[133.02821,34.01904],[133.01721,34.01959],[133.01212,34.02159],[133.00217,34.03273],[132.97487,34.05647],[132.96438,34.06092],[132.95484,34.06313],[132.94959,34.06735],[132.9461,34.06842],[132.94285,34.06805],[132.9461,34.06834],[132.94955,34.06727],[132.95443,34.06319],[132.96434,34.06083],[132.97476,34.05637],[133.00269,34.03206],[133.01237,34.02128],[133.01653,34.01962],[133.02702,34.01916],[133.03051,34.01783],[133.03324,34.01375],[133.03419,34.00625],[133.03522,34.00384],[133.0405,34.00011],[133.04526,33.99505],[133.05042,33.99224],[133.04535,33.99513],[133.03888,34.00123]],[[132.75917,33.85643],[132.75867,33.83942],[132.75904,33.86486],[132.75645,33.86901],[132.7522,33.87222],[132.7518,33.88602],[132.75614,33.88876],[132.75793,33.8937],[132.75818,33.89714],[132.757,33.90089],[132.75662,33.91042],[132.76021,33.92364],[132.76688,33.93278],[132.77254,33.93684],[132.77591,33.94371],[132.77603,33.94562],[132.77432,33.94869],[132.77447,33.95084],[132.7792,33.96621],[132.78364,33.97044],[132.78571,33.97958],[132.78491,33.98068],[132.77803,33.9822],[132.77839,33.98451],[132.77491,33.99187],[132.77285,33.99374],[132.77097,33.99727],[132.77108,33.99889],[132.77406,34.00039],[132.77736,34.00365],[132.7859,34.00835],[132.79191,34.00968],[132.79963,34.00799],[132.80533,34.01321],[132.80688,34.01719],[132.81582,34.02119],[132.81874,34.02487],[132.82455,34.02673],[132.82829,34.02949],[132.83033,34.03257],[132.83263,34.03231],[132.83779,34.03363],[132.84111,34.03678],[132.84715,34.03956],[132.84967,34.04357],[132.85543,34.04451],[132.85854,34.04743],[132.86712,34.05249],[132.87045,34.05329],[132.87293,34.05563],[132.87855,34.05802],[132.88315,34.05868],[132.88841,34.05721],[132.89729,34.06302],[132.90207,34.06438],[132.91096,34.06198],[132.91441,34.06225],[132.9162,34.06036],[132.91781,34.06006],[132.92855,34.06306],[132.9363,34.06687],[132.94285,34.06805]],[[133.10859,33.89718],[133.11247,33.90713],[133.11231,33.90916],[133.09827,33.92429],[133.09683,33.92827],[133.08397,33.93929],[133.07931,33.95198],[133.07741,33.95516],[133.06347,33.96895],[133.06162,33.97304],[133.06058,33.9783],[133.05386,33.98236],[133.05267,33.98456],[133.05219,33.99013],[133.05042,33.99224]],[[132.78431,33.98085],[132.78584,33.97956],[132.78385,33.9707],[132.7793,33.96619],[132.77437,33.95],[132.77613,33.94564],[132.776,33.94366],[132.77284,33.93704],[132.76697,33.93272],[132.76049,33.92364],[132.75679,33.90988],[132.75711,33.90091],[132.75832,33.89678],[132.7579,33.89314],[132.75597,33.88832],[132.7519,33.88585],[132.75271,33.87169]],[[132.7523,33.8725],[132.75229,33.87213]]]}}]}