{"type":"FeatureCollection","features":[{"type":"Feature","properties":{"route_id":"151","route_number":151,"name":"国道151号","source":"OpenStreetMap contributors (ODbL)","osm_relations":[8475141,9134327,9134328,9134329,9134330]},"geometry":{"type":"MultiLineString","coordinates":[[[137.39051,34.76786],[137.38988,34.77391],[137.36799,34.79624],[137.40423,34.81918],[137.41111,34.83966],[137.41713,34.84533],[137.42051,34.85294],[137.42576,34.85776],[137.43141,34.86011],[137.43445,34.86375],[137.43823,34.8665],[137.44244,34.86783],[137.45269,34.87359],[137.46029,34.87613],[137.46131,34.87961],[137.4628,34.88097],[137.45905,34.88318],[137.46319,34.88696],[137.46985,34.88895],[137.47451,34.89205],[137.48196,34.89992],[137.48413,34.90132],[137.50355,34.91017],[137.51161,34.91277],[137.51741,34.9144],[137.52214,34.91428],[137.53222,34.91599],[137.53373,34.917],[137.53864,34.92356],[137.54107,34.92518],[137.54604,34.92484],[137.55013,34.92548],[137.56012,34.92441],[137.57364,34.93349],[137.58598,34.93425],[137.5895,34.93926],[137.59975,34.94453],[137.603,34.95113],[137.60547,34.95033],[137.60757,34.95265],[137.61027,34.95399],[137.61123,34.95992],[137.61632,34.97094],[137.61683,34.97559],[137.61494,34.97998],[137.61503,34.98477],[137.61803,34.98792],[137.61884,34.98803],[137.61948,34.98669],[137.62354,34.98612],[137.63632,34.98821],[137.63875,34.9875],[137.64319,34.98884],[137.64867,34.99159],[137.65251,34.99497],[137.65708,34.99713],[137.66188,34.99819],[137.66293,34.99968],[137.66814,35.0024],[137.67016,35.00589],[137.6771,35.00683],[137.67801,35.01048],[137.68106,35.0138],[137.68436,35.01314],[137.68657,35.01388],[137.68957,35.01582],[137.69063,35.0178],[137.69485,35.01854],[137.69485,35.0201],[137.69696,35.02173],[137.69928,35.02197],[137.70295,35.02411],[137.70759,35.02808],[137.71473,35.03044],[137.71571,35.032],[137.71536,35.03564],[137.72015,35.03951],[137.72185,35.0425],[137.72198,35.04537],[137.72025,35.04987],[137.71724,35.05246],[137.7151,35.0568],[137.71203,35.05944],[137.70829,35.06046],[137.7067,35.05964],[137.70366,35.06158],[137.70301,35.06462],[137.70095,35.06619],[137.70013,35.06852],[137.6972,35.07095],[137.69577,35.07639],[137.69405,35.07714],[137.69016,35.07645],[137.68392,35.07949],[137.68316,35.08246],[137.67826,35.08651],[137.67599,35.09017],[137.67522,35.09308],[137.67281,35.09578],[137.67047,35.09689],[137.66951,35.09887],[137.66396,35.09731],[137.66202,35.09851],[137.66181,35.09988],[137.66041,35.10043],[137.65985,35.10268],[137.66152,35.10574],[137.66029,35.10766],[137.66041,35.10928],[137.66196,35.11148],[137.66737,35.114],[137.66875,35.11703],[137.67058,35.11769],[137.67167,35.12049],[137.6703,35.12129],[137.67181,35.1215],[137.67259,35.12288],[137.67182,35.12506],[137.67389,35.12341],[137.67471,35.12454],[137.67341,35.12713],[137.6743,35.12698],[137.67519,35.12797],[137.6757,35.12613],[137.67676,35.12711],[137.6797,35.12754],[137.6874,35.13494],[137.68316,35.13463],[137.68203,35.12928]],[[137.39033,34.76775],[137.38983,34.77386],[137.36777,34.79636],[137.40363,34.81889],[137.40484,34.82065],[137.41081,34.83918],[137.41181,34.8405]],[[137.82328,35.51802],[137.8373,35.51085],[137.83855,35.50755],[137.84479,35.50326],[137.842,35.50065],[137.83826,35.49302],[137.8384,35.48754],[137.83703,35.48266],[137.83728,35.47898],[137.83461,35.47745],[137.82939,35.47708],[137.82411,35.47215],[137.82268,35.46896],[137.81995,35.46735],[137.81832,35.46407],[137.81205,35.46227],[137.81104,35.46129],[137.81193,35.45856],[137.81092,35.44842],[137.81292,35.44249],[137.81016,35.43991],[137.81133,35.43866],[137.80921,35.43573],[137.81123,35.43869]],[[137.80921,35.43573],[137.80747,35.43477],[137.80699,35.43289],[137.80306,35.42997],[137.80388,35.42563],[137.79756,35.42184],[137.79534,35.41857],[137.7936,35.41736],[137.79347,35.4106],[137.79215,35.40795]],[[137.7334,35.24427],[137.74711,35.25863],[137.74808,35.26199],[137.75555,35.26608],[137.75896,35.27169],[137.76127,35.27348],[137.76249,35.2763],[137.76615,35.27912],[137.76666,35.27765],[137.76738,35.27763],[137.77032,35.28025],[137.76989,35.28154],[137.77065,35.2834],[137.77255,35.28401],[137.77111,35.28511],[137.77247,35.2863],[137.77143,35.28639],[137.77304,35.28541],[137.77405,35.2862],[137.77107,35.2873],[137.77109,35.28842],[137.77242,35.28935],[137.77553,35.28889],[137.77751,35.29013],[137.77759,35.29135],[137.77584,35.29203],[137.77594,35.29276],[137.77747,35.29308],[137.78102,35.29146],[137.78323,35.2917],[137.78899,35.29408],[137.79272,35.29776],[137.79829,35.29529],[137.79954,35.29569],[137.79881,35.2986],[137.80008,35.29998],[137.8023,35.29916],[137.80522,35.3013],[137.80544,35.30703],[137.81348,35.31841],[137.81181,35.32382],[137.81287,35.32751],[137.81143,35.33043],[137.80874,35.33204],[137.80165,35.33342],[137.79957,35.33533],[137.79886,35.34201],[137.79646,35.34968],[137.79716,35.35165],[137.79977,35.35245],[137.80049,35.35399],[137.79789,35.35862],[137.7939,35.35793],[137.79241,35.35956],[137.79345,35.36329],[137.79335,35.36631],[137.79459,35.36939],[137.78892,35.37707],[137.7898,35.38635],[137.79354,35.38829],[137.79414,35.38932],[137.79314,35.39309],[137.79176,35.39452],[137.79168,35.3965],[137.78847,35.39635],[137.78665,35.3979],[137.78732,35.39961],[137.78992,35.40102],[137.78995,35.40571],[137.78757,35.40247],[137.78732,35.39961]],[[137.6874,35.13494],[137.69003,35.13705],[137.69304,35.13802],[137.69291,35.13602],[137.69546,35.13495],[137.6965,35.13777],[137.69182,35.14531],[137.69402,35.14648],[137.68975,35.14929],[137.68804,35.15554],[137.68818,35.15822],[137.68497,35.15857],[137.68546,35.16086],[137.68351,35.16165],[137.68303,35.16394],[137.68094,35.16501],[137.68007,35.16783],[137.68148,35.17349],[137.68383,35.17639],[137.68187,35.18082],[137.6829,35.18273],[137.68333,35.18809],[137.68652,35.19072],[137.68807,35.2],[137.6878,35.2015],[137.68558,35.2028],[137.68576,35.20648],[137.68447,35.20801],[137.68546,35.21085],[137.68374,35.21387],[137.68547,35.21597],[137.6846,35.21866],[137.68602,35.21909],[137.68736,35.21844],[137.69304,35.22075],[137.69449,35.22412],[137.69576,35.22296],[137.69756,35.22382],[137.69768,35.22251],[137.69948,35.22146],[137.70274,35.22341],[137.7033,35.22465],[137.70627,35.22472],[137.70756,35.22674],[137.71118,35.22469],[137.71442,35.23],[137.71658,35.23111],[137.71905,35.23016]],[[137.36784,34.79642],[137.36791,34.79619]],[[137.51161,34.91277],[137.51739,34.91449],[137.52207,34.91436],[137.52681,34.91567],[137.53123,34.91569]],[[137.5416,34.92529],[137.53874,34.92351],[137.53398,34.91719],[137.53222,34.91599]],[[137.54877,34.92537],[137.55138,34.92533]]]}}]}