{"type":"FeatureCollection","features":[{"type":"Feature","properties":{"route_id":"267","route_number":267,"name":"国道267号","source":"OpenStreetMap contributors (ODbL)","osm_relations":[9662104,9662836,10338927,10338928,10338929]},"geometry":{"type":"MultiLineString","coordinates":[[[130.61798,32.06825],[130.62027,32.06532],[130.61998,32.06384],[130.61794,32.06305],[130.61614,32.06357],[130.60683,32.06246],[130.6075,32.06057],[130.60542,32.05953],[130.60326,32.06528],[130.61128,32.06718],[130.616,32.06719],[130.61908,32.0693],[130.61792,32.08332],[130.62025,32.08577],[130.62257,32.09132],[130.62911,32.09613],[130.63299,32.09799],[130.64327,32.09897],[130.65119,32.10337],[130.65387,32.1065],[130.66398,32.10844],[130.69265,32.11833],[130.70206,32.12391],[130.70288,32.12551],[130.70542,32.12531],[130.70903,32.13292],[130.7114,32.13172],[130.71366,32.13342],[130.71634,32.132],[130.71897,32.13413],[130.72028,32.13752],[130.72371,32.14138],[130.72661,32.14193],[130.72887,32.14355],[130.73239,32.14244],[130.73543,32.14277],[130.73841,32.14513],[130.74378,32.14713],[130.74445,32.14849],[130.74366,32.15322],[130.74525,32.1551],[130.74603,32.15965],[130.74717,32.16154],[130.75097,32.16432],[130.75893,32.16649],[130.76281,32.17534],[130.76723,32.1806],[130.76816,32.18353],[130.76804,32.1872],[130.76262,32.19962]],[[130.60542,32.05953],[130.60271,32.05771],[130.59745,32.05052],[130.59641,32.04268],[130.59694,32.03507],[130.5953,32.0261],[130.602,32.01276],[130.60154,32.00885],[130.59963,32.00459],[130.5953,31.99897],[130.58922,31.9971],[130.58514,31.99367],[130.58219,31.98666],[130.57979,31.98483],[130.57747,31.97905],[130.57003,31.97469],[130.56893,31.97247],[130.56636,31.97049],[130.56251,31.96884],[130.56126,31.96568],[130.55857,31.96378],[130.55586,31.9622],[130.55285,31.96231],[130.55018,31.96103],[130.55022,31.95937],[130.55589,31.95397],[130.55584,31.95233],[130.54413,31.94887],[130.54149,31.94939],[130.54009,31.94851],[130.53733,31.94839],[130.53227,31.93814],[130.52734,31.93607],[130.52514,31.93694],[130.51646,31.93768],[130.51427,31.93919],[130.50531,31.94181],[130.49655,31.9479],[130.49475,31.95117],[130.49253,31.95189],[130.48926,31.94986],[130.48677,31.95015],[130.47824,31.94707],[130.47641,31.94529],[130.4709,31.94298],[130.47019,31.93943],[130.46519,31.93539],[130.46719,31.93227],[130.46595,31.92814],[130.46002,31.9247],[130.45662,31.91835],[130.45651,31.91616],[130.45491,31.91243],[130.45789,31.90904],[130.45769,31.90769],[130.45341,31.89959],[130.45363,31.89656],[130.45264,31.89175],[130.45001,31.88714],[130.44907,31.88184],[130.4441,31.87589],[130.43825,31.87355],[130.43185,31.86796],[130.43794,31.87344],[130.44148,31.87474]],[[130.43185,31.86796],[130.42569,31.86847],[130.41354,31.86003],[130.40657,31.85923],[130.40413,31.85983],[130.40058,31.86253],[130.3959,31.86249],[130.3936,31.86118],[130.39089,31.85722],[130.38861,31.85667],[130.38391,31.85696],[130.38095,31.8582],[130.37421,31.85637],[130.37087,31.85875],[130.36394,31.8586],[130.34921,31.86333],[130.3396,31.86415],[130.33262,31.86707],[130.32957,31.8655],[130.32561,31.86511],[130.31961,31.86257],[130.31605,31.85834],[130.31621,31.85698],[130.31993,31.85169],[130.31847,31.84219],[130.30609,31.82949],[130.29992,31.82551]]]}}]}