{"type":"FeatureCollection","features":[{"type":"Feature","properties":{"route_id":"18","route_number":18,"name":"国道18号","source":"OpenStreetMap contributors (ODbL)","osm_relations":[964698,2167560,2167561,2167562,2167563,9039297,9039298,9039301,9039302,9039303,9039304,9039305,9039306,9415152]},"geometry":{"type":"MultiLineString","coordinates":[[[138.81566,36.30965],[138.82063,36.30753],[138.80705,36.31456],[138.78921,36.32085],[138.77029,36.32069],[138.76617,36.32467],[138.75891,36.32595],[138.74848,36.33337],[138.73285,36.33593],[138.72931,36.33863],[138.72813,36.33771],[138.727,36.33851],[138.72691,36.34034],[138.72371,36.34399],[138.71453,36.35268],[138.71427,36.35358],[138.71575,36.35347],[138.71653,36.35488],[138.71436,36.35484],[138.71294,36.35655],[138.71157,36.35664],[138.70857,36.35497],[138.70562,36.3552],[138.70287,36.35585],[138.70133,36.35741],[138.69871,36.35787],[138.69827,36.35741],[138.70007,36.35545],[138.69906,36.35452],[138.69706,36.35527],[138.69474,36.35487],[138.69386,36.35375],[138.68896,36.35414],[138.68841,36.35345],[138.68757,36.35456],[138.68645,36.3542],[138.68521,36.35493],[138.68506,36.35422],[138.68407,36.35452],[138.68479,36.35322],[138.68328,36.35355],[138.68309,36.35242],[138.68199,36.35399],[138.68142,36.35314],[138.68063,36.3534],[138.68082,36.35255],[138.67914,36.35222],[138.67812,36.35217],[138.67692,36.35337],[138.67608,36.35192],[138.67409,36.35406],[138.67342,36.35349],[138.67159,36.35477],[138.67165,36.3526],[138.66825,36.35444],[138.66522,36.35463],[138.66635,36.35288],[138.66236,36.35509],[138.66127,36.35456],[138.66267,36.35266],[138.65782,36.35321],[138.6585,36.35153],[138.65721,36.35128],[138.65657,36.35201],[138.65551,36.3514],[138.65755,36.34979],[138.65474,36.34894],[138.65492,36.34825],[138.65353,36.34752],[138.65252,36.34776],[138.65276,36.3471],[138.65213,36.34638],[138.65136,36.34667],[138.6508,36.3446],[138.64351,36.34363],[138.63033,36.34445],[138.62671,36.34351],[138.6052,36.34415],[138.59996,36.34585],[138.59436,36.34888],[138.57743,36.34584],[138.57027,36.34275],[138.56559,36.34345],[138.55671,36.3429]],[[138.72931,36.33863],[138.73111,36.33755],[138.73002,36.3384],[138.72477,36.33817],[138.71802,36.33603],[138.71709,36.33389],[138.71465,36.33289],[138.7121,36.33015],[138.70686,36.32746],[138.70562,36.32572],[138.6974,36.32304],[138.68918,36.32738],[138.68565,36.33025],[138.68361,36.3305],[138.68195,36.33273],[138.68082,36.33254],[138.67951,36.33068],[138.67647,36.33186],[138.67602,36.32982],[138.6722,36.33117],[138.66966,36.33028],[138.66637,36.33059],[138.66554,36.3296],[138.66657,36.32678],[138.66531,36.32655],[138.66238,36.32804],[138.66223,36.32733],[138.66415,36.32567],[138.65955,36.3221],[138.66173,36.32013],[138.65898,36.31912],[138.65602,36.31958],[138.65637,36.31883],[138.65893,36.31817],[138.65694,36.31686],[138.65873,36.31462],[138.65759,36.31457],[138.65535,36.31675],[138.65405,36.31661],[138.65439,36.31564],[138.65673,36.31424],[138.65659,36.31342],[138.65557,36.31316],[138.65378,36.3139],[138.6523,36.31614],[138.65123,36.31564],[138.65242,36.31451],[138.65215,36.31386],[138.6503,36.31499],[138.64969,36.3184],[138.65056,36.32056],[138.6485,36.32315],[138.64847,36.32526],[138.64559,36.32669],[138.63931,36.32739],[138.62862,36.32415],[138.6239,36.32389],[138.59986,36.33527],[138.58466,36.33899],[138.57455,36.33942],[138.57113,36.34247],[138.56948,36.34297],[138.57306,36.34386]],[[138.09683,36.52812],[138.09376,36.51806],[138.09417,36.51444],[138.0959,36.5123],[138.09851,36.51086],[138.10539,36.51054]],[[138.18581,36.42499],[138.19243,36.41762],[138.19504,36.41316],[138.20066,36.40983],[138.20455,36.4064],[138.20943,36.40494],[138.2116,36.40499],[138.21372,36.40615],[138.22096,36.41596],[138.20302,36.41954],[138.19473,36.42282],[138.19352,36.42472],[138.18916,36.44943],[138.18616,36.4563],[138.17528,36.46339],[138.16884,36.46569],[138.15921,36.47455],[138.15454,36.48298],[138.14948,36.49658],[138.12422,36.52526],[138.12249,36.53894],[138.1228,36.54113],[138.13164,36.54891],[138.13444,36.55012],[138.1377,36.55449]],[[138.55332,36.34148],[138.53834,36.3366],[138.53092,36.33568],[138.51604,36.32887],[138.50633,36.32771],[138.50343,36.32628],[138.49698,36.32059],[138.48324,36.32013],[138.4809,36.32082],[138.47567,36.31651],[138.46804,36.31438],[138.45784,36.31413],[138.45412,36.31313],[138.44901,36.31378],[138.44582,36.31504],[138.43784,36.32031],[138.4347,36.32678],[138.43188,36.33046],[138.4213,36.33597],[138.39704,36.33905],[138.39047,36.34068],[138.38524,36.34325],[138.37879,36.34503],[138.37433,36.34541],[138.3653,36.34871],[138.35053,36.35267],[138.34787,36.35407],[138.33148,36.3579],[138.30813,36.36736],[138.29983,36.36963],[138.29622,36.37158],[138.28723,36.37271],[138.28076,36.37471],[138.2742,36.37847],[138.26631,36.38546],[138.26588,36.39588],[138.2601,36.40568],[138.25633,36.40758],[138.24139,36.40888],[138.23152,36.41201],[138.22666,36.41458],[138.22096,36.41596],[138.22237,36.41744],[138.22465,36.41821],[138.23103,36.4171],[138.24017,36.41836],[138.24604,36.41727],[138.25431,36.41721],[138.25767,36.41581],[138.25428,36.41711],[138.24598,36.41716],[138.24206,36.41814]],[[138.26154,37.06192],[138.26294,37.0652],[138.26669,37.08164],[138.26906,37.08608],[138.27669,37.09567],[138.27907,37.10569],[138.27687,37.11318],[138.2692,37.12784],[138.26464,37.1397],[138.25791,37.15782],[138.25649,37.16532],[138.25856,37.15618],[138.26884,37.12897],[138.27778,37.1112],[138.27911,37.10658],[138.27902,37.10304],[138.2768,37.09563],[138.26951,37.08647],[138.26705,37.08217],[138.26306,37.06517],[138.26174,37.06215],[138.25919,37.05947],[138.24056,37.0462],[138.22744,37.02618],[138.22704,37.02276],[138.22932,37.01293],[138.22925,37.00864],[138.22729,37.00508],[138.21982,36.99705],[138.21842,36.99307],[138.22501,36.96781],[138.22442,36.96508],[138.21881,36.9552],[138.21999,36.93408],[138.21847,36.91451],[138.2171,36.90903],[138.20716,36.89436],[138.20462,36.87851],[138.19718,36.86783],[138.19523,36.85998],[138.19249,36.85463],[138.19332,36.85153],[138.1975,36.84793],[138.20468,36.83898],[138.20534,36.83572],[138.20173,36.83039],[138.1948,36.82514],[138.19047,36.81681]],[[138.22471,36.96661],[138.2255,36.96683],[138.2275,36.97071],[138.2292,36.97982],[138.23207,36.98226],[138.2322,36.98639],[138.233,36.98796],[138.24748,36.99619],[138.2551,36.99875],[138.25972,37.00314],[138.26152,37.00807],[138.25916,37.01551],[138.25962,37.0188],[138.2586,37.02563],[138.26013,37.0298],[138.26097,37.04173],[138.26041,37.05588],[138.25577,37.07638],[138.25129,37.08027],[138.25003,37.08298],[138.24973,37.08766],[138.25076,37.09171],[138.25047,37.10175],[138.24889,37.10501],[138.25189,37.1166],[138.25201,37.12165],[138.24146,37.13632],[138.23758,37.16129]],[[138.27367,36.40178],[138.27457,36.39768],[138.27418,36.38688],[138.27441,36.39826],[138.273,36.40328],[138.26991,36.40713],[138.26172,36.41188],[138.25767,36.41581]],[[138.13842,36.55625],[138.1388,36.56223],[138.14761,36.56664],[138.16443,36.58345],[138.17267,36.58862],[138.1868,36.59463],[138.19159,36.59814],[138.1944,36.60307],[138.20153,36.6287],[138.22571,36.65323],[138.22902,36.65457],[138.24598,36.65597],[138.25149,36.65759],[138.26103,36.66214],[138.26738,36.67553],[138.26842,36.69111],[138.27162,36.69871],[138.27764,36.7044],[138.30287,36.72093],[138.29807,36.72586],[138.29417,36.72702],[138.28651,36.73177],[138.27663,36.73256],[138.27262,36.73378],[138.26704,36.7368],[138.26461,36.7371],[138.26291,36.74033],[138.26211,36.74438],[138.25975,36.74647],[138.25582,36.74761],[138.25542,36.75013],[138.25333,36.75101],[138.25087,36.75368],[138.24115,36.75354],[138.23725,36.75465],[138.23368,36.75712],[138.22989,36.75562],[138.22568,36.75582],[138.22263,36.75734],[138.22018,36.75666],[138.21689,36.75368],[138.21357,36.75216],[138.21233,36.7505],[138.20889,36.75147],[138.20777,36.75329],[138.20734,36.75655],[138.211,36.76183],[138.20969,36.76526],[138.21232,36.7699],[138.2127,36.77687],[138.21767,36.78622],[138.21757,36.78964],[138.21981,36.79321],[138.21503,36.79781],[138.21158,36.79891],[138.20855,36.8011],[138.2077,36.80357],[138.20514,36.80537],[138.20359,36.80811],[138.1973,36.81477],[138.19366,36.82277]],[[138.20656,36.6339],[138.20124,36.62799],[138.19451,36.60299],[138.19212,36.59857],[138.18807,36.5952],[138.17271,36.58849],[138.16418,36.5831],[138.14762,36.56651],[138.13895,36.5622],[138.13833,36.56078],[138.13852,36.55626]],[[138.13785,36.55447],[138.13449,36.55002],[138.13174,36.54885],[138.12279,36.54103]],[[138.90503,36.33355],[138.91935,36.3321],[138.92973,36.33361],[138.93441,36.33351],[138.94049,36.33595],[138.94926,36.33398],[138.96516,36.33257],[138.97877,36.32992],[138.98357,36.33031],[138.99159,36.33336],[138.98351,36.3302],[138.97872,36.32984],[138.96376,36.33267],[138.94925,36.33388],[138.94052,36.33585],[138.9346,36.33347],[138.92969,36.3335],[138.91937,36.33202],[138.90178,36.33334],[138.88694,36.32786],[138.87884,36.32078],[138.87163,36.31798],[138.86569,36.31424],[138.85679,36.31284],[138.84861,36.30838],[138.83381,36.30521],[138.82437,36.30594],[138.82063,36.30753]],[[138.0969,36.52814],[138.09377,36.51647],[138.09488,36.51356],[138.09747,36.51134]],[[138.63075,36.32478],[138.6295,36.32427]],[[138.62838,36.32399],[138.62531,36.32373]],[[138.73111,36.33755],[138.73156,36.33664]],[[138.18596,36.42506],[138.18815,36.42242]],[[138.10546,36.51039],[138.09941,36.51064]],[[138.22489,36.96905],[138.2222,36.97805]],[[138.56682,36.34332],[138.56948,36.34297]],[[138.22594,36.65342],[138.22803,36.6544]],[[138.63901,36.34422],[138.63014,36.3444]],[[138.26103,36.66214],[138.25441,36.65911]],[[138.22948,37.02958],[138.22776,37.0267],[138.22701,37.0234]]]}}]}