{"type":"FeatureCollection","features":[{"type":"Feature","properties":{"route_id":"224","route_number":224,"name":"国道224号","source":"OpenStreetMap contributors (ODbL)","osm_relations":[3787044]},"geometry":{"type":"MultiLineString","coordinates":[[[130.55373,31.59501],[130.57296,31.59345],[130.5979,31.59389],[130.60017,31.59217],[130.59745,31.59055],[130.60786,31.57663],[130.61183,31.57486],[130.61617,31.56741],[130.62075,31.56348],[130.62128,31.56096],[130.6281,31.55963],[130.63206,31.5556],[130.6365,31.55473],[130.6379,31.55114],[130.63678,31.54898],[130.63755,31.54805],[130.64221,31.54795],[130.64728,31.55151],[130.65369,31.55115],[130.65738,31.55249],[130.6628,31.55297],[130.66642,31.55469],[130.67195,31.55326],[130.67625,31.5548],[130.67978,31.55283],[130.68253,31.55411],[130.68645,31.55373],[130.69255,31.55578],[130.69867,31.55617]]]}}]}