{"type":"FeatureCollection","features":[{"type":"Feature","properties":{"route_id":"249","route_number":249,"name":"国道249号","source":"OpenStreetMap contributors (ODbL)","osm_relations":[8903572,10218574,10218575,10218576,10218577,10218578,10218579]},"geometry":{"type":"MultiLineString","coordinates":[[[136.69858,36.72561],[136.69806,36.71619],[136.70805,36.70995],[136.71532,36.70109],[136.72318,36.6848],[136.72268,36.6804],[136.72402,36.67304],[136.72417,36.66591],[136.72327,36.6582],[136.7153,36.64944],[136.7076,36.63563],[136.70114,36.62971],[136.70122,36.62847],[136.70542,36.62202],[136.70542,36.61679],[136.70544,36.62243],[136.70145,36.62831],[136.70137,36.62949],[136.70795,36.63593],[136.71535,36.64933],[136.72338,36.65816],[136.72434,36.66727],[136.72406,36.67449],[136.7229,36.67925],[136.72307,36.68552],[136.71542,36.70113],[136.70792,36.71036],[136.69825,36.71616],[136.69894,36.73039],[136.70826,36.74367],[136.71109,36.75042],[136.71736,36.76174],[136.73462,36.7788],[136.74042,36.78663],[136.74399,36.79929],[136.7503,36.80455],[136.75439,36.81002],[136.75795,36.81839],[136.75646,36.82172],[136.7564,36.82404],[136.75824,36.82674],[136.75856,36.82972],[136.76075,36.83229],[136.761,36.83431],[136.7691,36.85007],[136.76973,36.85875],[136.77304,36.87046],[136.77355,36.87539],[136.77591,36.87961],[136.77829,36.89154],[136.77601,36.89711],[136.7768,36.90759],[136.77806,36.91005],[136.77753,36.91614],[136.775,36.92021],[136.76934,36.9233],[136.76544,36.92385],[136.75973,36.9265],[136.75664,36.92976],[136.75621,36.93228],[136.76335,36.94421],[136.76539,36.95062],[136.77349,36.96136],[136.77227,36.96924],[136.77496,36.97353],[136.77663,36.97876],[136.77567,36.98583],[136.77672,36.99601],[136.77965,37.00528],[136.78635,37.01547],[136.78477,37.01873],[136.78642,37.02282],[136.7806,37.02868],[136.78046,37.03179],[136.77858,37.03463],[136.77859,37.03886],[136.7742,37.04789],[136.77619,37.05178],[136.77667,37.05657],[136.77942,37.0598],[136.77961,37.06365],[136.782,37.06759],[136.77813,37.07291],[136.76921,37.08186],[136.7698,37.08716],[136.76389,37.0906],[136.76356,37.09312],[136.76116,37.09552],[136.75887,37.09974],[136.75829,37.10328],[136.75573,37.10548],[136.75232,37.10623],[136.74058,37.1056],[136.73287,37.10271],[136.73071,37.10362],[136.72867,37.10666],[136.72775,37.11332],[136.72951,37.11807],[136.7276,37.12265],[136.7293,37.12646],[136.72698,37.13072],[136.72779,37.13563],[136.72569,37.13817],[136.72556,37.14265],[136.71963,37.14963],[136.72066,37.15317],[136.72038,37.15563],[136.71697,37.15934],[136.71618,37.1627],[136.71385,37.16572],[136.71473,37.16807],[136.71311,37.17528],[136.71507,37.1767],[136.71302,37.17887],[136.71447,37.18136],[136.71416,37.18541],[136.71599,37.18802],[136.71702,37.19221],[136.71197,37.19911],[136.70808,37.20049],[136.70908,37.20494],[136.7078,37.20654],[136.70778,37.21],[136.70652,37.20958],[136.70628,37.21546],[136.704,37.21613],[136.70327,37.21515],[136.69713,37.22016],[136.70262,37.22308],[136.7058,37.22914],[136.70472,37.23269],[136.70108,37.23626],[136.70043,37.23785],[136.70346,37.245],[136.70717,37.24823],[136.7141,37.24868],[136.71652,37.25035],[136.71878,37.25391],[136.72189,37.25612],[136.72545,37.26237],[136.72735,37.26412],[136.72959,37.26977],[136.73161,37.27226],[136.73392,37.27931],[136.73378,37.28193],[136.73759,37.28776],[136.74439,37.29162],[136.75066,37.29081],[136.75389,37.2883],[136.76246,37.28823],[136.76427,37.28863],[136.76833,37.29204],[136.7699,37.29191],[136.77362,37.28961],[136.7775,37.28985],[136.78454,37.29114],[136.78696,37.29292],[136.79112,37.29434],[136.79628,37.29827],[136.79845,37.30184],[136.79941,37.30548],[136.79791,37.30806],[136.79898,37.31257],[136.80464,37.31566],[136.80926,37.31941],[136.81045,37.32141],[136.81683,37.3228],[136.81849,37.32416],[136.82417,37.33819],[136.83273,37.34202],[136.83944,37.34111],[136.84328,37.34226],[136.84662,37.34446],[136.85195,37.34495],[136.85485,37.34681],[136.85983,37.34758],[136.86332,37.35028],[136.86397,37.35241],[136.86708,37.35522],[136.86581,37.36081],[136.87009,37.36479],[136.87066,37.3669],[136.87536,37.37004],[136.88539,37.37976],[136.8942,37.38986],[136.89542,37.39374],[136.90002,37.39384]],[[136.89945,37.0558],[136.89599,37.05627],[136.89704,37.06028],[136.89389,37.06417],[136.8937,37.06553],[136.88489,37.06505],[136.87899,37.06813],[136.87068,37.06937],[136.86305,37.06852],[136.85922,37.07007],[136.85722,37.07819],[136.85879,37.08495],[136.85636,37.09118],[136.85629,37.09469],[136.85538,37.09638],[136.85207,37.09889],[136.84981,37.10379],[136.85767,37.11648],[136.86159,37.11834],[136.86233,37.12262],[136.86333,37.12407],[136.86397,37.12983],[136.86286,37.13418],[136.86316,37.13817],[136.86731,37.13961],[136.87182,37.1434],[136.87303,37.14624],[136.87921,37.15147],[136.87928,37.15351],[136.8808,37.15459],[136.88086,37.15678],[136.8826,37.15803],[136.88266,37.16129],[136.88406,37.1643],[136.88683,37.16483],[136.88868,37.16663],[136.88922,37.16978],[136.89277,37.17413],[136.89534,37.17491],[136.89647,37.17802],[136.89981,37.18116],[136.90048,37.18425],[136.9045,37.18557],[136.90581,37.19136],[136.91058,37.19334],[136.91085,37.19499],[136.90963,37.19848],[136.90601,37.20198],[136.90862,37.20789],[136.90812,37.21286],[136.90641,37.21591],[136.90636,37.22182],[136.91084,37.22883],[136.9064,37.23537],[136.90675,37.23597],[136.90962,37.23674],[136.91179,37.23592],[136.9205,37.23647],[136.92312,37.23592],[136.92906,37.23678],[136.93326,37.23601],[136.93807,37.23928],[136.94107,37.2381],[136.94387,37.23518],[136.94788,37.23351],[136.95169,37.23354],[136.95429,37.23526],[136.95736,37.23513],[136.96062,37.23665],[136.96306,37.23666],[136.96558,37.23524],[136.97178,37.23404],[136.97427,37.23473],[136.97934,37.23712],[136.97896,37.23931],[136.98014,37.2416],[136.98739,37.24162],[136.98832,37.24374],[136.99273,37.24629],[136.99513,37.24891],[136.99828,37.2499],[137.00435,37.25401],[137.00464,37.26006],[137.00763,37.26807],[137.01498,37.27262],[137.01922,37.2728],[137.02084,37.27433],[137.02669,37.27579],[137.03387,37.28319],[137.05154,37.27823],[137.05724,37.27067],[137.05873,37.26647],[137.06094,37.26532],[137.06691,37.26452],[137.07669,37.25759],[137.0818,37.2559],[137.08531,37.25696],[137.08833,37.25653],[137.08938,37.2576],[137.08912,37.26195],[137.09056,37.26446],[137.09425,37.2678],[137.09493,37.27105],[137.09688,37.27288],[137.09676,37.276],[137.09811,37.27854],[137.10065,37.27969],[137.10367,37.27963],[137.10668,37.28058],[137.11672,37.28874],[137.12097,37.28894],[137.13255,37.29267],[137.13563,37.29399],[137.13736,37.29591],[137.14354,37.29872],[137.14399,37.29911],[137.143,37.30045],[137.14294,37.30248],[137.14397,37.30506],[137.14369,37.30754],[137.1471,37.31407],[137.15104,37.31524],[137.15584,37.31461],[137.15996,37.31647],[137.16324,37.31528],[137.16461,37.3162],[137.16622,37.32048],[137.16794,37.3213],[137.17585,37.32118],[137.17927,37.32211],[137.18693,37.32126],[137.18892,37.32187],[137.19531,37.32648],[137.20554,37.32788],[137.20845,37.32978],[137.20875,37.33084],[137.20746,37.33352],[137.21078,37.33696],[137.21547,37.33749],[137.21967,37.34073],[137.22458,37.34032],[137.22907,37.34137],[137.22947,37.34281],[137.22779,37.34554],[137.23165,37.34891]],[[136.67931,36.56229],[136.67775,36.56541],[136.6782,36.56839],[136.6802,36.57073],[136.68595,36.57428],[136.68772,36.5798],[136.68785,36.5843],[136.6853,36.59006],[136.68598,36.59336],[136.68816,36.59568],[136.69845,36.60093],[136.7047,36.6084],[136.69908,36.60097],[136.69489,36.5982],[136.68882,36.59566],[136.68661,36.59357],[136.68578,36.58982],[136.68836,36.58329],[136.68695,36.57578],[136.68552,36.57348],[136.67889,36.56886],[136.67809,36.5657],[136.67959,36.56246],[136.67756,36.56078],[136.67233,36.56315],[136.66782,36.56376],[136.66339,36.56559],[136.66316,36.56672],[136.66443,36.56739],[136.66389,36.57098],[136.65585,36.57208]],[[136.96979,37.04196],[136.96734,37.03176],[136.95543,37.03416],[136.94984,37.0343],[136.94747,37.03639],[136.94873,37.04217],[136.94807,37.0466],[136.92955,37.04908],[136.92407,37.05333],[136.92106,37.05931],[136.91772,37.06255],[136.91393,37.06294],[136.90587,37.06052],[136.90258,37.05675],[136.90092,37.05593],[136.8961,37.05667]],[[137.23522,37.39648],[137.23405,37.39474],[137.23422,37.39272],[137.23541,37.3974],[137.23348,37.40152],[137.23406,37.40971],[137.23657,37.41648],[137.24062,37.41829],[137.24391,37.42127],[137.25082,37.43084],[137.25591,37.43227],[137.25958,37.43612],[137.26517,37.43952],[137.26419,37.44549],[137.26209,37.44912],[137.25687,37.4535],[137.25278,37.4548]],[[137.05384,37.44809],[137.0619,37.44951],[137.06809,37.44864],[137.07046,37.44925],[137.07331,37.45358],[137.07424,37.45756],[137.08291,37.46192],[137.08652,37.46569],[137.08943,37.47097],[137.09259,37.47216],[137.09339,37.47445],[137.10152,37.47958],[137.10479,37.47974],[137.10698,37.48085],[137.10798,37.48364],[137.11037,37.48573],[137.11753,37.4866],[137.12234,37.49109],[137.12769,37.49311],[137.13161,37.49345],[137.1374,37.49595],[137.14303,37.49664],[137.14631,37.49817],[137.16408,37.50214],[137.1728,37.50199],[137.17687,37.49912],[137.18199,37.49865],[137.18262,37.49708],[137.18115,37.49643],[137.1802,37.49744],[137.18113,37.49839],[137.18455,37.49894],[137.18594,37.49836],[137.18763,37.4919],[137.19458,37.48971],[137.19803,37.48631],[137.19975,37.48072],[137.19883,37.47439],[137.20653,37.47089],[137.20853,37.46916],[137.20862,37.4679],[137.20671,37.46599],[137.20774,37.46247],[137.20998,37.46188],[137.21492,37.46254],[137.23128,37.458],[137.2407,37.45709]],[[137.23422,37.39272],[137.23289,37.38712],[137.23396,37.38126],[137.23344,37.37754],[137.23761,37.36208],[137.23622,37.35927],[137.23341,37.35736],[137.233,37.35631],[137.23648,37.35171]],[[136.90521,37.39366],[136.92585,37.39498],[136.93112,37.39718],[136.93569,37.3962],[136.93716,37.39767],[136.93919,37.3981],[136.94011,37.39989],[136.9423,37.39993],[136.94402,37.40142],[136.94588,37.40109],[136.94834,37.40225],[136.9516,37.4022],[136.95347,37.40391],[136.95868,37.40597],[136.96123,37.40944],[136.96504,37.4113],[136.96976,37.41101],[136.97275,37.40962],[136.98277,37.41859],[136.99712,37.42311],[136.99999,37.42446],[137.00061,37.42619],[137.00468,37.42827]],[[137.03271,37.43492],[137.03541,37.43562]],[[136.90257,37.38364],[136.90652,37.382],[136.91187,37.3815],[136.91755,37.38561],[136.9194,37.38921]],[[137.01562,37.43233],[137.01827,37.433],[137.02435,37.4318],[137.02909,37.43252],[137.03174,37.43413]],[[136.70542,36.61679],[136.70586,36.61122],[136.7047,36.6084]],[[137.04056,37.44046],[137.04136,37.44092]],[[136.96752,37.03269],[136.96734,37.03176]],[[137.04797,37.44777],[137.04853,37.44843]],[[136.96838,37.41076],[136.96605,37.41132]],[[137.09943,37.47786],[137.1017,37.48001],[137.10487,37.48008],[137.10728,37.4815]]]}}]}