{"type":"FeatureCollection","features":[{"type":"Feature","properties":{"route_id":"128","route_number":128,"name":"国道128号","source":"OpenStreetMap contributors (ODbL)","osm_relations":[9069152,9069153,9069154,9069155,9069156,9069157,9069158]},"geometry":{"type":"MultiLineString","coordinates":[[[139.86315,34.99318],[139.87139,34.99119],[139.87543,34.9919],[139.88413,34.99143],[139.88858,34.99376],[139.88986,34.99907],[139.91142,34.99922],[139.91507,35.00136],[139.91849,35.0019],[139.92349,35.00422],[139.9297,35.00427],[139.93398,35.00676],[139.93592,35.0091],[139.94124,35.01032],[139.94334,35.01165],[139.95581,35.01289],[139.96425,35.01479],[139.99336,35.02577],[139.99752,35.02936],[140.00544,35.03265],[140.01199,35.03731],[140.01615,35.03671],[140.0185,35.03985],[140.0267,35.04716],[140.05067,35.05925],[140.07194,35.0596],[140.077,35.0648],[140.07903,35.06817],[140.08412,35.07013],[140.08479,35.07401],[140.08988,35.07362],[140.09665,35.07723],[140.09692,35.07847],[140.0948,35.08519],[140.09063,35.08835],[140.09021,35.0898],[140.09439,35.10137],[140.09738,35.10662],[140.1035,35.11023],[140.10631,35.10967],[140.11152,35.11104],[140.12452,35.11876],[140.13422,35.12266],[140.14053,35.12376],[140.1469,35.12321],[140.14828,35.124],[140.14961,35.12704],[140.15119,35.12786],[140.16859,35.12764],[140.17031,35.12688],[140.17297,35.12145],[140.17405,35.12104],[140.17856,35.12218],[140.18415,35.12587],[140.19165,35.12762],[140.19415,35.12646],[140.19584,35.12355],[140.19779,35.12335],[140.19909,35.1216],[140.20263,35.12053],[140.20639,35.11771],[140.21361,35.11653],[140.22016,35.11706],[140.22753,35.11835],[140.2319,35.12268],[140.23557,35.12254],[140.23754,35.12365],[140.23903,35.12775],[140.24328,35.13084],[140.24373,35.1325],[140.24577,35.13471],[140.25254,35.13599],[140.25621,35.13871],[140.25906,35.13847],[140.26297,35.1401],[140.26994,35.14105],[140.26361,35.14302],[140.25654,35.14045],[140.25054,35.14031],[140.24758,35.13945],[140.24173,35.13478],[140.23943,35.12907],[140.2299,35.12306],[140.22818,35.11887]],[[140.30872,35.57312],[140.31521,35.57456],[140.31972,35.57411],[140.32528,35.57482],[140.32883,35.5738],[140.34018,35.56116],[140.34274,35.55923],[140.35008,35.5504],[140.33013,35.57261],[140.3267,35.5745],[140.31468,35.5744],[140.31107,35.57289],[140.30591,35.57362],[140.30383,35.57561],[140.29813,35.57567],[140.29203,35.57411],[140.28069,35.57395],[140.27052,35.57509],[140.26215,35.58139],[140.25806,35.58327],[140.25274,35.5826],[140.24886,35.58413],[140.23794,35.58165],[140.23326,35.58147],[140.22814,35.58404],[140.22375,35.5877],[140.22283,35.59256],[140.22094,35.59453],[140.21696,35.59454],[140.21189,35.59712],[140.2087,35.59676],[140.20055,35.60353],[140.19554,35.60517],[140.19211,35.60753],[140.1838,35.60908],[140.1765,35.60895],[140.16727,35.60729],[140.15805,35.60912],[140.15403,35.60792],[140.14376,35.61037],[140.12544,35.60788],[140.1247,35.61063]],[[140.34999,35.55034],[140.34344,35.54511],[140.34065,35.53911],[140.33287,35.532],[140.31982,35.50961],[140.31197,35.47873],[140.31021,35.47687],[140.30356,35.47415],[140.30083,35.46619],[140.29675,35.4487],[140.28644,35.43594],[140.28739,35.42576],[140.29895,35.42501],[140.31151,35.42029],[140.31345,35.41773],[140.31397,35.41334],[140.3168,35.40598],[140.32018,35.40137],[140.32707,35.3962],[140.33118,35.39496],[140.33445,35.3954],[140.33801,35.39456],[140.34784,35.38849],[140.35471,35.3861],[140.35869,35.38284],[140.36168,35.38152],[140.36338,35.37023],[140.36601,35.36337],[140.36772,35.36238],[140.37101,35.35834],[140.37338,35.35336],[140.37661,35.35116],[140.37914,35.34778],[140.37969,35.34506],[140.38413,35.33817],[140.39578,35.33093],[140.4023,35.32295],[140.40336,35.31901],[140.40209,35.31572],[140.40272,35.31113],[140.40095,35.30804],[140.40082,35.30502],[140.39626,35.2976],[140.39523,35.29272],[140.39201,35.28722],[140.39411,35.27623],[140.3935,35.25912],[140.39625,35.2509],[140.38846,35.23394],[140.38593,35.22451],[140.37836,35.21775],[140.37589,35.21207],[140.37365,35.20378],[140.36961,35.19869],[140.35561,35.18698],[140.34856,35.18272],[140.34745,35.17777],[140.3436,35.17256],[140.33927,35.17095],[140.3331,35.16584],[140.32725,35.16555],[140.32427,35.16666],[140.32251,35.1663],[140.31683,35.15929],[140.30828,35.15681],[140.30631,35.15527],[140.30437,35.15182],[140.2978,35.15103],[140.29289,35.14631],[140.28832,35.14476],[140.28698,35.14356],[140.28236,35.14334],[140.27382,35.13952],[140.26994,35.14105]],[[140.30523,35.15277],[140.30369,35.1513],[140.29958,35.15149]],[[140.12544,35.60788],[140.12455,35.61058]],[[140.31163,35.47814],[140.31011,35.47671],[140.30483,35.4751],[140.30351,35.47385],[140.30089,35.46607],[140.29689,35.44877],[140.28656,35.43602],[140.28749,35.42576]],[[140.27069,35.14068],[140.26967,35.14089]]]}}]}