{"type":"FeatureCollection","features":[{"type":"Feature","properties":{"route_id":"125","route_number":125,"name":"国道125号","source":"OpenStreetMap contributors (ODbL)","osm_relations":[9002996,9064104]},"geometry":{"type":"MultiLineString","coordinates":[[[140.13876,36.13361],[140.14498,36.13141],[140.13617,36.13441],[140.12801,36.13956],[140.12245,36.14147],[140.11816,36.14669],[140.11635,36.15279],[140.10773,36.15961],[140.1066,36.16776],[140.10542,36.1696],[140.09029,36.17334],[140.08129,36.17972],[140.07171,36.17917],[140.07141,36.18142],[140.0672,36.19067],[140.05848,36.19055],[140.04801,36.18721],[140.03287,36.18569],[140.02935,36.18603],[140.01624,36.19047],[140.00637,36.1875],[139.99588,36.18673],[140.00069,36.18739]],[[140.48811,35.9016],[140.49044,35.90447],[140.4911,35.91225],[140.48927,35.91516],[140.48444,35.9181],[140.48255,35.92505],[140.46865,35.92299],[140.46083,35.92627],[140.45476,35.93219],[140.45227,35.93835],[140.4454,35.94401],[140.44311,35.94454],[140.43965,35.94397],[140.43226,35.93875],[140.41995,35.93307],[140.41077,35.93663],[140.39898,35.93845],[140.3925,35.93918],[140.38269,35.93853],[140.38309,35.94132],[140.3823,35.94426],[140.38368,35.94822],[140.38241,35.95004],[140.38286,35.95156],[140.37649,35.95237],[140.37321,35.95515],[140.37241,35.95761],[140.37098,35.95911],[140.36361,35.96243],[140.34924,35.97407],[140.3452,35.97589],[140.33878,35.9883],[140.32778,35.99671],[140.3248,35.99819],[140.32278,36.00045],[140.31883,36.00103],[140.31748,36.00246],[140.31332,36.00442],[140.30882,36.0029],[140.29622,36.00784],[140.28325,36.01827],[140.27232,36.0221],[140.26788,36.02232],[140.25688,36.02039],[140.24055,36.02245],[140.22427,36.0339],[140.20377,36.044],[140.18772,36.04821],[140.17689,36.05676],[140.18835,36.048],[140.20201,36.04486],[140.22432,36.03398],[140.24063,36.02251],[140.25723,36.02048],[140.26787,36.02244],[140.27243,36.02216],[140.28303,36.0185],[140.28726,36.01573],[140.29478,36.00862],[140.30667,36.00373]],[[139.41897,36.15177],[139.42844,36.15182],[139.43839,36.1554],[139.44301,36.15629],[139.49178,36.15708],[139.5119,36.15181],[139.5279,36.1513],[139.53903,36.14908],[139.54497,36.14517],[139.55381,36.14299],[139.54454,36.14542],[139.53947,36.14907],[139.52831,36.15135],[139.51192,36.15189],[139.49171,36.15718],[139.44301,36.15637],[139.43839,36.15549],[139.42842,36.1519],[139.41872,36.15194]],[[139.57038,36.1437],[139.59221,36.14004],[139.60498,36.13157],[139.61598,36.12725],[139.62239,36.12366],[139.63204,36.12624],[139.63957,36.12639],[139.644,36.1274],[139.65061,36.12487],[139.6614,36.12457],[139.67053,36.12071],[139.67644,36.12115],[139.67941,36.12022],[139.68645,36.12433],[139.69282,36.12567],[139.70752,36.13304],[139.70333,36.14203],[139.71336,36.14896],[139.70376,36.14164],[139.70758,36.13304],[139.69314,36.12572],[139.68649,36.12427],[139.67948,36.12014],[139.67643,36.12104],[139.67019,36.12069],[139.66137,36.12449],[139.6506,36.12479],[139.64398,36.12732],[139.63978,36.12632],[139.63224,36.12617],[139.62239,36.12366],[139.6161,36.12711],[139.60492,36.13151],[139.59101,36.14036],[139.57038,36.1437],[139.55381,36.14299]],[[140.17697,36.05685],[140.18107,36.06165],[140.18521,36.06906],[140.18837,36.07187],[140.18819,36.07499],[140.18982,36.07815],[140.19555,36.08453],[140.19926,36.08711],[140.19993,36.09413],[140.20152,36.09644],[140.20475,36.10537],[140.1968,36.10905],[140.19266,36.11398],[140.18895,36.11655],[140.17889,36.1198],[140.17064,36.1261],[140.16632,36.12844],[140.15671,36.13111],[140.14498,36.13141],[140.15141,36.12633],[140.15846,36.12626],[140.16496,36.12366],[140.17616,36.11604]],[[139.99588,36.18673],[139.98736,36.18777],[139.97953,36.18535],[139.97224,36.18071],[139.96216,36.17813],[139.95654,36.17823],[139.95318,36.17941],[139.94888,36.18416],[139.93962,36.18747],[139.93163,36.18801],[139.91895,36.18428],[139.9124,36.18349],[139.89636,36.18812],[139.89121,36.18795],[139.88183,36.19148],[139.86851,36.19509],[139.86348,36.19772],[139.8481,36.19895],[139.84342,36.20103],[139.83896,36.20174],[139.83328,36.20215],[139.82851,36.19964],[139.80417,36.20162],[139.80016,36.20134],[139.77971,36.20367],[139.77077,36.20778],[139.75203,36.20695],[139.74179,36.20512],[139.73305,36.20149],[139.71899,36.19876],[139.7179,36.18725],[139.72016,36.16293],[139.71336,36.14896]],[[140.07171,36.17917],[140.06709,36.19067]],[[140.14498,36.1315],[140.15675,36.13121],[140.16639,36.1285],[140.17066,36.12619],[140.17889,36.11997],[140.18872,36.11679],[140.19273,36.11402],[140.19691,36.10914],[140.20475,36.10537]],[[140.48803,35.90165],[140.49034,35.90456],[140.491,35.9123],[140.48906,35.91519],[140.48423,35.9182],[140.48241,35.92502]],[[140.03491,36.18586],[140.02986,36.18582],[140.02421,36.18803]],[[139.42136,36.15168],[139.42117,36.15174]]]}}]}