{"type":"FeatureCollection","features":[{"type":"Feature","properties":{"route_id":"451","route_number":451,"name":"国道451号","source":"OpenStreetMap contributors (ODbL)","osm_relations":[6601928,9465492]},"geometry":{"type":"MultiLineString","coordinates":[[[141.43357,43.82133],[141.43756,43.82254],[141.46062,43.82023],[141.46369,43.82061],[141.47032,43.82648],[141.47556,43.82909],[141.47856,43.83265],[141.4804,43.8337],[141.48402,43.83501],[141.49335,43.83581],[141.49651,43.8377],[141.50721,43.85165],[141.51065,43.8544],[141.51766,43.85616],[141.52077,43.84967],[141.52341,43.84863],[141.53297,43.84969],[141.54148,43.85172],[141.54549,43.85421],[141.5465,43.8561],[141.54613,43.85942],[141.548,43.8607],[141.55012,43.8608],[141.55692,43.85769],[141.56181,43.85939],[141.56393,43.86175],[141.56599,43.8666],[141.57169,43.86811],[141.57658,43.86829],[141.58257,43.87215],[141.58581,43.87847],[141.58881,43.88174],[141.59773,43.8842],[141.5989,43.88675],[141.60337,43.89219],[141.60687,43.90107],[141.61042,43.90462],[141.61801,43.91514],[141.62109,43.91756],[141.62673,43.91985],[141.63121,43.92763],[141.635,43.93118],[141.63684,43.93837],[141.6404,43.94129],[141.63697,43.93834],[141.63512,43.93112],[141.63134,43.9276],[141.62624,43.91928]],[[141.43351,43.82131],[141.41566,43.81532],[141.39586,43.80643],[141.38988,43.80506],[141.38113,43.80063],[141.37797,43.79809],[141.37027,43.78675],[141.37132,43.78286],[141.37046,43.7778],[141.36746,43.77247],[141.36358,43.76858],[141.3632,43.76418],[141.36207,43.76179],[141.35056,43.75397],[141.34483,43.74424],[141.33922,43.73926],[141.33829,43.73464],[141.33532,43.73107],[141.33095,43.72339],[141.33199,43.71098],[141.3371,43.70147],[141.34021,43.68902],[141.34585,43.67867],[141.34636,43.67442],[141.34989,43.66692],[141.34939,43.66454],[141.35042,43.66159],[141.35016,43.65433],[141.35527,43.65158],[141.35694,43.64939],[141.35687,43.64731],[141.35455,43.64305],[141.35462,43.6414],[141.36196,43.63529],[141.36281,43.63034],[141.36372,43.62922],[141.37163,43.62504],[141.3773,43.62331],[141.37878,43.62195],[141.37884,43.61702],[141.37593,43.61412],[141.37558,43.61272],[141.37669,43.61049],[141.38384,43.60422],[141.38394,43.59482],[141.38635,43.59042],[141.38761,43.58513],[141.38735,43.57923],[141.41508,43.57852],[141.41573,43.57902],[141.41581,43.58205],[141.41854,43.58503],[141.42449,43.58624],[141.42853,43.58466],[141.43263,43.58476],[141.4373,43.58283],[141.43964,43.58274],[141.45264,43.58599],[141.45882,43.58958],[141.45977,43.59201],[141.46243,43.59377],[141.47662,43.59204],[141.48964,43.59447],[141.49961,43.59331],[141.50298,43.59443],[141.5129,43.59406],[141.52447,43.59805],[141.53514,43.5988],[141.53814,43.59802],[141.54063,43.59614],[141.54956,43.59345],[141.5539,43.59051],[141.5527,43.58819],[141.55328,43.58467],[141.55692,43.5775],[141.55681,43.57266],[141.55934,43.57088],[141.56025,43.56838],[141.56029,43.56382],[141.55948,43.56143],[141.5655,43.55695],[141.5654,43.55309],[141.56909,43.54907],[141.57405,43.54564],[141.57833,43.54413],[141.57784,43.54176],[141.58047,43.53856],[141.58718,43.53741],[141.59072,43.5329],[141.59226,43.53235],[141.59646,43.53399],[141.60359,43.53919],[141.61233,43.54113],[141.61668,43.54437],[141.61638,43.54757],[141.61719,43.54911],[141.61895,43.5495],[141.6236,43.54842],[141.62817,43.54611],[141.62915,43.54456],[141.6351,43.54264],[141.64076,43.5432],[141.64642,43.54106],[141.64918,43.54184],[141.65175,43.54409],[141.65251,43.54539],[141.65197,43.54877],[141.65436,43.55135],[141.66061,43.55218],[141.66559,43.55454],[141.67048,43.55496],[141.67979,43.56017],[141.69021,43.55685],[141.69261,43.55679],[141.69587,43.55803],[141.69798,43.56155],[141.70011,43.56209],[141.70272,43.56497],[141.70311,43.5672],[141.70562,43.57054],[141.71054,43.57284],[141.71226,43.57508],[141.71966,43.57963],[141.72596,43.58058],[141.73143,43.58497],[141.73268,43.5892],[141.73007,43.59314],[141.73117,43.59544],[141.73379,43.59633],[141.7456,43.59506],[141.75096,43.59158],[141.77121,43.58615],[141.78015,43.58672],[141.78639,43.58526],[141.78955,43.58363],[141.80217,43.58515],[141.80684,43.58309],[141.81858,43.58209],[141.82187,43.58052],[141.82455,43.58054],[141.83347,43.57816],[141.8358,43.57586],[141.83782,43.57619],[141.84058,43.57815],[141.87542,43.56879],[141.8761,43.56682],[141.87997,43.56275],[141.88143,43.55975],[141.8774,43.55618],[141.8754,43.55128],[141.8758,43.54831],[141.88483,43.54583],[141.88254,43.54102],[141.88505,43.5405],[141.8969,43.54137],[141.91207,43.55004]],[[141.88143,43.55975],[141.8909,43.56218],[141.90848,43.55775]],[[141.6404,43.94129],[141.64762,43.93651],[141.66437,43.93454]],[[141.66433,43.93445],[141.66323,43.93462]]]}}]}