{"type":"FeatureCollection","features":[{"type":"Feature","properties":{"route_id":"443","route_number":443,"name":"国道443号","source":"OpenStreetMap contributors (ODbL)","osm_relations":[9570220,9570303,9570519]},"geometry":{"type":"MultiLineString","coordinates":[[[130.38074,33.20612],[130.38002,33.19865],[130.38116,33.19605],[130.39511,33.17908],[130.39772,33.17743],[130.41411,33.17578],[130.4152,33.1746],[130.41633,33.17082],[130.41666,33.1665],[130.44225,33.16372],[130.45244,33.16191],[130.45988,33.15941],[130.46768,33.15925],[130.48152,33.15599],[130.48793,33.15295],[130.48987,33.14592],[130.49871,33.13911],[130.50187,33.13504],[130.50457,33.13281],[130.50753,33.13386],[130.50972,33.13336],[130.51806,33.12188],[130.52859,33.11105],[130.5399,33.09207],[130.54371,33.0891],[130.54427,33.08758],[130.54232,33.08399],[130.54206,33.07888],[130.54344,33.07543],[130.54804,33.07027],[130.55001,33.065],[130.54996,33.05584],[130.55182,33.05323],[130.55863,33.04848],[130.56386,33.0468],[130.56756,33.04397],[130.57591,33.04176],[130.582,33.04193],[130.58833,33.03971],[130.59158,33.03951],[130.5936,33.03765],[130.59481,33.03498],[130.5981,33.03368],[130.59946,33.03444],[130.60049,33.03705],[130.60774,33.038],[130.60966,33.03969],[130.61364,33.03896],[130.61662,33.04062],[130.6186,33.04013],[130.62608,33.04156],[130.63252,33.0378],[130.63357,33.03528],[130.63907,33.03423],[130.64437,33.03104],[130.65301,33.03043],[130.65971,33.02769],[130.66233,33.02327],[130.66406,33.02185],[130.66446,33.01858],[130.66564,33.01646],[130.67229,33.01952],[130.68101,33.02018],[130.68335,33.01967],[130.68502,33.01416],[130.6925,33.01495],[130.69894,33.01389],[130.70205,33.01275],[130.70578,33.00973],[130.71118,33.00847],[130.71905,33.00525],[130.74525,33.00064],[130.75326,32.98823],[130.75805,32.98389],[130.76304,32.98123],[130.76991,32.9811],[130.77981,32.97936],[130.7826,32.97691],[130.80124,32.97666],[130.80653,32.9786],[130.81449,32.96417],[130.82091,32.96028],[130.82203,32.95384],[130.82438,32.95137],[130.82253,32.94485],[130.82848,32.93696],[130.83393,32.92377],[130.84391,32.91144],[130.85146,32.90473],[130.85256,32.90228],[130.85425,32.89214],[130.85526,32.85746],[130.84996,32.85722],[130.84893,32.8554],[130.84849,32.85162],[130.84704,32.85068],[130.83453,32.84708],[130.83671,32.84233],[130.83439,32.84712],[130.83666,32.8477]],[[130.83671,32.84233],[130.83109,32.83859],[130.82868,32.8346],[130.82437,32.83082],[130.82722,32.82833],[130.82828,32.81935],[130.82281,32.79959],[130.82349,32.79318],[130.82173,32.7918],[130.82088,32.7895],[130.82069,32.78487],[130.82233,32.78023],[130.82188,32.77509],[130.8234,32.7706],[130.82212,32.76941],[130.8181,32.76874],[130.81603,32.76627],[130.81533,32.76311],[130.81212,32.75831],[130.8054,32.75543],[130.80026,32.74965],[130.79948,32.74786],[130.80042,32.74426],[130.79706,32.73696],[130.79906,32.73083],[130.80323,32.72408],[130.80755,32.72016],[130.80796,32.71855],[130.80728,32.71351],[130.80119,32.70622],[130.79698,32.69886],[130.79824,32.69405],[130.80343,32.6893],[130.80663,32.68222],[130.80683,32.68012],[130.81054,32.67597],[130.811,32.67173],[130.80862,32.6677],[130.80713,32.66133],[130.81051,32.65419],[130.81175,32.64525],[130.81294,32.64315],[130.81334,32.63641],[130.8159,32.63199],[130.81387,32.62986],[130.81393,32.62816],[130.8125,32.62606],[130.81518,32.62318],[130.82216,32.62227],[130.82119,32.62025],[130.82122,32.61684],[130.82296,32.61642],[130.82379,32.61459],[130.82273,32.61352],[130.82028,32.61329],[130.81966,32.61112],[130.82304,32.60894],[130.82374,32.6077],[130.81938,32.60424],[130.81691,32.60528],[130.81423,32.60351],[130.80994,32.60242],[130.8106,32.60098],[130.81391,32.59958],[130.81419,32.59682],[130.81555,32.59534],[130.80515,32.5869],[130.80422,32.58433],[130.79989,32.58163],[130.79861,32.5796],[130.79851,32.57565],[130.79763,32.57406],[130.79522,32.57263],[130.79047,32.57356],[130.78943,32.57456],[130.78573,32.57434],[130.7865,32.57554],[130.78566,32.57608],[130.78217,32.57458],[130.77798,32.57243],[130.77454,32.56812],[130.77522,32.56341],[130.7722,32.56217],[130.77027,32.56264],[130.76834,32.56092],[130.764,32.5597],[130.76057,32.56049],[130.75822,32.55813],[130.75841,32.55617],[130.75075,32.55394],[130.74946,32.55102],[130.74697,32.55126],[130.74483,32.55283],[130.74243,32.55099],[130.74225,32.54971],[130.74007,32.54837],[130.73665,32.54911],[130.73503,32.54853],[130.73355,32.55014],[130.73171,32.55054],[130.72527,32.54836],[130.71941,32.54896],[130.71619,32.54702],[130.71238,32.54817],[130.70757,32.54706],[130.70304,32.5475],[130.69961,32.54916],[130.69113,32.54988],[130.68908,32.55124],[130.68564,32.5555],[130.68237,32.55635],[130.68256,32.55709],[130.68161,32.55728]],[[130.81389,32.96516],[130.81574,32.96302],[130.81967,32.96168],[130.82103,32.96023],[130.82207,32.95397],[130.8245,32.95138],[130.82264,32.94485],[130.82857,32.93698],[130.834,32.92381],[130.84398,32.91148],[130.85221,32.90366],[130.85429,32.89314],[130.8546,32.87449]],[[130.48878,33.14801],[130.46514,33.15148],[130.43096,33.15239],[130.42186,33.15166]],[[130.80085,32.7466],[130.80279,32.74478],[130.80257,32.74415],[130.80618,32.74165]],[[130.80047,32.74472],[130.79966,32.74397],[130.80164,32.74354],[130.80077,32.74658]],[[130.80239,32.74403],[130.8017,32.74358],[130.80535,32.74195]],[[130.80755,32.72016],[130.80806,32.71805],[130.80742,32.71355],[130.80316,32.70873]],[[130.82446,32.8309],[130.82717,32.82875],[130.82815,32.82284],[130.82831,32.81794],[130.82659,32.81269]],[[130.50187,33.13504],[130.50298,33.13166],[130.51258,33.12497],[130.51758,33.11706],[130.52309,33.11129],[130.52661,33.11074],[130.5291,33.10942]],[[130.75805,32.98389],[130.75298,32.98841],[130.74766,32.99726]],[[130.43096,33.15239],[130.46513,33.15154],[130.47476,33.14996]],[[130.82059,32.95854],[130.81612,32.96181]],[[130.81611,32.9623],[130.81527,32.96312]]]}}]}