{"type":"FeatureCollection","features":[{"type":"Feature","properties":{"route_id":"187","route_number":187,"name":"国道187号","source":"OpenStreetMap contributors (ODbL)","osm_relations":[4165287]},"geometry":{"type":"MultiLineString","coordinates":[[[132.22605,34.17634],[132.22348,34.17573],[132.21668,34.17146],[132.20372,34.17027],[132.19885,34.16544],[132.19709,34.16447],[132.1953,34.1646],[132.18861,34.1659],[132.18658,34.16711],[132.18307,34.17178],[132.18335,34.17517],[132.18076,34.17948],[132.17605,34.18545],[132.173,34.18619],[132.16788,34.18358],[132.1648,34.18087],[132.16347,34.17713],[132.16048,34.17305],[132.14909,34.17507],[132.14615,34.17455],[132.14118,34.17096],[132.13954,34.17116],[132.1359,34.17344],[132.13294,34.17398],[132.11386,34.1727],[132.11103,34.17382],[132.10899,34.17329],[132.10754,34.17145],[132.10507,34.17212],[132.10179,34.1711],[132.09519,34.16647],[132.09414,34.16331],[132.091,34.16267],[132.08777,34.16658],[132.08453,34.16859],[132.07553,34.17195],[132.07316,34.1754],[132.07282,34.17736],[132.0713,34.17856],[132.06716,34.17804],[132.05479,34.18021],[132.05386,34.18102],[132.05408,34.18314],[132.0527,34.18465],[132.04759,34.18652],[132.03918,34.18755],[132.03823,34.19034],[132.03561,34.19153],[132.03431,34.19533],[132.03158,34.19825],[132.03443,34.20107],[132.03501,34.2035],[132.0348,34.20738],[132.03273,34.20959],[132.02991,34.21064],[132.02264,34.20945],[132.01701,34.2146],[132.0136,34.21604],[132.01046,34.21499],[132.00908,34.21123],[132.00819,34.21092],[132.00452,34.21312],[132.00276,34.21572],[132.00101,34.21622],[131.99961,34.21543],[131.99847,34.21217],[131.99536,34.20845],[131.99365,34.20839],[131.99229,34.2094],[131.99092,34.21589],[131.99177,34.21759],[131.99537,34.22075],[131.9954,34.22162],[131.99208,34.22692],[131.98949,34.22702],[131.98497,34.22548],[131.98315,34.22599],[131.9838,34.22978],[131.9817,34.23296],[131.98317,34.23494],[131.98666,34.23572],[131.98817,34.23692],[131.98815,34.23888],[131.98384,34.24486],[131.97827,34.24616],[131.97749,34.24761],[131.97863,34.25214],[131.97736,34.25547],[131.97854,34.25899],[131.97591,34.26361],[131.97684,34.26597],[131.97934,34.26877],[131.97641,34.2716],[131.97299,34.27852],[131.96644,34.28009],[131.96435,34.28432],[131.96114,34.28751],[131.95547,34.28769],[131.95244,34.28862],[131.95229,34.29071],[131.94755,34.29335],[131.94462,34.29654],[131.94295,34.29726],[131.9421,34.3008],[131.94075,34.3022],[131.94047,34.30887],[131.94182,34.31372],[131.94046,34.31616],[131.94089,34.31837],[131.93899,34.32332],[131.94547,34.33445],[131.9452,34.33832],[131.94302,34.34157],[131.94811,34.34487],[131.94788,34.34796],[131.93985,34.35247],[131.93023,34.35124],[131.92845,34.35212],[131.9223,34.35233],[131.91668,34.36186],[131.91659,34.36413],[131.91899,34.37143],[131.91726,34.3748],[131.91443,34.37725],[131.90941,34.37969],[131.90391,34.38065],[131.90278,34.38311],[131.90101,34.38437],[131.88844,34.38745],[131.8831,34.39039],[131.88164,34.39264],[131.88233,34.39663],[131.89146,34.40349],[131.89291,34.4056],[131.89238,34.4081],[131.88713,34.40955],[131.88605,34.41179],[131.88731,34.41416],[131.89386,34.41989],[131.89465,34.42345],[131.89328,34.43024],[131.89246,34.43128],[131.89027,34.43185],[131.88803,34.43608],[131.88455,34.4365],[131.87951,34.43454],[131.8751,34.43699],[131.87108,34.43653],[131.86869,34.4374],[131.86862,34.44079],[131.86689,34.44376],[131.86753,34.44449],[131.87069,34.44496],[131.86961,34.44684],[131.86966,34.45074],[131.86818,34.45219],[131.86452,34.45087],[131.8625,34.45209],[131.86448,34.4574],[131.86768,34.45904],[131.86922,34.46411],[131.87177,34.46581],[131.87034,34.4713],[131.87449,34.47472],[131.87451,34.4771],[131.87236,34.48021],[131.86971,34.48036],[131.86441,34.48242],[131.86699,34.48782],[131.87129,34.49211],[131.86822,34.49506],[131.86807,34.49709],[131.86515,34.50022],[131.86041,34.50784],[131.8613,34.50966],[131.86376,34.51054],[131.8659,34.51256],[131.86938,34.51301],[131.87063,34.51456],[131.87249,34.51829],[131.87118,34.52142],[131.87044,34.52712],[131.85618,34.5325],[131.85144,34.53232],[131.84165,34.53729],[131.83905,34.54013],[131.83585,34.5407],[131.83391,34.54306],[131.83454,34.54398],[131.83345,34.54626],[131.83338,34.55081],[131.83263,34.55156],[131.82921,34.55168],[131.8268,34.54686],[131.82229,34.54415],[131.82015,34.54353],[131.81782,34.54459],[131.81241,34.54953],[131.80012,34.55683],[131.79682,34.56466],[131.7934,34.56783],[131.79237,34.5699],[131.79658,34.57668],[131.7923,34.58506],[131.79322,34.58627],[131.79725,34.58823],[131.80137,34.59296],[131.80158,34.59977],[131.79829,34.60633],[131.79976,34.60808],[131.79976,34.61058],[131.80164,34.61654],[131.80614,34.62105],[131.80679,34.62414],[131.80644,34.62853],[131.79799,34.63614],[131.79761,34.63738],[131.79974,34.64007],[131.81182,34.64548],[131.81263,34.65146],[131.81047,34.65789],[131.81069,34.65911],[131.8202,34.66411],[131.82258,34.67126],[131.83149,34.67842],[131.83429,34.67873],[131.83606,34.6828]]]}}]}