{"type":"FeatureCollection","features":[{"type":"Feature","properties":{"route_id":"484","route_number":484,"name":"国道484号","source":"OpenStreetMap contributors (ODbL)","osm_relations":[9994456]},"geometry":{"type":"MultiLineString","coordinates":[[[133.60882,34.78322],[133.61217,34.78155],[133.61505,34.78219],[133.61624,34.78173],[133.61883,34.78286],[133.62113,34.7858],[133.622,34.78574],[133.62242,34.78485],[133.62141,34.78304],[133.62483,34.78431],[133.62517,34.78169],[133.62438,34.78104],[133.62377,34.78152],[133.62456,34.78193],[133.62509,34.78111],[133.62429,34.78053],[133.6225,34.78106],[133.62212,34.7777],[133.62035,34.77657],[133.62181,34.77497],[133.62504,34.77371],[133.62843,34.77405],[133.62956,34.77576],[133.62966,34.77934],[133.63698,34.78297],[133.63896,34.78737],[133.64742,34.78603],[133.65151,34.78786],[133.65565,34.79529],[133.65896,34.79736],[133.66071,34.79974],[133.6656,34.80351],[133.66813,34.8043],[133.66928,34.80561],[133.67256,34.80604],[133.67727,34.80484],[133.68184,34.80541],[133.68682,34.80867],[133.69227,34.80971],[133.69978,34.81386],[133.70478,34.81539],[133.70732,34.81526],[133.70906,34.81705],[133.71029,34.82175],[133.72336,34.83671],[133.72442,34.83937],[133.72863,34.84364],[133.73167,34.84854],[133.73878,34.85499],[133.73993,34.85317],[133.74327,34.85193],[133.74828,34.84314],[133.75135,34.84275],[133.75447,34.84053],[133.75693,34.84017],[133.7567,34.83598],[133.75552,34.83474],[133.75598,34.83412],[133.75896,34.83558],[133.76651,34.83706],[133.77139,34.83665],[133.77397,34.83842],[133.77554,34.84082],[133.77595,34.83733],[133.77436,34.83367],[133.7762,34.83221],[133.78125,34.83204],[133.78378,34.82945],[133.78519,34.8291],[133.78716,34.83049],[133.7887,34.83316],[133.79221,34.83334],[133.79741,34.83896],[133.80048,34.841],[133.80015,34.84293],[133.80137,34.84576],[133.80495,34.84733],[133.80579,34.84851],[133.80529,34.84935],[133.80591,34.8509],[133.81011,34.85364],[133.81055,34.85661],[133.81229,34.85841],[133.81149,34.85948],[133.81185,34.8601],[133.82172,34.86046],[133.82033,34.86714],[133.82162,34.86817],[133.8225,34.87125],[133.82893,34.8724],[133.83148,34.87371],[133.83911,34.88135],[133.843,34.88167],[133.84337,34.88363],[133.84795,34.88445],[133.84822,34.88604],[133.85026,34.88753],[133.85982,34.88722],[133.86556,34.88896],[133.86817,34.88714],[133.86907,34.88803],[133.87194,34.88749],[133.87473,34.88514],[133.87813,34.88708],[133.88098,34.88631],[133.88479,34.88287],[133.88678,34.88311],[133.8869,34.88193],[133.89059,34.87966],[133.89241,34.87712],[133.89933,34.87506],[133.90062,34.87396],[133.90071,34.86754],[133.90327,34.86406],[133.90209,34.85604],[133.90739,34.85561],[133.91091,34.85625],[133.91659,34.85387],[133.92394,34.85881],[133.92892,34.86008],[133.9332,34.86348],[133.94004,34.86506],[133.94376,34.86503],[133.94553,34.86391],[133.95178,34.86487],[133.95638,34.86881],[133.96244,34.87156],[133.96564,34.87214],[133.96898,34.87427],[133.97042,34.87409],[133.97203,34.87592],[133.97701,34.87757],[133.99346,34.87586],[133.99515,34.8743],[133.99617,34.86952],[133.99769,34.86805],[133.99948,34.86823],[134.0018,34.86932],[134.0047,34.87223],[134.01065,34.87239],[134.01189,34.87166],[134.01595,34.87697],[134.02037,34.87848],[134.02399,34.87852],[134.0277,34.88113],[134.03341,34.8819],[134.03935,34.88095],[134.04231,34.88318],[134.04591,34.8845],[134.05852,34.8877],[134.06721,34.89251],[134.07063,34.89316],[134.07387,34.89507],[134.07818,34.89529],[134.08319,34.89703],[134.08427,34.89482],[134.08739,34.89442],[134.09134,34.89842],[134.09526,34.89942],[134.09779,34.89817],[134.09928,34.89314],[134.09859,34.89156],[134.09455,34.88772],[134.09462,34.88535],[134.09659,34.88385],[134.10233,34.88333],[134.10427,34.88212],[134.10666,34.87332],[134.11036,34.86798],[134.11147,34.86426],[134.11071,34.86184],[134.1002,34.84813],[134.10039,34.84657],[134.10624,34.84559],[134.11634,34.85011],[134.11946,34.84932],[134.12292,34.84493],[134.12539,34.83951],[134.12991,34.83425],[134.13614,34.82118],[134.13826,34.81857],[134.14164,34.80877],[134.14394,34.79682],[134.14534,34.79393],[134.14911,34.79357],[134.15502,34.79633],[134.16066,34.79618],[134.16614,34.79311],[134.16714,34.78778],[134.16685,34.78345],[134.17422,34.77684],[134.17532,34.77489],[134.16873,34.76297],[134.16929,34.75768],[134.17216,34.75238],[134.16735,34.74941],[134.16647,34.74549],[134.16675,34.74046]]]}}]}