{"type":"FeatureCollection","features":[{"type":"Feature","properties":{"route_id":"372","route_number":372,"name":"国道372号","source":"OpenStreetMap contributors (ODbL)","osm_relations":[8819316,10030008,10030032,10030093,10030142,10030191,10030211,10030212,10030346,10030347]},"geometry":{"type":"MultiLineString","coordinates":[[[134.70035,34.83174],[134.70063,34.8346],[134.70295,34.83897],[134.70504,34.83832],[134.71461,34.83919],[134.74009,34.8382],[134.75736,34.85212],[134.76663,34.85585],[134.77407,34.85775],[134.78114,34.8572],[134.78859,34.86024],[134.7944,34.86619],[134.80104,34.86715],[134.80971,34.87184],[134.82021,34.87253],[134.83607,34.86969],[134.84086,34.87092],[134.84356,34.87303],[134.84752,34.87443],[134.85949,34.87403],[134.87032,34.87521],[134.87643,34.88195],[134.87919,34.88997],[134.87923,34.89215],[134.88147,34.89455],[134.88506,34.89795],[134.89518,34.90303],[134.90591,34.91031],[134.91561,34.91928],[134.93145,34.91949],[134.9523,34.91265],[134.95647,34.9104],[134.96437,34.90864],[134.9671,34.90901],[134.97376,34.91281],[134.97446,34.91763],[134.97369,34.92032],[134.97881,34.92292],[134.98299,34.92378],[135.00242,34.93586],[135.00812,34.93708],[135.01077,34.93928],[135.02117,34.94439],[135.02212,34.94662],[135.02546,34.94909],[135.02877,34.95342],[135.03186,34.95476],[135.04739,34.97098],[135.05392,34.97531],[135.05787,34.97584],[135.06035,34.97921],[135.06191,34.98339],[135.06072,34.98567],[135.06048,34.99057],[135.06295,34.99438],[135.06947,34.99833],[135.08323,35.00313],[135.09885,35.00525],[135.10661,35.00538],[135.11946,35.0075],[135.12362,35.00876],[135.1281,35.01154],[135.13508,35.01346],[135.1474,35.01939],[135.15208,35.01981],[135.15329,35.0179],[135.15462,35.02024],[135.16123,35.02427],[135.16707,35.02491],[135.17143,35.02661],[135.17491,35.02903],[135.17744,35.03371],[135.18731,35.03627],[135.19844,35.04336],[135.20241,35.04464],[135.2098,35.04884],[135.2169,35.05383],[135.22244,35.05477],[135.23905,35.06269],[135.24466,35.06426],[135.24661,35.06631],[135.25522,35.06855],[135.26875,35.07042],[135.27821,35.0701],[135.28934,35.06805],[135.29861,35.06839],[135.31768,35.0722],[135.31957,35.07338],[135.32052,35.0725],[135.33269,35.07321],[135.33592,35.07212],[135.34631,35.07218],[135.35263,35.07431],[135.36402,35.07305],[135.36944,35.07439],[135.37573,35.0748],[135.38059,35.07347],[135.38359,35.06911],[135.38622,35.06771],[135.39169,35.06819],[135.39575,35.067],[135.39854,35.06726],[135.40424,35.06582],[135.42746,35.06315],[135.43112,35.06525],[135.4391,35.06017],[135.44122,35.05963],[135.44423,35.05982],[135.4505,35.06268],[135.45381,35.06262],[135.46274,35.0583],[135.47722,35.04817],[135.48307,35.04183],[135.48482,35.03747],[135.48705,35.03425],[135.49032,35.0318],[135.49538,35.02348],[135.50389,35.02115],[135.5108,35.0261],[135.51333,35.02604],[135.51932,35.02448],[135.52863,35.0198],[135.53018,35.01782],[135.53489,35.01612],[135.54771,35.01309],[135.55724,35.01317],[135.56101,35.00873],[135.5656,35.0125],[135.57127,35.01378]],[[135.55724,35.01317],[135.56123,35.00891]],[[135.17143,35.02661],[135.17021,35.02624]],[[135.42956,35.06443],[135.42815,35.06334],[135.42642,35.06397],[135.42039,35.06373]]]}}]}