{"type":"FeatureCollection","features":[{"type":"Feature","properties":{"route_id":"366","route_number":366,"name":"国道366号","source":"OpenStreetMap contributors (ODbL)","osm_relations":[8468445,15522527]},"geometry":{"type":"MultiLineString","coordinates":[[[136.95349,34.90696],[136.95535,34.9093],[136.96434,34.91508],[136.96262,34.92044],[136.96288,34.92394],[136.95921,34.93496],[136.96318,34.93937],[136.96407,34.94506],[136.97204,34.95315],[136.97324,34.95621],[136.97337,34.95778],[136.97104,34.96344],[136.96921,34.97404],[136.9703,34.98145],[136.97073,34.98368],[136.97562,34.98357],[136.97696,34.99407],[136.97673,34.99986],[136.97935,35.00659],[136.97875,35.01143],[136.98373,35.01335],[136.97732,35.01712],[136.97108,35.02934],[136.97045,35.03874],[136.96828,35.04087],[136.96572,35.04173],[136.96483,35.04386]],[[136.97394,34.94842],[136.97217,34.94345],[136.97274,34.94614],[136.9788,34.9593],[136.97575,34.98338],[136.97685,34.99752]],[[136.96719,34.93643],[136.97093,34.94027],[136.97217,34.94345]],[[136.98134,35.01474],[136.98392,35.01335],[136.97883,35.01134],[136.97935,35.00659]],[[136.97641,34.97518],[136.97574,34.98357]],[[136.97875,35.01143],[136.97883,35.01134]]]}}]}