{"type":"FeatureCollection","features":[{"type":"Feature","properties":{"route_id":"26","route_number":26,"name":"国道26号","source":"OpenStreetMap contributors (ODbL)","osm_relations":[2283740,2284621,2576859]},"geometry":{"type":"MultiLineString","coordinates":[[[135.50058,34.69815],[135.50131,34.69615],[135.5003,34.6652],[135.49807,34.66258],[135.49773,34.6507],[135.49639,34.643],[135.4866,34.61089],[135.47984,34.59618],[135.46496,34.5804],[135.47612,34.57326],[135.47004,34.56708],[135.46441,34.56286],[135.46132,34.55924],[135.46081,34.55779],[135.46147,34.55212],[135.45425,34.53993],[135.45867,34.54735]],[[135.16999,34.22559],[135.16879,34.22846],[135.16949,34.23727],[135.17413,34.23737],[135.17698,34.23826],[135.17419,34.23728],[135.16955,34.23717],[135.16971,34.23209],[135.16891,34.22846],[135.17012,34.2256]],[[135.45862,34.54752],[135.45407,34.53986],[135.46122,34.55218],[135.46094,34.55899],[135.46386,34.56252],[135.4703,34.56747],[135.47579,34.5733],[135.46478,34.58036],[135.47934,34.59561],[135.4865,34.61094],[135.49627,34.64301],[135.49752,34.65024],[135.49812,34.66276]],[[135.17689,34.23816],[135.17665,34.24345],[135.1747,34.25026],[135.17461,34.25793],[135.17309,34.26035],[135.16776,34.26351],[135.16623,34.26528],[135.16648,34.27034],[135.1651,34.27451],[135.1649,34.28064],[135.16179,34.28353],[135.1539,34.28723],[135.15125,34.29097],[135.1514,34.29269],[135.15448,34.29898],[135.16045,34.3035],[135.16211,34.30582],[135.16231,34.30801],[135.16038,34.31283],[135.16149,34.3166],[135.1645,34.31893],[135.17098,34.32126],[135.17479,34.32479],[135.17811,34.32627],[135.18849,34.3258],[135.19499,34.32305],[135.19885,34.32276],[135.20226,34.32376],[135.20729,34.32719],[135.21274,34.32866],[135.2202,34.33311],[135.22588,34.3338],[135.23324,34.33277],[135.23662,34.33333],[135.24799,34.34036],[135.25462,34.34596],[135.25746,34.35085],[135.26185,34.35461],[135.25883,34.35188]],[[135.24573,34.33907],[135.23792,34.33379],[135.23388,34.33276]],[[135.45425,34.53993],[135.45323,34.53783],[135.45201,34.52803],[135.44614,34.51874],[135.43703,34.51218],[135.42933,34.50345],[135.42749,34.49735],[135.42579,34.49466],[135.4098,34.47898],[135.40291,34.47378],[135.39647,34.46512],[135.38555,34.45412],[135.38169,34.45138],[135.3728,34.44864],[135.36586,34.44365],[135.35823,34.4323],[135.34115,34.42466],[135.33492,34.41434],[135.31142,34.40026],[135.30382,34.3907],[135.28338,34.37626],[135.2803,34.36952],[135.27636,34.36638],[135.27326,34.36258],[135.26185,34.35461]],[[135.26096,34.35399],[135.27343,34.36285],[135.27616,34.36634],[135.28048,34.36986],[135.28295,34.37603],[135.30304,34.39011],[135.31137,34.40035],[135.33488,34.4144],[135.34107,34.42472],[135.35823,34.43243],[135.36595,34.44384],[135.37272,34.4487],[135.38146,34.45136],[135.38469,34.45344],[135.39626,34.4652],[135.40253,34.47355],[135.40964,34.47904],[135.42567,34.49476],[135.4273,34.49726],[135.42937,34.50375],[135.43692,34.51226],[135.44602,34.51882],[135.45187,34.52806],[135.45309,34.53786],[135.45407,34.53986]],[[135.476,34.57323],[135.47076,34.56775],[135.46386,34.56237],[135.4612,34.55911],[135.46074,34.55752],[135.46165,34.55322],[135.46077,34.5509]],[[135.17444,34.25848],[135.17479,34.25027],[135.17683,34.243],[135.17698,34.23826]],[[135.22883,34.33349],[135.22417,34.33373]],[[135.46073,34.55111],[135.46158,34.55354],[135.46066,34.5575],[135.46111,34.55916],[135.46431,34.56291],[135.47032,34.56746],[135.47593,34.5733]]]}}]}