{"type":"FeatureCollection","features":[{"type":"Feature","properties":{"route_id":"339","route_number":339,"name":"国道339号","source":"OpenStreetMap contributors (ODbL)","osm_relations":[195249,7995307,11097609,11097610]},"geometry":{"type":"MultiLineString","coordinates":[[[140.50439,40.59462],[140.49943,40.60288],[140.49787,40.61223],[140.49421,40.6175],[140.48822,40.62181],[140.48732,40.62415],[140.4897,40.64062],[140.49181,40.64269],[140.49991,40.64695],[140.49449,40.6521],[140.48078,40.66078],[140.47357,40.66674],[140.47232,40.67354],[140.47043,40.6758],[140.46996,40.68104],[140.46834,40.68364],[140.46431,40.68462],[140.45855,40.68863],[140.45481,40.69844],[140.45281,40.69828],[140.45052,40.70102],[140.44828,40.70793],[140.44296,40.71179],[140.44081,40.71508],[140.43117,40.71757],[140.4265,40.72347],[140.42319,40.73071],[140.42502,40.73493],[140.42518,40.74113],[140.42812,40.74652],[140.42729,40.74967],[140.42953,40.75435],[140.43061,40.76156],[140.43338,40.76305],[140.43651,40.77029],[140.43934,40.77217],[140.4409,40.77436],[140.43906,40.78565],[140.44163,40.79104],[140.44422,40.79287],[140.44283,40.7935],[140.44648,40.79803],[140.44518,40.80977],[140.44895,40.81712],[140.45628,40.82079],[140.45749,40.82272],[140.45443,40.82905],[140.45576,40.83474],[140.45799,40.83932],[140.45873,40.85353],[140.45792,40.85568],[140.45419,40.85957],[140.45588,40.86845],[140.45805,40.87335],[140.45413,40.88004],[140.45563,40.89374],[140.45432,40.89829],[140.44969,40.9009],[140.44887,40.9042],[140.45192,40.91108],[140.44884,40.91488],[140.4498,40.9164],[140.45026,40.92006],[140.45422,40.92562],[140.45367,40.92719],[140.44875,40.93137],[140.44206,40.94155],[140.43744,40.94574],[140.43099,40.96444],[140.42996,40.97242],[140.43053,40.97726],[140.42943,40.98021],[140.42708,40.98189],[140.42775,40.9853],[140.42662,40.98858],[140.42806,40.99619],[140.42497,41.00194],[140.42049,41.00402],[140.42302,41.02122],[140.41762,41.03194],[140.41483,41.03294],[140.41105,41.03169],[140.40777,41.03231],[140.4065,41.03612],[140.40829,41.04196],[140.40679,41.04332],[140.39887,41.04538],[140.39653,41.04436],[140.39483,41.04489],[140.39078,41.04421],[140.38634,41.04686],[140.37899,41.04593],[140.37622,41.04755],[140.3607,41.04994],[140.35975,41.05116],[140.36023,41.05475],[140.35666,41.05913],[140.34826,41.06197],[140.34065,41.06185],[140.33512,41.06701],[140.32565,41.06841],[140.32554,41.07181],[140.32829,41.07563],[140.32846,41.07693],[140.32576,41.07926],[140.32378,41.08242],[140.32011,41.09377],[140.31289,41.09764],[140.30794,41.10339],[140.30647,41.10676],[140.30317,41.10796],[140.29974,41.11186],[140.30082,41.11315],[140.30062,41.11808],[140.30322,41.12015],[140.303,41.12348],[140.30615,41.1276],[140.31156,41.12617],[140.31381,41.12741],[140.32105,41.12712],[140.32355,41.12903],[140.32834,41.12955],[140.32773,41.13056],[140.32848,41.13268],[140.32742,41.13291],[140.32833,41.13379],[140.32776,41.13525],[140.32513,41.13749],[140.32302,41.14301],[140.31976,41.14558],[140.32228,41.14802],[140.32201,41.14971],[140.32305,41.15128],[140.3254,41.15274],[140.32698,41.15684],[140.32987,41.1579],[140.32826,41.15931],[140.32991,41.16261],[140.32865,41.16381],[140.32958,41.16543],[140.32929,41.1679],[140.33139,41.16949],[140.33288,41.17414],[140.33188,41.17658],[140.33464,41.18066],[140.33382,41.18455],[140.33634,41.18828],[140.33721,41.19158],[140.33695,41.19414],[140.33482,41.19622],[140.33953,41.19742],[140.33892,41.19806],[140.34023,41.19835],[140.33834,41.1988],[140.34038,41.19894],[140.33939,41.1995],[140.34154,41.20088],[140.33792,41.20043],[140.33964,41.20149],[140.34099,41.20129],[140.34322,41.20337],[140.34075,41.2025],[140.34347,41.20492],[140.34537,41.20536],[140.34474,41.20831],[140.34613,41.20978],[140.34652,41.21277],[140.35001,41.21284],[140.34974,41.21389],[140.35055,41.21441],[140.3549,41.21275],[140.35546,41.21424],[140.3563,41.21274],[140.35617,41.21464],[140.35778,41.21395],[140.36129,41.21539],[140.35963,41.21638],[140.35955,41.21731],[140.36106,41.21807],[140.36207,41.2236],[140.35983,41.22733],[140.36115,41.22714],[140.36119,41.22627],[140.36224,41.2266],[140.36237,41.22923],[140.35864,41.23214],[140.35951,41.23327],[140.36107,41.23301],[140.3611,41.23424],[140.3569,41.23812],[140.35328,41.23921],[140.35479,41.24082],[140.35293,41.24202],[140.35481,41.24392],[140.35334,41.24841],[140.35494,41.24964],[140.35303,41.25052],[140.35361,41.25164],[140.35231,41.253],[140.34911,41.25463],[140.34928,41.25616],[140.34387,41.25767],[140.34511,41.25904],[140.34479,41.25962],[140.34925,41.25797],[140.35236,41.25504],[140.35729,41.25375],[140.35985,41.2514],[140.36303,41.25002],[140.36901,41.24903],[140.37165,41.2472],[140.37509,41.24702],[140.37645,41.24456],[140.38096,41.2425],[140.38409,41.23986],[140.38615,41.23907],[140.38806,41.23943],[140.38885,41.23818],[140.39285,41.2367],[140.39455,41.23458],[140.39658,41.23414],[140.39703,41.23206],[140.40123,41.22754],[140.40258,41.22192],[140.40658,41.21883],[140.41481,41.2157],[140.41952,41.21095],[140.42278,41.20969],[140.42471,41.20746],[140.42634,41.20711],[140.42717,41.20392],[140.42983,41.20071],[140.43027,41.19928],[140.42946,41.19758],[140.43046,41.19638]],[[140.45004,40.79021],[140.44905,40.7868],[140.44426,40.77991],[140.44554,40.76993],[140.44,40.74117],[140.44714,40.71865],[140.46619,40.69281],[140.47625,40.68202],[140.4887,40.67546],[140.49347,40.66714],[140.49989,40.65984],[140.5069,40.65396]],[[140.45069,40.81836],[140.44963,40.82027],[140.44798,40.83919],[140.44908,40.842],[140.45502,40.84998],[140.45419,40.85957]],[[140.49991,40.64695],[140.49186,40.64258],[140.48985,40.6406],[140.48746,40.62373],[140.48876,40.62137],[140.49462,40.61722],[140.49801,40.61222],[140.49954,40.60292],[140.50449,40.59466]],[[140.44962,40.82362],[140.44976,40.82025],[140.45078,40.81841]]]}}]}