{"type":"FeatureCollection","features":[{"type":"Feature","properties":{"route_id":"103","route_number":103,"name":"国道103号","source":"OpenStreetMap contributors (ODbL)","osm_relations":[2988612,2988613,2988615,9376043,9376045]},"geometry":{"type":"MultiLineString","coordinates":[[[140.75036,40.82342],[140.75114,40.81674],[140.75351,40.8128],[140.75363,40.81037],[140.75974,40.79346],[140.76586,40.78031],[140.76609,40.77384],[140.77002,40.77079],[140.77174,40.76415],[140.77415,40.76127],[140.77656,40.75204],[140.78334,40.74593],[140.7858,40.74264],[140.78391,40.73635],[140.78694,40.73625],[140.79026,40.73483],[140.79343,40.73149],[140.79421,40.72684],[140.79685,40.72449],[140.80054,40.72482],[140.80246,40.72599],[140.80524,40.72383],[140.80528,40.72052],[140.80848,40.72022],[140.80913,40.71814],[140.81165,40.71836],[140.81523,40.71514],[140.82414,40.71308],[140.82439,40.71221],[140.82304,40.71034],[140.82423,40.7079],[140.82205,40.70576],[140.82219,40.70459],[140.82884,40.70257],[140.83011,40.70108],[140.83783,40.69686],[140.83995,40.6966],[140.83822,40.69198],[140.83708,40.69169],[140.83549,40.68691],[140.83416,40.68561],[140.83518,40.68194],[140.83022,40.68128],[140.82909,40.67974],[140.82913,40.67831],[140.82724,40.67786],[140.8275,40.67608],[140.82487,40.67556],[140.82415,40.67201],[140.82637,40.66751],[140.82656,40.66441],[140.82945,40.66298],[140.82883,40.66167],[140.82958,40.65776],[140.83468,40.65595],[140.83494,40.65476],[140.83708,40.6543],[140.8392,40.65146],[140.84382,40.65163],[140.84489,40.65035],[140.84741,40.64956],[140.84983,40.65051],[140.8494,40.64945],[140.85085,40.64969],[140.85259,40.64876],[140.8539,40.64651],[140.85574,40.6461],[140.85761,40.64676],[140.86016,40.64357],[140.86013,40.64232],[140.86347,40.63877],[140.86933,40.63644],[140.87234,40.63682],[140.87662,40.63475],[140.88084,40.63527],[140.88469,40.63338],[140.88701,40.63323],[140.88651,40.63275],[140.88826,40.63188],[140.89699,40.62987],[140.90403,40.63123],[140.90556,40.63218],[140.90535,40.63135],[140.90712,40.63182],[140.90762,40.63098],[140.91094,40.63172],[140.91392,40.63038],[140.91777,40.6299],[140.91797,40.63052],[140.91979,40.62964],[140.91998,40.6302],[140.92251,40.62997],[140.92641,40.63102],[140.93335,40.63093],[140.93628,40.62853],[140.94331,40.62629],[140.94629,40.62243],[140.94615,40.62148],[140.94499,40.62174],[140.94542,40.62059],[140.9484,40.61897],[140.94706,40.61769],[140.94492,40.61783],[140.94814,40.61331],[140.94832,40.61162],[140.94803,40.6061],[140.94595,40.60463],[140.95091,40.60313],[140.94929,40.603],[140.95564,40.59944],[140.9545,40.59782],[140.95527,40.59583],[140.95929,40.59425],[140.95893,40.59237],[140.96201,40.59184],[140.96227,40.59411],[140.96336,40.59335],[140.96483,40.59365],[140.96489,40.59254],[140.96579,40.59264],[140.96745,40.59022],[140.96732,40.58859],[140.968,40.58853],[140.96835,40.58972],[140.97058,40.58799],[140.97205,40.58053],[140.97395,40.57799],[140.9775,40.57639],[140.98107,40.57757],[140.98655,40.57735],[140.98592,40.57651],[140.98087,40.57528],[140.97833,40.57341],[140.97871,40.56943],[140.97378,40.56506],[140.9743,40.56329],[140.9765,40.56267],[140.97633,40.5614],[140.97105,40.55817],[140.97166,40.55463],[140.97493,40.55007],[140.97572,40.54074],[140.97958,40.54084],[140.98181,40.53924],[140.97915,40.534],[140.97898,40.53124],[140.9779,40.52987],[140.97511,40.5294],[140.97398,40.52411],[140.96789,40.51426],[140.96308,40.51171],[140.96016,40.50316],[140.95529,40.49759],[140.95271,40.4897],[140.94805,40.48604],[140.94467,40.48056],[140.94144,40.47816],[140.94195,40.47334],[140.94048,40.47034],[140.94077,40.46747],[140.94509,40.46307],[140.94393,40.45882],[140.94431,40.45715],[140.94106,40.45184],[140.94075,40.4484],[140.92857,40.44121],[140.92724,40.436],[140.92274,40.43392],[140.91294,40.42377],[140.91082,40.42337],[140.90584,40.42553],[140.90645,40.42611],[140.9086,40.42484],[140.91132,40.42523],[140.91335,40.42917],[140.91464,40.42953],[140.91581,40.4342],[140.91536,40.4358],[140.9169,40.43605],[140.91619,40.437],[140.91662,40.43831],[140.91829,40.4394],[140.91784,40.44105],[140.91984,40.44369],[140.91874,40.44483],[140.91978,40.44648],[140.91802,40.4468],[140.9155,40.45039],[140.91757,40.45157],[140.91923,40.45128],[140.9193,40.44963],[140.92279,40.44891],[140.92412,40.44743],[140.927,40.4465],[140.93171,40.44324]],[[140.90584,40.42553],[140.89763,40.42537],[140.89364,40.42328],[140.89301,40.42063],[140.8885,40.41805],[140.88619,40.41563],[140.87748,40.41264],[140.87536,40.41295],[140.87319,40.41509],[140.87145,40.41347],[140.86788,40.41331],[140.86435,40.4142],[140.85633,40.41777],[140.85566,40.42066],[140.85477,40.42037],[140.8557,40.41917],[140.85508,40.41714],[140.85616,40.41582],[140.8597,40.41421],[140.85912,40.41167],[140.86158,40.41153],[140.86045,40.40999],[140.86212,40.40778],[140.86405,40.40753],[140.86441,40.40886],[140.86618,40.40384],[140.86542,40.40159],[140.86586,40.40017],[140.86746,40.39871],[140.87,40.39843],[140.87577,40.39285],[140.88195,40.38981],[140.88437,40.3878],[140.88596,40.38334],[140.88856,40.38135],[140.89123,40.38101],[140.89139,40.38034],[140.89007,40.37681],[140.88686,40.37477],[140.88436,40.37406],[140.88026,40.37463],[140.8782,40.37204],[140.87564,40.3721],[140.8739,40.37059],[140.86771,40.36911],[140.86276,40.36588],[140.85473,40.36303],[140.84907,40.35982],[140.84382,40.34976],[140.83982,40.34677],[140.83627,40.34532],[140.82749,40.33684],[140.82782,40.3314],[140.83096,40.3217],[140.83001,40.31814],[140.83065,40.31471],[140.83477,40.31221],[140.83953,40.30684],[140.84011,40.30114],[140.83738,40.29794],[140.83743,40.29693],[140.82535,40.29374],[140.81829,40.29288],[140.80417,40.28518],[140.79981,40.27954],[140.79991,40.2772],[140.79908,40.27597],[140.79484,40.27511],[140.78367,40.26995],[140.77808,40.26858],[140.76575,40.26184],[140.76328,40.25935],[140.75673,40.24922],[140.75346,40.24767],[140.74533,40.24686],[140.74191,40.24521],[140.73101,40.22871],[140.72193,40.22381],[140.71739,40.22395],[140.71305,40.22745],[140.70019,40.23333],[140.69178,40.23317],[140.68653,40.23227],[140.68251,40.23064],[140.6804,40.22876],[140.6774,40.22405],[140.67449,40.22231],[140.65384,40.22204],[140.64602,40.21865],[140.63997,40.21842],[140.63443,40.21685],[140.62947,40.21685],[140.62149,40.21537],[140.61102,40.21924],[140.59857,40.22781],[140.58928,40.232],[140.58634,40.23412],[140.58133,40.24435],[140.58097,40.25164],[140.57874,40.254],[140.5704,40.25531],[140.56383,40.25399],[140.56031,40.25431],[140.54436,40.26436],[140.53485,40.26649],[140.52596,40.27007],[140.51569,40.27192],[140.50694,40.27539]],[[140.51641,40.27175],[140.52606,40.27013],[140.53491,40.26656],[140.54436,40.26436]],[[140.76366,40.78435],[140.76247,40.78015],[140.76401,40.77194],[140.7651,40.7706],[140.77021,40.76784],[140.77231,40.75983],[140.77485,40.75684]],[[140.55733,40.25598],[140.56213,40.25406],[140.57006,40.25539],[140.5786,40.25418],[140.58119,40.25132],[140.58124,40.24471]]]}}]}