{"type":"FeatureCollection","features":[{"type":"Feature","properties":{"route_id":"2","route_number":2,"name":"国道2号","source":"OpenStreetMap contributors (ODbL)","osm_relations":[1531611,2064722,7435006,7435098,7437079,7437125,8369852,8369853,8788380,8788764,8788765,8789595,8792457,8810600,8810634,8810662,8810671,9319672,14921230,14921231,15615053,19710611]},"geometry":{"type":"MultiLineString","coordinates":[[[132.31733,34.34619],[132.31488,34.33771],[132.31595,34.33476],[132.31953,34.33126],[132.31844,34.3283],[132.31978,34.33059],[132.31939,34.338],[132.3201,34.34058],[132.3355,34.35312],[132.34332,34.35678],[132.34718,34.36316],[132.36598,34.36552],[132.38343,34.37025],[132.39521,34.37686],[132.40116,34.37799],[132.41394,34.38288],[132.42352,34.39165],[132.43115,34.38754],[132.43596,34.38859],[132.44094,34.38706],[132.43599,34.38853],[132.43113,34.38752],[132.42497,34.39026],[132.42004,34.39415],[132.41707,34.39467],[132.41428,34.39389],[132.40496,34.38877],[132.39642,34.38668],[132.38904,34.37953],[132.38133,34.37617],[132.36888,34.37662],[132.36231,34.37982],[132.35396,34.38214],[132.35133,34.38206],[132.34374,34.37519],[132.33609,34.37175],[132.33305,34.3689],[132.32889,34.36058],[132.32257,34.35492],[132.31733,34.34619],[132.32217,34.3545],[132.32521,34.35735]],[[132.44094,34.38706],[132.44601,34.38543],[132.4578,34.38385],[132.47771,34.37764],[132.48633,34.37975],[132.49371,34.37804],[132.49755,34.37557],[132.49872,34.3711],[132.50007,34.36999],[132.51062,34.36924],[132.51507,34.36755],[132.52051,34.3677],[132.52764,34.37028],[132.53143,34.36772],[132.53425,34.36842],[132.53106,34.36767],[132.52737,34.37],[132.52023,34.36757],[132.51506,34.36748],[132.51054,34.36917],[132.49993,34.36992],[132.49864,34.371],[132.49748,34.37545],[132.49347,34.37798],[132.48635,34.37964],[132.47784,34.37748],[132.45774,34.38372],[132.4456,34.38535],[132.4363,34.38839],[132.43151,34.38729],[132.42333,34.39151]],[[132.09368,34.10135],[132.09239,34.10101],[132.09597,34.10306],[132.0946,34.10494],[132.09498,34.10639],[132.10256,34.11224],[132.10482,34.11918],[132.10293,34.12631],[132.10021,34.13108],[132.1003,34.13303],[132.0977,34.13494],[132.09663,34.13827],[132.10376,34.14558],[132.10366,34.15329],[132.10563,34.15775],[132.10532,34.15923],[132.10391,34.16001],[132.1046,34.16168],[132.10368,34.16282],[132.10545,34.16451],[132.10848,34.17015],[132.11238,34.17269],[132.13294,34.17398],[132.1359,34.17344],[132.13954,34.17116],[132.14118,34.17096],[132.14615,34.17455],[132.14909,34.17507],[132.16048,34.17305],[132.16347,34.17713],[132.16495,34.18103],[132.16788,34.18358],[132.17362,34.1862],[132.17624,34.18526],[132.18259,34.17688],[132.18338,34.17504],[132.18307,34.17178],[132.18681,34.16688],[132.18877,34.16585],[132.19688,34.16444],[132.19929,34.16577],[132.20372,34.17027],[132.21668,34.17146],[132.22365,34.17581],[132.22968,34.17742],[132.23065,34.17933],[132.23103,34.18402],[132.22958,34.18977],[132.23199,34.19903],[132.23131,34.20187],[132.22827,34.20695],[132.22411,34.22207],[132.22152,34.22539],[132.22007,34.23075],[132.21957,34.2353],[132.22162,34.24069],[132.22189,34.24471],[132.23079,34.2561],[132.2383,34.26128],[132.24848,34.26477],[132.25274,34.26932],[132.26059,34.27475],[132.26307,34.27955],[132.2692,34.2855],[132.2776,34.28779],[132.2817,34.28992],[132.29019,34.30133],[132.29327,34.30376],[132.29982,34.30685],[132.3053,34.3151],[132.31125,34.31876],[132.31778,34.32487],[132.31844,34.3283]],[[132.53425,34.36842],[132.54993,34.37671],[132.55749,34.38177],[132.55969,34.38348],[132.56274,34.38882],[132.56715,34.39356],[132.57665,34.3979],[132.58225,34.40206],[132.5828,34.4034],[132.58218,34.40833],[132.58414,34.41043],[132.58653,34.41524],[132.589,34.41664],[132.59271,34.42159],[132.59912,34.42133],[132.61403,34.42254],[132.62071,34.42549],[132.62274,34.4285],[132.62834,34.43109],[132.63259,34.43493],[132.63717,34.43473],[132.64026,34.43649],[132.64231,34.43455],[132.64447,34.43399],[132.646,34.43496],[132.64892,34.43498],[132.65047,34.43629],[132.64963,34.44017],[132.65146,34.44277],[132.65862,34.44479],[132.65963,34.4461],[132.6594,34.44753],[132.66057,34.44835],[132.66745,34.44685],[132.6748,34.44715],[132.67812,34.44533],[132.68272,34.44479],[132.68181,34.44175],[132.69451,34.43746],[132.70631,34.42921],[132.72528,34.41788],[132.73499,34.41467],[132.7595,34.39872],[132.76354,34.39773],[132.77784,34.40018],[132.792,34.40036],[132.79638,34.39956],[132.80733,34.40143],[132.80977,34.40284],[132.81176,34.40528],[132.81152,34.40859],[132.81017,34.41021],[132.81067,34.41072],[132.8122,34.40964],[132.81713,34.40859],[132.82147,34.40579],[132.82399,34.40537],[132.8379,34.40828],[132.84284,34.407],[132.84804,34.40758],[132.85561,34.40246],[132.86027,34.40049],[132.86367,34.40016],[132.86822,34.39793],[132.87234,34.39682],[132.88803,34.39519],[132.89127,34.39309],[132.89428,34.3882],[132.89667,34.38738],[132.90447,34.39098],[132.90826,34.39437],[132.91159,34.39595],[132.9167,34.3968],[132.92069,34.39868],[132.92882,34.39564],[132.93074,34.39238],[132.93634,34.38965],[132.94769,34.39662],[132.95386,34.40383],[132.96136,34.40588],[132.97432,34.404],[132.98072,34.40585],[132.98568,34.40606],[132.989,34.40532],[132.99501,34.40203],[133.00879,34.40618],[133.01309,34.40501],[133.01952,34.39967],[133.03945,34.39326],[133.04251,34.39296],[133.05328,34.39481],[133.05672,34.39617],[133.06263,34.40221],[133.06678,34.40877],[133.06858,34.40976],[133.0715,34.40999],[133.07569,34.40939],[133.09722,34.4024],[133.1051,34.39756],[133.11323,34.39418],[133.11697,34.38855],[133.12057,34.38525],[133.12503,34.3835],[133.12882,34.38395],[133.12863,34.38316],[133.14471,34.39258],[133.15287,34.39462],[133.15888,34.39523],[133.1913,34.4038],[133.19246,34.40333],[133.19397,34.40437],[133.19246,34.40333]],[[132.43596,34.38843],[132.43109,34.38744],[132.42493,34.3902],[132.4202,34.39397],[132.41596,34.39442],[132.40498,34.38868],[132.39691,34.38675],[132.38939,34.37942],[132.38023,34.37593],[132.36852,34.37659],[132.3622,34.37976],[132.35393,34.38205],[132.35106,34.38188],[132.34333,34.37472],[132.33619,34.37161],[132.33346,34.3692],[132.32941,34.3611],[132.32236,34.35453],[132.31724,34.34539]],[[132.53402,34.36586],[132.53624,34.36593],[132.54886,34.37189],[132.56703,34.38681],[132.57956,34.39201],[132.58431,34.39734],[132.5894,34.40055],[132.59674,34.41264],[132.60292,34.41795],[132.61022,34.42012],[132.62302,34.41803],[132.62705,34.41852],[132.62997,34.42014],[132.63476,34.42491],[132.64381,34.43074],[132.65123,34.43364],[132.65896,34.43972],[132.67011,34.44369],[132.6812,34.44169]],[[132.32496,34.35694],[132.32228,34.35433],[132.31812,34.34764],[132.31511,34.33923],[132.31567,34.33537],[132.31999,34.33105],[132.31861,34.32832],[132.31984,34.33162]],[[134.66273,34.84088],[134.65556,34.84368],[134.64911,34.84487],[134.64362,34.84471],[134.64909,34.84496],[134.65632,34.84361],[134.67682,34.83601],[134.70051,34.83175],[134.70798,34.82923],[134.72203,34.82609],[134.74141,34.8179],[134.75144,34.80873],[134.77034,34.79554],[134.78686,34.79462],[134.80017,34.79023],[134.803,34.78736],[134.81589,34.78153],[134.82706,34.77441],[134.82963,34.77063],[134.83605,34.76484],[134.84427,34.76081],[134.85026,34.75544],[134.86389,34.74608],[134.87272,34.73855],[134.88077,34.72974],[134.88633,34.72717],[134.89065,34.72176],[134.89817,34.71603],[134.91171,34.70012],[134.92258,34.69294],[134.94486,34.68113],[134.95455,34.67148],[134.96091,34.66792],[134.97179,34.6587],[134.97432,34.65448],[134.98464,34.64842],[135.00823,34.6464],[135.01909,34.64333],[135.0284,34.63833],[135.03507,34.63144],[135.04154,34.62872],[135.05459,34.6282],[135.06786,34.62957],[135.09918,34.63664],[135.10211,34.63783],[135.10899,34.64267],[135.13084,34.64515],[135.14843,34.65647],[135.15434,34.65904],[135.17661,34.67282],[135.1787,34.6782],[135.18492,34.68512],[135.19042,34.68618],[135.19677,34.68607],[135.19928,34.68705],[135.20036,34.6883],[135.19678,34.69424],[135.21592,34.70238],[135.2241,34.70389],[135.22656,34.70772],[135.25032,34.71593],[135.26147,34.71839],[135.30175,34.73135],[135.33197,34.73842],[135.34418,34.73816],[135.37142,34.73385],[135.39045,34.72936],[135.40282,34.7244],[135.42227,34.71987],[135.44322,34.71947],[135.44858,34.71445],[135.46264,34.70651],[135.46925,34.69898],[135.47538,34.69384],[135.48255,34.69399],[135.49496,34.69848],[135.50059,34.69831]],[[134.89719,34.72146],[134.87182,34.7463],[134.83453,34.77976],[134.82982,34.78325],[134.82427,34.78595],[134.8031,34.79185],[134.79443,34.79012],[134.7827,34.78586],[134.77995,34.78573],[134.77073,34.78917],[134.76024,34.79723],[134.75316,34.79991],[134.74456,34.80016],[134.73399,34.79821],[134.7146,34.79871],[134.71031,34.80023],[134.70137,34.80568],[134.66894,34.81629],[134.66458,34.81687],[134.65522,34.81565],[134.64685,34.81799],[134.63676,34.82311],[134.6335,34.82878],[134.62989,34.83283],[134.61782,34.83525],[134.62097,34.83428],[134.61993,34.8382],[134.62052,34.83967],[134.62656,34.84118],[134.63086,34.84437],[134.63517,34.84517],[134.64362,34.84471]],[[131.34392,34.0553],[131.36071,34.05489],[131.36447,34.05576],[131.38496,34.07237],[131.38718,34.07841],[131.38948,34.08073],[131.3988,34.08474],[131.4131,34.08568],[131.42266,34.08997],[131.42536,34.08989],[131.43454,34.08634],[131.43926,34.08571],[131.44494,34.08301],[131.45039,34.08151],[131.45343,34.07951],[131.45495,34.07714],[131.45304,34.07975],[131.45071,34.08129],[131.43918,34.08556],[131.43487,34.08609],[131.42546,34.08969],[131.42264,34.08988],[131.41297,34.08554],[131.39923,34.08474],[131.38987,34.08085],[131.38731,34.07842],[131.38486,34.07213],[131.37644,34.06581],[131.36625,34.0567],[131.36342,34.05526],[131.34546,34.05511],[131.33738,34.0564],[131.3284,34.05657],[131.32515,34.05577],[131.32072,34.0569],[131.3155,34.05565],[131.31306,34.05665],[131.31151,34.05873],[131.30818,34.05861],[131.30656,34.06137],[131.29969,34.06058],[131.29756,34.05957],[131.29037,34.06007],[131.28889,34.0592],[131.28619,34.05373],[131.28224,34.04926],[131.27885,34.04139],[131.27441,34.03996],[131.26507,34.04018],[131.25248,34.03632],[131.24889,34.03848],[131.24591,34.04204],[131.24314,34.043],[131.23714,34.04313],[131.23152,34.04479],[131.22863,34.04405],[131.22521,34.04743],[131.22204,34.0458],[131.21504,34.04421],[131.20516,34.04683],[131.19589,34.05162],[131.1899,34.05119],[131.18351,34.04923],[131.17366,34.044],[131.1612,34.04279],[131.15426,34.04268],[131.14932,34.04368],[131.14636,34.04524],[131.14258,34.04919],[131.13912,34.05023],[131.12644,34.04644],[131.11883,34.04292],[131.10971,34.04428],[131.10245,34.04323],[131.08556,34.04425],[131.07661,34.04643],[131.06851,34.04493],[131.06212,34.04809],[131.05799,34.05379],[131.04977,34.06058],[131.04623,34.06138],[131.03495,34.06061],[131.03219,34.05967],[131.02987,34.05773],[131.01708,34.03574],[131.00233,34.02022],[131.00014,34.0158],[130.99526,34.00912],[130.9931,34.00402],[130.98346,34.00467],[130.97519,34.00375],[130.96671,34.002],[130.96371,34.00068],[130.95222,33.99217],[130.95059,33.98789],[130.95097,33.98284],[130.94671,33.97894],[130.94708,33.9758],[130.9469,33.97905],[130.95128,33.98269],[130.9507,33.9874],[130.95194,33.9914],[130.95622,33.99534]],[[132.76873,34.39821],[132.77532,34.40001],[132.7805,34.40048],[132.79216,34.40045],[132.79642,34.39969],[132.80524,34.40027],[132.8095,34.4022],[132.81341,34.40644],[132.81697,34.40754],[132.81935,34.4076],[132.82419,34.40547],[132.83455,34.40789]],[[132.97684,34.40444],[132.97356,34.40395],[132.96173,34.4058],[132.95481,34.40413],[132.94769,34.39662]],[[134.01942,34.64688],[134.01522,34.64295],[134.00961,34.64093],[133.98147,34.64066],[133.94188,34.62583],[133.93661,34.62587],[133.90392,34.63137],[133.85473,34.61851],[133.8465,34.61893],[133.83944,34.61356],[133.82984,34.61186],[133.82532,34.61015],[133.81259,34.59979],[133.79197,34.58714],[133.77449,34.58082],[133.74975,34.57663],[133.7182,34.57662],[133.70522,34.57903],[133.70297,34.57811],[133.69618,34.57221],[133.7029,34.57817],[133.70552,34.57916],[133.71853,34.5767],[133.74975,34.57671],[133.77366,34.58065],[133.79146,34.587],[133.81238,34.59981],[133.82514,34.61018],[133.82973,34.61195],[133.83934,34.61364],[133.84453,34.6182],[133.84671,34.61909],[133.85462,34.6186],[133.90392,34.63145],[133.93663,34.62595],[133.94187,34.6259],[133.9819,34.64085],[134.00686,34.64077],[134.01165,34.64148],[134.01537,34.64314],[134.01859,34.64584],[134.02927,34.66279],[134.03968,34.67418],[134.05023,34.67926],[134.04401,34.67622]],[[134.38435,34.82843],[134.38918,34.82897],[134.39349,34.83132],[134.40165,34.83056],[134.41378,34.83261],[134.41118,34.83147],[134.39857,34.829],[134.39171,34.82914],[134.38175,34.82808],[134.37375,34.82542],[134.37085,34.82523],[134.36596,34.82597],[134.36249,34.82755],[134.34444,34.83667],[134.33576,34.8426],[134.32753,34.84352],[134.32422,34.8422],[134.31919,34.84244],[134.31675,34.83974],[134.31385,34.83132],[134.3027,34.8288],[134.29905,34.82664],[134.28892,34.81667],[134.28703,34.81357],[134.28183,34.80986],[134.27729,34.80357],[134.27431,34.80247],[134.26531,34.79482],[134.26287,34.79388],[134.26191,34.79258],[134.26188,34.78918],[134.25682,34.78472],[134.25537,34.78184],[134.24462,34.77772],[134.23495,34.76974],[134.22807,34.76716],[134.22557,34.76522],[134.2212,34.75966],[134.21257,34.75678],[134.20048,34.75047],[134.1918,34.74734],[134.17173,34.74157],[134.15923,34.7388],[134.14714,34.73716],[134.12776,34.73065],[134.1057,34.72532],[134.10281,34.72306],[134.09635,34.71386],[134.08969,34.71462],[134.08572,34.71151],[134.07776,34.7081],[134.06963,34.70572],[134.06177,34.70092],[134.06036,34.69853],[134.06182,34.69311],[134.06105,34.68737],[134.05962,34.68565],[134.05023,34.67926]],[[133.29874,34.46102],[133.30102,34.4623],[133.30688,34.46851],[133.31005,34.47004],[133.31161,34.47338],[133.31714,34.4777],[133.32039,34.47901],[133.32483,34.48263],[133.33063,34.48477],[133.33512,34.48553],[133.34367,34.48342],[133.34864,34.48567],[133.3616,34.48494],[133.37549,34.48789],[133.38483,34.48759],[133.39949,34.48973],[133.41584,34.49682],[133.42333,34.4985],[133.42768,34.50232],[133.42999,34.5023],[133.43914,34.49824],[133.44224,34.49793],[133.4492,34.49938],[133.45439,34.50323],[133.46126,34.5067],[133.45408,34.50295],[133.44994,34.49964],[133.44244,34.49788],[133.43936,34.49808],[133.42959,34.50233],[133.42772,34.50225],[133.42381,34.49863],[133.41586,34.49674],[133.40009,34.48973],[133.38487,34.48751],[133.37548,34.48775],[133.36162,34.48483],[133.34863,34.4856],[133.3438,34.48332],[133.33511,34.48546],[133.33092,34.48477],[133.32495,34.48261],[133.32044,34.47897],[133.31718,34.47765],[133.3117,34.47329],[133.3104,34.47022],[133.3068,34.46834],[133.30105,34.46227],[133.29874,34.46102],[133.28242,34.45825],[133.27709,34.45927],[133.26829,34.46286],[133.26264,34.46375],[133.2515,34.46052],[133.24832,34.45867],[133.23985,34.45118],[133.22957,34.44723],[133.22761,34.4449],[133.22582,34.43931],[133.22367,34.43591],[133.21648,34.43082],[133.21412,34.42767],[133.20715,34.42301],[133.20436,34.42205],[133.2,34.42292],[133.18782,34.42341],[133.17982,34.42086],[133.17831,34.41973],[133.17589,34.41512],[133.17197,34.41107],[133.16851,34.40583],[133.16143,34.40151],[133.15817,34.39806],[133.15405,34.39656],[133.14633,34.39721],[133.14104,34.39586],[133.13804,34.39379],[133.13033,34.38505],[133.12785,34.38381],[133.12468,34.38358],[133.12882,34.38395]],[[135.50058,34.69815],[135.49498,34.69835],[135.4825,34.69384],[135.47536,34.69365],[135.46938,34.69872],[135.4625,34.7065],[135.44848,34.71442],[135.44315,34.7194],[135.42199,34.71982],[135.40281,34.72431],[135.39025,34.72933],[135.37139,34.73375],[135.34109,34.73844],[135.33238,34.73841],[135.30143,34.73115],[135.26153,34.7183],[135.25049,34.7159],[135.22645,34.70753],[135.22555,34.7066],[135.22528,34.70389],[135.21588,34.70212],[135.19674,34.69405],[135.2005,34.68826],[135.19948,34.68704],[135.19681,34.68598],[135.19024,34.68608],[135.18498,34.68502],[135.17913,34.67848],[135.17682,34.67267],[135.15435,34.65876],[135.14928,34.65675],[135.13091,34.64486],[135.122,34.64405]],[[133.2807,34.45844],[133.26376,34.4634],[133.25959,34.463],[133.25088,34.46015],[133.23996,34.45115],[133.23023,34.44729],[133.22831,34.44518],[133.22564,34.43852],[133.22334,34.43536],[133.21658,34.43077],[133.21395,34.42729],[133.20701,34.42264],[133.20445,34.42189],[133.19982,34.42284],[133.1878,34.42332],[133.17988,34.42077],[133.17841,34.41968],[133.17567,34.41461],[133.17206,34.41102],[133.16801,34.40523],[133.16157,34.40156],[133.15703,34.39728],[133.1536,34.39644],[133.15068,34.39681]],[[134.41378,34.83261],[134.41994,34.83345],[134.42411,34.83264],[134.42897,34.83311],[134.43888,34.83077],[134.44641,34.82717],[134.4555,34.82576],[134.45989,34.82614],[134.46794,34.81899],[134.47904,34.81835],[134.501,34.82286],[134.50643,34.82216],[134.51154,34.8244],[134.5466,34.83033],[134.55318,34.83311],[134.55686,34.83627],[134.56361,34.83846],[134.5677,34.84533],[134.57046,34.84701],[134.59897,34.8476],[134.6068,34.84479],[134.61215,34.83827],[134.61483,34.8364],[134.62163,34.83432],[134.62767,34.83395],[134.63006,34.83303],[134.63361,34.82881],[134.63685,34.82317],[134.64695,34.81814],[134.6555,34.81572],[134.66395,34.81692],[134.66851,34.81651],[134.70141,34.80579],[134.70984,34.80063],[134.71391,34.799],[134.73397,34.79833],[134.74454,34.80028],[134.75315,34.80003],[134.76034,34.79732],[134.7708,34.78924],[134.77967,34.78588],[134.78267,34.78595],[134.79493,34.79036],[134.80331,34.79194],[134.82585,34.78541],[134.83395,34.78042],[134.87122,34.74699],[134.89928,34.71993]],[[134.61782,34.83525],[134.61261,34.8374],[134.60617,34.84487],[134.60039,34.84708],[134.5949,34.84769],[134.57091,34.84695],[134.56779,34.84527],[134.56368,34.83838],[134.55668,34.83607],[134.55296,34.83283],[134.54656,34.83013],[134.51155,34.82429],[134.50646,34.82207],[134.50137,34.82282],[134.47825,34.81823],[134.46731,34.81911],[134.46316,34.82373],[134.45966,34.8261],[134.45536,34.82567],[134.44631,34.82706],[134.43861,34.83074],[134.42892,34.83302],[134.42438,34.83251],[134.42035,34.83334],[134.41744,34.83301]],[[135.17932,34.67908],[135.18617,34.68445],[135.19427,34.68472],[135.19891,34.68622],[135.20267,34.69205]],[[133.61911,34.52535],[133.63382,34.53291],[133.63763,34.53718],[133.64553,34.54181],[133.64115,34.53865],[133.62905,34.53636],[133.62195,34.53556],[133.61417,34.53629],[133.60319,34.53414],[133.59641,34.53013],[133.58501,34.52555],[133.57119,34.51851],[133.55462,34.5092],[133.54756,34.50288],[133.5427,34.50075],[133.52405,34.49832],[133.51243,34.49959],[133.5055,34.50176],[133.50358,34.5049],[133.50056,34.50642],[133.49372,34.50576],[133.49248,34.50845],[133.48909,34.50895],[133.48244,34.50898],[133.47337,34.50773],[133.46654,34.50906],[133.46126,34.5067]],[[131.06707,34.0453],[131.06177,34.04826],[131.05785,34.05379],[131.04938,34.06063],[131.04495,34.06125],[131.03499,34.06052],[131.0323,34.05961],[131.0297,34.05731],[131.0166,34.0349],[131.00213,34.01974],[131.0001,34.01556],[130.99538,34.00908],[130.99314,34.00386],[130.98881,34.00425]],[[133.2736,34.46078],[133.27754,34.45928],[133.26709,34.4546],[133.25969,34.45374],[133.25069,34.44952],[133.24641,34.44883],[133.2326,34.44128],[133.23152,34.43959],[133.22758,34.42521],[133.22847,34.42102],[133.23141,34.41696],[133.23096,34.41323],[133.22638,34.41062],[133.22092,34.40913],[133.21478,34.41131],[133.21096,34.41108],[133.20541,34.4125],[133.20274,34.41124],[133.19989,34.40789],[133.19558,34.40593],[133.19397,34.40437]],[[134.60039,34.84708],[134.60239,34.84564],[134.60376,34.84849],[134.60342,34.84681],[134.60456,34.84596]],[[131.48728,34.06396],[131.49099,34.06209],[131.49613,34.05791],[131.49956,34.05444],[131.50172,34.05015],[131.50415,34.04834],[131.50778,34.04768],[131.51315,34.04825],[131.51914,34.05087],[131.51318,34.0481],[131.50757,34.04759],[131.50415,34.04823],[131.50146,34.0503],[131.499,34.05499],[131.49305,34.06047],[131.48834,34.06346],[131.48321,34.06459],[131.48728,34.06396]],[[132.09239,34.10101],[132.08919,34.10066],[132.08606,34.09872],[132.0815,34.09805],[132.06493,34.09201],[132.05771,34.09177],[132.05266,34.09283],[132.03059,34.09065],[132.02355,34.09314],[132.01702,34.09287],[132.00653,34.0905],[132.00131,34.08688],[131.994,34.08024],[131.99107,34.07573],[131.98815,34.07287],[131.97455,34.06494],[131.97252,34.05565],[131.96662,34.0541],[131.96401,34.05188],[131.96283,34.04954],[131.95094,34.0408],[131.94867,34.03806],[131.94329,34.035],[131.93925,34.03471],[131.93589,34.03223],[131.93268,34.03104],[131.92671,34.03202],[131.91535,34.03047],[131.90893,34.0321],[131.90188,34.03175],[131.8905,34.03519],[131.87621,34.03458],[131.86168,34.03031],[131.84319,34.03976],[131.8274,34.05111],[131.81213,34.06077],[131.80204,34.06464],[131.79123,34.0709],[131.78015,34.07292],[131.77806,34.07482],[131.77534,34.07974],[131.7723,34.08117],[131.77015,34.08086],[131.76338,34.07738],[131.75395,34.07661],[131.74739,34.07407],[131.74124,34.0745],[131.73526,34.07693],[131.72451,34.07774],[131.71306,34.08099],[131.70756,34.07814],[131.70264,34.07044],[131.69927,34.06898],[131.69653,34.06969],[131.6893,34.07511],[131.68185,34.07655],[131.67632,34.07235],[131.66463,34.06712],[131.66121,34.06465],[131.65611,34.05694],[131.65148,34.05377],[131.64718,34.05306],[131.63636,34.04903],[131.62473,34.04715],[131.62104,34.04746],[131.618,34.04913],[131.61635,34.05153],[131.61568,34.05652],[131.61469,34.05827],[131.59995,34.06929],[131.59558,34.07066],[131.56972,34.07454],[131.56481,34.07311],[131.55766,34.06943],[131.53934,34.05632],[131.53221,34.05454],[131.54034,34.05797],[131.5511,34.06598],[131.56237,34.07294],[131.56972,34.07454]],[[130.95617,33.96541],[130.96285,33.96126]],[[134.60413,34.84595],[134.60199,34.84644],[134.60163,34.84586],[134.60253,34.84585],[134.60323,34.84755],[134.6023,34.84688],[134.59999,34.84734]],[[132.28953,34.30037],[132.29295,34.30366],[132.29601,34.30474]],[[132.22126,34.2262],[132.2195,34.23547],[132.22154,34.2407],[132.22158,34.24423],[132.22496,34.24883]],[[133.27538,34.45834],[133.27743,34.45912],[133.27427,34.4602]],[[131.85728,34.03257],[131.86199,34.03032]],[[131.64151,34.0508],[131.64696,34.05312],[131.65184,34.05412],[131.656,34.05704],[131.66108,34.06475],[131.66457,34.06723],[131.67618,34.0724],[131.68169,34.07661],[131.68898,34.07537],[131.69656,34.06976],[131.69923,34.06904],[131.70242,34.07033],[131.70755,34.07824],[131.71303,34.08106],[131.71528,34.08097],[131.72502,34.07773],[131.73528,34.07702],[131.74125,34.07459],[131.74738,34.07417],[131.75384,34.0767],[131.76338,34.07748],[131.7699,34.08087],[131.77224,34.08126],[131.77538,34.07984],[131.77815,34.07487],[131.78021,34.07299],[131.79127,34.07098],[131.8021,34.06473],[131.81281,34.06055],[131.82787,34.05091],[131.84305,34.03994],[131.86187,34.03045],[131.87617,34.03467],[131.88984,34.03527],[131.89326,34.03477],[131.89891,34.03225],[131.90935,34.03216],[131.9149,34.03058],[131.92673,34.03212],[131.93282,34.03115],[131.9357,34.03213]],[[132.31861,34.32832],[132.31819,34.32527],[132.31385,34.32139]],[[133.1581,34.3951],[133.15402,34.39475]],[[134.61576,34.83603],[134.61797,34.83556],[134.62014,34.83639]],[[135.20225,34.69091],[135.19863,34.68604],[135.19403,34.68467],[135.18619,34.68443],[135.1811,34.6804]],[[133.64184,34.53901],[133.65279,34.54617],[133.65627,34.54982],[133.66437,34.55511],[133.66694,34.55575],[133.67337,34.55546],[133.67591,34.55636],[133.68841,34.56539],[133.69618,34.57221]],[[130.9684,33.94748],[130.96898,33.95282],[130.96671,33.95832],[130.96518,33.95993],[130.95261,33.96737],[130.94708,33.9758]],[[132.68633,34.44045],[132.68181,34.44175]],[[134.02454,34.65529],[134.02927,34.66279]],[[134.99359,34.6475],[134.98439,34.64843],[134.97484,34.65414]],[[132.59082,34.40283],[132.59576,34.41154],[132.60113,34.41691]],[[131.53221,34.05454],[131.51914,34.05087]],[[131.48321,34.06459],[131.47605,34.06554],[131.47124,34.06864],[131.46744,34.07005],[131.46307,34.07014],[131.45637,34.07505],[131.45495,34.07714]],[[131.85738,34.03263],[131.85918,34.03173]],[[130.96905,33.95145],[130.96849,33.94745]],[[134.60323,34.84755],[134.60452,34.85089]],[[134.60462,34.85087],[134.60376,34.84849]],[[134.70507,34.8302],[134.70035,34.83174]],[[134.24687,34.77889],[134.25528,34.78188],[134.25687,34.78492],[134.26176,34.78912],[134.26181,34.79108]],[[131.10828,34.04423],[131.11958,34.04311],[131.1245,34.04575],[131.13418,34.04917]],[[133.64553,34.54181],[133.64723,34.54297]],[[133.22878,34.42972],[133.22934,34.43172]],[[133.23147,34.41666],[133.2305,34.41809]],[[132.55093,34.37349],[132.5486,34.37163],[132.5374,34.36611],[132.53442,34.36572]],[[132.00352,34.08831],[132.00091,34.08647]],[[132.68117,34.44161],[132.67437,34.44333]],[[132.93749,34.39047],[132.93582,34.38952],[132.93335,34.3907]]]}}]}