{"type":"FeatureCollection","features":[{"type":"Feature","properties":{"route_id":"399","route_number":399,"name":"国道399号","source":"OpenStreetMap contributors (ODbL)","osm_relations":[6594184]},"geometry":{"type":"MultiLineString","coordinates":[[[140.81341,37.33143],[140.8164,37.32811],[140.82283,37.32916],[140.82129,37.32972],[140.81824,37.32886],[140.81436,37.33387],[140.81279,37.33333],[140.81181,37.33401],[140.81073,37.33768],[140.80817,37.33903],[140.80484,37.3424],[140.8035,37.34635],[140.80402,37.34945],[140.80652,37.35568],[140.81032,37.35768],[140.81188,37.36003],[140.81187,37.3618],[140.8084,37.36589],[140.80661,37.37007],[140.80184,37.37149],[140.80238,37.37251],[140.80194,37.37581],[140.80059,37.37784],[140.80117,37.38125],[140.79911,37.38281],[140.79833,37.38485],[140.79865,37.38816],[140.79763,37.38985],[140.79862,37.39379],[140.8018,37.39646],[140.80192,37.4002],[140.7955,37.4086],[140.7961,37.41291],[140.79039,37.41977],[140.79098,37.42251],[140.79004,37.42437],[140.79126,37.42857],[140.79529,37.43171],[140.7953,37.43521],[140.79881,37.43663],[140.79761,37.43805],[140.78735,37.44356],[140.78028,37.44631],[140.77582,37.44616],[140.7691,37.451],[140.76671,37.4517],[140.76269,37.4567],[140.75488,37.45985],[140.75249,37.45951],[140.76099,37.47595],[140.76043,37.47938],[140.76205,37.48107],[140.76226,37.4828],[140.76647,37.49079],[140.76701,37.49581],[140.7664,37.49804],[140.76455,37.49939],[140.76376,37.5038],[140.76026,37.50847],[140.76056,37.51003],[140.75843,37.51256],[140.75767,37.51487],[140.75183,37.51767],[140.7456,37.52697],[140.74651,37.52824],[140.74931,37.52683],[140.75043,37.52755],[140.74637,37.5314],[140.74553,37.53447],[140.74646,37.5362],[140.74172,37.53805],[140.73973,37.54211],[140.73639,37.54246],[140.7354,37.54347],[140.7368,37.54531],[140.7376,37.5487],[140.7363,37.55093],[140.73685,37.55395],[140.73919,37.55548],[140.7404,37.55832],[140.74703,37.55986],[140.74314,37.56202],[140.74372,37.56548],[140.74674,37.56741],[140.74922,37.56793],[140.75311,37.5751],[140.76016,37.58113],[140.7596,37.58306],[140.75568,37.58447],[140.75572,37.58719],[140.75727,37.58791],[140.75406,37.59069],[140.75399,37.59261],[140.75226,37.59348],[140.74927,37.59704],[140.74965,37.59806],[140.75314,37.59836],[140.75195,37.5992],[140.75306,37.59957],[140.75204,37.60001],[140.75282,37.60051],[140.75253,37.60134],[140.7544,37.60262],[140.7548,37.60407],[140.75406,37.60506],[140.75499,37.60665],[140.75284,37.60696],[140.75122,37.61119],[140.7524,37.61182],[140.75039,37.61156],[140.74795,37.61328],[140.74532,37.61694],[140.74539,37.6197],[140.74738,37.61967],[140.74692,37.62058],[140.74752,37.622],[140.74614,37.6234],[140.74701,37.62399],[140.74308,37.62446],[140.74328,37.6254],[140.74245,37.62524],[140.74307,37.62586],[140.73895,37.62513],[140.74034,37.62685],[140.73979,37.62685],[140.74039,37.62777],[140.73973,37.6294],[140.74069,37.63325],[140.74052,37.63816],[140.73989,37.63945],[140.74092,37.639],[140.7423,37.64025],[140.73779,37.64227],[140.73536,37.64525],[140.73534,37.64884],[140.73181,37.65121],[140.73083,37.65345],[140.72868,37.65306],[140.72723,37.65377],[140.72575,37.65579],[140.72633,37.65928],[140.72491,37.66099],[140.71888,37.66123],[140.71742,37.66409],[140.71302,37.66548],[140.71202,37.66732],[140.71013,37.66734],[140.70472,37.66965],[140.70054,37.67956],[140.70159,37.68215],[140.70111,37.68901],[140.69802,37.69347],[140.68984,37.69194],[140.67595,37.69146],[140.67554,37.69408],[140.67637,37.69538],[140.67568,37.6967],[140.67051,37.69719],[140.66418,37.70162],[140.65985,37.70233],[140.65702,37.7058],[140.65223,37.70774],[140.65163,37.70978],[140.64489,37.71233],[140.64443,37.71391],[140.64216,37.71586],[140.64351,37.7231],[140.64072,37.72405],[140.64058,37.72509],[140.64198,37.72564],[140.64065,37.72705],[140.64177,37.72808],[140.63972,37.72856],[140.63948,37.7305],[140.63084,37.73473],[140.6288,37.73427],[140.62563,37.73557],[140.62304,37.7355],[140.61914,37.73783],[140.61124,37.73811],[140.61053,37.74003],[140.60771,37.74144],[140.60665,37.75366],[140.60514,37.75502],[140.60123,37.75573],[140.59744,37.75867],[140.59699,37.76385],[140.59529,37.76659],[140.5973,37.77134],[140.59549,37.77461],[140.59298,37.77591],[140.59026,37.77876],[140.58976,37.78455],[140.58291,37.78803],[140.57633,37.78925],[140.5745,37.79099],[140.573,37.797],[140.57437,37.80295],[140.57222,37.80655],[140.55548,37.81742],[140.55258,37.81783],[140.55349,37.82091],[140.54248,37.82121],[140.50834,37.81979]],[[140.90767,37.05528],[140.90466,37.0543],[140.8929,37.0536],[140.89227,37.05748],[140.88948,37.05721],[140.88758,37.0586],[140.88459,37.05929],[140.88468,37.06274],[140.88341,37.06391],[140.88089,37.06985],[140.88231,37.07338],[140.87831,37.0836],[140.87304,37.09152],[140.87422,37.09539],[140.87369,37.09766],[140.87641,37.10374],[140.87407,37.11018],[140.87071,37.11469],[140.87235,37.12251],[140.87147,37.12608],[140.86553,37.13025],[140.85802,37.13091],[140.85214,37.13426],[140.85442,37.13761],[140.85362,37.14332],[140.85842,37.14877],[140.86022,37.15262],[140.85995,37.15496],[140.86126,37.15725],[140.85935,37.15722],[140.85707,37.1552],[140.85474,37.15746],[140.8539,37.1588],[140.85449,37.16076],[140.85359,37.16277],[140.85375,37.16398],[140.85538,37.16546],[140.8546,37.16679],[140.85058,37.16822],[140.85132,37.17084],[140.85038,37.1724],[140.85149,37.17352],[140.85091,37.17532],[140.8523,37.17763],[140.8591,37.18024],[140.85749,37.18077],[140.85405,37.1799],[140.85277,37.18129],[140.85292,37.18347],[140.85173,37.18478],[140.8489,37.18521],[140.84758,37.18424],[140.84641,37.1852],[140.84838,37.18592],[140.84852,37.18854],[140.85112,37.19024],[140.85234,37.1924],[140.85253,37.19549],[140.85042,37.19598],[140.85189,37.1974],[140.85148,37.19881],[140.85011,37.19906],[140.851,37.20153],[140.85175,37.2023],[140.85248,37.20122],[140.85363,37.20117],[140.85706,37.20379],[140.85674,37.20569],[140.85803,37.20706],[140.85728,37.20988],[140.8587,37.21222],[140.85381,37.21272],[140.85028,37.21463],[140.84948,37.21648],[140.85101,37.21815],[140.84797,37.21982],[140.84788,37.22135],[140.84891,37.22162],[140.84855,37.22269],[140.84326,37.22486],[140.84269,37.22603],[140.84539,37.22859],[140.84594,37.2307],[140.84496,37.23513],[140.84667,37.23595],[140.84595,37.23715],[140.8458,37.24391],[140.84882,37.24968],[140.85073,37.25081],[140.85078,37.25482],[140.84908,37.25646],[140.84133,37.25762],[140.83618,37.26299],[140.83585,37.2695],[140.83687,37.27212],[140.83685,37.27509],[140.83914,37.27988],[140.84222,37.28325],[140.8426,37.28523],[140.83753,37.2898],[140.83697,37.29147],[140.83827,37.29418],[140.8367,37.29587],[140.83644,37.29802],[140.83788,37.30082],[140.83584,37.30208],[140.83625,37.30495],[140.83481,37.30636],[140.83467,37.30954],[140.83371,37.3108],[140.8344,37.31608],[140.83575,37.31969],[140.83452,37.3274],[140.83368,37.32826],[140.83213,37.32771],[140.82456,37.32918]],[[140.51324,37.8198],[140.50569,37.81998],[140.47376,37.82496],[140.46361,37.82769],[140.46065,37.82974],[140.45603,37.8301],[140.4551,37.83348],[140.4484,37.8402],[140.44219,37.84357],[140.43756,37.84458],[140.43722,37.84649],[140.43536,37.84893],[140.43713,37.85198],[140.43711,37.85402],[140.43377,37.86065],[140.43392,37.86213],[140.43539,37.86337],[140.43699,37.86692],[140.43229,37.87582],[140.43375,37.87756],[140.43412,37.87978],[140.43714,37.88288],[140.43459,37.8875],[140.43576,37.89211],[140.43489,37.89422],[140.43177,37.89571],[140.43071,37.89714],[140.43175,37.903],[140.4266,37.91044],[140.42753,37.91634],[140.42637,37.92193],[140.41987,37.92871],[140.41648,37.93026],[140.41113,37.93073],[140.39665,37.93609],[140.38872,37.93497],[140.38394,37.93541],[140.36993,37.94202],[140.36569,37.94244],[140.35793,37.94066],[140.35197,37.94308],[140.3485,37.94512],[140.34764,37.94657],[140.34587,37.94701],[140.34315,37.94989],[140.34432,37.95067],[140.34466,37.95336],[140.34644,37.95432],[140.34636,37.95854],[140.34767,37.95893],[140.34701,37.95969],[140.34729,37.96168],[140.34381,37.9628],[140.34322,37.96511],[140.33749,37.96466],[140.33606,37.96645],[140.32591,37.96799],[140.30832,37.96401],[140.30152,37.96606],[140.30111,37.96758],[140.30029,37.967],[140.29846,37.96844],[140.29757,37.96798],[140.29649,37.96869],[140.29566,37.96749],[140.29251,37.96916],[140.29038,37.96905],[140.28851,37.97117],[140.28589,37.97105],[140.28633,37.96982],[140.28391,37.97017],[140.28303,37.96914],[140.28206,37.96974],[140.28225,37.97109],[140.28047,37.97034],[140.27806,37.97181],[140.27745,37.97014],[140.27634,37.97072],[140.27404,37.97015],[140.27397,37.96881],[140.27336,37.97007],[140.27417,37.9723],[140.2722,37.97036],[140.27337,37.97252],[140.27301,37.97378],[140.27154,37.97387],[140.27191,37.97446],[140.27113,37.97398],[140.27245,37.97347],[140.27264,37.97245],[140.2713,37.97182],[140.27129,37.971],[140.2708,37.97176],[140.27209,37.97228],[140.27171,37.97286],[140.26911,37.97298],[140.27064,37.97519],[140.26792,37.9728],[140.2689,37.97198],[140.26747,37.97255],[140.26772,37.97327],[140.26561,37.97182],[140.26276,37.97132],[140.26119,37.97146],[140.26229,37.9717],[140.26061,37.97198],[140.26117,37.97224],[140.25416,37.9724],[140.2551,37.9727],[140.25018,37.97486],[140.24782,37.98057],[140.23694,37.99159],[140.22494,37.99703],[140.22055,37.99823],[140.19138,37.99976],[140.19247,38.00818],[140.19193,38.00977],[140.1848,38.01595],[140.17778,38.01894],[140.16859,38.02645],[140.17113,38.03111],[140.16853,38.03188],[140.17098,38.03965],[140.17177,38.04651],[140.15792,38.0476],[140.15581,38.05134],[140.14851,38.0523],[140.14411,38.06197],[140.14123,38.06356],[140.12577,38.06583],[140.11941,38.06404],[140.1093,38.05876]],[[140.16859,38.02645],[140.15736,38.0323]],[[140.15754,38.03267],[140.1607,38.03026]],[[140.82388,37.3292],[140.82283,37.32916]]]}}]}