{"type":"FeatureCollection","features":[{"type":"Feature","properties":{"route_id":"299","route_number":299,"name":"国道299号","source":"OpenStreetMap contributors (ODbL)","osm_relations":[53796,10582187,10582188,10582189,10582190,10582191,10582193]},"geometry":{"type":"MultiLineString","coordinates":[[[138.13726,35.99733],[138.15227,36.00005],[138.16338,35.99832],[138.17641,36.00467],[138.18212,36.01159],[138.19107,36.0174],[138.2057,36.02117],[138.2141,36.02382],[138.21762,36.02571],[138.2315,36.02501],[138.23963,36.02981],[138.24623,36.02975],[138.24707,36.03037],[138.24722,36.03228],[138.25211,36.03282],[138.25786,36.03484],[138.26375,36.03549],[138.26646,36.03425],[138.26688,36.03605],[138.26856,36.0372],[138.26857,36.03874],[138.2708,36.03931],[138.27075,36.04118],[138.26801,36.0424],[138.26928,36.04374],[138.26836,36.04442],[138.26984,36.04629],[138.27293,36.0454],[138.27466,36.04588],[138.27409,36.04705],[138.27501,36.04661],[138.27719,36.04164],[138.28012,36.03923],[138.28151,36.03902],[138.28167,36.0381],[138.2822,36.03909],[138.28114,36.04098],[138.28263,36.04212],[138.28503,36.04004],[138.28613,36.0411],[138.2877,36.04013],[138.28851,36.04133],[138.29419,36.04203],[138.29331,36.04258],[138.29532,36.04298],[138.29866,36.04494],[138.29843,36.0458],[138.30058,36.04644],[138.29985,36.04668],[138.29991,36.04772],[138.3038,36.04563],[138.3059,36.04766],[138.30831,36.04596],[138.30933,36.04717],[138.30741,36.04839],[138.3077,36.04994],[138.31071,36.04922],[138.3097,36.05118],[138.31133,36.05364],[138.31374,36.05001],[138.31475,36.05185],[138.31823,36.05313],[138.31979,36.05179],[138.31988,36.05344],[138.31872,36.05565],[138.31676,36.05662],[138.31712,36.05724],[138.31844,36.05635],[138.32029,36.05691],[138.32086,36.05582],[138.32311,36.05759],[138.32538,36.05642],[138.32485,36.05847],[138.32769,36.0568],[138.32731,36.05852],[138.32792,36.05883],[138.33132,36.05575],[138.33481,36.05481],[138.33663,36.0565],[138.34332,36.05839],[138.35043,36.05905],[138.35419,36.0577],[138.35438,36.05537],[138.35506,36.05507],[138.35821,36.05778],[138.3599,36.0582],[138.36037,36.05948],[138.36389,36.05989],[138.36364,36.05817],[138.36512,36.05826],[138.37202,36.06303],[138.37266,36.06245],[138.373,36.06343],[138.37319,36.06176],[138.37404,36.06273],[138.37427,36.06159],[138.3765,36.06285],[138.37622,36.06211],[138.37851,36.0626],[138.37811,36.06203],[138.37882,36.06198],[138.38167,36.06372],[138.38214,36.06324],[138.3815,36.06243],[138.38392,36.06275],[138.38196,36.06099],[138.38583,36.062],[138.38485,36.06378],[138.38629,36.0645],[138.38917,36.06525],[138.38944,36.0647],[138.38803,36.06391],[138.39196,36.06392],[138.39091,36.06536],[138.39196,36.06663],[138.39129,36.06799],[138.38825,36.0678],[138.38607,36.06893],[138.38339,36.06853],[138.38084,36.07024],[138.38248,36.07567],[138.38523,36.07799],[138.3849,36.08058],[138.38343,36.0829],[138.38623,36.08412],[138.38676,36.086],[138.3892,36.08858],[138.38897,36.08934],[138.39152,36.0915],[138.39015,36.09212],[138.38735,36.09075],[138.38603,36.09102],[138.38868,36.09508],[138.39253,36.09709],[138.38583,36.09728],[138.39285,36.10069],[138.39682,36.10353],[138.3994,36.10599],[138.39827,36.10645],[138.39807,36.10796],[138.39888,36.10717],[138.4017,36.10768],[138.40423,36.10626],[138.40628,36.10796],[138.41525,36.10837],[138.41635,36.10738],[138.41283,36.10683],[138.41123,36.10575],[138.41379,36.10576],[138.41756,36.10435],[138.4235,36.10429],[138.43031,36.10627],[138.43395,36.10869],[138.43684,36.10942],[138.4405,36.11227],[138.44338,36.11592],[138.45066,36.11932],[138.45168,36.12153],[138.45761,36.12804],[138.47033,36.13005],[138.47141,36.13354],[138.47219,36.14266],[138.47622,36.15334],[138.48136,36.15992],[138.48563,36.15654],[138.49028,36.15492],[138.49822,36.15518],[138.50282,36.15418],[138.51492,36.14726],[138.51874,36.1435],[138.52337,36.14162],[138.53864,36.14223],[138.54204,36.14152],[138.54874,36.14223],[138.55145,36.13993],[138.55717,36.13692],[138.5662,36.13496],[138.5694,36.13233],[138.57731,36.13007],[138.58663,36.1262],[138.59251,36.12588],[138.59555,36.1245],[138.60237,36.1249],[138.60504,36.12422],[138.61047,36.11892],[138.61374,36.11866],[138.6143,36.11665],[138.61877,36.11644],[138.61767,36.11488],[138.622,36.1145],[138.6257,36.11284],[138.62814,36.1136],[138.63376,36.11322],[138.63686,36.11228],[138.63873,36.11073],[138.63939,36.11153],[138.6406,36.11035],[138.64009,36.11008],[138.64207,36.10913],[138.64482,36.10945],[138.64525,36.10778],[138.64818,36.106],[138.648,36.10415],[138.64635,36.10287],[138.64969,36.10247],[138.65077,36.10094],[138.65357,36.0998],[138.6555,36.09993],[138.65631,36.09854],[138.65996,36.09712],[138.66954,36.09788],[138.6618,36.09934],[138.66331,36.1028],[138.66177,36.10354],[138.65983,36.10266],[138.65962,36.10577],[138.65827,36.10561],[138.6586,36.10813],[138.65539,36.10747],[138.6565,36.10938],[138.65841,36.10977],[138.66249,36.10733],[138.66606,36.10721],[138.66574,36.10888],[138.66794,36.10726],[138.67561,36.10773],[138.67951,36.1062],[138.68236,36.10856],[138.68828,36.10719],[138.6901,36.10909],[138.69226,36.10673],[138.69452,36.10614],[138.6964,36.10771],[138.69655,36.10963],[138.69736,36.11026],[138.69731,36.1082],[138.69974,36.10551],[138.70085,36.10535],[138.70116,36.10403],[138.70383,36.10288],[138.70567,36.10024],[138.70634,36.09793],[138.70545,36.09487],[138.70793,36.09439],[138.70949,36.09245],[138.71201,36.09219],[138.71356,36.08926],[138.71867,36.0888],[138.72228,36.08691],[138.72607,36.08743],[138.72808,36.08552],[138.73637,36.08528],[138.74441,36.08299],[138.74948,36.08342],[138.75405,36.0823],[138.7585,36.08321],[138.77251,36.08275],[138.77441,36.08088],[138.77892,36.07931],[138.77977,36.07686],[138.78163,36.07719],[138.78335,36.07881],[138.78411,36.08337],[138.78852,36.08537],[138.79207,36.08317],[138.79391,36.08032],[138.79816,36.08081],[138.80284,36.08389],[138.80154,36.08922],[138.80643,36.08865],[138.81037,36.09196],[138.8227,36.09252],[138.82432,36.09132],[138.82895,36.09034],[138.82931,36.08958],[138.82724,36.08485],[138.82427,36.08352],[138.82387,36.08233],[138.82516,36.08008],[138.82501,36.07799],[138.82597,36.07571],[138.82919,36.07367],[138.82909,36.07254],[138.83098,36.07036],[138.83135,36.06841],[138.83065,36.06774],[138.83296,36.06353],[138.83214,36.06445],[138.83246,36.06321],[138.83078,36.06136],[138.8322,36.06104],[138.83318,36.06204],[138.83388,36.06122],[138.83478,36.06176],[138.83807,36.06051],[138.83791,36.06206],[138.83924,36.06226],[138.83867,36.06106],[138.84187,36.06039],[138.8424,36.05928],[138.84541,36.05895],[138.84808,36.05974],[138.84799,36.06151],[138.85043,36.06105],[138.85198,36.0632],[138.85358,36.06016],[138.85451,36.0597],[138.85628,36.06077],[138.85669,36.05931],[138.85785,36.05968],[138.85875,36.05827],[138.85923,36.06117],[138.86032,36.06184],[138.85942,36.0609],[138.85945,36.05779],[138.85547,36.05867],[138.85369,36.05721],[138.85617,36.05672],[138.85532,36.05773],[138.85655,36.05793],[138.86197,36.05344],[138.8683,36.05356],[138.87959,36.04933],[138.8849,36.04826],[138.88646,36.0488],[138.8899,36.04572],[138.89294,36.04471],[138.89461,36.04102],[138.89904,36.03893],[138.90213,36.03931],[138.90595,36.03825],[138.90806,36.03924],[138.91092,36.03721],[138.91363,36.03788],[138.91939,36.03545],[138.92559,36.03496],[138.92811,36.03292],[138.93204,36.03385],[138.93601,36.03378],[138.94171,36.02812],[138.94841,36.02766],[138.95469,36.0246],[138.96755,36.02451],[138.97169,36.02842],[138.97644,36.02986],[138.98088,36.02974],[138.98595,36.0311],[139.0055,36.02254],[139.01955,36.01525],[139.02286,36.01269],[139.0288,36.01253],[139.03479,36.01469],[139.0423,36.01217],[139.04329,36.00854],[139.04414,36.00981],[139.04848,36.00837],[139.051,36.00838],[139.05328,36.00969],[139.05408,36.01288],[139.05913,36.0154],[139.06047,36.01712],[139.06578,36.02066],[139.07123,36.02646],[139.07299,36.02964],[139.0769,36.03146],[139.07905,36.02873],[139.07768,36.02579],[139.07965,36.02167],[139.07894,36.01964],[139.08185,36.01955],[139.0856,36.0211],[139.08665,36.0131],[139.08793,36.0111],[139.08554,36.00254],[139.0828,35.99707],[139.08892,35.99435],[139.09096,35.99198],[139.10044,35.98798],[139.10245,35.98638],[139.10609,35.98541],[139.10892,35.97974],[139.11613,35.97401],[139.12089,35.97331],[139.12295,35.9752],[139.12418,35.97803],[139.12613,35.9791],[139.12911,35.97652],[139.13292,35.97796],[139.13845,35.97709],[139.14129,35.97756],[139.14549,35.97643],[139.14749,35.97485],[139.15072,35.97578],[139.15498,35.97393],[139.15887,35.97371],[139.16145,35.96968],[139.1619,35.96153],[139.18034,35.94689],[139.18236,35.94274],[139.1802,35.94106],[139.18004,35.93969],[139.18254,35.93913],[139.1841,35.93747],[139.18594,35.93705],[139.186,35.93521],[139.18782,35.93479],[139.19094,35.93173],[139.19413,35.93089],[139.19721,35.92769],[139.19809,35.92765],[139.1984,35.92919],[139.19938,35.92895],[139.20016,35.92786],[139.20025,35.92313],[139.2045,35.91988],[139.20575,35.91985],[139.20932,35.92216],[139.21049,35.92174],[139.21202,35.91955],[139.21448,35.92086],[139.21476,35.91732],[139.2175,35.91402],[139.22242,35.91387],[139.22243,35.91137],[139.22647,35.90936],[139.23143,35.91117],[139.23509,35.91081],[139.23834,35.90812],[139.24311,35.90914],[139.24334,35.90691],[139.24815,35.90456],[139.24655,35.90384],[139.24565,35.90115],[139.24661,35.89872],[139.24999,35.89795],[139.25558,35.89845],[139.25623,35.89649],[139.26081,35.89389],[139.26244,35.89121],[139.26628,35.89295],[139.26888,35.89232],[139.27021,35.89125],[139.27076,35.88772],[139.27152,35.88696],[139.2729,35.88701],[139.27482,35.88855],[139.27853,35.88877],[139.2796,35.88662],[139.28202,35.88462],[139.28421,35.88345],[139.28756,35.88301],[139.29079,35.88055],[139.2934,35.8798],[139.29576,35.8806],[139.29876,35.88402],[139.30428,35.88344],[139.307,35.88116],[139.30804,35.87757],[139.31248,35.87331],[139.31282,35.8715],[139.3118,35.86802],[139.31421,35.86422],[139.31746,35.86149],[139.34261,35.85773],[139.35662,35.85692],[139.3637,35.84902],[139.37428,35.83234],[139.37617,35.82554],[139.37921,35.82354]],[[139.3367,35.8587],[139.3447,35.85763],[139.35532,35.85742],[139.35722,35.85664],[139.36394,35.84886],[139.37433,35.83248],[139.37633,35.82547],[139.37925,35.82359]],[[139.38647,35.84223],[139.38642,35.84231]],[[138.82499,36.09119],[138.82714,36.09188],[138.82922,36.09117],[138.82895,36.09034]]]}}]}