{"type":"FeatureCollection","features":[{"type":"Feature","properties":{"route_id":"454","route_number":454,"name":"国道454号","source":"OpenStreetMap contributors (ODbL)","osm_relations":[3317036]},"geometry":{"type":"MultiLineString","coordinates":[[[141.29055,40.51704],[141.2927,40.51535],[141.2983,40.51438],[141.30306,40.51152],[141.31015,40.51028],[141.31313,40.50839],[141.31473,40.50624],[141.31653,40.49916],[141.3204,40.49393],[141.32019,40.49248],[141.31778,40.4906],[141.31982,40.48994],[141.32581,40.49434],[141.33666,40.49464],[141.34644,40.49752],[141.34802,40.49872],[141.35036,40.5026],[141.35913,40.51055],[141.36706,40.51175],[141.37262,40.51503],[141.38775,40.51722],[141.40275,40.51737],[141.40699,40.51581],[141.41105,40.51558],[141.42032,40.51771],[141.43099,40.51797],[141.43514,40.51644],[141.44181,40.50981],[141.4686,40.51748]],[[140.60607,40.51165],[140.61827,40.511],[140.6204,40.5125],[140.62338,40.51736],[140.62499,40.51857],[140.62778,40.51919],[140.63171,40.51881],[140.63667,40.52021],[140.64391,40.5199],[140.64856,40.5189],[140.6512,40.51748],[140.65327,40.51835],[140.65645,40.51605],[140.6583,40.51667],[140.65873,40.51778],[140.66122,40.51729],[140.66101,40.51851],[140.66562,40.52027],[140.66472,40.52103],[140.66621,40.52239],[140.66386,40.5235],[140.66362,40.52471],[140.66479,40.52544],[140.66411,40.52669],[140.66482,40.52808],[140.66448,40.53016],[140.66603,40.53003],[140.6658,40.53165],[140.66678,40.53278],[140.66882,40.53331],[140.67047,40.53519],[140.67265,40.53607],[140.67231,40.53464],[140.67609,40.53317],[140.67599,40.53206],[140.67948,40.53302],[140.67948,40.53123],[140.6812,40.53377],[140.6836,40.5332],[140.68512,40.53368],[140.68367,40.53405],[140.68514,40.54143],[140.68944,40.54072],[140.68699,40.54397],[140.68607,40.54965],[140.68716,40.5505],[140.68986,40.55008],[140.69557,40.54569],[140.70271,40.54391],[140.70348,40.54247],[140.70258,40.53843],[140.70632,40.53371],[140.71882,40.52671],[140.7218,40.52596],[140.72596,40.52308],[140.73305,40.524],[140.73766,40.52717],[140.74536,40.52854],[140.74925,40.53155],[140.75253,40.53245],[140.76532,40.53011],[140.76826,40.52737],[140.77054,40.52637],[140.77154,40.52338],[140.77811,40.52203],[140.77986,40.52066],[140.78236,40.52102],[140.78288,40.5191],[140.78191,40.51694],[140.78311,40.51539],[140.79249,40.51332],[140.79434,40.51242],[140.79512,40.5107],[140.79835,40.50971],[140.80275,40.50953],[140.8057,40.51046],[140.80946,40.50826],[140.81099,40.50871],[140.8097,40.50919],[140.81184,40.50953],[140.81617,40.50881],[140.81829,40.50707],[140.81855,40.50578],[140.82096,40.50571],[140.81987,40.50475],[140.82125,40.50383],[140.81989,40.50364],[140.81983,40.50205],[140.82759,40.4979],[140.82964,40.49859],[140.83172,40.4979],[140.83133,40.49688],[140.82997,40.4977],[140.82899,40.49602],[140.83002,40.4956],[140.82981,40.4947],[140.82846,40.49443],[140.82853,40.49353],[140.82346,40.49178],[140.82572,40.49159],[140.82441,40.4906],[140.82823,40.49073],[140.82808,40.48858],[140.82939,40.48996],[140.82948,40.48852],[140.82833,40.48756],[140.83088,40.48446],[140.83354,40.4837],[140.83035,40.48116],[140.82792,40.48027],[140.82772,40.4768],[140.83049,40.47247],[140.83554,40.46708],[140.83569,40.4642],[140.83721,40.46073],[140.84151,40.45516],[140.83883,40.44998],[140.83886,40.44694],[140.84319,40.44294],[140.84286,40.44057],[140.8454,40.43896],[140.84536,40.43634],[140.84685,40.43409],[140.85034,40.43169],[140.85183,40.43202],[140.85221,40.431],[140.85502,40.42994],[140.8558,40.4282],[140.85542,40.42398],[140.85698,40.42024],[140.85673,40.41928],[140.85941,40.4164],[140.86788,40.41331],[140.87145,40.41347],[140.87319,40.41509],[140.87536,40.41295],[140.87748,40.41264],[140.88619,40.41563],[140.8885,40.41805],[140.89301,40.42063],[140.89364,40.42328],[140.89763,40.42537],[140.9056,40.42558],[140.9105,40.42345],[140.91235,40.42348],[140.92274,40.43392],[140.92724,40.436],[140.92875,40.44138],[140.93759,40.4469],[140.93855,40.44636],[140.94267,40.44693],[140.94494,40.44352],[140.9471,40.44255],[140.94672,40.44027],[140.94836,40.43785],[140.95024,40.43814],[140.95048,40.43569],[140.95185,40.43563],[140.95,40.43275],[140.94717,40.43167],[140.94909,40.43139],[140.94903,40.43045],[140.94978,40.43024],[140.94887,40.42833],[140.95169,40.42738],[140.95429,40.42824],[140.95404,40.42767],[140.95514,40.42681],[140.95858,40.42666],[140.95709,40.42415],[140.95848,40.42199],[140.96118,40.42153],[140.96124,40.41909],[140.96402,40.41155],[140.96521,40.41101],[140.96605,40.41149],[140.96725,40.41026],[140.96981,40.41125],[140.98117,40.41272],[140.98373,40.41081],[140.98572,40.41154],[140.98816,40.41094],[140.991,40.40752],[141.00395,40.41183],[141.0105,40.41125],[141.01263,40.41026],[141.0159,40.41101],[141.02171,40.41066],[141.02417,40.41182],[141.02531,40.41349],[141.0272,40.41312],[141.02802,40.41405],[141.03403,40.41449],[141.0366,40.41546],[141.03923,40.4148],[141.04097,40.41655],[141.04303,40.41726],[141.047,40.41642],[141.05116,40.41727],[141.05368,40.41958],[141.05711,40.41963],[141.05997,40.42096],[141.0611,40.41915],[141.06272,40.41832],[141.06437,40.41919],[141.0659,40.42201],[141.0676,40.42295],[141.06511,40.42311],[141.06496,40.42369],[141.06677,40.42474],[141.06545,40.42596],[141.0656,40.42669],[141.0696,40.42926],[141.0734,40.43039],[141.08004,40.42983],[141.07936,40.42773],[141.08157,40.42697],[141.08169,40.42792],[141.08924,40.43289],[141.10549,40.43939],[141.11802,40.43915],[141.12754,40.44206],[141.13333,40.44599],[141.14196,40.44901],[141.14905,40.45337],[141.15112,40.45597],[141.16195,40.46067],[141.16559,40.46377],[141.17212,40.46407],[141.17278,40.46661],[141.17694,40.47028],[141.19602,40.47466],[141.21966,40.48198],[141.22151,40.48383],[141.22777,40.48588],[141.24365,40.49649],[141.24957,40.50297],[141.25851,40.50979],[141.28486,40.51758],[141.28827,40.51663],[141.29202,40.51719],[141.2914,40.51659],[141.29293,40.51528]],[[141.46869,40.51738],[141.44178,40.50971],[141.43341,40.51724],[141.43016,40.51787],[141.42296,40.51755]],[[141.16953,40.46415],[141.17173,40.46406]]]}}]}