{"type":"FeatureCollection","features":[{"type":"Feature","properties":{"route_id":"470","route_number":470,"name":"国道470号","source":"OpenStreetMap contributors (ODbL)","osm_relations":[12079774]},"geometry":{"type":"MultiLineString","coordinates":[[[136.90846,36.63021],[136.90736,36.63982],[136.90758,36.64442],[136.91233,36.65805],[136.91345,36.66708]],[[136.84938,37.146],[136.84981,37.14925],[136.84604,37.15332],[136.84579,37.15546],[136.84729,37.15708],[136.85175,37.15811],[136.85355,37.1594],[136.857,37.16443],[136.85793,37.17061],[136.85756,37.17315],[136.85341,37.18099],[136.85389,37.18532],[136.85669,37.18819],[136.86414,37.19277],[136.86882,37.20151],[136.87512,37.20562],[136.87979,37.21175],[136.88941,37.21893],[136.89174,37.22335],[136.89097,37.22957],[136.89296,37.23386],[136.89577,37.23604],[136.90771,37.24179],[136.90999,37.24377],[136.9172,37.26385],[136.9268,37.27734],[136.9275,37.28086],[136.92699,37.28465],[136.92251,37.29153],[136.9208,37.29589],[136.90901,37.30324],[136.9066,37.30648],[136.90698,37.31211],[136.91095,37.32104],[136.90947,37.32193],[136.90973,37.32292],[136.90938,37.32204],[136.91023,37.32012],[136.90674,37.31148],[136.90667,37.3061],[136.90896,37.30319],[136.92073,37.29586],[136.92242,37.2915],[136.92666,37.28523],[136.92716,37.27887],[136.92558,37.27517],[136.91711,37.26388],[136.91171,37.24728],[136.90993,37.2438],[136.90715,37.24155],[136.89511,37.23574],[136.89198,37.23256]],[[136.91339,36.66444],[136.91225,36.65723],[136.90764,36.64385],[136.90858,36.63021]],[[136.9529,37.02068],[136.96035,37.01718],[136.96441,37.01672],[136.96915,37.01793],[136.97387,37.02164],[136.97765,37.02305],[136.98876,37.02189],[136.9985,37.02281],[137.00274,37.02182],[137.01946,37.01485],[137.03088,37.01112],[137.04121,37.00273],[137.0464,36.99248],[137.04721,36.98636],[137.04629,36.9777],[137.04867,36.97014],[137.04882,36.96636],[137.0479,36.9628],[137.04542,36.95969],[137.02308,36.94368],[136.99197,36.90235],[136.98,36.88901],[136.97483,36.88035],[136.95931,36.86645],[136.95437,36.85552],[136.94573,36.84427],[136.9441,36.83891],[136.94422,36.83009],[136.9432,36.82406],[136.94428,36.81922],[136.94972,36.81101],[136.95292,36.80365],[136.95543,36.80048],[136.97949,36.78523],[136.98126,36.78117],[136.98112,36.77549],[136.97994,36.77175],[136.97775,36.76859],[136.96295,36.75744],[136.9609,36.75483],[136.96082,36.75101],[136.96505,36.74546],[136.96546,36.74277],[136.96346,36.73916],[136.95751,36.73365],[136.95419,36.72824],[136.95208,36.7132],[136.95062,36.70902],[136.94709,36.70548],[136.92321,36.69161],[136.91896,36.6882],[136.91493,36.68123],[136.91364,36.66792]],[[136.98045,36.78363],[136.9772,36.78712],[136.95687,36.79918],[136.95293,36.80352],[136.94963,36.81092],[136.94467,36.81825],[136.94332,36.82163],[136.94418,36.83086],[136.94394,36.83786],[136.9449,36.84242],[136.94714,36.84687],[136.95447,36.85583],[136.95925,36.86648],[136.97504,36.88071],[136.98041,36.88962],[136.99314,36.90393],[137.02303,36.94371],[137.03938,36.95533]],[[136.91364,36.66981],[136.9148,36.68124],[136.9187,36.68808],[136.92404,36.69224],[136.94661,36.7053],[136.95028,36.70872],[136.95186,36.71268],[136.95407,36.72829],[136.95775,36.73415],[136.96488,36.74131]],[[136.89877,37.05587],[136.8943,37.05663],[136.88548,37.05416],[136.86766,37.06165],[136.8498,37.05875],[136.84374,37.05872],[136.83898,37.05973],[136.83493,37.06169],[136.83149,37.06475],[136.82855,37.06977],[136.82539,37.07318],[136.82271,37.07851],[136.81981,37.07991],[136.8129,37.08068],[136.80779,37.08621],[136.80755,37.08792],[136.80976,37.09621],[136.81287,37.09861],[136.81908,37.10078],[136.82091,37.1029],[136.82091,37.11088],[136.81607,37.11615],[136.81456,37.11957],[136.81506,37.12162],[136.81781,37.1248],[136.81979,37.12941],[136.82295,37.13206],[136.82809,37.13343],[136.83806,37.13921],[136.84174,37.13914],[136.84685,37.13649],[136.8496,37.13684],[136.85102,37.13937],[136.84896,37.14291],[136.84886,37.14479]],[[136.82128,37.13088],[136.81495,37.12065],[136.81546,37.11736],[136.81773,37.11462]],[[137.00563,36.91956],[137.00886,36.91806]],[[136.82903,37.06902],[136.83202,37.0643],[136.83597,37.06118],[136.84165,37.05911],[136.84785,37.05867]],[[136.85487,37.18658],[136.85346,37.18388],[136.85344,37.18133],[136.85766,37.17318],[136.85806,37.17096],[136.8572,37.1646],[136.85417,37.16033]],[[136.88248,37.21355],[136.87897,37.21079],[136.87533,37.20565],[136.86831,37.20092]],[[136.92702,37.28548],[136.92747,37.2823]],[[136.92736,37.28153],[136.92646,37.285]]]}}]}