{"type":"FeatureCollection","features":[{"type":"Feature","properties":{"route_id":"262","route_number":262,"name":"国道262号","source":"OpenStreetMap contributors (ODbL)","osm_relations":[9880092,9880103,9881782,9882017]},"geometry":{"type":"MultiLineString","coordinates":[[[131.52248,34.24977],[131.52304,34.24469],[131.52025,34.24099],[131.51791,34.2393],[131.51704,34.23722],[131.51741,34.23468],[131.51479,34.23165],[131.51578,34.22647],[131.51373,34.22365],[131.51636,34.22158],[131.51679,34.22018],[131.516,34.21878],[131.51865,34.21408],[131.51634,34.21176],[131.51466,34.20686],[131.50655,34.2012],[131.49299,34.19394],[131.49809,34.18544],[131.5001,34.1802],[131.50307,34.17644],[131.50512,34.16852],[131.51373,34.16393],[131.51634,34.16125],[131.51764,34.15486],[131.52001,34.15045],[131.52065,34.14675],[131.52907,34.12344],[131.53867,34.10353],[131.54154,34.10056],[131.55576,34.06824]],[[131.40733,34.4084],[131.40692,34.40139],[131.40523,34.39888],[131.40461,34.39183],[131.40635,34.39127],[131.40947,34.39259],[131.41194,34.39259],[131.42345,34.3882],[131.42936,34.38266],[131.43823,34.37955],[131.43871,34.37762],[131.4381,34.37329],[131.442,34.37179],[131.44088,34.37057],[131.43861,34.3703],[131.43771,34.36867],[131.43768,34.36604],[131.44066,34.36305],[131.43963,34.36175],[131.43594,34.36099],[131.43194,34.36232],[131.42935,34.36208],[131.42297,34.35844],[131.41999,34.3577],[131.42191,34.35088],[131.41875,34.34501],[131.41208,34.33804],[131.40834,34.33142],[131.40118,34.32565],[131.4015,34.32273],[131.40313,34.31941],[131.40456,34.31832],[131.40742,34.31822],[131.40877,34.31623],[131.41812,34.31206],[131.42244,34.31251],[131.42594,34.31577],[131.42922,34.31623],[131.43245,34.3179],[131.43674,34.31766],[131.43964,34.31945],[131.45154,34.3123],[131.45401,34.30764],[131.45899,34.30489],[131.46026,34.30325],[131.45847,34.29812],[131.45699,34.29675],[131.45568,34.2916],[131.46084,34.28576],[131.46782,34.28247],[131.47349,34.27705],[131.47406,34.27284],[131.47136,34.26575],[131.47546,34.2641],[131.4798,34.25994],[131.48359,34.25805],[131.48456,34.25511],[131.48728,34.25232],[131.49288,34.24385],[131.49709,34.24281],[131.50309,34.24472],[131.50698,34.24459],[131.51463,34.24775],[131.52117,34.25152],[131.52264,34.25072]],[[131.55565,34.06818],[131.55069,34.08062],[131.54843,34.08375],[131.54719,34.08829],[131.54184,34.09824],[131.54142,34.10049],[131.53858,34.10347],[131.52896,34.12342],[131.52053,34.14682],[131.52,34.15021],[131.51765,34.1545],[131.51641,34.16087],[131.51402,34.16363],[131.50519,34.16828],[131.50291,34.17659],[131.49993,34.18026],[131.49802,34.18539],[131.4929,34.1939],[131.50648,34.20127],[131.51482,34.20704]],[[131.40461,34.39183],[131.40513,34.39888],[131.4068,34.40138],[131.4072,34.40844]],[[131.49289,34.19402],[131.49299,34.19394]]]}}]}