{"type":"FeatureCollection","features":[{"type":"Feature","properties":{"route_id":"153","route_number":153,"name":"国道153号","source":"OpenStreetMap contributors (ODbL)","osm_relations":[2713570,3527405,9136523,9136524,9136525,9136526,9136527,9136528]},"geometry":{"type":"MultiLineString","coordinates":[[[136.91942,35.17431],[136.91931,35.16903],[136.92913,35.16341],[136.93284,35.16009],[136.93285,35.15916],[136.93828,35.15921],[136.93945,35.15778],[136.95009,35.15118],[136.95213,35.14587],[136.96425,35.13674],[136.96912,35.13615],[136.97021,35.13433],[136.97654,35.13291],[136.98146,35.12991],[136.98446,35.13634],[136.98936,35.1408],[136.99242,35.13994],[136.99794,35.13617],[137.00806,35.13552],[137.02417,35.11896],[137.03454,35.1124],[137.04262,35.10608],[137.0599,35.10264],[137.08312,35.08904],[137.10246,35.08534],[137.11134,35.08088],[137.11592,35.07968],[137.12655,35.07908],[137.13435,35.08183],[137.14204,35.08327],[137.16094,35.08248],[137.16358,35.09551],[137.1674,35.09972],[137.17523,35.10423],[137.18122,35.10421],[137.1808,35.10609],[137.18503,35.10779],[137.1874,35.1098],[137.18882,35.11422],[137.19617,35.11681],[137.19566,35.11922],[137.19604,35.11689],[137.19429,35.11606]],[[137.4205,35.16856],[137.41701,35.16911],[137.42179,35.16847],[137.42229,35.16897],[137.42111,35.16965],[137.42431,35.16941],[137.43956,35.17364],[137.44282,35.17304],[137.4399,35.17693],[137.44246,35.18368],[137.44587,35.18562],[137.44916,35.18602],[137.45409,35.18838],[137.45508,35.18541],[137.45717,35.19043],[137.46264,35.19542],[137.46653,35.20081],[137.47074,35.2045],[137.47649,35.20739],[137.48081,35.21077],[137.48406,35.21073],[137.487,35.21207],[137.4946,35.21337],[137.49972,35.21292],[137.50949,35.21374],[137.51093,35.21534],[137.51377,35.21585],[137.52406,35.22096],[137.52428,35.22331],[137.52669,35.22237],[137.52834,35.22313],[137.53047,35.22232],[137.5367,35.22384],[137.542,35.23098],[137.54231,35.23451],[137.54477,35.23728],[137.54688,35.23779],[137.54707,35.23869],[137.54549,35.23995],[137.54243,35.23863],[137.54053,35.23971],[137.53672,35.24013],[137.5375,35.24139],[137.54038,35.24253],[137.54137,35.24562],[137.53965,35.24821],[137.53106,35.25395],[137.53055,35.25553],[137.53136,35.25845],[137.54027,35.25937],[137.54377,35.26153],[137.54636,35.26437],[137.54888,35.26522],[137.55213,35.26339],[137.55582,35.26308],[137.55634,35.26162],[137.55541,35.25994],[137.55575,35.2588],[137.56013,35.25881],[137.56522,35.26035],[137.56781,35.25893],[137.56839,35.25634],[137.57225,35.25722],[137.5767,35.25248],[137.5816,35.25292],[137.58185,35.25646],[137.59002,35.26634],[137.58826,35.27039],[137.58864,35.27657],[137.59029,35.27955],[137.59747,35.28639],[137.6008,35.2911],[137.60887,35.29357],[137.61518,35.29327],[137.61855,35.29541],[137.61891,35.29811],[137.622,35.30155],[137.62203,35.30493],[137.62602,35.3111],[137.62708,35.31876],[137.63082,35.32328],[137.64093,35.32894],[137.64413,35.3332],[137.64758,35.33624],[137.649,35.33921],[137.64885,35.34538],[137.65008,35.34559],[137.6539,35.34305],[137.65676,35.34345],[137.6592,35.34515],[137.66109,35.34804],[137.66726,35.35055],[137.67132,35.35617],[137.67264,35.36063],[137.67179,35.36163],[137.67016,35.36117],[137.67179,35.36537],[137.68374,35.37917],[137.68403,35.3825],[137.68281,35.38652],[137.6836,35.39224],[137.68586,35.39412],[137.68713,35.39817],[137.69014,35.39974],[137.69247,35.40223],[137.69368,35.40591],[137.69704,35.41085],[137.69715,35.41349],[137.6993,35.41573],[137.69977,35.42455],[137.69887,35.4266],[137.70003,35.42857],[137.69847,35.43232],[137.6998,35.43232],[137.70098,35.43005],[137.70315,35.43026],[137.70577,35.43452],[137.70506,35.43783],[137.70788,35.43777],[137.71559,35.4448],[137.71915,35.44572],[137.72032,35.45005],[137.72385,35.45212],[137.72822,35.4495],[137.73129,35.44939],[137.74104,35.44495],[137.7449,35.44521],[137.74848,35.44738],[137.75591,35.46199],[137.76142,35.46627],[137.76562,35.47192],[137.76244,35.47474],[137.76248,35.47689],[137.76407,35.47952],[137.76671,35.48199],[137.78054,35.48746],[137.78426,35.4907],[137.78932,35.49885],[137.79236,35.5021],[137.80009,35.5006],[137.81091,35.50095],[137.81704,35.49924],[137.82642,35.49821],[137.83677,35.49845],[137.84344,35.50298],[137.84268,35.50403],[137.8435,35.50471],[137.84281,35.50436],[137.84302,35.50325],[137.83997,35.50096],[137.8447,35.5045],[137.84801,35.51207],[137.84703,35.51023],[137.84558,35.50965],[137.8435,35.50471]],[[137.19566,35.11922],[137.20352,35.12382],[137.20876,35.12942],[137.21224,35.13071],[137.21481,35.13408],[137.21724,35.13495],[137.21932,35.13714],[137.21895,35.13888],[137.22521,35.1418],[137.23968,35.13921],[137.25501,35.13835],[137.25906,35.1369],[137.26448,35.13169],[137.27297,35.1278],[137.29027,35.1265],[137.29444,35.12502],[137.29669,35.12548],[137.31507,35.13869],[137.32279,35.14048],[137.32462,35.14194],[137.32606,35.14462],[137.33198,35.147],[137.333,35.14959],[137.33567,35.15252],[137.34246,35.15825],[137.34814,35.16087],[137.35297,35.16821],[137.35512,35.16973],[137.35643,35.17254],[137.36312,35.17158],[137.37169,35.17377],[137.37787,35.17253],[137.37948,35.17405],[137.38337,35.17457],[137.38748,35.17235],[137.39479,35.1723],[137.40186,35.16978],[137.41021,35.17012],[137.41701,35.16911]],[[136.93296,35.1598],[136.9382,35.15938],[136.93951,35.15786],[136.94991,35.15143],[136.95211,35.14602],[136.96423,35.13685],[136.96908,35.13626],[136.97039,35.13433],[136.97638,35.13306],[136.9814,35.13004],[136.98462,35.13673],[136.98934,35.14094],[136.99254,35.14002],[136.99761,35.13637],[137.00806,35.13564],[137.0101,35.13429],[137.02394,35.1194],[137.03457,35.11259],[137.04268,35.10622],[137.06048,35.10255],[137.07044,35.09635],[137.08496,35.08875],[137.10249,35.08542],[137.11143,35.08101],[137.1151,35.08],[137.12035,35.07905],[137.12745,35.07937]],[[136.91959,35.17414],[136.91952,35.16905]],[[137.14131,35.08321],[137.16083,35.08258],[137.16358,35.09551]],[[137.79236,35.5021],[137.80027,35.50067],[137.81064,35.50107],[137.81699,35.49936],[137.82698,35.49827],[137.83693,35.49858],[137.83997,35.50096]],[[137.94059,35.66088],[137.94119,35.6628],[137.94057,35.66514],[137.93609,35.66845],[137.93356,35.66928],[137.92845,35.66868],[137.92213,35.66977],[137.92027,35.67086],[137.91951,35.67271],[137.92615,35.67438],[137.92667,35.67632],[137.92543,35.68584],[137.92924,35.69467],[137.93309,35.69421],[137.93414,35.69489],[137.93308,35.69693],[137.93114,35.69825],[137.93161,35.70106],[137.93564,35.70196],[137.93675,35.70482],[137.93477,35.7084],[137.93268,35.70959],[137.93023,35.71282],[137.93052,35.71848],[137.93168,35.72236],[137.9314,35.72654],[137.93394,35.73231],[137.93379,35.73591],[137.93549,35.74183],[137.94141,35.74481],[137.93718,35.70948],[137.94176,35.66832],[137.94154,35.6639],[137.93966,35.65702],[137.94185,35.65254],[137.94249,35.64933],[137.94428,35.64697],[137.9444,35.64518],[137.9406,35.6405],[137.93448,35.64159],[137.93093,35.63983],[137.93023,35.63855],[137.93079,35.63498],[137.92813,35.63091],[137.92337,35.62887],[137.92188,35.62657],[137.91986,35.61514],[137.92,35.61183],[137.92203,35.60876],[137.92066,35.60641],[137.9185,35.60558],[137.91764,35.60399],[137.91996,35.60078],[137.92018,35.59852],[137.91804,35.59443],[137.91327,35.5895],[137.91299,35.58597],[137.91094,35.58284],[137.91112,35.57917],[137.89101,35.567],[137.88899,35.56409],[137.88587,35.55201],[137.88307,35.54935],[137.87972,35.54817],[137.87282,35.54099],[137.86736,35.53703],[137.86443,35.53222],[137.8561,35.52899],[137.85234,35.52417],[137.84892,35.51631],[137.84808,35.51115],[137.84519,35.50505],[137.83967,35.50048]],[[137.93761,35.70274],[137.93735,35.7114],[137.94187,35.74554],[137.93995,35.75221],[137.94219,35.75469],[137.94457,35.75932],[137.94365,35.76962],[137.94559,35.77659],[137.94904,35.77966],[137.94944,35.78086],[137.94904,35.77966]],[[137.97826,35.93864],[137.98177,35.93583],[137.98356,35.92806],[137.98177,35.93562],[137.97816,35.93902],[137.98124,35.95652],[137.98072,35.96411],[137.98422,35.97503],[137.98385,35.98107],[137.98056,35.98877],[137.97681,35.99396],[137.9757,36.00394],[137.97087,36.01469],[137.97049,36.02511],[137.97118,36.03267],[137.97016,36.03682],[137.96836,36.03858],[137.96833,36.04073],[137.97031,36.04704],[137.96965,36.05368],[137.97171,36.06016],[137.97975,36.07587],[137.98087,36.08163],[137.98206,36.08359],[137.98634,36.08729],[137.98684,36.09114],[137.98832,36.09382],[137.98171,36.10097],[137.96124,36.10961],[137.96006,36.11916]],[[137.94944,35.78086],[137.94393,35.80913],[137.94511,35.81697],[137.95393,35.83398],[137.96105,35.83707],[137.96231,35.83885],[137.96236,35.84157],[137.96572,35.84397],[137.9721,35.85258],[137.97035,35.85798],[137.97582,35.86866],[137.97781,35.87012],[137.97901,35.87237],[137.98112,35.87752],[137.98119,35.88128],[137.98535,35.89364],[137.98606,35.91544],[137.98398,35.92319],[137.97932,35.92939],[137.9778,35.93506],[137.97846,35.93844]],[[137.98725,35.88723],[137.99396,35.90695],[137.9908,35.92072],[137.98585,35.92531],[137.99095,35.92063],[137.99405,35.90692],[137.98509,35.88055],[137.98775,35.87558],[137.987,35.87052],[137.98796,35.86768],[137.9868,35.87072],[137.98768,35.87555],[137.98496,35.88037],[137.98725,35.88723]],[[137.76557,35.47181],[137.7617,35.46636],[137.7568,35.46285],[137.75508,35.46053]],[[137.98356,35.92806],[137.98585,35.92531]],[[137.84809,35.5121],[137.84808,35.51285]],[[137.94173,35.74478],[137.94183,35.74602]],[[137.9413,35.66276],[137.94167,35.66918],[137.94004,35.68277]],[[137.97894,35.94437],[137.97917,35.94603]],[[137.98796,35.86768],[137.99094,35.86195],[137.99143,35.858],[137.98424,35.84005],[137.98247,35.83]]]}}]}