{"type":"FeatureCollection","features":[{"type":"Feature","properties":{"route_id":"375","route_number":375,"name":"国道375号","source":"OpenStreetMap contributors (ODbL)","osm_relations":[7521547,9909740,9911952,9912425,9912484,9912642,9912829]},"geometry":{"type":"MultiLineString","coordinates":[[[132.62797,34.2438],[132.62219,34.2312],[132.62893,34.24551],[132.62891,34.24789],[132.63012,34.2503],[132.62971,34.25972],[132.63095,34.26372],[132.63227,34.26663],[132.63509,34.26848],[132.63851,34.27674],[132.63784,34.27973],[132.63901,34.28184],[132.63403,34.28385],[132.63311,34.28541],[132.63568,34.29334],[132.63564,34.29793],[132.6467,34.30381],[132.65158,34.30888],[132.65715,34.31135],[132.65882,34.31345],[132.66906,34.32011],[132.67107,34.32318],[132.67709,34.32552],[132.68175,34.32996],[132.69585,34.33785],[132.70359,34.34494],[132.71048,34.34762],[132.721,34.35402],[132.72429,34.3599],[132.72838,34.36351],[132.732,34.37032],[132.73382,34.38043],[132.73702,34.38609],[132.73595,34.39477],[132.73914,34.39887],[132.74766,34.40343],[132.75038,34.40685],[132.75088,34.41021],[132.75021,34.41723],[132.75701,34.4268],[132.75423,34.43296],[132.75521,34.43756],[132.75941,34.44183],[132.76488,34.44511],[132.7735,34.45745],[132.7717,34.46204],[132.76895,34.46336],[132.76651,34.46678],[132.76337,34.4752],[132.76045,34.47714],[132.76023,34.47884],[132.76883,34.49558],[132.7715,34.49911],[132.77594,34.50297],[132.7768,34.50509],[132.77545,34.50711],[132.77734,34.50787],[132.78341,34.51342],[132.78333,34.51802],[132.78033,34.5202],[132.77933,34.52258],[132.77666,34.52426],[132.77619,34.5259],[132.78029,34.52834],[132.78211,34.53222],[132.78034,34.5353],[132.78121,34.54206],[132.7836,34.54461],[132.7878,34.55292],[132.7909,34.55367],[132.79726,34.55878],[132.80492,34.56188],[132.8104,34.56666],[132.82038,34.56464],[132.82362,34.56829],[132.82699,34.57065],[132.82686,34.57296],[132.82906,34.57684],[132.82716,34.57887],[132.82662,34.58075],[132.82333,34.584],[132.82354,34.58673],[132.82249,34.58982],[132.82309,34.59358],[132.82172,34.60166],[132.82756,34.61147],[132.83322,34.61732],[132.84426,34.63209],[132.84905,34.63571],[132.85051,34.63873],[132.85639,34.64164],[132.85912,34.64449],[132.86001,34.64779],[132.85967,34.64976],[132.85243,34.65733],[132.85252,34.66152],[132.85322,34.66275],[132.85646,34.66464],[132.8594,34.67177],[132.87258,34.67627],[132.87322,34.67773],[132.87272,34.68057],[132.87666,34.68655],[132.87563,34.68904],[132.8679,34.69449],[132.86811,34.69574],[132.87015,34.69603],[132.87059,34.69677],[132.86778,34.70033],[132.8674,34.7047],[132.8699,34.70696],[132.88122,34.71064],[132.88723,34.71153],[132.89039,34.71388],[132.90047,34.72533],[132.89925,34.72806],[132.893,34.73238],[132.89194,34.73427],[132.89247,34.7362],[132.89478,34.73853],[132.89543,34.7439],[132.89725,34.7458],[132.89857,34.75013],[132.8976,34.75779],[132.89531,34.7621],[132.8929,34.76466],[132.89217,34.76722],[132.88746,34.7695],[132.88573,34.77327],[132.8855,34.7761],[132.87962,34.78159],[132.87587,34.78323],[132.87235,34.7836],[132.86942,34.78491],[132.86518,34.7884],[132.86231,34.78866],[132.86434,34.79162],[132.86338,34.8045],[132.85573,34.80334],[132.85599,34.80486],[132.84434,34.80827],[132.84432,34.81652],[132.84108,34.81602],[132.82985,34.81844],[132.82382,34.81777],[132.82321,34.81944],[132.82062,34.81904],[132.81731,34.81685],[132.81621,34.81502],[132.81357,34.81407],[132.80632,34.80871],[132.80036,34.80834],[132.79177,34.80417],[132.78557,34.80675],[132.77349,34.80743],[132.76729,34.80959],[132.76181,34.80865],[132.75464,34.81004],[132.75149,34.81147],[132.72689,34.81481],[132.71909,34.8181],[132.71792,34.82682],[132.72245,34.8294],[132.72449,34.83241],[132.72233,34.84049],[132.7225,34.84299],[132.72086,34.84461],[132.71527,34.84579],[132.71165,34.84921],[132.71114,34.85856],[132.70696,34.86269],[132.70546,34.87049],[132.7018,34.88246],[132.6991,34.88487],[132.69551,34.88565],[132.68155,34.88552],[132.68024,34.88673],[132.67974,34.89051],[132.67663,34.89497],[132.67278,34.89734],[132.66864,34.89805],[132.66575,34.90055],[132.65274,34.93202],[132.64628,34.93797],[132.64567,34.94257],[132.64306,34.94655],[132.64095,34.9542],[132.64336,34.95989],[132.642,34.96307],[132.64259,34.97265],[132.64042,34.97831],[132.63594,34.978],[132.6323,34.98061],[132.62401,34.98283],[132.6185,34.98588],[132.61382,34.99005],[132.6166,35.0049],[132.62201,35.00826],[132.62973,35.01109],[132.63118,35.01248],[132.63337,35.01841],[132.63309,35.02439],[132.62963,35.02993],[132.62693,35.03794],[132.62075,35.044],[132.62079,35.04973],[132.61924,35.05427],[132.61194,35.05588],[132.6029,35.06146],[132.60223,35.06277],[132.60279,35.06761],[132.59942,35.07452],[132.59355,35.07623],[132.58893,35.07622],[132.58785,35.07736],[132.58769,35.0791],[132.58302,35.08156],[132.58093,35.08471],[132.58116,35.08559],[132.57792,35.08761],[132.57817,35.08903],[132.57568,35.08945],[132.57335,35.09186],[132.56135,35.09272],[132.5522,35.0957],[132.53599,35.09943],[132.52886,35.09965],[132.5208,35.1065],[132.51626,35.10756],[132.51023,35.11155],[132.50612,35.11817],[132.50675,35.1203],[132.50854,35.12147],[132.50864,35.12515],[132.51161,35.13005],[132.51218,35.13708],[132.51438,35.14234],[132.51011,35.15967],[132.51033,35.16582],[132.50774,35.17786],[132.50554,35.18389],[132.50295,35.18564],[132.50098,35.19041],[132.49816,35.19234],[132.49487,35.19868],[132.4909,35.19826],[132.48982,35.19914]],[[132.74967,34.40545],[132.75078,34.40974],[132.7501,34.41728],[132.75689,34.4268],[132.75407,34.43325],[132.75503,34.4374],[132.75931,34.44189],[132.76357,34.44396]],[[132.76601,34.52219],[132.76937,34.52871],[132.77557,34.53352],[132.78114,34.54163]],[[132.86337,34.80441],[132.85622,34.8034]],[[132.7227,34.3575],[132.721,34.35402]],[[132.77901,34.80696],[132.78621,34.80805],[132.78803,34.80713],[132.78967,34.80475]]]}}]}