{"type":"FeatureCollection","features":[{"type":"Feature","properties":{"route_id":"388","route_number":388,"name":"国道388号","source":"OpenStreetMap contributors (ODbL)","osm_relations":[9646056,9647692,9647727,9648108,9648379]},"geometry":{"type":"MultiLineString","coordinates":[[[131.67929,32.53722],[131.67718,32.54925],[131.68348,32.5682],[131.68366,32.57695],[131.68301,32.5789],[131.67738,32.58662],[131.67599,32.59039],[131.67714,32.59604],[131.68186,32.59905],[131.68267,32.60385],[131.68189,32.59928],[131.67716,32.59625],[131.67587,32.5904],[131.67725,32.58659],[131.68351,32.57727],[131.68342,32.5684],[131.67703,32.54891],[131.67847,32.54009],[131.68355,32.52203],[131.68237,32.51775],[131.68224,32.5137],[131.67688,32.50822],[131.66356,32.50138],[131.66253,32.49604],[131.66434,32.48919],[131.66412,32.48739],[131.65784,32.48186],[131.64861,32.46802],[131.6401,32.46688],[131.63526,32.46736],[131.63075,32.4687],[131.62327,32.47284],[131.616,32.47192],[131.61528,32.47453],[131.61019,32.4786],[131.60835,32.48162],[131.60627,32.48221],[131.59928,32.48059],[131.59756,32.48111],[131.59756,32.48613],[131.59578,32.48709],[131.59341,32.48664],[131.59088,32.48279],[131.58416,32.48429],[131.5829,32.48574],[131.5831,32.48969],[131.5824,32.49049],[131.57541,32.49028],[131.56741,32.49791],[131.56258,32.4992],[131.56237,32.50012],[131.56553,32.5052],[131.56535,32.50651],[131.56324,32.50799],[131.55877,32.50824],[131.5528,32.50997],[131.5528,32.51167],[131.55569,32.51352],[131.55547,32.51581],[131.55291,32.51712],[131.54596,32.51806],[131.54703,32.52033],[131.54716,32.52301],[131.5418,32.52755],[131.53759,32.52909],[131.5344,32.52929],[131.53476,32.52555],[131.53713,32.52333],[131.53487,32.5221],[131.5333,32.51926],[131.5302,32.52217],[131.52734,32.5234],[131.52488,32.52373],[131.52135,32.52228],[131.51923,32.52501],[131.51159,32.52386],[131.50918,32.52547],[131.50784,32.52379],[131.50862,32.52166],[131.51009,32.52071],[131.51572,32.51977],[131.51678,32.51784],[131.51314,32.51267],[131.51052,32.51361],[131.50947,32.51311],[131.51087,32.51005],[131.51061,32.5088],[131.50659,32.50627],[131.50509,32.50372],[131.50173,32.5031],[131.5033,32.50148],[131.50343,32.50028],[131.49761,32.49688],[131.49455,32.49377],[131.49064,32.49395],[131.48433,32.49853],[131.48084,32.49875],[131.47875,32.5008],[131.47745,32.50099],[131.47547,32.49978],[131.47347,32.50126],[131.47007,32.50121],[131.46651,32.50393],[131.46369,32.50288],[131.45652,32.50428],[131.45448,32.5035],[131.4536,32.50092],[131.45066,32.501],[131.44662,32.49967],[131.44266,32.50328],[131.44207,32.5011],[131.44261,32.49972],[131.44137,32.49795],[131.44022,32.49247],[131.44276,32.48955],[131.43886,32.48545],[131.43378,32.47762],[131.43391,32.47596],[131.43627,32.47449],[131.43726,32.4715],[131.43525,32.46953],[131.43556,32.46792],[131.43451,32.46464],[131.4361,32.46],[131.43394,32.45705],[131.42913,32.45358],[131.42832,32.44804],[131.42454,32.44609],[131.42269,32.44034],[131.4257,32.43736],[131.42628,32.42938],[131.43327,32.42168],[131.43236,32.41832],[131.43293,32.41604],[131.43162,32.4134],[131.42842,32.41025],[131.42916,32.40816],[131.42815,32.40611],[131.42697,32.40509],[131.42279,32.40571],[131.42024,32.40319],[131.41632,32.40252],[131.40485,32.39806],[131.39863,32.39953],[131.39645,32.4029],[131.38707,32.40342],[131.37931,32.40166],[131.37694,32.39958],[131.37503,32.39884],[131.37261,32.39924],[131.36963,32.3977],[131.36615,32.39382],[131.36775,32.38964],[131.37219,32.38993],[131.37277,32.38653],[131.37484,32.38368],[131.37205,32.38133],[131.37282,32.37846],[131.37153,32.37695],[131.37442,32.37523],[131.37355,32.37362],[131.36912,32.3761],[131.36621,32.37634],[131.36242,32.37784],[131.35454,32.37741],[131.33758,32.381],[131.33452,32.38484],[131.33,32.38612],[131.32803,32.38957],[131.32568,32.39943],[131.32457,32.4003],[131.32109,32.39989],[131.3192,32.39744],[131.31376,32.39637],[131.31202,32.38698],[131.30698,32.38285],[131.30412,32.38152],[131.30117,32.38156],[131.29873,32.38577],[131.29541,32.38625],[131.29235,32.38881],[131.29131,32.39251],[131.28449,32.39483],[131.28389,32.39799],[131.28147,32.39779],[131.27813,32.3989],[131.27497,32.40219],[131.2691,32.40139],[131.26767,32.40349],[131.26252,32.40401],[131.25914,32.40598],[131.25948,32.4078],[131.256,32.4083],[131.25409,32.41006],[131.25288,32.41223],[131.2532,32.41313],[131.25197,32.41371],[131.2519,32.41513],[131.24673,32.41583],[131.24523,32.41735],[131.24071,32.4188],[131.23878,32.4183],[131.23994,32.41549],[131.23744,32.41363],[131.24101,32.41163],[131.23999,32.40956],[131.2379,32.40869],[131.23595,32.4066],[131.23246,32.40643],[131.23241,32.40422],[131.23047,32.40359],[131.22806,32.40421],[131.22667,32.40276],[131.22148,32.4026],[131.21979,32.40463],[131.21963,32.40341],[131.21758,32.40521],[131.21098,32.40729],[131.21044,32.40852],[131.20844,32.40758],[131.20595,32.4104],[131.20304,32.4106],[131.20233,32.40977],[131.20008,32.40956],[131.20139,32.40842],[131.19904,32.40822],[131.19635,32.40623],[131.19625,32.40537],[131.1969,32.40567],[131.19749,32.40432],[131.19792,32.40609],[131.19889,32.40636],[131.20108,32.40615],[131.2023,32.4042],[131.2037,32.40546],[131.20274,32.40373],[131.19982,32.40466],[131.19984,32.40298],[131.19666,32.39908],[131.19407,32.39914],[131.19311,32.39995],[131.19358,32.40106],[131.19301,32.40165],[131.19206,32.40137],[131.19257,32.40067],[131.19099,32.40092],[131.19178,32.39966],[131.19102,32.40046],[131.19028,32.40015],[131.19096,32.39881],[131.18746,32.4],[131.18629,32.40187],[131.18604,32.39983],[131.18343,32.39775],[131.18324,32.39679],[131.17897,32.39575],[131.17736,32.39605],[131.17713,32.39735],[131.17314,32.39834],[131.17369,32.39928],[131.17269,32.40054],[131.17381,32.40113],[131.17457,32.40289],[131.17629,32.40358],[131.17385,32.40396],[131.17278,32.40177],[131.17219,32.40284],[131.17093,32.4029],[131.17093,32.40112],[131.16824,32.39893],[131.16906,32.39596],[131.16792,32.39354],[131.16645,32.39272],[131.16543,32.38908],[131.16478,32.38964],[131.16469,32.38901],[131.16003,32.3872],[131.15563,32.38664],[131.15202,32.38399],[131.15008,32.38407],[131.14854,32.38213],[131.14706,32.38213],[131.14558,32.37977],[131.14395,32.37903],[131.14466,32.37701],[131.14213,32.36879],[131.14416,32.36693],[131.14228,32.36548],[131.14118,32.36269],[131.14149,32.35844],[131.13929,32.35749],[131.13506,32.35791],[131.13285,32.35673],[131.13288,32.35852],[131.13183,32.3581],[131.13071,32.36059],[131.12623,32.36232],[131.12676,32.36399],[131.12282,32.36543],[131.12215,32.36442],[131.12,32.36471],[131.10905,32.36059],[131.10246,32.36063],[131.10349,32.35882],[131.10158,32.3572],[131.10158,32.35614],[131.09567,32.3536],[131.09437,32.35228],[131.09426,32.35003],[131.09287,32.34809],[131.09014,32.34695],[131.08769,32.34399],[131.08513,32.34409],[131.08494,32.34269],[131.08379,32.34279],[131.08313,32.34173],[131.08378,32.34073],[131.08216,32.34017],[131.08286,32.33906],[131.07862,32.33651],[131.07995,32.33647],[131.07762,32.33577],[131.08062,32.33559],[131.07445,32.33425],[131.07222,32.3326],[131.07177,32.33341],[131.0725,32.33203],[131.07114,32.33245],[131.06862,32.33176],[131.06673,32.32906],[131.06031,32.32587],[131.05931,32.32453],[131.05526,32.32319],[131.05405,32.3214],[131.04202,32.32088],[131.03754,32.31933],[131.03518,32.31755],[131.0313,32.31895],[131.02934,32.32198],[131.02803,32.32242],[131.02622,32.32123],[131.02622,32.3193],[131.0105,32.31936],[131.01079,32.31598],[131.00978,32.31585],[131.00968,32.31678],[131.01065,32.31613],[131.00453,32.31057],[131.00275,32.30772],[130.99809,32.30406],[130.99466,32.29997],[130.9952,32.29893],[130.99429,32.29723],[130.98606,32.29226],[130.98595,32.28905],[130.98373,32.28631],[130.98293,32.28134]],[[131.90446,32.97189],[131.90255,32.97239],[131.91591,32.96866],[131.91277,32.95991],[131.90118,32.94635],[131.91215,32.94125],[131.92139,32.93432],[131.92272,32.93233],[131.92156,32.93048],[131.9217,32.92852],[131.92323,32.92602],[131.92611,32.9244],[131.92853,32.91413],[131.93336,32.90252],[131.93857,32.89578],[131.94172,32.89468],[131.94152,32.89002],[131.94352,32.88826],[131.94887,32.87944],[131.94896,32.87628],[131.95274,32.87583],[131.9505,32.87435],[131.95215,32.87281],[131.95128,32.87155],[131.95496,32.87096],[131.95471,32.86985],[131.95172,32.86843],[131.95033,32.864],[131.94604,32.85872],[131.94493,32.85621],[131.94588,32.85322],[131.95409,32.84493],[131.95366,32.84302],[131.94954,32.83761],[131.9426,32.83716],[131.94194,32.83545],[131.94222,32.83462],[131.94429,32.83376],[131.9489,32.83379],[131.95311,32.83482],[131.95366,32.8365],[131.95726,32.83681],[131.95806,32.8362],[131.95984,32.8335],[131.95932,32.82881],[131.96232,32.81878],[131.96122,32.81542],[131.95371,32.80904],[131.94673,32.80666],[131.94232,32.801],[131.93285,32.80049],[131.92068,32.8014],[131.91761,32.79717],[131.91019,32.79408],[131.90505,32.79322],[131.90268,32.79446],[131.90049,32.79837],[131.89991,32.802],[131.89679,32.80563],[131.89212,32.8062],[131.88821,32.80341],[131.88848,32.80051],[131.88644,32.7969],[131.88688,32.79482],[131.88377,32.79184],[131.87756,32.79199],[131.87208,32.78928],[131.87045,32.79034],[131.86834,32.79046],[131.86761,32.78884],[131.86645,32.78963],[131.86412,32.78816],[131.86506,32.78679],[131.86446,32.78625],[131.86488,32.78556],[131.86237,32.7846],[131.86171,32.78511],[131.86112,32.78409],[131.85904,32.78363],[131.85651,32.78596],[131.85635,32.78481],[131.85766,32.78423],[131.85654,32.78413],[131.85624,32.78301],[131.85217,32.78648],[131.85127,32.78243],[131.84958,32.78315],[131.8491,32.78213],[131.84693,32.78113],[131.84531,32.78212],[131.84606,32.78245],[131.84575,32.78373],[131.84689,32.7838],[131.84739,32.78491],[131.84511,32.78588],[131.84614,32.78656],[131.84433,32.78665],[131.8444,32.78597],[131.84248,32.78571],[131.84022,32.78414],[131.83911,32.78223],[131.8363,32.78204],[131.83064,32.7787],[131.82833,32.77406],[131.82584,32.77407],[131.82322,32.7752],[131.82058,32.77305],[131.81531,32.77319],[131.81293,32.77085],[131.80774,32.77104],[131.80387,32.76946],[131.80352,32.76709],[131.80153,32.76591],[131.79835,32.76577],[131.7963,32.76429],[131.79338,32.76497],[131.79334,32.76391],[131.79444,32.76356],[131.7972,32.75938],[131.79793,32.75373],[131.80265,32.75164],[131.80281,32.74954],[131.8046,32.7479],[131.81614,32.7459],[131.82058,32.74409],[131.82431,32.74113],[131.82562,32.73055],[131.82187,32.72376],[131.82201,32.72231],[131.81915,32.71497],[131.82032,32.71166],[131.81894,32.70714],[131.81627,32.70506],[131.81491,32.70021],[131.80991,32.69068],[131.80838,32.68885],[131.80435,32.68686],[131.80229,32.68489],[131.79131,32.68666],[131.78829,32.68593],[131.7869,32.68446],[131.78724,32.68144],[131.78338,32.67767],[131.77876,32.67556],[131.77379,32.67621],[131.76647,32.66894],[131.76621,32.66224],[131.76335,32.66165],[131.75946,32.66249],[131.75643,32.66081],[131.75064,32.64974],[131.74895,32.64732],[131.74673,32.64645],[131.74428,32.64024],[131.73866,32.63282],[131.73558,32.63245],[131.73567,32.63129],[131.73485,32.63079],[131.73307,32.63156],[131.72655,32.63187],[131.71766,32.62871],[131.71459,32.62619],[131.71234,32.62611],[131.71083,32.62416],[131.70383,32.61916],[131.69093,32.61443],[131.68679,32.60946],[131.68553,32.605],[131.68267,32.60385]],[[131.64849,32.46805],[131.65793,32.4821],[131.66387,32.48705],[131.66423,32.4892],[131.66228,32.49634],[131.66297,32.49925]]]}}]}