{"type":"FeatureCollection","features":[{"type":"Feature","properties":{"route_id":"290","route_number":290,"name":"国道290号","source":"OpenStreetMap contributors (ODbL)","osm_relations":[6519669,10459381,10459382,10459383,10459384,10459385,10459386,10459387,10459388,10459389]},"geometry":{"type":"MultiLineString","coordinates":[[[138.96025,37.24124],[138.96529,37.245],[138.97173,37.25389],[138.97439,37.25577],[138.97502,37.25814],[138.97199,37.26108],[138.97405,37.26463],[138.97559,37.27048],[138.98093,37.27553],[138.98483,37.28064],[138.99017,37.29248],[138.9956,37.30083],[138.99995,37.30382],[139.0103,37.30732],[139.01247,37.31],[139.01448,37.31637],[139.01691,37.32103],[139.02313,37.32421],[139.02603,37.32824],[139.02784,37.33334],[139.03292,37.33475],[139.0464,37.34152],[139.05018,37.34737],[139.04883,37.34962],[139.04707,37.35077],[139.04245,37.3508],[139.03584,37.35466],[139.03599,37.35752],[139.03736,37.35956],[139.03659,37.36142],[139.03376,37.36344],[139.03342,37.3675],[139.03249,37.36894],[139.03305,37.37152],[139.03224,37.37306],[139.03275,37.37824],[139.03553,37.38292],[139.03491,37.38451],[139.02912,37.38645],[139.0183,37.39733],[139.01575,37.399],[139.01537,37.40024],[139.01263,37.39908],[139.01095,37.39977],[139.01007,37.40102],[139.01157,37.4041],[139.01136,37.40528],[139.00954,37.40554],[139.00819,37.40834],[139.00257,37.40917],[138.99772,37.41319],[138.99483,37.41429],[138.99343,37.41763],[138.99692,37.42649],[139.00241,37.43123],[139.00281,37.4329],[139.00566,37.43544],[139.00559,37.43681],[139.00988,37.4383],[139.01127,37.44193],[139.01487,37.44668],[139.00587,37.46154],[139.00851,37.4626],[139.01003,37.46435],[139.01081,37.47472],[139.00666,37.48214],[139.00786,37.48521],[139.01173,37.48657],[139.01376,37.48821],[139.02045,37.49792],[139.0174,37.50357],[139.0175,37.5111],[139.0143,37.51619],[139.01492,37.51836],[139.017,37.52062],[139.01343,37.52264],[139.01613,37.52617],[139.01626,37.52744],[139.01541,37.52905],[139.01133,37.53159],[139.00975,37.53558],[139.01273,37.54042],[139.01571,37.54282],[139.01941,37.54387],[139.02014,37.5457],[139.01873,37.54966],[139.01877,37.55613],[139.02643,37.5587],[139.02846,37.56298],[139.02774,37.56715],[139.03224,37.57178],[139.02929,37.57675],[139.02425,37.58161],[139.03275,37.58247],[139.03897,37.58596],[139.04157,37.58633],[139.04591,37.5888],[139.04768,37.59067],[139.05576,37.59304],[139.05809,37.59251],[139.06259,37.58751],[139.06629,37.58843],[139.06885,37.58771],[139.07138,37.58045],[139.07408,37.57726],[139.0878,37.57538],[139.0919,37.5769],[139.09388,37.58076],[139.09198,37.58493],[139.09488,37.58924],[139.09291,37.59171],[139.09328,37.59431],[139.09518,37.59819],[139.09487,37.60005],[139.0979,37.60376],[139.10559,37.60881],[139.10215,37.61342],[139.10417,37.61828],[139.10379,37.62519],[139.09915,37.62731],[139.09433,37.63117],[139.09754,37.63359],[139.10267,37.63338],[139.10833,37.6354],[139.11265,37.6412],[139.11635,37.64291],[139.12351,37.64323],[139.13521,37.65161],[139.13835,37.65867],[139.13843,37.66437],[139.14934,37.67337],[139.1496,37.68023],[139.15227,37.68363],[139.15134,37.68718],[139.17549,37.68921],[139.17777,37.69308],[139.18149,37.6926],[139.18932,37.69736],[139.18926,37.69971],[139.20493,37.70902],[139.2068,37.711],[139.2302,37.72226],[139.23112,37.72367],[139.23066,37.73493],[139.23268,37.73737],[139.23818,37.73659],[139.256,37.73746],[139.26051,37.7388],[139.26673,37.73889],[139.26917,37.74259],[139.2703,37.74206],[139.26464,37.74388],[139.25906,37.74696],[139.2525,37.74895],[139.24533,37.75902],[139.23667,37.76621],[139.24311,37.77079],[139.25307,37.78033],[139.25729,37.78287],[139.26228,37.78452],[139.26707,37.78318],[139.27159,37.78322],[139.27467,37.78738],[139.27587,37.79048],[139.27836,37.79196],[139.28086,37.79522],[139.28736,37.79691],[139.28858,37.79796],[139.29362,37.81575],[139.29597,37.81908],[139.29729,37.82702],[139.30026,37.83344],[139.30165,37.84226],[139.3054,37.84797],[139.3105,37.85905],[139.31023,37.86405],[139.31452,37.86998],[139.31696,37.8756],[139.31985,37.87866],[139.32042,37.88324],[139.32588,37.88813],[139.32713,37.89475],[139.33169,37.89812],[139.33749,37.90553],[139.33886,37.91057],[139.34099,37.91329],[139.33645,37.92134],[139.33082,37.92775],[139.33044,37.92985],[139.32221,37.93463],[139.32756,37.94754],[139.3314,37.94694],[139.33179,37.94894],[139.33642,37.95091],[139.34262,37.95756],[139.34572,37.9563],[139.34884,37.95654],[139.35689,37.96244],[139.35942,37.9594],[139.36323,37.95839],[139.37241,37.95317],[139.39214,37.95674],[139.39492,37.95795],[139.40153,37.96376],[139.40399,37.96752],[139.41137,37.97227],[139.41234,37.97402],[139.41247,37.97738],[139.41406,37.97896],[139.42085,37.9812],[139.43203,37.98813],[139.43901,37.99042],[139.44563,37.99553],[139.44719,37.99972],[139.45166,38.00201],[139.45591,38.00761],[139.45659,38.0096],[139.4589,38.01071],[139.46056,38.01331],[139.46054,38.02224],[139.46473,38.02636],[139.46766,38.03103],[139.47199,38.0325],[139.47322,38.03365],[139.47355,38.03731],[139.47678,38.04224],[139.48544,38.04519],[139.49462,38.05268],[139.50377,38.05443],[139.50692,38.05594],[139.5152,38.06265],[139.51774,38.07375],[139.52111,38.07916],[139.52557,38.08291],[139.52653,38.08836],[139.5265,38.09477],[139.5297,38.09966],[139.52494,38.10108],[139.52636,38.10051],[139.52847,38.10435],[139.52747,38.1052],[139.52565,38.11254],[139.52717,38.11771],[139.53058,38.12137],[139.53492,38.12382],[139.53877,38.12761],[139.53496,38.13383],[139.53441,38.13648],[139.53172,38.13883],[139.53214,38.14124],[139.52939,38.14616],[139.52497,38.14854],[139.52305,38.15182],[139.51966,38.15333],[139.5186,38.15611],[139.51614,38.15862],[139.51012,38.16032],[139.5054,38.16419],[139.50012,38.16527],[139.49477,38.1647],[139.48824,38.16695],[139.48574,38.16928],[139.48287,38.17538],[139.48374,38.17923],[139.48316,38.18406],[139.48382,38.18776],[139.48134,38.19023],[139.48107,38.19181],[139.48276,38.20152],[139.48097,38.20617],[139.47906,38.20781],[139.48402,38.21261],[139.494,38.22589]],[[139.33137,37.93636],[139.32996,37.93901],[139.3295,37.94454],[139.32655,37.94497]],[[139.32226,37.93472],[139.32431,37.93339]]]}}]}