{"type":"FeatureCollection","features":[{"type":"Feature","properties":{"route_id":"500","route_number":500,"name":"国道500号","source":"OpenStreetMap contributors (ODbL)","osm_relations":[9586921,9586987]},"geometry":{"type":"MultiLineString","coordinates":[[[131.46415,33.31003],[131.47161,33.31511],[131.48527,33.31168],[131.48997,33.30556],[131.50219,33.30552],[131.48995,33.30548],[131.48551,33.31146],[131.47161,33.31503],[131.46421,33.30999],[131.46198,33.30977],[131.45913,33.31414],[131.45692,33.31427],[131.45418,33.31676],[131.4526,33.31668],[131.453,33.31888],[131.45434,33.31923],[131.45776,33.31802],[131.45873,33.31885],[131.45422,33.32317],[131.45387,33.32504],[131.45033,33.32478],[131.44981,33.32599],[131.45044,33.32834],[131.45797,33.3307],[131.46002,33.33273],[131.46035,33.33595],[131.45838,33.34095],[131.45574,33.34219],[131.45713,33.34437],[131.4557,33.34731],[131.4518,33.34816],[131.45156,33.3503],[131.45068,33.35111],[131.44365,33.35151],[131.4399,33.34936],[131.4371,33.34997],[131.43042,33.34717],[131.42727,33.34351],[131.41993,33.34183],[131.41723,33.34244],[131.41459,33.34197],[131.41189,33.3375],[131.4087,33.33494],[131.40256,33.33777],[131.39958,33.3374],[131.39861,33.34062],[131.40158,33.34455],[131.40174,33.34651],[131.39991,33.34877],[131.40014,33.35024],[131.39842,33.35331],[131.39878,33.35525],[131.39688,33.356],[131.39586,33.3584],[131.39589,33.36329],[131.39756,33.36784],[131.39543,33.37027],[131.39587,33.37263],[131.39513,33.37449],[131.39738,33.38201],[131.3968,33.3854],[131.39171,33.39606],[131.38716,33.40277],[131.38649,33.40673],[131.38212,33.4131],[131.38203,33.4156],[131.38043,33.41912],[131.37792,33.42272],[131.37367,33.42539],[131.37327,33.42982],[131.37122,33.4327],[131.36883,33.4348],[131.36372,33.43553],[131.35406,33.43933]],[[130.52906,33.3909],[130.54643,33.39308],[130.56535,33.39849],[130.57132,33.39856],[130.57545,33.39955],[130.58027,33.39945],[130.58414,33.39779],[130.58824,33.39845],[130.59438,33.40172],[130.60525,33.41165],[130.6073,33.41233],[130.6187,33.41318],[130.63175,33.41134],[130.64007,33.40938],[130.64648,33.4059],[130.6556,33.41875],[130.65436,33.41895],[130.65449,33.42534],[130.65585,33.42981],[130.66267,33.43759],[130.66494,33.44175],[130.66981,33.44482],[130.67279,33.45263],[130.68123,33.46277],[130.68711,33.46018],[130.69078,33.46133],[130.69869,33.46109],[130.70581,33.45876],[130.71227,33.45799],[130.71408,33.45733],[130.71724,33.45421],[130.7197,33.45647],[130.72335,33.45629],[130.72701,33.46118],[130.7296,33.46271],[130.73447,33.46368],[130.73531,33.46296],[130.73557,33.46082],[130.73667,33.46054],[130.73634,33.45964],[130.73754,33.45953],[130.73966,33.46421],[130.74262,33.46635],[130.74447,33.4667],[130.75275,33.46408],[130.76004,33.46559],[130.76545,33.46405],[130.77234,33.45967],[130.77438,33.45971],[130.77843,33.45818],[130.78296,33.45915],[130.78429,33.46078],[130.78722,33.4602],[130.78943,33.46144],[130.78997,33.45884],[130.79115,33.45726],[130.79257,33.45682],[130.79236,33.45783],[130.79641,33.46143],[130.79896,33.4619],[130.80152,33.46064],[130.80401,33.46328],[130.80521,33.46129],[130.81083,33.46507],[130.81315,33.46463],[130.81645,33.4654],[130.81785,33.46627],[130.81872,33.46813],[130.82462,33.46916],[130.82477,33.4701],[130.82744,33.47084],[130.83316,33.46916],[130.83457,33.46953],[130.83565,33.47127],[130.83748,33.47036],[130.83829,33.46874],[130.83982,33.46972],[130.84339,33.46887],[130.85517,33.47226],[130.86007,33.47675],[130.86323,33.47804],[130.86656,33.48062],[130.86679,33.48147],[130.86848,33.48126],[130.86997,33.48325],[130.86879,33.48704],[130.87088,33.4899],[130.87002,33.4929],[130.86781,33.49485],[130.86888,33.49676],[130.8685,33.49883],[130.8713,33.4958],[130.87242,33.49622],[130.87392,33.49472],[130.87533,33.49505],[130.87756,33.49419],[130.87828,33.49309],[130.87801,33.49153],[130.88389,33.48645],[130.88422,33.48283],[130.89026,33.483],[130.89222,33.48077],[130.89312,33.47813],[130.89546,33.47612],[130.89613,33.47716],[130.89511,33.47847],[130.89702,33.48125],[130.89677,33.4823],[130.898,33.4835],[130.90189,33.48383],[130.90114,33.48491],[130.90159,33.48593],[130.90476,33.48592],[130.90532,33.4875],[130.90327,33.48905],[130.90243,33.48847],[130.90144,33.48932],[130.90279,33.48993],[130.90552,33.48865],[130.90843,33.48896],[130.91007,33.48995],[130.90921,33.48833],[130.90789,33.48811],[130.90938,33.48761],[130.91245,33.48812],[130.91348,33.48962],[130.91491,33.48913],[130.91716,33.49024],[130.92031,33.48948],[130.92307,33.49037],[130.92742,33.4889],[130.9283,33.48743],[130.9279,33.48617],[130.93467,33.48426],[130.93852,33.484],[130.93935,33.48502],[130.93855,33.48673],[130.93895,33.488],[130.94108,33.48852],[130.94378,33.48748],[130.94868,33.49084],[130.95125,33.49051],[130.95231,33.49201],[130.95312,33.49155],[130.9545,33.49373],[130.95509,33.49281],[130.95628,33.49364],[130.95721,33.4933],[130.95885,33.49539],[130.9608,33.49508],[130.96214,33.49632],[130.96648,33.49613],[130.96724,33.49664],[130.96645,33.49741],[130.9669,33.49778],[130.96903,33.49792],[130.96968,33.49721],[130.9711,33.49789],[130.97208,33.49719],[130.97274,33.49803],[130.97481,33.49831],[130.97527,33.49699],[130.97621,33.49787],[130.97735,33.49683],[130.97723,33.49479],[130.98051,33.49381],[130.98021,33.49285],[130.98186,33.49356],[130.98086,33.49191],[130.98428,33.49073],[130.98548,33.49136],[130.98607,33.4898],[130.99204,33.4863],[130.99437,33.48164],[130.99093,33.47911],[130.99053,33.47625],[130.98729,33.47141],[130.98786,33.46948],[130.98669,33.46701],[130.98876,33.46375],[130.98625,33.46195],[130.98693,33.46012],[130.98918,33.45841],[130.98993,33.45442],[130.98806,33.45194],[130.98746,33.44893],[130.99069,33.44656],[130.99073,33.44486],[130.98961,33.44346],[130.99082,33.44205],[130.98966,33.44098],[130.98693,33.44074],[130.98655,33.43995],[130.99259,33.4381],[130.99471,33.43858],[130.99684,33.43742],[130.99828,33.43584],[130.99827,33.43356],[131.00295,33.4304],[131.00511,33.42675],[131.01477,33.42247],[131.01692,33.41888],[131.0253,33.41462],[131.03203,33.40676],[131.03549,33.40505],[131.03608,33.40621],[131.03764,33.40674],[131.04202,33.40528],[131.04497,33.40222],[131.04682,33.40144],[131.05759,33.40272],[131.06115,33.40505],[131.06311,33.40741],[131.06817,33.40794],[131.07013,33.40906],[131.07089,33.41188],[131.06992,33.41464],[131.07137,33.41891],[131.07104,33.4218],[131.07218,33.4226],[131.07694,33.42323],[131.08131,33.42719],[131.08522,33.42769],[131.09148,33.42498],[131.09625,33.42495],[131.0991,33.42658],[131.10143,33.43015],[131.10155,33.4337],[131.10485,33.43678],[131.10246,33.43963],[131.10318,33.44204],[131.1117,33.44385],[131.11808,33.44665],[131.11356,33.4554],[131.11423,33.45649],[131.11849,33.4577],[131.11825,33.45887],[131.1156,33.4611],[131.11578,33.46231],[131.12213,33.46385],[131.12872,33.46821],[131.13458,33.46862],[131.13722,33.46714],[131.14001,33.46681],[131.14661,33.46921],[131.14961,33.4722],[131.14997,33.47891],[131.15365,33.48071],[131.16167,33.48237],[131.16246,33.48354],[131.16035,33.48709],[131.16071,33.48893],[131.16367,33.49159],[131.16953,33.49357],[131.17663,33.48689],[131.17793,33.48174],[131.17645,33.47671],[131.18029,33.47171],[131.17696,33.46699],[131.17822,33.46584],[131.18106,33.45984],[131.18661,33.45477],[131.18872,33.4456],[131.19027,33.44517],[131.19286,33.44676],[131.19822,33.44713],[131.20819,33.44364],[131.21177,33.44389],[131.21316,33.44246],[131.21751,33.44085],[131.2226,33.44007],[131.22399,33.43921],[131.22419,33.43726],[131.22766,33.43362],[131.23334,33.43157],[131.24098,33.42549],[131.24329,33.42262],[131.24317,33.42374],[131.24489,33.42115],[131.24158,33.42059],[131.2429,33.42094],[131.2447,33.41999],[131.24811,33.4162],[131.24892,33.41794],[131.25138,33.41751],[131.25085,33.41824],[131.25169,33.41875],[131.25252,33.41799],[131.25594,33.41874],[131.25788,33.42231],[131.25691,33.42302],[131.25739,33.42436],[131.25905,33.42433],[131.25893,33.42575],[131.26172,33.4248],[131.26059,33.42455],[131.26757,33.42426],[131.26916,33.42299],[131.27068,33.4229],[131.2802,33.41526],[131.28102,33.41355],[131.28376,33.41226],[131.28583,33.41248],[131.29294,33.4103],[131.29612,33.41025],[131.3001,33.41106],[131.30667,33.41402],[131.31476,33.41364],[131.31736,33.41777],[131.31845,33.42292],[131.32296,33.42985],[131.32965,33.42729],[131.34187,33.42878],[131.34736,33.43403],[131.3502,33.43518],[131.352,33.43807],[131.35391,33.43929]],[[131.34192,33.42879],[131.33925,33.42714],[131.33636,33.42366],[131.33254,33.42134],[131.32625,33.42435],[131.32386,33.42468],[131.32448,33.42649],[131.32231,33.42823]],[[130.884,33.48619],[130.88558,33.48479],[130.88734,33.48481],[130.88841,33.48647],[130.88907,33.4847],[130.89515,33.48636],[130.90076,33.48371],[130.90181,33.48408],[130.90124,33.48522]],[[131.35388,33.43931],[131.35388,33.43931]],[[130.74089,33.46527],[130.74291,33.46621],[130.74485,33.46503],[130.74524,33.46755],[130.74439,33.46861],[130.74522,33.46919],[130.74955,33.46876],[130.75082,33.46734],[130.75457,33.46723],[130.75644,33.46858],[130.75801,33.46778],[130.76078,33.46816],[130.76003,33.46749]]]}}]}