{"type":"FeatureCollection","features":[{"type":"Feature","properties":{"route_id":"180","route_number":180,"name":"国道180号","source":"OpenStreetMap contributors (ODbL)","osm_relations":[7757831,9940345,9942728,10036572,10036573,19522245]},"geometry":{"type":"MultiLineString","coordinates":[[[133.45366,34.99193],[133.44602,34.99472],[133.44449,34.99602],[133.44627,34.99453],[133.4646,34.98837],[133.46937,34.98582],[133.47171,34.98346],[133.47053,34.97198],[133.4677,34.96993],[133.4653,34.96681],[133.46662,34.96409],[133.47301,34.96337],[133.47609,34.96104],[133.48121,34.95031],[133.48372,34.9503],[133.4911,34.95346],[133.49504,34.95171],[133.49568,34.94897],[133.49538,34.944],[133.4917,34.93947],[133.49194,34.93756],[133.49507,34.9359],[133.49752,34.93597],[133.5001,34.93683],[133.50287,34.93974],[133.50594,34.9397],[133.50647,34.9382],[133.50445,34.933],[133.50548,34.93083],[133.50863,34.9293],[133.51698,34.9275],[133.51949,34.92517],[133.52045,34.92173],[133.52436,34.91917],[133.52414,34.91782],[133.52133,34.91449],[133.52236,34.91223],[133.53066,34.91319],[133.53561,34.90786],[133.53562,34.90302],[133.53808,34.89975],[133.54394,34.89597],[133.54984,34.89602],[133.55058,34.89411],[133.5486,34.89139],[133.55048,34.88668],[133.55032,34.87981],[133.5531,34.87648],[133.55635,34.87554],[133.55938,34.8759],[133.56221,34.87336],[133.56586,34.86628],[133.56346,34.86409],[133.56241,34.86215],[133.5627,34.86112],[133.5644,34.86018],[133.57088,34.85949],[133.57099,34.85848],[133.5691,34.85617],[133.57037,34.85405],[133.57566,34.85531],[133.57827,34.85501],[133.5823,34.85246],[133.58777,34.84744],[133.59369,34.84588],[133.59407,34.84085],[133.59495,34.83929],[133.60111,34.83648],[133.60658,34.82995],[133.61118,34.82645],[133.61904,34.82351],[133.61939,34.82062],[133.61578,34.81853],[133.61383,34.81615],[133.61621,34.81078],[133.61662,34.80803],[133.61528,34.7975],[133.61394,34.7937],[133.60814,34.78217],[133.60646,34.78097],[133.60236,34.78003],[133.59989,34.7781],[133.60272,34.77489],[133.60574,34.76721],[133.60501,34.7645],[133.6029,34.76242],[133.60283,34.76071],[133.60569,34.75843],[133.6116,34.75856],[133.61417,34.75776],[133.61961,34.75476],[133.62592,34.74864],[133.63515,34.74594],[133.64132,34.74071],[133.64609,34.73506],[133.64723,34.73232],[133.64409,34.72918],[133.64365,34.72208],[133.64425,34.72081],[133.64898,34.71883],[133.65551,34.71835],[133.66289,34.72106],[133.66668,34.72113],[133.67308,34.72332],[133.67548,34.72338],[133.67965,34.72106],[133.68149,34.71527],[133.6839,34.71393],[133.70283,34.71301],[133.70993,34.70776],[133.71636,34.70487],[133.72655,34.7067],[133.72844,34.70508],[133.73035,34.69881],[133.72822,34.68465],[133.7318,34.67876],[133.73577,34.67676],[133.74429,34.67585],[133.75326,34.67776],[133.76228,34.67766],[133.78558,34.68544],[133.7803,34.68685],[133.76729,34.68549],[133.78028,34.68694],[133.78715,34.68565],[133.79113,34.68707],[133.79729,34.69087],[133.80175,34.69095],[133.81953,34.69711],[133.84177,34.69567],[133.84573,34.6966],[133.8521,34.69988],[133.85596,34.70037],[133.86014,34.69984],[133.86377,34.69777],[133.85929,34.69974],[133.85429,34.70011],[133.85121,34.69943],[133.8472,34.69639],[133.84434,34.69523],[133.83816,34.69503],[133.83286,34.69623]],[[133.92618,34.65638],[133.92625,34.67122],[133.918,34.67104],[133.92636,34.67122],[133.92636,34.65638]],[[133.44449,34.99602],[133.44393,35.0044],[133.44137,35.00607],[133.43874,35.00648],[133.43522,35.0097],[133.43377,35.01228],[133.43738,35.01652],[133.4375,35.01937],[133.4353,35.02283],[133.43861,35.02685],[133.43498,35.03231],[133.43986,35.03846],[133.44108,35.04163],[133.45474,35.0462],[133.45636,35.05052],[133.46037,35.05594],[133.46664,35.05877],[133.46725,35.06443],[133.46317,35.07274],[133.46061,35.07548],[133.45887,35.07881],[133.45227,35.08147],[133.44884,35.08179],[133.44644,35.08094],[133.44274,35.08243],[133.4421,35.08332],[133.44234,35.08608],[133.44075,35.08826],[133.44202,35.09101],[133.43881,35.09392],[133.43537,35.09393],[133.43374,35.09508],[133.43291,35.09955],[133.43787,35.10292],[133.43559,35.10833],[133.43602,35.11183],[133.43484,35.11463],[133.43775,35.11621],[133.43781,35.11918],[133.43485,35.1224],[133.4325,35.12879],[133.42933,35.13118],[133.42764,35.13518],[133.42672,35.14031],[133.42873,35.14418],[133.42502,35.14795],[133.42438,35.15436],[133.42521,35.15681],[133.42284,35.15815],[133.42192,35.16314],[133.42051,35.16454],[133.41186,35.16838],[133.41055,35.16992],[133.41387,35.17704],[133.42165,35.18522],[133.42272,35.18776],[133.42263,35.18994],[133.42158,35.19059],[133.42149,35.19175],[133.4197,35.19326],[133.41679,35.1934],[133.41649,35.19411],[133.42027,35.19408],[133.42451,35.19157],[133.42496,35.19219],[133.42298,35.19394],[133.42322,35.19462],[133.42604,35.19355],[133.42916,35.1935],[133.43351,35.19519],[133.43247,35.19361],[133.43326,35.19292],[133.43802,35.19457],[133.44024,35.19376],[133.44005,35.19537],[133.44184,35.1959],[133.44498,35.19922],[133.44138,35.21011],[133.44187,35.21182],[133.44071,35.21611],[133.44216,35.21827],[133.4398,35.21945],[133.43949,35.22103],[133.4409,35.22443],[133.44455,35.22769],[133.44241,35.23089],[133.43972,35.23238],[133.43941,35.23599],[133.43615,35.23489],[133.43082,35.23769],[133.4263,35.23848],[133.41907,35.23569],[133.41865,35.23454],[133.4203,35.22997],[133.41752,35.22562],[133.40933,35.2229],[133.40538,35.22262],[133.40297,35.2198],[133.40205,35.2169],[133.39878,35.21795],[133.39531,35.21697],[133.39338,35.21531],[133.38836,35.21444],[133.38695,35.21139],[133.38782,35.20669],[133.38736,35.20382],[133.38159,35.20156],[133.3763,35.20253],[133.37235,35.19865],[133.36708,35.19569],[133.3617,35.19779],[133.35802,35.1964],[133.35663,35.19405],[133.35201,35.19264],[133.34047,35.19399],[133.33613,35.19072],[133.33025,35.18946],[133.32754,35.18724],[133.32738,35.18518],[133.32402,35.18498],[133.31621,35.19189],[133.31393,35.19239],[133.31502,35.19745],[133.30834,35.20066],[133.31087,35.20075],[133.30998,35.20176],[133.311,35.20265],[133.31168,35.20207],[133.31298,35.20351],[133.30999,35.20334],[133.3091,35.20406],[133.31045,35.20478],[133.31128,35.20713],[133.31537,35.21209],[133.31753,35.21615],[133.31956,35.21822],[133.32299,35.21901],[133.32135,35.22391],[133.31997,35.22573],[133.32298,35.22527],[133.32606,35.22709],[133.33038,35.23088],[133.33383,35.23686],[133.33798,35.23948],[133.33926,35.2457],[133.34242,35.24926],[133.34326,35.25166],[133.34294,35.25738],[133.34955,35.27262],[133.34881,35.27532],[133.34476,35.27924],[133.3408,35.28459],[133.3291,35.29235],[133.32776,35.2943],[133.32565,35.29556],[133.32369,35.29958],[133.32483,35.30437],[133.32799,35.30742],[133.32881,35.31219],[133.33349,35.31647],[133.33433,35.32031],[133.33202,35.33368],[133.3285,35.33727],[133.32547,35.34559],[133.33148,35.36133],[133.33341,35.36243],[133.33809,35.36234],[133.34608,35.36775],[133.34727,35.37495],[133.34659,35.3772],[133.34274,35.38069],[133.33191,35.38763],[133.33057,35.3924],[133.32606,35.39906],[133.3258,35.40167],[133.32709,35.40696],[133.32548,35.40993],[133.32059,35.41171],[133.31622,35.40944],[133.30918,35.40819],[133.29833,35.40839],[133.29669,35.40952],[133.29468,35.41319],[133.28948,35.41727],[133.28774,35.42157],[133.28349,35.42494],[133.27678,35.42534],[133.27235,35.42789],[133.25731,35.42883],[133.24661,35.433],[133.20898,35.43366],[133.20547,35.43238],[133.20018,35.43261],[133.19487,35.43183],[133.19004,35.43232],[133.18501,35.43084],[133.17798,35.43298],[133.16615,35.43427],[133.16189,35.43237],[133.15963,35.42893],[133.15761,35.4277],[133.14813,35.42621],[133.14194,35.42648],[133.13479,35.42883],[133.12762,35.43355],[133.12357,35.43529],[133.11716,35.44274],[133.11336,35.44474],[133.11131,35.44819],[133.1054,35.4496],[133.10144,35.45237],[133.08001,35.45989],[133.06071,35.45889]],[[133.80892,34.69346],[133.81247,34.6929],[133.82102,34.68653],[133.83097,34.68063],[133.83946,34.67208],[133.8487,34.67383],[133.85093,34.67728],[133.85964,34.68158],[133.88156,34.67585],[133.88791,34.67923],[133.89564,34.67826],[133.89802,34.67455],[133.89802,34.66878],[133.89894,34.66809],[133.90707,34.66817],[133.91117,34.6708],[133.918,34.67104]],[[133.88138,34.64999],[133.88192,34.64063],[133.88551,34.63159],[133.88584,34.62563],[133.88534,34.6312],[133.88162,34.6406],[133.88161,34.64787],[133.87963,34.65421],[133.87848,34.66727],[133.87836,34.67833],[133.87584,34.68453],[133.87837,34.67882],[133.8799,34.65423],[133.88138,34.64999]],[[133.06071,35.45896],[133.06669,35.45891]],[[133.89801,34.6699],[133.89812,34.66868]],[[133.86377,34.69777],[133.86859,34.69245],[133.87498,34.68913],[133.87584,34.68747],[133.87584,34.68453]],[[133.80249,34.69119],[133.79732,34.69079],[133.79053,34.68665],[133.78558,34.68552]],[[133.76729,34.68549],[133.74787,34.68354]],[[133.61647,34.80571],[133.61507,34.79636],[133.60877,34.78291],[133.6065,34.7809],[133.60222,34.77993]],[[133.53036,34.91333],[133.52814,34.91321]],[[133.32699,35.40602],[133.32631,35.40877]],[[133.33795,35.28637],[133.33598,35.28765]],[[133.87005,34.69154],[133.86768,34.69325]]]}}]}