{"type":"FeatureCollection","features":[{"type":"Feature","properties":{"route_id":"327","route_number":327,"name":"国道327号","source":"OpenStreetMap contributors (ODbL)","osm_relations":[9644147,9693079,10985083,10985084,10985085,10985086,10985087,13161232]},"geometry":{"type":"MultiLineString","coordinates":[[[131.2349,32.48198],[131.23569,32.48492],[131.23892,32.48604],[131.24304,32.4896],[131.24571,32.49007],[131.24753,32.48882],[131.25072,32.48997],[131.25487,32.48751],[131.25614,32.48753],[131.25766,32.48925],[131.25757,32.49314],[131.25891,32.49503],[131.25852,32.49602],[131.25797,32.49652],[131.24994,32.49033],[131.236,32.4837],[131.23465,32.48156],[131.23047,32.47957],[131.22995,32.47764],[131.2312,32.47538],[131.21552,32.47329],[131.20348,32.46918],[131.19985,32.46909],[131.19588,32.47036],[131.19527,32.46962],[131.19117,32.47058],[131.18999,32.47246],[131.19145,32.4742],[131.19158,32.47623],[131.18715,32.48239],[131.18824,32.4844],[131.18903,32.48877],[131.18855,32.49052],[131.18947,32.49188],[131.18807,32.49391],[131.18757,32.49704],[131.18867,32.50013],[131.1852,32.50393],[131.18511,32.50554],[131.18707,32.50978],[131.18723,32.51301],[131.18634,32.51503],[131.18699,32.51632],[131.18388,32.51779],[131.1823,32.51706],[131.18032,32.51882],[131.17982,32.51999],[131.18072,32.52128],[131.17875,32.52298],[131.17913,32.52399],[131.17734,32.52591],[131.17748,32.52762],[131.17279,32.53369],[131.17235,32.53817],[131.1693,32.54004],[131.16833,32.54182],[131.16856,32.54503],[131.16784,32.54692],[131.16987,32.55223],[131.16928,32.55393],[131.17281,32.55722],[131.17357,32.56452],[131.16448,32.57917],[131.15633,32.58721],[131.15517,32.59491],[131.15416,32.59657],[131.15396,32.60432],[131.15655,32.60643],[131.15644,32.60739],[131.15927,32.61039],[131.16183,32.61484],[131.16129,32.61614],[131.16214,32.61799],[131.16128,32.62067],[131.15961,32.62203],[131.15759,32.62858],[131.15513,32.63188],[131.15395,32.63704],[131.15945,32.64615],[131.16122,32.64782],[131.16064,32.64919],[131.15858,32.64991],[131.15816,32.65082],[131.16446,32.65485],[131.16422,32.65704],[131.16504,32.659],[131.16382,32.66583],[131.1626,32.66686],[131.15931,32.66622],[131.15813,32.66808],[131.15796,32.67116],[131.1596,32.6752],[131.1584,32.67776],[131.15589,32.67946],[131.15534,32.68272]],[[131.25797,32.49652],[131.25725,32.49814],[131.25908,32.50159],[131.25934,32.5045],[131.26231,32.50495],[131.26584,32.50362],[131.26669,32.50256],[131.26825,32.50319],[131.26933,32.50761],[131.27094,32.51006],[131.27051,32.51081],[131.27214,32.51063],[131.27282,32.51208],[131.27719,32.50947],[131.28162,32.5085],[131.28716,32.51036],[131.29278,32.50866],[131.29768,32.50969],[131.30053,32.50876],[131.30334,32.50171],[131.30605,32.49971],[131.31118,32.50094],[131.31478,32.50024],[131.31784,32.50072],[131.31987,32.50268],[131.32126,32.50635],[131.32506,32.5068],[131.32498,32.51026],[131.32756,32.51107],[131.33153,32.50988],[131.334,32.50735],[131.33931,32.50916],[131.3428,32.50874],[131.34344,32.50758],[131.34128,32.5047],[131.34294,32.50261],[131.34562,32.50271],[131.35022,32.50478],[131.35736,32.50466],[131.36181,32.49929],[131.36939,32.49857],[131.37131,32.49735],[131.37301,32.49425],[131.37259,32.49273],[131.36997,32.49052],[131.37077,32.48937],[131.37262,32.48924],[131.37815,32.49217],[131.38421,32.49005],[131.38383,32.4879],[131.379,32.47974],[131.37439,32.47675],[131.37467,32.47162],[131.37621,32.46786],[131.37464,32.4648],[131.37599,32.46291],[131.38288,32.46257],[131.38433,32.46064],[131.3847,32.45648],[131.38788,32.4529],[131.39119,32.45205],[131.39513,32.45348],[131.39697,32.4574],[131.40358,32.45802],[131.41425,32.45434],[131.41836,32.45435],[131.41952,32.45516],[131.4201,32.45694],[131.41881,32.46064],[131.41948,32.46216],[131.42265,32.46385],[131.42631,32.46278],[131.43438,32.45786],[131.42913,32.45358],[131.42828,32.44975],[131.42911,32.44649],[131.43389,32.44261],[131.44013,32.44284],[131.44162,32.4388],[131.44861,32.43568],[131.45027,32.43221],[131.45229,32.43071],[131.46013,32.43011],[131.46379,32.43063],[131.46853,32.42868],[131.46935,32.42597],[131.47152,32.42429],[131.47538,32.42596],[131.47783,32.42868],[131.47905,32.429],[131.48252,32.42854],[131.48669,32.42624],[131.49604,32.42607],[131.50035,32.4183],[131.5038,32.4143],[131.50375,32.41052],[131.50197,32.40691],[131.50236,32.40457],[131.49915,32.40182],[131.49955,32.39972],[131.5027,32.39675],[131.50875,32.3932],[131.52163,32.38993],[131.52634,32.38661],[131.52957,32.38837],[131.53367,32.39654],[131.53581,32.39785],[131.53752,32.39783],[131.53947,32.39665],[131.54062,32.39439],[131.54292,32.39298],[131.55417,32.39347],[131.55694,32.39744],[131.56214,32.40083],[131.56611,32.39986],[131.57473,32.40387],[131.58098,32.40433],[131.58389,32.40619],[131.59412,32.41024],[131.59876,32.41026],[131.602,32.41276],[131.61069,32.4168],[131.61347,32.41716],[131.61558,32.41641],[131.63084,32.4194]],[[131.60489,32.40254],[131.60795,32.40029],[131.61263,32.39925],[131.61577,32.39638],[131.61922,32.39669],[131.62261,32.39835],[131.62955,32.39701]],[[131.20119,32.46919],[131.20671,32.46821],[131.21133,32.46929],[131.21936,32.47393]],[[131.26624,32.50312],[131.2652,32.50228],[131.26279,32.50266],[131.26025,32.49925],[131.26002,32.49845],[131.26261,32.4932],[131.26138,32.49294],[131.26173,32.4921],[131.2605,32.49166],[131.2595,32.48857],[131.25997,32.48753],[131.25876,32.48749],[131.25657,32.48485],[131.25431,32.48601],[131.25188,32.48585],[131.25069,32.48802],[131.24713,32.48725],[131.24467,32.48881],[131.24155,32.48773],[131.24127,32.48642]],[[131.62049,32.39761],[131.62282,32.39844],[131.62957,32.39709]],[[131.22213,32.47426],[131.22971,32.47699],[131.23465,32.48156]],[[131.27201,32.51058],[131.27092,32.51033]]]}}]}