{"type":"FeatureCollection","features":[{"type":"Feature","properties":{"route_id":"436","route_number":436,"name":"国道436号","source":"OpenStreetMap contributors (ODbL)","osm_relations":[572119,2499877]},"geometry":{"type":"MultiLineString","coordinates":[[[134.17432,34.48928],[134.18007,34.48504],[134.18524,34.48333],[134.18416,34.4797],[134.18793,34.48003],[134.18996,34.48467],[134.19308,34.48777],[134.19669,34.4868],[134.19869,34.48389],[134.20027,34.48305],[134.2067,34.4844],[134.21919,34.48135],[134.22174,34.48004],[134.22658,34.48128],[134.22867,34.48099],[134.22991,34.48224],[134.23489,34.48355],[134.23847,34.48261],[134.24141,34.48327],[134.24888,34.4787],[134.25013,34.47636],[134.25822,34.47178],[134.2722,34.46975],[134.2774,34.47008],[134.27993,34.47146],[134.28282,34.47129],[134.28511,34.47319],[134.29245,34.47593],[134.29427,34.47901],[134.29639,34.48005],[134.30006,34.47903],[134.31095,34.47915],[134.31475,34.47819],[134.31683,34.47944],[134.31903,34.48218],[134.33118,34.48026],[134.33605,34.48048],[134.33859,34.48196],[134.34134,34.48576],[134.34276,34.48636],[134.342,34.48695],[134.34144,34.49065],[134.34592,34.49174],[134.34729,34.491],[134.35027,34.49272],[134.34974,34.49392],[134.35056,34.49564],[134.35026,34.49804],[134.34761,34.4996],[134.34715,34.50119],[134.34914,34.50626],[134.35243,34.50895],[134.35227,34.5099],[134.35459,34.51396],[134.35497,34.51888],[134.35356,34.52371],[134.35631,34.52591],[134.35677,34.53059],[134.35819,34.53137],[134.35561,34.5312],[134.35683,34.53203],[134.35665,34.53411],[134.35608,34.53527],[134.3546,34.53559],[134.35469,34.53757],[134.35035,34.53705],[134.34944,34.53806],[134.34746,34.53766],[134.34661,34.53963],[134.34454,34.54078],[134.34371,34.54253],[134.3444,34.54267]],[[134.04702,34.33733],[134.04901,34.35176],[134.05468,34.35143]],[[134.04942,34.35185],[134.04714,34.33723]],[[134.66262,34.78634],[134.66453,34.7919]],[[134.66659,34.79682],[134.66475,34.79218],[134.66353,34.79135]],[[134.34134,34.48576],[134.34006,34.48509],[134.34188,34.48365],[134.341,34.48288],[134.34154,34.4818],[134.34069,34.48051],[134.3411,34.47989],[134.33953,34.47884],[134.3379,34.47933],[134.33803,34.48091],[134.33729,34.47956],[134.33751,34.48051],[134.33648,34.48049],[134.33627,34.48138],[134.33364,34.48151],[134.33266,34.48043],[134.32946,34.48167],[134.32615,34.48131]],[[134.04919,34.35197],[134.05404,34.3513]],[[134.04918,34.35191],[134.04916,34.3517]]]}}]}