{"type":"FeatureCollection","features":[{"type":"Feature","properties":{"route_id":"135","route_number":135,"name":"国道135号","source":"OpenStreetMap contributors (ODbL)","osm_relations":[3639261,9073596,9073597,9073598]},"geometry":{"type":"MultiLineString","coordinates":[[[139.14235,35.2273],[139.14277,35.23255],[139.14248,35.22773],[139.14154,35.22511],[139.14239,35.2187],[139.14123,35.21553],[139.14168,35.21013],[139.14063,35.20499],[139.14142,35.20875]],[[139.07341,35.09203],[139.07418,35.09557],[139.07504,35.097],[139.07599,35.09665],[139.07453,35.09192],[139.07362,35.09116],[139.07341,35.09203]],[[139.07362,35.09116],[139.07862,35.08727],[139.07815,35.08413],[139.07479,35.08231],[139.07764,35.08351]],[[139.09281,34.97966],[139.09359,34.98328],[139.09201,34.98981],[139.08704,34.9939],[139.08456,34.99745],[139.08437,34.99899],[139.08273,35.00059],[139.08377,35.00533],[139.08525,35.00729],[139.08371,35.00537],[139.08265,35.00057],[139.08714,34.99412],[139.08986,34.9926],[139.09245,34.98961],[139.09424,34.98366],[139.09315,34.97888],[139.09491,34.9763],[139.09902,34.97265],[139.10568,34.96946],[139.11107,34.97272],[139.11592,34.97277],[139.11104,34.97278],[139.10694,34.96988],[139.10535,34.96962],[139.09782,34.97363],[139.09501,34.97636],[139.09337,34.97953],[139.09274,34.97944],[139.09296,34.97815],[139.0979,34.97197],[139.09874,34.9682],[139.09676,34.96672],[139.09882,34.96659],[139.10128,34.96468],[139.10437,34.96033],[139.10142,34.95683],[139.10827,34.95666],[139.11714,34.95336],[139.11864,34.95137],[139.11705,34.94],[139.1221,34.93287],[139.12746,34.93118],[139.12834,34.92821],[139.12638,34.92616],[139.12605,34.92265],[139.12403,34.92206],[139.11978,34.92317],[139.1189,34.92276],[139.12066,34.91665],[139.11974,34.91276],[139.1206,34.9093],[139.11989,34.90395],[139.12172,34.8992],[139.11666,34.89081],[139.1116,34.88736],[139.10878,34.88242],[139.10556,34.87938],[139.10391,34.87651],[139.09569,34.87237],[139.09607,34.87033],[139.09442,34.85913],[139.09232,34.85848],[139.08666,34.85983],[139.08493,34.85467],[139.08263,34.8539],[139.08146,34.84809],[139.07658,34.84218],[139.07776,34.83821],[139.07353,34.82921],[139.0752,34.82723],[139.0758,34.82295],[139.07287,34.82135],[139.07035,34.81859],[139.06848,34.81818],[139.06722,34.81656],[139.06816,34.81405],[139.06977,34.81263],[139.06761,34.80996],[139.06261,34.80598],[139.05944,34.80614],[139.05848,34.80435],[139.06144,34.79854],[139.06183,34.79556],[139.06002,34.79012],[139.05525,34.78488],[139.05101,34.78303],[139.05075,34.78163],[139.04955,34.78071],[139.04695,34.78013],[139.04334,34.77769],[139.04055,34.77759],[139.03937,34.77567],[139.03506,34.77562],[139.0352,34.77406],[139.03857,34.77109],[139.03612,34.76871],[139.02541,34.76911],[139.02607,34.76721],[139.02563,34.76519],[139.02468,34.76466],[139.0229,34.76538],[139.02254,34.7635],[139.02018,34.76139],[139.01944,34.75869],[139.01984,34.75487],[139.01736,34.75506],[139.01541,34.75626],[139.01449,34.75793],[139.01264,34.75595],[139.0086,34.75513],[139.00736,34.75357],[139.0047,34.75327],[139.00275,34.75167],[139.00165,34.74779],[138.99662,34.74292],[138.99859,34.74089],[138.99981,34.73609],[138.99216,34.73006],[138.99124,34.72789],[138.99002,34.72737],[138.99098,34.72491],[138.99062,34.72315],[138.9854,34.72623],[138.98159,34.72529],[138.98155,34.72389],[138.98288,34.72257],[138.98628,34.7207],[138.98946,34.72047],[138.99124,34.71745],[138.98302,34.7134],[138.98182,34.71209],[138.97835,34.71174],[138.97893,34.70804],[138.97808,34.70538],[138.97624,34.70334],[138.97495,34.70015],[138.97165,34.69701],[138.97251,34.69216],[138.97223,34.68756],[138.97512,34.68522],[138.97643,34.68169],[138.97766,34.6805],[138.97625,34.67971],[138.97595,34.67788],[138.97162,34.67627],[138.96103,34.67824],[138.95076,34.67516],[138.94785,34.67588],[138.9468,34.67711]],[[139.08635,35.04455],[139.08113,35.04631],[139.08635,35.04455],[139.09675,35.04775],[139.09858,35.0461],[139.09954,35.04323],[139.09795,35.03932],[139.09837,35.03642],[139.09625,35.03387],[139.09766,35.03166],[139.09575,35.03101],[139.09734,35.02875],[139.09693,35.02755],[139.09568,35.027],[139.09842,35.02609],[139.09547,35.0217],[139.09566,35.01647],[139.09415,35.0147],[139.09067,35.01299],[139.09025,35.01164],[139.08828,35.0123],[139.08788,35.01146],[139.08866,35.0109],[139.08747,35.01058],[139.08693,35.00925],[139.08415,35.00968],[139.08525,35.00729]],[[139.14295,35.17205],[139.14295,35.16822],[139.14166,35.16543],[139.14388,35.15951],[139.14343,35.15778],[139.13124,35.15109],[139.12663,35.14969],[139.1231,35.15066],[139.121,35.15012],[139.11389,35.14516],[139.11072,35.14205],[139.1093,35.13928],[139.109,35.13422],[139.10647,35.13212],[139.1053,35.12972],[139.10084,35.12619],[139.10029,35.12423],[139.09819,35.12157],[139.09617,35.12054],[139.09603,35.11788],[139.09223,35.11661],[139.08989,35.11754],[139.08894,35.11493],[139.08766,35.11369],[139.08648,35.11381],[139.08436,35.1111],[139.08473,35.1099],[139.08593,35.10937],[139.08598,35.10824],[139.08398,35.10675],[139.08131,35.10096],[139.07771,35.09999],[139.07508,35.09702]],[[139.14408,35.16885],[139.14255,35.17027],[139.14293,35.17244],[139.1445,35.16759],[139.14045,35.16396],[139.13924,35.16773],[139.13817,35.16781],[139.13632,35.16091],[139.1329,35.1566],[139.12837,35.15482],[139.12948,35.15234],[139.12869,35.15129],[139.12528,35.15014],[139.12298,35.15077],[139.12072,35.15015],[139.11526,35.1463]],[[139.14063,35.20499],[139.13775,35.1995],[139.138,35.19653],[139.13696,35.1922],[139.13963,35.18972],[139.13974,35.1886],[139.13638,35.18487],[139.13557,35.18256],[139.13863,35.17587],[139.14293,35.17244]],[[139.11592,34.97277],[139.11874,34.97284],[139.1225,34.97106],[139.12393,34.96856],[139.12315,34.96628],[139.12443,34.96386],[139.12172,34.95915],[139.11667,34.95572],[139.11714,34.95336]],[[139.07583,35.07387],[139.07474,35.07524],[139.07798,35.0689],[139.0759,35.06741],[139.07294,35.06023],[139.06876,35.05692],[139.06861,35.05439],[139.07221,35.0486],[139.07456,35.04634],[139.08113,35.04631]],[[139.14277,35.23255],[139.14661,35.23761],[139.14594,35.24035],[139.14952,35.24655]],[[138.95838,34.67702],[138.95568,34.6767],[138.95283,34.67527],[138.94894,34.67548]],[[139.07474,35.07524],[139.07284,35.08025],[139.07479,35.08231]],[[139.14303,35.17157],[139.14296,35.17042]],[[139.08702,34.99446],[139.09013,34.99247],[139.09273,34.98921],[139.09435,34.98342],[139.09337,34.97953]]]}}]}