{"type":"FeatureCollection","features":[{"type":"Feature","properties":{"route_id":"159","route_number":159,"name":"国道159号","source":"OpenStreetMap contributors (ODbL)","osm_relations":[8634030,9142993,9142994]},"geometry":{"type":"MultiLineString","coordinates":[[[136.69858,36.72561],[136.69806,36.71619],[136.70805,36.70995],[136.71532,36.70109],[136.72318,36.6848],[136.72268,36.6804],[136.72402,36.67304],[136.72417,36.66591],[136.72327,36.6582],[136.7153,36.64944],[136.7076,36.63563],[136.70114,36.62971],[136.70122,36.62847],[136.70542,36.62202],[136.70542,36.61679],[136.70544,36.62243],[136.70145,36.62831],[136.70137,36.62949],[136.70795,36.63593],[136.71535,36.64933],[136.72338,36.65816],[136.72418,36.67223],[136.7229,36.67925],[136.72335,36.68465],[136.71542,36.70113],[136.70792,36.71036],[136.69816,36.71637],[136.69916,36.73116],[136.70826,36.74367],[136.71109,36.75042],[136.71736,36.76174],[136.73462,36.7788],[136.7402,36.78621],[136.74267,36.79286],[136.75178,36.79574],[136.76162,36.80787],[136.77121,36.83055],[136.77244,36.84242],[136.77766,36.85214],[136.782,36.85386],[136.78543,36.85628],[136.79961,36.87359],[136.8112,36.88237],[136.8166,36.88873],[136.82227,36.89771],[136.82625,36.90183],[136.83422,36.90706],[136.8357,36.91057],[136.84044,36.91346],[136.85192,36.92619],[136.84472,36.92244],[136.83759,36.91335],[136.82705,36.90549]],[[136.67931,36.56229],[136.67775,36.56541],[136.6782,36.56839],[136.6802,36.57073],[136.68595,36.57428],[136.68772,36.5798],[136.68785,36.5843],[136.6853,36.59006],[136.68598,36.59336],[136.68816,36.59568],[136.69845,36.60093],[136.7047,36.6084],[136.69908,36.60097],[136.69489,36.5982],[136.68882,36.59566],[136.68661,36.59357],[136.68578,36.58982],[136.68836,36.58329],[136.68695,36.57578],[136.68552,36.57348],[136.67889,36.56886],[136.67809,36.5657],[136.67959,36.56246],[136.67756,36.56078],[136.67233,36.56315],[136.66782,36.56376],[136.66339,36.56559],[136.66316,36.56672],[136.66443,36.56739],[136.66389,36.57098],[136.65585,36.57208]],[[136.96979,37.04196],[136.96865,37.03517],[136.96641,37.0296],[136.96392,37.02805],[136.95706,37.02731],[136.9651,37.02835],[136.96678,37.0299],[136.96752,37.03269]],[[136.70542,36.61679],[136.70586,36.61122],[136.7047,36.6084]],[[136.95706,37.02731],[136.95471,37.02567],[136.9513,37.01804],[136.94491,37.01108],[136.93921,37.00805],[136.93513,37.00155],[136.92718,36.99696],[136.92135,36.98412],[136.91956,36.98166],[136.90169,36.96682],[136.89707,36.96043],[136.8877,36.95531],[136.88165,36.95365],[136.8788,36.95203],[136.87357,36.94652],[136.85699,36.93197],[136.85467,36.92814],[136.85192,36.92619]]]}}]}