{"type":"FeatureCollection","features":[{"type":"Feature","properties":{"route_id":"318","route_number":318,"name":"国道318号","source":"OpenStreetMap contributors (ODbL)","osm_relations":[12886]},"geometry":{"type":"MultiLineString","coordinates":[[[134.55367,34.07144],[134.54859,34.07301],[134.54449,34.07684],[134.52891,34.07897],[134.51494,34.07668],[134.5068,34.07229],[134.50266,34.07184],[134.4947,34.07344],[134.5024,34.07194],[134.50674,34.07237],[134.5148,34.07671],[134.52889,34.07905],[134.54438,34.07697],[134.54887,34.07299],[134.55346,34.07153],[134.55815,34.07164],[134.55367,34.07144]],[[134.35641,34.24354],[134.35143,34.2379],[134.34795,34.23574],[134.34379,34.22946],[134.33971,34.22611],[134.33884,34.21985],[134.33402,34.21763],[134.33157,34.21334],[134.32976,34.20478],[134.33053,34.19925],[134.3343,34.19183],[134.33619,34.18966],[134.33685,34.18711],[134.33605,34.18553],[134.32912,34.18071],[134.33241,34.16468],[134.33583,34.16413],[134.34005,34.16574],[134.34508,34.16557],[134.34828,34.16369],[134.35305,34.1627],[134.35537,34.1603],[134.35318,34.15738],[134.35396,34.15416],[134.35259,34.15171],[134.35289,34.1481],[134.35494,34.14653],[134.35117,34.14009],[134.35022,34.13265],[134.35291,34.12829],[134.35632,34.12591],[134.35404,34.12311],[134.353,34.11662],[134.34945,34.11162],[134.34741,34.1062],[134.34549,34.10345],[134.34329,34.09285],[134.35106,34.07648],[134.35001,34.06841],[134.3579,34.06825],[134.36812,34.07059],[134.37776,34.07069],[134.39153,34.07365],[134.41686,34.06746],[134.42396,34.06754],[134.43273,34.06535],[134.43821,34.06749],[134.45229,34.06952],[134.46835,34.07032],[134.4947,34.07344]]]}}]}