{"type":"FeatureCollection","features":[{"type":"Feature","properties":{"route_id":"293","route_number":293,"name":"国道293号","source":"OpenStreetMap contributors (ODbL)","osm_relations":[6646894,10482322,10482323,10482324,10482325,10482326,10482327,10482328,10482329,10482330,10482332,10482333]},"geometry":{"type":"MultiLineString","coordinates":[[[139.95839,36.68565],[139.96088,36.67607],[139.95852,36.68563],[139.95291,36.6889],[139.94434,36.69135],[139.94262,36.69116],[139.93476,36.68627],[139.93214,36.6854],[139.91074,36.68517],[139.8998,36.67702],[139.89332,36.67548],[139.88919,36.67361],[139.8847,36.66919],[139.88092,36.66767],[139.86851,36.66514],[139.8656,36.66251],[139.86572,36.65753],[139.86487,36.65609],[139.85752,36.65395],[139.8542,36.65184],[139.84596,36.65118],[139.83598,36.64756],[139.83476,36.64586],[139.83504,36.64143],[139.83277,36.63656],[139.83052,36.63458],[139.82503,36.63331],[139.81951,36.62607],[139.82037,36.62058],[139.81852,36.60702],[139.81494,36.6007],[139.80942,36.59609],[139.80855,36.59441],[139.80009,36.59566],[139.79577,36.59059],[139.78955,36.58743],[139.78458,36.58646],[139.77959,36.58663],[139.77305,36.58471],[139.76487,36.57865],[139.76102,36.57356],[139.76198,36.57044],[139.75523,36.56778],[139.74721,36.56713],[139.74652,36.56147],[139.74675,36.55341],[139.74811,36.54594],[139.74705,36.53885],[139.74751,36.53127],[139.74995,36.52489],[139.75187,36.5165],[139.75123,36.50381],[139.74942,36.50081],[139.74859,36.49267],[139.75037,36.48818],[139.74959,36.48397],[139.7509,36.47936],[139.75178,36.47823],[139.75383,36.4776],[139.75216,36.47561],[139.74763,36.4746],[139.7524,36.47563],[139.75405,36.47796],[139.75202,36.49584],[139.75396,36.47758]],[[139.98014,36.68778],[139.98145,36.68864],[139.97555,36.68329],[139.961,36.67611]],[[140.60745,36.48686],[140.5998,36.4936],[140.59301,36.50323],[140.57914,36.51035],[140.57722,36.51307],[140.57341,36.51616],[140.5723,36.51892],[140.57154,36.52731],[140.56939,36.53026],[140.56704,36.53155],[140.54929,36.53621],[140.54756,36.53778],[140.5433,36.54479]],[[140.57341,36.51616],[140.56584,36.51746],[140.56063,36.5199],[140.55918,36.52381],[140.5534,36.52667],[140.54292,36.5258],[140.54136,36.52852],[140.53351,36.5309],[140.52857,36.53121],[140.52313,36.53762],[140.52251,36.54213],[140.52078,36.54219],[140.51757,36.54669],[140.51283,36.54621],[140.50877,36.54449],[140.50571,36.5457],[140.50264,36.54467],[140.4976,36.54549],[140.48927,36.54479],[140.48655,36.54573],[140.48499,36.54464],[140.48536,36.54735],[140.48637,36.54853],[140.49053,36.54934],[140.49676,36.55372],[140.50475,36.55381],[140.50903,36.55909],[140.51085,36.56009]],[[140.48499,36.54464],[140.48243,36.54183],[140.47287,36.54139],[140.45849,36.53458],[140.44609,36.53776],[140.44392,36.54179],[140.43775,36.54691],[140.43137,36.54867],[140.42876,36.5517],[140.41423,36.54967],[140.41232,36.55356],[140.4115,36.55357],[140.4081,36.55708],[140.39717,36.56384],[140.3901,36.56628],[140.38629,36.56849],[140.37389,36.56933],[140.37097,36.57025],[140.36381,36.57736],[140.36255,36.58069],[140.35986,36.58428],[140.35972,36.5864],[140.35477,36.591],[140.35402,36.5966],[140.35151,36.5969],[140.34939,36.59919],[140.34752,36.59991],[140.33796,36.60127],[140.33496,36.60358],[140.32489,36.60275],[140.32121,36.60647],[140.31831,36.60781],[140.31774,36.61006],[140.31567,36.61276],[140.31568,36.61765],[140.31442,36.62033],[140.3099,36.6213],[140.30069,36.62121],[140.29861,36.62199],[140.2945,36.62836],[140.29319,36.63503],[140.28866,36.64396],[140.28641,36.65709],[140.2792,36.65507],[140.27572,36.65526],[140.26865,36.65391],[140.26136,36.65556],[140.25798,36.65736],[140.24786,36.66058],[140.24254,36.66448],[140.241,36.66776],[140.23717,36.67205],[140.23038,36.68304],[140.21828,36.69304],[140.21662,36.69978],[140.20864,36.70699],[140.20448,36.71439],[140.19937,36.71686],[140.1951,36.72088],[140.18242,36.73005],[140.17649,36.73269],[140.16776,36.73447],[140.16076,36.73294],[140.15764,36.73365],[140.15528,36.7363],[140.15222,36.74624],[140.14845,36.74936],[140.14275,36.74943],[140.13189,36.75146],[140.11806,36.75871],[140.11164,36.75768],[140.09879,36.74872],[140.0946,36.74706],[140.09406,36.74149],[140.0911,36.73648],[140.07884,36.73106],[140.07619,36.72839],[140.0726,36.72634],[140.0663,36.71835],[140.05872,36.71735],[140.05331,36.71798],[140.05,36.71626],[140.04834,36.71788],[140.04567,36.71864],[140.04121,36.71728],[140.03344,36.7171],[140.03125,36.71586],[140.02697,36.71144],[140.02171,36.70789],[140.01745,36.70613],[140.01633,36.70424],[140.01584,36.70073],[140.01204,36.698],[140.00445,36.70088],[139.98145,36.68864]],[[139.74084,36.46327],[139.74192,36.46454],[139.74232,36.47196],[139.7445,36.47394],[139.74219,36.47202],[139.74187,36.46499],[139.74084,36.46327],[139.72785,36.45566],[139.72106,36.45501],[139.71561,36.45599],[139.6975,36.45475],[139.68945,36.44802],[139.67753,36.43135],[139.66727,36.42419],[139.66252,36.42339],[139.65503,36.42561],[139.64746,36.42325],[139.64323,36.4234],[139.63853,36.42601],[139.63483,36.42658],[139.63206,36.42365],[139.6281,36.42175],[139.6284,36.4191],[139.62538,36.41157],[139.62423,36.41037],[139.61698,36.40729],[139.61094,36.4115],[139.6048,36.40963],[139.60392,36.40808],[139.60548,36.40408],[139.60557,36.39559],[139.60337,36.38893],[139.60057,36.38799],[139.59,36.37442],[139.58833,36.37329],[139.57792,36.36987],[139.57434,36.36769],[139.56502,36.36748],[139.55707,36.36367],[139.54071,36.36302],[139.52471,36.35523],[139.51612,36.35316],[139.50926,36.34861],[139.50196,36.34927],[139.49727,36.3543],[139.48866,36.35744],[139.48235,36.35412],[139.4756,36.34706],[139.48221,36.35413],[139.48831,36.35731]],[[139.4756,36.34706],[139.47322,36.34421],[139.46995,36.34414],[139.46843,36.34277],[139.46596,36.34246],[139.46284,36.34073],[139.4567,36.34229],[139.45254,36.33131],[139.45448,36.3301],[139.45102,36.32599],[139.44697,36.31837],[139.44567,36.30924]],[[139.7445,36.47394],[139.74844,36.4747]],[[139.94391,36.69139],[139.93476,36.68627]],[[139.64047,36.42475],[139.63502,36.42629],[139.63275,36.42461]],[[139.74186,36.46443],[139.74187,36.46499]],[[139.74199,36.46578],[139.74198,36.46454]],[[140.52015,36.54359],[140.52064,36.54433],[140.5194,36.54457],[140.51798,36.54642]],[[140.53378,36.55623],[140.52464,36.55756]],[[139.7474,36.47452],[139.74763,36.4746]]]}}]}