{"type":"FeatureCollection","features":[{"type":"Feature","properties":{"route_id":"259","route_number":259,"name":"国道259号","source":"OpenStreetMap contributors (ODbL)","osm_relations":[8421608,10143632,10143729,10279677]},"geometry":{"type":"MultiLineString","coordinates":[[[137.36181,34.71389],[137.3512,34.70615],[137.33525,34.69777],[137.32848,34.69174],[137.33534,34.69771],[137.35129,34.70608],[137.36549,34.7166],[137.36625,34.71638],[137.36064,34.70869],[137.35001,34.70425],[137.34585,34.7016],[137.33617,34.69316],[137.32848,34.69174],[137.32008,34.68612],[137.31759,34.68267],[137.31337,34.68041],[137.30803,34.67587],[137.29889,34.67242],[137.28957,34.67123],[137.28473,34.66593],[137.28093,34.66382],[137.25236,34.65707],[137.24322,34.65355],[137.22194,34.64991],[137.2144,34.65348],[137.20832,34.65415],[137.19999,34.65725],[137.19401,34.66525],[137.1881,34.66719],[137.18578,34.66699],[137.17758,34.65942],[137.17404,34.65852],[137.17063,34.65623],[137.16365,34.6549],[137.15495,34.6514],[137.14929,34.64691],[137.11792,34.63075],[137.10789,34.62706],[137.10119,34.62564],[137.08979,34.62028],[137.08413,34.61929],[137.07454,34.61371],[137.07088,34.60878],[137.05027,34.59896],[137.04798,34.59451],[137.04271,34.58954],[137.03631,34.59003],[137.0293,34.58874],[137.02279,34.58237],[137.01956,34.58335],[137.0208,34.58679],[137.02075,34.58961],[137.01953,34.59001],[137.01633,34.58913],[136.90613,34.51695],[136.89428,34.51059],[136.88115,34.50472],[136.85349,34.49358],[136.84914,34.48935],[136.84794,34.48043],[136.84579,34.48019],[136.84575,34.47892]],[[137.39051,34.76786],[137.38986,34.75213],[137.38861,34.74759],[137.38567,34.74403],[137.38848,34.74759],[137.38978,34.75217],[137.39033,34.76775]],[[137.36549,34.7166],[137.38203,34.728],[137.38488,34.73335],[137.38567,34.74403]],[[136.84588,34.48018],[136.84586,34.47893]],[[137.02279,34.58237],[137.01966,34.58309],[137.01981,34.58412]]]}}]}