{"type":"FeatureCollection","features":[{"type":"Feature","properties":{"route_id":"460","route_number":460,"name":"国道460号","source":"OpenStreetMap contributors (ODbL)","osm_relations":[8725735]},"geometry":{"type":"MultiLineString","coordinates":[[[138.55159,37.36038],[138.55086,37.365],[138.54903,37.36826],[138.5533,37.36943],[138.55317,37.37102],[138.55104,37.37332],[138.55978,37.3814],[138.56891,37.38406],[138.58052,37.40776],[138.58214,37.40735],[138.58614,37.40826],[138.58875,37.40961],[138.58971,37.41166],[138.59528,37.41502],[138.59568,37.41725],[138.60373,37.41902],[138.60805,37.42543],[138.61128,37.43213],[138.61222,37.44008],[138.6111,37.44185],[138.60588,37.44423],[138.60528,37.44834],[138.60979,37.45564],[138.61155,37.46098],[138.61797,37.47296],[138.6193,37.48205],[138.62111,37.48345],[138.62751,37.48536],[138.63266,37.48793],[138.63471,37.49484],[138.64168,37.49868],[138.64435,37.5029],[138.64869,37.50578],[138.65053,37.51061],[138.65644,37.51624],[138.65618,37.52052],[138.66177,37.52459],[138.67051,37.53398],[138.67722,37.53803],[138.68227,37.53975],[138.68723,37.54395],[138.69459,37.54655],[138.69951,37.55094],[138.70717,37.554],[138.71332,37.55833],[138.71764,37.56327],[138.7251,37.57439],[138.73301,37.5886],[138.73356,37.59164],[138.74076,37.59862],[138.7446,37.60055],[138.74884,37.60547],[138.75074,37.61175],[138.75276,37.61369],[138.75682,37.62271],[138.75729,37.62531],[138.76202,37.63],[138.76216,37.63348],[138.76104,37.63427],[138.76238,37.63734],[138.7745,37.65175],[138.77663,37.65645],[138.7817,37.66344],[138.78274,37.66602],[138.78083,37.6674],[138.78019,37.6702],[138.78282,37.67327],[138.78555,37.68153],[138.7867,37.6883],[138.78597,37.69233],[138.78722,37.70112],[138.78567,37.70688],[138.78745,37.70852],[138.78806,37.71025],[138.78714,37.71304],[138.78465,37.71521],[138.78559,37.71839],[138.79138,37.72313],[138.79382,37.72631],[138.79377,37.72938],[138.79707,37.74004],[138.79642,37.74255],[138.79956,37.74483],[138.79917,37.74636],[138.80019,37.75118],[138.80385,37.75237],[138.80686,37.75188],[138.81064,37.75288],[138.8142,37.75865],[138.81346,37.76054],[138.81762,37.76608],[138.81553,37.76844],[138.81899,37.76728],[138.82606,37.76293],[138.82813,37.76023],[138.84766,37.75355],[138.8488,37.75156],[138.85174,37.75108],[138.85723,37.74696],[138.8597,37.74706],[138.86478,37.74955],[138.8763,37.74955],[138.88713,37.74651],[138.90004,37.74757]],[[138.88416,37.7559],[138.89355,37.75519],[138.89613,37.75344],[138.90283,37.75352],[138.90814,37.7502],[138.91199,37.74878],[138.91534,37.75146],[138.92523,37.7516],[138.93415,37.75069],[138.93693,37.74826],[138.94207,37.75076],[138.94773,37.75119],[138.96053,37.7576],[138.96755,37.75903],[138.97745,37.7587],[138.98027,37.75694],[139.00708,37.75383],[139.01302,37.75657],[139.01912,37.75645],[139.02028,37.75722],[139.02197,37.76222],[139.0253,37.76806],[139.03153,37.77042],[139.03918,37.77657],[139.07608,37.78836],[139.07884,37.79043],[139.08511,37.79271],[139.08678,37.79553],[139.08839,37.79618],[139.09235,37.79507],[139.10929,37.79433],[139.10469,37.79939],[139.10259,37.80314],[139.10824,37.80655],[139.1299,37.8058],[139.14818,37.80688],[139.16553,37.81451],[139.16609,37.81658],[139.1715,37.81871],[139.17972,37.81819],[139.19131,37.82612],[139.22082,37.83975],[139.22098,37.84142],[139.22689,37.84094],[139.22746,37.84352],[139.22897,37.84474],[139.23485,37.84525],[139.25859,37.87752],[139.26269,37.88091],[139.26411,37.88432],[139.27296,37.89739],[139.30513,37.91529],[139.32063,37.93083],[139.32221,37.93463],[139.31738,37.93945],[139.29624,37.94511],[139.29553,37.94668],[139.29604,37.95455],[139.29534,37.95566]],[[139.29542,37.95576],[139.29614,37.95431],[139.29567,37.94639],[139.29641,37.9451],[139.31702,37.93975],[139.32226,37.93472]],[[138.85223,37.75069],[138.86327,37.75608],[138.86649,37.75981],[138.87341,37.75859],[138.87691,37.75974],[138.88225,37.7576],[138.88398,37.75587]],[[138.85151,37.75117],[138.85283,37.75104]],[[139.1299,37.8058],[139.10974,37.80678],[139.10259,37.80314]]]}}]}