{"type":"FeatureCollection","features":[{"type":"Feature","properties":{"route_id":"202","route_number":202,"name":"国道202号","source":"OpenStreetMap contributors (ODbL)","osm_relations":[9361959,9361961,9361964,9503625,9503626,9503627,9503628,9503629,9503630,9503631]},"geometry":{"type":"MultiLineString","coordinates":[[[130.41861,33.59767],[130.41173,33.59264],[130.40019,33.58739],[130.38365,33.58291],[130.38001,33.579],[130.36802,33.57338],[130.34921,33.56776],[130.34279,33.56692],[130.33269,33.56829],[130.29837,33.5692],[130.29444,33.56872],[130.29052,33.56981],[130.28494,33.573],[130.27111,33.57227],[130.26335,33.57478],[130.26069,33.57468],[130.25148,33.57124],[130.24557,33.56686],[130.23534,33.56289],[130.22298,33.55294],[130.21236,33.54804],[130.20094,33.54141],[130.19895,33.53859],[130.19668,33.53773],[130.19076,33.53262],[130.17774,33.52813],[130.17264,33.5244],[130.15115,33.51573],[130.17258,33.52449],[130.17772,33.52822],[130.19098,33.53319],[130.19552,33.53714],[130.19665,33.54026],[130.19779,33.54122],[130.2014,33.54227],[130.21014,33.54731],[130.2212,33.55214],[130.23473,33.56285],[130.24538,33.5671],[130.25199,33.57211],[130.26225,33.57508],[130.27267,33.57242],[130.27114,33.5808],[130.26997,33.58195],[130.26071,33.58164],[130.25468,33.57955],[130.25004,33.57478],[130.23351,33.56969],[130.22909,33.56619],[130.20507,33.56017],[130.19573,33.55927],[130.19146,33.55587],[130.18923,33.55285],[130.18004,33.54706],[130.15997,33.54633],[130.15901,33.54445],[130.15605,33.54344],[130.155,33.54244],[130.15539,33.53526],[130.15128,33.5309],[130.13965,33.52268],[130.13951,33.51699],[130.13649,33.51316],[130.13105,33.51265],[130.12721,33.50998],[130.1255,33.51],[130.11951,33.50765],[130.11403,33.50764],[130.11129,33.50941],[130.10151,33.50906],[130.09169,33.50473],[130.07778,33.50121],[130.07263,33.50212],[130.06951,33.50177],[130.06214,33.4974],[130.04844,33.49403],[130.04833,33.49149],[130.05027,33.49009],[130.04983,33.4879],[130.04585,33.48451],[130.04267,33.47864],[130.04258,33.4758],[130.04152,33.47442],[130.04078,33.47059],[130.03621,33.46602],[130.03688,33.46182],[130.04143,33.45744],[130.04186,33.45286],[130.04461,33.45176],[130.0449,33.44972],[130.04318,33.45547],[130.03882,33.46194],[130.0379,33.4648],[130.04873,33.47992],[130.05164,33.48254],[130.05747,33.48479],[130.06357,33.48882],[130.07667,33.49429],[130.08344,33.49992],[130.09655,33.50356],[130.11171,33.50445],[130.13528,33.51202],[130.14397,33.51281],[130.15115,33.51573]],[[130.4187,33.59762],[130.41444,33.59425]],[[130.37452,33.57635],[130.36754,33.57323],[130.34929,33.56783],[130.34239,33.56699],[130.33269,33.56834],[130.31757,33.56843],[130.31994,33.55763],[130.32115,33.55564],[130.32357,33.55413],[130.35621,33.54545],[130.37228,33.54645],[130.38009,33.54368],[130.39073,33.54308],[130.40706,33.5389],[130.42194,33.54183],[130.43619,33.54192],[130.43904,33.5426],[130.45342,33.55505],[130.46274,33.56529]],[[130.04493,33.44906],[130.04201,33.4426],[130.03251,33.43799],[130.00632,33.43513],[129.99909,33.43312],[130.0063,33.43521],[130.03302,33.43829],[130.04244,33.44318],[130.04478,33.44813],[130.04455,33.45182]],[[129.98273,33.42861],[129.99135,33.43107],[129.98279,33.42848],[129.98646,33.42592],[129.98731,33.42441],[129.98622,33.41796],[129.98115,33.41115],[129.97153,33.40305],[129.97516,33.40685],[129.98091,33.41109],[129.98608,33.4179],[129.9872,33.4244],[129.9864,33.42585],[129.98365,33.42716],[129.98273,33.42861]],[[129.99135,33.43107],[129.99909,33.43312]],[[130.46287,33.56527],[130.45379,33.55521],[130.43915,33.54248],[130.43639,33.54181],[130.42199,33.54173],[130.40717,33.53877],[130.39093,33.54289],[130.38049,33.54345],[130.37227,33.54633],[130.35999,33.54492],[130.35541,33.5455],[130.3235,33.55398],[130.32047,33.55622],[130.31917,33.56027]],[[129.97153,33.40305],[129.96605,33.40197],[129.95693,33.39817],[129.94999,33.38937],[129.94801,33.38568],[129.94927,33.38364],[129.95296,33.38134],[129.9533,33.37895],[129.95144,33.37615],[129.94905,33.3755],[129.9396,33.36428],[129.93593,33.36315],[129.9347,33.36201],[129.93416,33.35994],[129.93497,33.35581],[129.93293,33.35061],[129.93428,33.34299],[129.93133,33.33815],[129.93097,33.33475],[129.93157,33.333],[129.93008,33.33006],[129.92887,33.32438],[129.92847,33.31225],[129.92608,33.30663],[129.91859,33.30065],[129.91696,33.29776],[129.914,33.29488],[129.90991,33.29276],[129.90781,33.29036],[129.90515,33.28995],[129.89877,33.28406],[129.89538,33.27977],[129.89457,33.27683],[129.89131,33.27349],[129.88282,33.26843],[129.86866,33.26933],[129.86307,33.26378],[129.85917,33.26332],[129.85874,33.26134],[129.85415,33.25441],[129.85032,33.2424],[129.85084,33.24032],[129.84963,33.23757],[129.85064,33.234],[129.84943,33.2325],[129.84712,33.22501],[129.85066,33.22022],[129.84969,33.21149],[129.85077,33.19439],[129.85244,33.18786],[129.85452,33.18494],[129.85157,33.17685],[129.84601,33.1741],[129.83972,33.16558],[129.83374,33.16424],[129.83294,33.16149],[129.83077,33.1585],[129.83059,33.15465],[129.8278,33.14686],[129.82664,33.14565],[129.82363,33.1445],[129.81904,33.14503],[129.81434,33.14415],[129.80554,33.14496],[129.79668,33.14107],[129.78871,33.14227],[129.78545,33.1448],[129.78833,33.13899],[129.79215,33.13945],[129.79464,33.13838],[129.79371,33.13711],[129.79496,33.13578],[129.79528,33.13353],[129.79247,33.13128],[129.79221,33.12667],[129.79448,33.11938],[129.79391,33.11692],[129.78779,33.11319],[129.78404,33.10817],[129.77643,33.10336],[129.77134,33.10444],[129.76551,33.10245],[129.76185,33.09941],[129.75991,33.09666],[129.75981,33.0933],[129.75672,33.0918],[129.75658,33.08995],[129.75463,33.08762],[129.75589,33.08244],[129.75563,33.07802],[129.75957,33.07563],[129.76091,33.07178],[129.76377,33.06844],[129.76428,33.06285],[129.76145,33.05591],[129.75921,33.05459],[129.75579,33.05077],[129.75559,33.0473],[129.75304,33.04628],[129.74628,33.04661],[129.74419,33.04418],[129.74192,33.04324],[129.73595,33.04541],[129.73357,33.04431],[129.73236,33.04526],[129.73113,33.04436],[129.729,33.04538],[129.72801,33.04507],[129.72611,33.04684],[129.7288,33.0489],[129.72935,33.05052],[129.72377,33.05194],[129.72008,33.05478],[129.71017,33.0553],[129.69923,33.05882],[129.69935,33.0605],[129.7044,33.06454],[129.70491,33.06848],[129.70632,33.07019],[129.706,33.07306],[129.70159,33.07627],[129.70249,33.07996],[129.70183,33.08161],[129.69211,33.08114],[129.68287,33.08218],[129.68032,33.08157],[129.67818,33.08279],[129.67727,33.08251],[129.67701,33.08133],[129.67896,33.07885],[129.67802,33.0767],[129.67575,33.07588],[129.6786,33.07241],[129.67849,33.06898],[129.67321,33.06625],[129.67096,33.06372],[129.66658,33.06392],[129.66173,33.06053],[129.66372,33.05488],[129.66277,33.0523],[129.6595,33.0501],[129.66126,33.04683],[129.66016,33.04476],[129.65925,33.03911],[129.66025,33.03632],[129.66284,33.03633],[129.66274,33.03444],[129.66018,33.03301],[129.65929,33.03079],[129.65655,33.03081],[129.6551,33.02976],[129.65323,33.02597],[129.65469,33.02414],[129.65371,33.02158],[129.65426,33.0159],[129.65531,33.01363],[129.65414,33.01209],[129.65587,33.01114],[129.657,33.0086],[129.65679,33.00555],[129.66046,33.00336],[129.66192,33.00036],[129.65946,32.99905],[129.65722,32.9961],[129.65149,32.99374],[129.65124,32.99026],[129.64798,32.99038],[129.64567,32.98759],[129.6461,32.97866],[129.64694,32.97629],[129.64585,32.97435],[129.64674,32.96971],[129.64628,32.96636],[129.64204,32.95096],[129.63783,32.94668],[129.63803,32.94548],[129.64028,32.94318],[129.63978,32.93629],[129.64104,32.93343],[129.64306,32.93238],[129.64809,32.93244],[129.65186,32.93135],[129.65656,32.92016],[129.66186,32.92006],[129.66321,32.92067],[129.66474,32.92012],[129.66517,32.91778],[129.66155,32.91425],[129.66072,32.90977],[129.66578,32.90622],[129.66749,32.89783],[129.66933,32.89571],[129.67038,32.89214],[129.67545,32.88492],[129.67731,32.8849],[129.67836,32.88387],[129.68009,32.88015],[129.67941,32.87489],[129.67844,32.87325],[129.67868,32.8692],[129.68072,32.86798],[129.68342,32.86424],[129.68678,32.85417],[129.68889,32.85393],[129.69079,32.84996],[129.69433,32.8474],[129.69453,32.8447],[129.69865,32.84369],[129.69948,32.84215],[129.70592,32.84217],[129.70616,32.84038],[129.7047,32.83837],[129.70507,32.8357],[129.70857,32.83716],[129.71048,32.83932],[129.71065,32.84149],[129.71258,32.84295],[129.71402,32.83959],[129.7155,32.83871],[129.71408,32.83707],[129.71423,32.83559],[129.71841,32.83393],[129.71933,32.83065],[129.72229,32.83076],[129.72516,32.82815],[129.72534,32.82518],[129.72402,32.82311],[129.72802,32.82131],[129.73164,32.82141],[129.73387,32.82358],[129.73459,32.82103],[129.73807,32.8192],[129.74048,32.81965],[129.74222,32.82149],[129.74462,32.82106],[129.74673,32.82273],[129.74937,32.82296],[129.74965,32.82449],[129.75237,32.82685],[129.75499,32.8265],[129.75634,32.82451],[129.75789,32.82399],[129.75991,32.82557],[129.76145,32.8251],[129.77081,32.82719],[129.77465,32.82555],[129.78187,32.82956],[129.78315,32.82923],[129.7842,32.8267],[129.78353,32.82507],[129.7851,32.82385],[129.78407,32.82054],[129.78043,32.81844],[129.78045,32.81626],[129.77713,32.81189],[129.77604,32.80839],[129.7777,32.80702],[129.77426,32.80663],[129.77362,32.80506],[129.77906,32.80208],[129.77964,32.7987],[129.77874,32.79523],[129.78221,32.79401],[129.78366,32.79511],[129.7831,32.79317],[129.78112,32.7915],[129.78249,32.78923],[129.78769,32.78739],[129.79111,32.78718],[129.79143,32.78385],[129.796,32.77965],[129.80049,32.7779],[129.80264,32.77606],[129.80238,32.77432],[129.80372,32.77188],[129.80166,32.7699],[129.80077,32.76813],[129.80109,32.76712],[129.81194,32.76095],[129.81813,32.76186],[129.81728,32.7578],[129.8142,32.75342],[129.8149,32.75107],[129.81347,32.74817],[129.81509,32.74658],[129.81516,32.74475],[129.81305,32.74275],[129.81556,32.74378],[129.81785,32.746],[129.82272,32.74577],[129.82424,32.74732],[129.82889,32.74594],[129.83135,32.746],[129.83258,32.74344],[129.83664,32.74115],[129.85149,32.73972],[129.85278,32.74052],[129.85326,32.7426],[129.85443,32.74333],[129.85782,32.74318],[129.85885,32.74522],[129.86095,32.74559],[129.86429,32.74888],[129.8649,32.75267],[129.8633,32.75592],[129.86824,32.75854],[129.87217,32.75219],[129.87225,32.74585],[129.87409,32.74523]],[[129.86965,32.75088],[129.86471,32.75146],[129.86463,32.75041],[129.86422,32.75107],[129.86965,32.75094]],[[129.74966,33.04547],[129.76119,33.06456],[129.76542,33.06966],[129.76777,33.07492],[129.77436,33.0798],[129.77611,33.08211],[129.78035,33.09535],[129.78019,33.09971],[129.77849,33.10483],[129.78016,33.10024],[129.78042,33.09533],[129.77615,33.08209],[129.77439,33.07977],[129.76797,33.07514],[129.7657,33.06999],[129.76093,33.06399],[129.74989,33.04563]],[[129.8741,32.74512],[129.87202,32.74577],[129.87206,32.75175],[129.86951,32.75707],[129.86808,32.75845]],[[129.87232,32.75097],[129.8719,32.75082]],[[129.87063,32.75092],[129.87114,32.75094]],[[130.2726,33.57221],[130.28464,33.57326],[130.29209,33.56973],[130.31757,33.56843]],[[130.04474,33.47458],[130.04307,33.47098],[130.04157,33.47002]],[[129.63976,32.94336],[129.63888,32.93749],[129.63978,32.93629]],[[129.98279,33.42848],[129.98264,33.42847]],[[130.31884,33.56183],[130.31737,33.56844]],[[129.89689,33.28171],[129.89467,33.2768],[129.89202,33.274],[129.88429,33.26887],[129.88146,33.26827],[129.86922,33.26946],[129.86331,33.26382],[129.85929,33.26327],[129.85912,33.26232]],[[129.78562,33.14478],[129.78605,33.14425]],[[129.78536,33.14509],[129.78574,33.14422]]]}}]}