{"type":"FeatureCollection","features":[{"type":"Feature","properties":{"route_id":"274","route_number":274,"name":"国道274号","source":"OpenStreetMap contributors (ODbL)","osm_relations":[6651380]},"geometry":{"type":"MultiLineString","coordinates":[[[142.3615,42.91145],[142.36392,42.91264],[142.36595,42.91147],[142.36545,42.91003],[142.3611,42.90791],[142.36185,42.90657],[142.36401,42.90715],[142.36281,42.90653],[142.36137,42.90668],[142.3609,42.90771],[142.3656,42.91028],[142.36586,42.91147],[142.36483,42.91241],[142.36273,42.91229],[142.35703,42.90849],[142.35161,42.90962],[142.32552,42.90451],[142.31296,42.90029],[142.30414,42.89279],[142.29922,42.89138],[142.29808,42.88913],[142.29186,42.88876],[142.28946,42.88596],[142.28427,42.88419],[142.28071,42.88525],[142.2794,42.88486],[142.27963,42.88376],[142.28406,42.88195],[142.2836,42.88064],[142.28047,42.88119],[142.28317,42.88061],[142.28416,42.88149],[142.27912,42.88444],[142.28034,42.88536],[142.28325,42.8842],[142.28584,42.88469]],[[142.25416,42.88678],[142.25644,42.88572],[142.26091,42.88695],[142.26414,42.8846],[142.27038,42.88358],[142.26413,42.88453],[142.26082,42.8869],[142.25555,42.88579],[142.24868,42.8917],[142.24466,42.8927],[142.24047,42.89044],[142.23706,42.88668],[142.23406,42.88521],[142.23152,42.88083],[142.22868,42.8785],[142.22462,42.87739],[142.21975,42.87867],[142.20798,42.88409],[142.2062,42.88571],[142.20305,42.88631],[142.19622,42.89044],[142.19075,42.89244],[142.18694,42.89231],[142.18476,42.89187],[142.17853,42.88771],[142.17662,42.88425],[142.17304,42.88342],[142.1704,42.88161],[142.16847,42.87861],[142.16888,42.87615],[142.16036,42.86867],[142.15492,42.86987],[142.14867,42.87271],[142.1439,42.87194],[142.13898,42.87316],[142.13341,42.87182],[142.13084,42.87294],[142.12817,42.87803],[142.12444,42.8798],[142.12362,42.88151],[142.12385,42.88409],[142.12228,42.88663],[142.12293,42.89123],[142.12536,42.89522],[142.12585,42.89859],[142.12774,42.90267],[142.12656,42.9076],[142.12171,42.91061],[142.12111,42.91615],[142.11628,42.92022],[142.11547,42.92721],[142.11388,42.92888],[142.11049,42.9305],[142.10875,42.93045],[142.10632,42.92888],[142.09719,42.92907],[142.09224,42.93204],[142.07751,42.93415],[142.06266,42.92836],[142.05022,42.93675],[142.04158,42.93883],[142.03557,42.93275],[142.03594,42.92848],[142.03418,42.92424],[142.03437,42.92034],[142.03357,42.91912],[142.02791,42.91669],[142.01366,42.90752],[142.00463,42.90393],[142.00154,42.90392],[141.98761,42.90768],[141.98303,42.90748],[141.97171,42.91248],[141.9657,42.91355],[141.95555,42.91682],[141.94897,42.91525],[141.94507,42.91044],[141.92845,42.9082],[141.92615,42.90925],[141.92062,42.91465],[141.91805,42.91849],[141.91607,42.91954],[141.91235,42.9192],[141.90684,42.9163],[141.89512,42.91538],[141.89479,42.91709],[141.89326,42.91884],[141.85815,42.94927],[141.85538,42.95095],[141.82542,42.94798],[141.81965,42.94842],[141.80908,42.95067],[141.78914,42.94926],[141.76861,42.94651],[141.75997,42.94268],[141.74817,42.94338],[141.73937,42.94537],[141.73295,42.94443],[141.58903,42.99696],[141.56496,42.99714],[141.55307,42.99899],[141.5424,42.9985],[141.53827,42.99911],[141.53488,43.00044],[141.5302,43.00432],[141.49007,43.01745]],[[142.36401,42.90715],[142.36955,42.90998],[142.37426,42.91112],[142.37616,42.91301],[142.37829,42.91331],[142.37923,42.91554],[142.38042,42.91626],[142.38602,42.91508],[142.39316,42.91477],[142.39637,42.91598],[142.40869,42.91549],[142.41158,42.91027],[142.41414,42.90884],[142.4173,42.90866],[142.41936,42.90469],[142.42184,42.90334],[142.42096,42.89992],[142.4189,42.89732],[142.42496,42.89755],[142.42968,42.89625],[142.43275,42.88376],[142.44242,42.87602],[142.472,42.89294],[142.48052,42.89555],[142.49636,42.89525],[142.49962,42.89581],[142.5082,42.89412],[142.54013,42.89155],[142.55384,42.89478],[142.56281,42.8993],[142.56813,42.90513],[142.58125,42.90653],[142.58406,42.90839],[142.58735,42.9134],[142.58633,42.91793],[142.59279,42.92182],[142.59276,42.92471],[142.59397,42.92764],[142.5936,42.93091],[142.60226,42.93816],[142.59793,42.94512],[142.59836,42.94711],[142.60343,42.94917],[142.60638,42.9533],[142.61113,42.95492],[142.61599,42.96029],[142.62323,42.96316],[142.6239,42.96541],[142.63094,42.96784],[142.63672,42.96636],[142.63989,42.9641],[142.64613,42.96311],[142.65174,42.96374],[142.65568,42.96257],[142.66267,42.96568],[142.67263,42.96586],[142.67733,42.97151],[142.68527,42.97476],[142.69252,42.97532],[142.69697,42.97716],[142.70532,42.97829],[142.72606,42.97814],[142.7397,42.98291],[142.74433,42.98269],[142.75279,42.98391],[142.75437,42.98295],[142.75437,42.98166],[142.74697,42.97908],[142.74588,42.97714],[142.74866,42.97332],[142.75235,42.97098],[142.75853,42.96808],[142.76364,42.96794],[142.76567,42.96649],[142.76603,42.96533],[142.76506,42.96341],[142.76209,42.96116],[142.76284,42.95852],[142.76853,42.95858],[142.77617,42.96115],[142.78081,42.96173],[142.78456,42.96327],[142.7886,42.96623],[142.7982,42.96995],[142.79836,42.96886],[142.78777,42.96065],[142.78864,42.95882],[142.79415,42.95659],[142.79475,42.95753],[142.79264,42.95918],[142.79281,42.96041],[142.79835,42.9633],[142.80505,42.9697],[142.80161,42.97419],[142.7962,42.97529],[142.79646,42.97692],[142.8103,42.97229],[142.81366,42.97226],[142.81639,42.97319],[142.83676,42.98261],[142.83994,42.98794],[142.86285,43.00125],[142.87546,43.00553],[142.87966,43.00777],[142.89335,43.01624],[142.89101,43.01846],[142.8952,43.02105],[142.90305,43.02106],[142.90374,43.02205],[142.90369,43.02577],[142.91385,43.03046],[142.92987,43.03305],[142.9379,43.03652],[142.95934,43.03811],[142.9608,43.03763],[142.96347,43.0347],[142.96507,43.03465],[142.96688,43.03584],[142.96753,43.03719],[142.96672,43.04029],[142.96718,43.04149],[142.97955,43.05165],[142.98036,43.05595],[142.9841,43.062],[142.98563,43.06716],[142.98598,43.0691],[142.98508,43.07191],[142.98645,43.07552],[142.99152,43.07994],[142.99472,43.08114],[142.99606,43.08317],[142.99503,43.08697],[142.98502,43.10247],[142.98292,43.10995],[143.0004,43.1627],[143.00306,43.1646],[143.00479,43.16934],[143.02468,43.16568],[143.03175,43.18433],[143.03551,43.18441],[143.21044,43.15169],[143.21889,43.14951],[143.22451,43.14665],[143.23296,43.14509],[143.24057,43.14507],[143.24248,43.15301],[143.24721,43.16034],[143.25059,43.16217],[143.26312,43.16506],[143.26622,43.16734],[143.27603,43.2084],[143.28316,43.2194],[143.30067,43.22932],[143.303,43.23709],[143.30432,43.23879],[143.3719,43.25976],[143.4052,43.27601],[143.40657,43.27785],[143.40663,43.28293],[143.41224,43.28475],[143.41623,43.28406],[143.42824,43.27336],[143.43523,43.26285],[143.43725,43.26117],[143.44949,43.25561],[143.45296,43.25515],[143.45608,43.2536],[143.46473,43.25299],[143.46999,43.25365],[143.47849,43.25214],[143.48461,43.24469],[143.48507,43.23769],[143.4978,43.23192],[143.49961,43.23164],[143.50447,43.23343],[143.50673,43.23345],[143.51443,43.23073],[143.52284,43.22624],[143.52902,43.22631],[143.53014,43.22771],[143.52642,43.23029],[143.52628,43.23305],[143.53045,43.23734],[143.53605,43.23877],[143.53818,43.2379],[143.54047,43.2328],[143.54604,43.23204],[143.54625,43.22962],[143.55235,43.21863],[143.57095,43.20405],[143.57645,43.19672],[143.58177,43.18651],[143.5885,43.18208],[143.60293,43.15699],[143.60384,43.1523],[143.6063,43.14718],[143.613,43.14236],[143.61461,43.13993],[143.61408,43.13169],[143.61075,43.12047],[143.60524,43.11726],[143.61017,43.11401],[143.61113,43.11257],[143.60739,43.1075],[143.60481,43.10563],[143.60492,43.1042],[143.60657,43.10354],[143.64898,43.11372],[143.65597,43.11794],[143.66963,43.12399],[143.67783,43.1267],[143.68486,43.1313],[143.68991,43.13659],[143.69565,43.13995],[143.69806,43.14233],[143.70347,43.1445],[143.7096,43.14572],[143.71313,43.14785],[143.71936,43.14757],[143.72519,43.14539],[143.72926,43.14699],[143.73171,43.14651],[143.73578,43.14788],[143.74462,43.14817],[143.75013,43.15036],[143.75982,43.14837],[143.76386,43.14844],[143.76445,43.1475],[143.76342,43.14581],[143.76384,43.14426],[143.76553,43.14262],[143.76791,43.14254],[143.77538,43.14678],[143.7802,43.15181],[143.78835,43.15516],[143.79082,43.15885],[143.79547,43.16246],[143.80115,43.16485],[143.80394,43.16397],[143.80555,43.16446],[143.80936,43.16831],[143.80964,43.17012],[143.81194,43.17175],[143.81872,43.17117],[143.82478,43.17169],[143.82758,43.17419],[143.83593,43.17738],[143.83777,43.17901],[143.84097,43.1793],[143.84743,43.18195],[143.84939,43.18181],[143.85373,43.17808],[143.86027,43.18011],[143.86499,43.17886],[143.87007,43.17924],[143.88928,43.16752],[143.89173,43.16166],[143.89407,43.16125],[143.89574,43.16199],[144.09308,43.17958],[144.09482,43.18062],[144.10232,43.18228],[144.10422,43.18181],[144.10565,43.17889],[144.10782,43.17842],[144.11065,43.18073],[144.10946,43.18373],[144.11073,43.18595],[144.11186,43.19157],[144.1097,43.19643],[144.11009,43.19816],[144.11182,43.19911],[144.1174,43.19891],[144.12633,43.20101],[144.12963,43.20113],[144.13383,43.19799],[144.15417,43.20035],[144.15793,43.19927],[144.16762,43.19873],[144.17438,43.19605],[144.17692,43.19595],[144.18225,43.19836],[144.18626,43.20287],[144.18644,43.2082],[144.18797,43.21043],[144.19003,43.21163],[144.19069,43.21393],[144.19248,43.21567],[144.19227,43.22105],[144.18802,43.23132],[144.1862,43.23323],[144.18582,43.23782],[144.18269,43.24069],[144.17998,43.24172],[144.17712,43.24788],[144.17774,43.24937],[144.18157,43.25161],[144.18343,43.25424],[144.18855,43.2543],[144.19881,43.25801],[144.20519,43.25705],[144.21074,43.25352],[144.22424,43.25482],[144.22627,43.25618],[144.22925,43.26205],[144.2315,43.26278],[144.23716,43.26275],[144.24312,43.27003],[144.24514,43.27114],[144.24821,43.27121],[144.25238,43.26923],[144.25643,43.27083],[144.26039,43.26749],[144.26483,43.26626],[144.2756,43.26864],[144.27849,43.27226],[144.28051,43.27693],[144.28026,43.2795],[144.2815,43.28042],[144.29839,43.27657],[144.30383,43.27601],[144.30641,43.27435],[144.30948,43.27499],[144.31286,43.27113],[144.31455,43.27045],[144.3161,43.27089],[144.31839,43.27329],[144.32279,43.27376],[144.32437,43.27576],[144.33942,43.27277],[144.33901,43.27852],[144.34055,43.28413],[144.34168,43.28493],[144.34552,43.28421],[144.35398,43.28485],[144.36157,43.28199],[144.36854,43.28114],[144.37761,43.28194],[144.37993,43.28557],[144.38263,43.28808],[144.39154,43.2935],[144.39505,43.29836],[144.39909,43.29906],[144.39908,43.30011],[144.39736,43.30118],[144.39748,43.30214],[144.40206,43.30269],[144.40691,43.30944],[144.40898,43.31107],[144.42011,43.31311],[144.42377,43.31816],[144.42345,43.32049],[144.42519,43.32088],[144.43023,43.31885],[144.43225,43.32093],[144.43448,43.32122],[144.43926,43.31851],[144.44485,43.31692],[144.45005,43.31665],[144.45632,43.32101],[144.45922,43.3218],[144.46199,43.32138],[144.47197,43.32608],[144.48072,43.32539],[144.48339,43.32717],[144.49367,43.31894],[144.49942,43.31707],[144.50451,43.3178],[144.51143,43.31622],[144.51615,43.31419],[144.522,43.30761],[144.5234,43.30791],[144.52759,43.31157],[144.52957,43.31144],[144.53079,43.30773],[144.53473,43.3038],[144.53672,43.30306],[144.54034,43.30364],[144.54563,43.30268],[144.54921,43.30412],[144.55632,43.30469],[144.56189,43.30908],[144.56921,43.3119],[144.58115,43.31101],[144.58533,43.30729],[144.58967,43.30189],[144.60044,43.3002]],[[141.48883,43.01777],[141.47916,43.01878],[141.46613,43.02452],[141.46027,43.02235],[141.45946,43.0209],[141.45841,43.02066],[141.44758,43.02813],[141.42511,43.0591],[141.41899,43.08224],[141.41684,43.0858],[141.41328,43.08889],[141.37931,43.10311],[141.37487,43.10425],[141.36789,43.10435],[141.34485,43.10113]],[[141.47164,43.02228],[141.4796,43.01877],[141.48885,43.01787]],[[141.42121,43.07518],[141.42553,43.05945],[141.44726,43.02895],[141.4503,43.02642],[141.45828,43.0222],[141.46593,43.02489],[141.46926,43.02334]],[[141.34507,43.10145],[141.3694,43.10475],[141.3778,43.10389],[141.41413,43.08866],[141.41835,43.08436],[141.4205,43.07844]],[[141.48897,43.01784],[141.50009,43.0148],[141.53024,43.00442],[141.53516,43.00038],[141.53827,42.9992],[141.5423,42.99859],[141.55306,42.99908],[141.56493,42.99723],[141.58635,42.99756],[141.58903,42.99696]],[[142.76547,42.95834],[142.76301,42.95834],[142.76155,42.95967],[142.76192,42.96135],[142.76342,42.96224]],[[142.28047,42.88119],[142.2749,42.88324],[142.27038,42.88358]],[[142.42028,42.89701],[142.41891,42.8972],[142.41902,42.89818]],[[142.53653,42.89182],[142.53466,42.89303],[142.53269,42.89209]]]}}]}