{"type":"FeatureCollection","features":[{"type":"Feature","properties":{"route_id":"32","route_number":32,"name":"国道32号","source":"OpenStreetMap contributors (ODbL)","osm_relations":[12585,2829183,2829184,9064258,9064260]},"geometry":{"type":"MultiLineString","coordinates":[[[134.04702,34.33733],[134.04616,34.32993],[134.03854,34.31588],[134.03748,34.31147],[134.02944,34.3127],[134.02755,34.30769],[134.0206,34.30058],[134.01635,34.29721],[134.00498,34.2906],[133.9911,34.27397],[133.98752,34.27117],[133.98392,34.26971],[133.97427,34.26781],[133.96587,34.26014],[133.9621,34.25788],[133.94921,34.25575],[133.9363,34.25039],[133.91335,34.25149],[133.91028,34.25103],[133.90754,34.24914],[133.9059,34.24507],[133.90396,34.24343],[133.88695,34.23526],[133.87459,34.23153],[133.8655,34.22616],[133.8557,34.22439],[133.85265,34.22248],[133.84969,34.2153],[133.84591,34.20897],[133.84651,34.20282],[133.84345,34.19668],[133.84156,34.19066],[133.83407,34.18254],[133.82771,34.18007],[133.82691,34.17884],[133.82689,34.172],[133.82513,34.17054],[133.82641,34.16508],[133.82311,34.15797],[133.8231,34.15618],[133.82042,34.15432],[133.81989,34.14985],[133.81763,34.14715],[133.81679,34.14385],[133.81688,34.13615],[133.81109,34.13063],[133.81004,34.12834],[133.80802,34.12649],[133.807,34.12381],[133.80295,34.12183],[133.80268,34.11823],[133.80051,34.1157],[133.79884,34.11135],[133.80045,34.10763],[133.79915,34.10572],[133.7987,34.10299],[133.80233,34.09895],[133.80309,34.09072],[133.81641,34.05905],[133.82037,34.05218],[133.82565,34.04563],[133.82953,34.04226],[133.8354,34.04083],[133.83631,34.03968],[133.83626,34.03788],[133.83448,34.03562],[133.82866,34.03361],[133.82953,34.02916],[133.82903,34.02906],[133.82266,34.02828],[133.81571,34.02959],[133.81152,34.03181],[133.80809,34.03222],[133.79567,34.03082],[133.78619,34.02288],[133.78525,34.02135],[133.78528,34.01949],[133.78284,34.01846],[133.78323,34.01727],[133.78202,34.01918],[133.78126,34.01898],[133.78306,34.01868]],[[133.77948,34.01836],[133.7833,34.0168],[133.78247,34.01189],[133.78361,34.00626],[133.78668,34.00215],[133.79114,33.99281],[133.79007,33.99076],[133.78783,33.98997],[133.78508,33.98335],[133.78551,33.97741],[133.78138,33.97269],[133.77731,33.97071],[133.77425,33.97026],[133.76794,33.97115],[133.76262,33.97071],[133.75908,33.96956],[133.75537,33.966],[133.7546,33.96036],[133.75734,33.95764],[133.76213,33.95468],[133.76509,33.95035],[133.75577,33.93966],[133.75492,33.93503],[133.7597,33.9289],[133.76032,33.92577],[133.75928,33.92421],[133.75909,33.92153],[133.75654,33.9175],[133.75815,33.91166],[133.75355,33.90578],[133.75285,33.90333],[133.75505,33.89787],[133.75654,33.89126],[133.76016,33.8868],[133.7604,33.87862],[133.77198,33.8715],[133.77222,33.86731],[133.77347,33.86495],[133.78,33.86177],[133.78391,33.85733],[133.78659,33.85267],[133.78712,33.84972],[133.7858,33.84703],[133.78678,33.84373],[133.78598,33.84114],[133.78928,33.83344],[133.789,33.82689],[133.78558,33.82266],[133.77807,33.81978],[133.77339,33.8166],[133.77216,33.81426],[133.76928,33.81189],[133.76793,33.80666],[133.76626,33.80382],[133.76365,33.80143],[133.7636,33.7998],[133.75456,33.79419],[133.7523,33.79442],[133.7424,33.78972],[133.73262,33.79033],[133.72852,33.78698],[133.7244,33.78898],[133.71797,33.78535],[133.71307,33.78361],[133.71069,33.78493],[133.71,33.78731],[133.70793,33.78864],[133.70195,33.7879],[133.69641,33.78488],[133.69777,33.78132],[133.69226,33.77853],[133.68885,33.77141],[133.68158,33.76847],[133.6779,33.76883],[133.67239,33.76747],[133.66834,33.76308],[133.66576,33.76562],[133.66425,33.76524],[133.66321,33.76146],[133.66524,33.75527],[133.66324,33.75178],[133.6639,33.74987],[133.66341,33.74434],[133.66456,33.7399],[133.66896,33.73535],[133.67321,33.7337],[133.68156,33.73289],[133.68279,33.7318],[133.68359,33.72972],[133.68306,33.728],[133.68398,33.72228],[133.68732,33.71018],[133.6863,33.70695],[133.6904,33.70002],[133.68966,33.69724],[133.69164,33.69489],[133.68882,33.68785],[133.69093,33.68653],[133.69514,33.68664],[133.69624,33.68555],[133.69182,33.68155],[133.68934,33.68035],[133.68185,33.67948],[133.67661,33.67503],[133.67547,33.67507],[133.67477,33.67621],[133.6723,33.67618],[133.66889,33.67497],[133.66505,33.67226],[133.66423,33.67026],[133.66529,33.6658],[133.66136,33.66394],[133.66109,33.66317],[133.66207,33.66197],[133.66068,33.66091],[133.662,33.65738],[133.6646,33.6569],[133.66216,33.65457],[133.65991,33.65413],[133.66132,33.65295],[133.65922,33.65102],[133.65762,33.64469],[133.65368,33.6433],[133.65098,33.64173],[133.65028,33.6405],[133.64807,33.64073],[133.64534,33.63922],[133.64319,33.63956],[133.64178,33.63656],[133.63835,33.63493],[133.63846,33.63396],[133.64022,33.63303],[133.64026,33.63111],[133.63719,33.62937],[133.63551,33.62976],[133.6356,33.62742],[133.63673,33.62678],[133.63672,33.62543],[133.63942,33.62376],[133.64087,33.6175],[133.64121,33.60905],[133.63549,33.60296],[133.6241,33.58589],[133.62263,33.58107],[133.62204,33.56767],[133.61776,33.56777],[133.61254,33.56538],[133.60772,33.56565],[133.60413,33.56486],[133.58454,33.55715],[133.57065,33.55636],[133.56665,33.55755],[133.5428,33.55961],[133.54353,33.56613],[133.54508,33.56608],[133.54367,33.56586],[133.54294,33.55944],[133.56591,33.5574],[133.57086,33.55627],[133.58454,33.55707],[133.60415,33.56479],[133.60778,33.56558],[133.61287,33.56536],[133.61779,33.56768],[133.62217,33.56756],[133.62292,33.5815],[133.62428,33.58603],[133.63587,33.60327],[133.64132,33.60902],[133.64025,33.62044]],[[133.53221,33.55819],[133.5428,33.55961],[133.53223,33.55804]],[[133.78015,34.01846],[133.78143,34.01923]],[[134.04714,34.33723],[134.04631,34.32998],[134.03861,34.3157],[134.03757,34.31124],[134.02948,34.31251],[134.02765,34.30765],[134.02066,34.30051],[134.01644,34.29715],[134.00506,34.29054],[133.99118,34.27392],[133.98758,34.27111],[133.98396,34.26964],[133.97464,34.26791],[133.96596,34.26006],[133.96216,34.25778],[133.94926,34.25567],[133.9366,34.25038],[133.91303,34.2514],[133.91032,34.25095],[133.90774,34.24923],[133.90587,34.24484],[133.9038,34.24326],[133.88694,34.23517],[133.87462,34.23144],[133.86555,34.22608],[133.85382,34.22345],[133.85222,34.2216],[133.84979,34.21528],[133.846,34.20895],[133.84664,34.20291],[133.84354,34.19664],[133.84153,34.1904],[133.83414,34.18247],[133.82757,34.18]],[[133.82953,34.02916],[133.82387,34.0282]],[[133.62204,33.56756],[133.62204,33.56767]],[[134.02944,34.3127],[134.02948,34.31251]],[[133.54294,33.55944],[133.54277,33.55945]],[[133.78323,34.01727],[133.7833,34.0168]]]}}]}