{"type":"FeatureCollection","features":[{"type":"Feature","properties":{"route_id":"52","route_number":52,"name":"国道52号","source":"OpenStreetMap contributors (ODbL)","osm_relations":[2957015,2957016,9415583,9415584,9415585,9415586,9415587]},"geometry":{"type":"MultiLineString","coordinates":[[[138.48627,35.68502],[138.49085,35.68386],[138.49399,35.68039],[138.4972,35.67888],[138.49871,35.67451],[138.50193,35.66963],[138.51465,35.66542],[138.50216,35.66932],[138.49862,35.67446],[138.49706,35.67889],[138.49407,35.6802],[138.49076,35.68379],[138.48627,35.68502],[138.48721,35.67926],[138.48711,35.67238],[138.4859,35.67152],[138.47746,35.66978],[138.47484,35.66788],[138.473,35.66511],[138.47243,35.66192],[138.47359,35.64926],[138.47271,35.64398],[138.47102,35.64203],[138.47183,35.64],[138.47145,35.63561],[138.47562,35.62326],[138.47902,35.61824],[138.47832,35.61549],[138.48064,35.61236],[138.48165,35.6076],[138.48111,35.6048],[138.47672,35.59635],[138.47484,35.58822],[138.47613,35.57218],[138.47567,35.56996],[138.47443,35.58783],[138.4765,35.59665],[138.48121,35.60605],[138.47987,35.61374]],[[138.56757,35.66167],[138.56682,35.65833],[138.56744,35.66169]],[[138.52861,35.05428],[138.52642,35.05769],[138.52111,35.0711],[138.52099,35.07866],[138.52004,35.07961],[138.5173,35.07949],[138.51535,35.0803],[138.51427,35.08329],[138.51414,35.08503],[138.5163,35.08994],[138.51614,35.09198],[138.51354,35.09408],[138.5115,35.10265],[138.51321,35.1049],[138.51309,35.10766],[138.51413,35.11097],[138.51275,35.11296],[138.51239,35.11645],[138.51003,35.12],[138.51135,35.12525],[138.51481,35.12738],[138.51621,35.13007],[138.5197,35.13152],[138.52134,35.1355],[138.51854,35.14139],[138.51867,35.14435],[138.5193,35.14565],[138.52189,35.1465],[138.52362,35.14942],[138.51951,35.15215],[138.52044,35.15408],[138.51942,35.15978],[138.5179,35.16281],[138.51948,35.16525],[138.51982,35.16735],[138.52204,35.16849],[138.52393,35.1714],[138.52282,35.17308],[138.52338,35.17484],[138.52249,35.17884],[138.52507,35.18058],[138.52886,35.18555],[138.529,35.18754],[138.52643,35.18657],[138.526,35.18702],[138.5295,35.1897],[138.52988,35.19251],[138.53273,35.19525],[138.52764,35.19803],[138.52164,35.19983],[138.52087,35.20094],[138.51793,35.20202],[138.51619,35.204],[138.51572,35.2065],[138.51672,35.20962],[138.51937,35.21185],[138.51791,35.21609],[138.52029,35.21915],[138.51997,35.22237],[138.51728,35.22637],[138.51609,35.22664],[138.51206,35.22516],[138.50914,35.22606],[138.50633,35.23532],[138.5031,35.23855],[138.50166,35.23891],[138.49462,35.23714],[138.48971,35.23844],[138.48316,35.24394],[138.4788,35.25227],[138.47781,35.25564],[138.47511,35.25874],[138.47104,35.25965],[138.46873,35.26225],[138.46283,35.26417],[138.45963,35.26762],[138.45453,35.27041],[138.45138,35.27332],[138.44867,35.27961],[138.44925,35.28796],[138.44712,35.29465],[138.4474,35.30857],[138.44585,35.31046],[138.44221,35.31125],[138.44171,35.31272],[138.43983,35.31313],[138.43869,35.31449],[138.43998,35.31641],[138.43909,35.31775],[138.43962,35.31902],[138.43882,35.3216],[138.43639,35.32055],[138.4347,35.32354],[138.43224,35.32389],[138.4285,35.32579],[138.42887,35.32863],[138.42704,35.33074],[138.42498,35.33589],[138.42372,35.34139],[138.42405,35.34456],[138.42153,35.34973],[138.42198,35.35481],[138.42142,35.35759],[138.42251,35.36083],[138.42147,35.36375],[138.42233,35.36514],[138.4312,35.36822],[138.44424,35.36927],[138.44599,35.37102],[138.44883,35.37922],[138.4489,35.382],[138.44641,35.38559],[138.44534,35.38999],[138.44278,35.39189],[138.44241,35.39573],[138.44151,35.39715],[138.4429,35.40076],[138.44279,35.40332],[138.44189,35.40481],[138.44264,35.41422],[138.44496,35.41928],[138.44339,35.43122],[138.44222,35.43312],[138.43808,35.43615],[138.43687,35.43827],[138.43797,35.44153],[138.44651,35.453],[138.44601,35.45479],[138.4411,35.46131],[138.44024,35.46436],[138.44209,35.46858],[138.4437,35.46922],[138.44455,35.47626],[138.44709,35.48135],[138.45178,35.48465],[138.4536,35.48699],[138.45294,35.49111],[138.44628,35.49766],[138.44611,35.50395],[138.44945,35.50633],[138.45736,35.51],[138.45681,35.51286],[138.45304,35.51732],[138.45127,35.52269],[138.44942,35.52537],[138.45097,35.5343],[138.45321,35.53747],[138.46683,35.54861],[138.46862,35.55475],[138.47228,35.56119],[138.4728,35.5653],[138.47567,35.56996]],[[138.48735,35.67285],[138.48601,35.67123],[138.48047,35.67064],[138.47664,35.669],[138.47416,35.6666],[138.47284,35.66336],[138.47391,35.64978],[138.47305,35.64405],[138.47107,35.64202],[138.47212,35.6397],[138.47176,35.63563],[138.47577,35.62365],[138.47924,35.6186],[138.47883,35.6169]],[[138.55573,35.65838],[138.54783,35.65838],[138.55402,35.65753],[138.55935,35.66023],[138.56682,35.65833]],[[138.54783,35.65838],[138.54338,35.66025],[138.52044,35.66565],[138.51465,35.66542]]]}}]}