{"type":"FeatureCollection","features":[{"type":"Feature","properties":{"route_id":"368","route_number":368,"name":"国道368号","source":"OpenStreetMap contributors (ODbL)","osm_relations":[8344320,10108458,10109092]},"geometry":{"type":"MultiLineString","coordinates":[[[136.1239,34.75664],[136.12296,34.75402],[136.12218,34.74626],[136.12107,34.72366],[136.11973,34.71842],[136.12013,34.71542],[136.11623,34.70794],[136.11143,34.705],[136.11008,34.70326],[136.10977,34.69982],[136.11123,34.69355],[136.10788,34.68316],[136.1094,34.67451],[136.10639,34.6688],[136.10004,34.6624],[136.09973,34.65978],[136.10393,34.65536],[136.10413,34.6497],[136.11004,34.64063],[136.1188,34.63558],[136.12731,34.62833],[136.1351,34.62571],[136.13888,34.62143],[136.14221,34.61986],[136.14378,34.61795],[136.1464,34.61723],[136.15035,34.61749],[136.15419,34.61625],[136.16366,34.61668],[136.16617,34.61462],[136.17139,34.61459],[136.17625,34.6117],[136.17485,34.60807],[136.1753,34.60512],[136.17111,34.60441],[136.16706,34.60083],[136.17051,34.59721],[136.16932,34.59433],[136.17187,34.58841],[136.1708,34.58174],[136.1724,34.57993],[136.17226,34.57826],[136.17299,34.57759],[136.17601,34.57779],[136.17906,34.57556],[136.18451,34.56759],[136.1844,34.56659],[136.18209,34.56504],[136.18517,34.56338],[136.18861,34.55901],[136.18914,34.55684],[136.19125,34.5568],[136.19256,34.5557],[136.1923,34.54955],[136.19477,34.54537],[136.19346,34.54326],[136.19357,34.54034],[136.19559,34.5341],[136.19332,34.53113],[136.19126,34.52993],[136.19034,34.52683],[136.19325,34.52224],[136.1945,34.51792],[136.20088,34.51547],[136.20403,34.51741],[136.20698,34.51787],[136.20836,34.51667],[136.2112,34.51593],[136.21313,34.5139],[136.22566,34.51231],[136.23328,34.5137],[136.23853,34.51267],[136.24298,34.51441],[136.2459,34.51186],[136.2507,34.51277],[136.25546,34.51121],[136.2618,34.51291],[136.26604,34.5111],[136.27215,34.51301],[136.29282,34.51031],[136.29848,34.51198],[136.31074,34.51204],[136.31401,34.51137],[136.31815,34.51287],[136.32259,34.51239],[136.32534,34.50782],[136.32742,34.50691],[136.32968,34.50456],[136.3301,34.5027],[136.33476,34.49985],[136.33326,34.49782],[136.33718,34.49212],[136.33691,34.49048],[136.33911,34.49121],[136.3406,34.49072],[136.34109,34.49199],[136.34278,34.49024],[136.3443,34.49024],[136.3434,34.49158],[136.34435,34.49217],[136.34631,34.49088],[136.34745,34.49218],[136.3466,34.49268],[136.34758,34.49381],[136.34523,34.49443],[136.34768,34.49555],[136.35007,34.49311],[136.35092,34.49386],[136.35082,34.48921],[136.35231,34.48696],[136.35783,34.48616],[136.36014,34.48381],[136.36456,34.4818],[136.36535,34.48045],[136.37144,34.47987],[136.37617,34.48242],[136.37948,34.48025],[136.38618,34.47849],[136.39023,34.47616],[136.39355,34.4728],[136.3939,34.47101],[136.39697,34.46996],[136.39402,34.46529],[136.39504,34.46254],[136.39772,34.46083],[136.39846,34.45706],[136.39787,34.45646],[136.39936,34.45372],[136.40114,34.45162],[136.40524,34.44922],[136.41592,34.44963],[136.4196,34.44851],[136.42414,34.45167],[136.4364,34.45159],[136.45436,34.45983],[136.45909,34.46066],[136.46247,34.46324],[136.47256,34.46209],[136.47389,34.46098],[136.47718,34.46055],[136.47967,34.45871],[136.48794,34.45589],[136.49091,34.45619],[136.49534,34.45824],[136.50182,34.45489],[136.50442,34.45448],[136.50677,34.45525]],[[136.12215,34.74573],[136.12118,34.72363],[136.11983,34.71845],[136.12023,34.71532],[136.11635,34.70795],[136.11146,34.70492],[136.11,34.703]],[[136.11756,34.63625],[136.10955,34.64098],[136.10389,34.65063]]]}}]}