{"type":"FeatureCollection","features":[{"type":"Feature","properties":{"route_id":"391","route_number":391,"name":"国道391号","source":"OpenStreetMap contributors (ODbL)","osm_relations":[6645423]},"geometry":{"type":"MultiLineString","coordinates":[[[144.38592,42.97993],[144.38592,42.97993]],[[144.38596,42.98015],[144.38441,42.9845],[144.39095,42.98575],[144.39557,42.9893],[144.40004,42.99744],[144.3998,42.99912],[144.39795,43.00146],[144.40189,43.00609],[144.40972,43.01103],[144.41931,43.00277],[144.4344,43.01409],[144.44717,43.02831],[144.45572,43.0354],[144.45734,43.03951],[144.45655,43.04264],[144.45822,43.04448],[144.4596,43.0486],[144.46166,43.0514],[144.46719,43.05541],[144.46907,43.059],[144.47261,43.06037],[144.47935,43.06492],[144.48744,43.06529],[144.49444,43.06467],[144.49664,43.06563],[144.4987,43.0702],[144.49734,43.07373],[144.49783,43.07544],[144.50105,43.0776],[144.50587,43.08265],[144.50602,43.09271],[144.51068,43.10153],[144.51031,43.10685],[144.51182,43.10796],[144.51563,43.10884],[144.51657,43.10786],[144.51434,43.10702],[144.51447,43.10586],[144.5188,43.10711],[144.51975,43.10854],[144.52111,43.11494],[144.51885,43.12076],[144.51629,43.1235],[144.51532,43.12579],[144.51313,43.12825],[144.50998,43.12954],[144.50672,43.13805],[144.5066,43.14251],[144.5038,43.14456],[144.50329,43.14701],[144.50117,43.14918],[144.50208,43.15449],[144.49709,43.16219],[144.49748,43.16318],[144.49898,43.16378],[144.50284,43.16282],[144.50676,43.1632],[144.51194,43.16869],[144.51094,43.17053],[144.50635,43.17256],[144.50468,43.17726],[144.50601,43.18181],[144.50352,43.18381],[144.50334,43.18493],[144.50701,43.18765],[144.5077,43.19144],[144.51485,43.19623],[144.52022,43.2016],[144.51947,43.20652],[144.52983,43.21952],[144.53189,43.22434],[144.53546,43.22862],[144.54102,43.23356],[144.54574,43.23651],[144.54776,43.24155],[144.55156,43.2444],[144.55855,43.24792],[144.55884,43.2491],[144.55716,43.25381],[144.56561,43.26027],[144.57279,43.27446],[144.58076,43.27797],[144.58244,43.27942],[144.58221,43.28415],[144.58589,43.29088],[144.59406,43.29588],[144.59723,43.29622],[144.59913,43.29738],[144.6037,43.30731],[144.60334,43.31537],[144.5987,43.32202],[144.59881,43.32591],[144.59044,43.33433],[144.58919,43.33728],[144.58228,43.34512],[144.57551,43.362],[144.57291,43.36424],[144.56211,43.37045],[144.54573,43.38308],[144.54415,43.3858],[144.54062,43.38832],[144.53885,43.39323],[144.53935,43.39601],[144.53664,43.40262],[144.52403,43.41959],[144.52294,43.42289],[144.51562,43.43164],[144.51306,43.43666],[144.50361,43.44523],[144.49929,43.45639],[144.47689,43.46951],[144.47636,43.4722],[144.47988,43.47784],[144.47562,43.48058],[144.47258,43.48517],[144.46735,43.48884],[144.45399,43.49303],[144.45495,43.49703],[144.4544,43.50002],[144.44505,43.51143],[144.43024,43.51612],[144.43484,43.52009],[144.43181,43.53526],[144.42823,43.54495],[144.45002,43.58434],[144.4517,43.59542],[144.45712,43.60532],[144.44862,43.64415],[144.4519,43.66357],[144.45455,43.66848],[144.45297,43.67527],[144.45339,43.67936],[144.45134,43.68316],[144.45606,43.68539],[144.4578,43.68365],[144.46081,43.68537],[144.4611,43.68471],[144.45995,43.68378],[144.46058,43.68322],[144.46326,43.68459],[144.46554,43.68439],[144.46658,43.68581],[144.4673,43.69059],[144.47013,43.69259],[144.47149,43.69546],[144.47548,43.6989],[144.47659,43.7027],[144.47841,43.70395],[144.48246,43.71084],[144.4849,43.71334],[144.48561,43.71762],[144.48811,43.72206],[144.48866,43.72923],[144.48705,43.73483],[144.48683,43.73864],[144.48836,43.74498],[144.49026,43.74759],[144.49086,43.75314],[144.49893,43.76],[144.5,43.76428],[144.4994,43.76714],[144.50181,43.77597],[144.50512,43.78176],[144.50186,43.79125],[144.49586,43.80054],[144.49433,43.80939],[144.49235,43.81079],[144.48576,43.81196],[144.48273,43.81405],[144.48093,43.825],[144.47924,43.82844],[144.47971,43.8337],[144.47561,43.84135],[144.46878,43.84668],[144.46233,43.8583],[144.47161,43.86502],[144.48051,43.86991],[144.48161,43.87146],[144.48422,43.88082],[144.48407,43.88437],[144.48335,43.8899],[144.47972,43.89667],[144.47828,43.91246],[144.45792,43.91183],[144.45583,43.93086],[144.4536,43.93332],[144.44466,43.93404],[144.43242,43.93739],[144.41238,43.94114],[144.37284,43.95181],[144.35862,43.9548],[144.35451,43.95749],[144.33421,43.96455],[144.32477,43.96626],[144.31809,43.9688],[144.31658,43.97145],[144.3139,43.97343],[144.29972,43.98036],[144.29645,43.98363],[144.29494,43.98761],[144.29741,43.99226],[144.2924,43.99693],[144.28945,44.00182],[144.28691,44.00343],[144.28588,44.00635],[144.28097,44.00942],[144.27988,44.01126],[144.28068,44.01477],[144.28396,44.0175],[144.28387,44.01865],[144.27867,44.02078],[144.2681,44.01972]],[[144.4333,43.01317],[144.41934,43.00259],[144.40966,43.01093],[144.40187,43.00592],[144.39812,43.00147],[144.39991,42.99921],[144.40019,42.99743],[144.3956,42.98916],[144.39081,42.98559],[144.38441,42.9845]],[[144.38564,42.98007],[144.3857,42.98055]],[[144.32477,43.96626],[144.31782,43.96884],[144.31653,43.97136],[144.31381,43.97338],[144.29966,43.9803],[144.2968,43.98298],[144.29482,43.98754],[144.29734,43.99139],[144.29716,43.99245],[144.29233,43.99683],[144.28949,44.00161],[144.28682,44.00338],[144.28567,44.00643],[144.28085,44.00937],[144.27976,44.01123],[144.28066,44.01498],[144.284,44.01779],[144.28356,44.01879],[144.28201,44.01907]]]}}]}