{"type":"FeatureCollection","features":[{"type":"Feature","properties":{"route_id":"120","route_number":120,"name":"国道120号","source":"OpenStreetMap contributors (ODbL)","osm_relations":[3217302,12117228,12117229]},"geometry":{"type":"MultiLineString","coordinates":[[[139.07713,36.65693],[139.07356,36.65497],[139.06599,36.65252],[139.07662,36.65681],[139.09229,36.66094],[139.09687,36.66305],[139.10804,36.66461],[139.1177,36.66459],[139.13302,36.66291],[139.14375,36.66369],[139.14825,36.66156],[139.1536,36.66092],[139.16015,36.6613],[139.16399,36.65898],[139.16776,36.65859],[139.17046,36.65944],[139.18055,36.66624],[139.18865,36.66844],[139.19012,36.67046],[139.19476,36.6695],[139.19688,36.67189],[139.20321,36.67566],[139.20408,36.67804],[139.20694,36.68173],[139.20781,36.69043],[139.20991,36.69527],[139.2081,36.69771],[139.20871,36.69937],[139.20816,36.70152],[139.21009,36.71048],[139.20949,36.71307],[139.21511,36.72017],[139.21949,36.72305],[139.22376,36.72736],[139.22569,36.73119],[139.22579,36.73481],[139.22873,36.73566],[139.23049,36.73724],[139.2335,36.74283],[139.23352,36.74861],[139.22858,36.75819],[139.22917,36.75952],[139.22796,36.76726],[139.22574,36.76925],[139.22639,36.77274],[139.23349,36.77438],[139.2385,36.77872],[139.23973,36.78119],[139.25091,36.78715],[139.25944,36.78967],[139.26063,36.79083],[139.26557,36.79145],[139.26739,36.79024],[139.26986,36.79115],[139.27176,36.79308],[139.27334,36.79256],[139.27497,36.79366],[139.283,36.79585],[139.28432,36.79859],[139.2878,36.79888],[139.29225,36.80141],[139.29624,36.80552],[139.30528,36.80764],[139.30243,36.80809],[139.3057,36.80931],[139.30966,36.80886],[139.31168,36.80938],[139.31193,36.813],[139.31418,36.81222],[139.31667,36.81329],[139.31741,36.81468],[139.31884,36.81422],[139.32097,36.81515],[139.31959,36.81293],[139.32197,36.81138],[139.32552,36.81288],[139.32825,36.813],[139.3291,36.81548],[139.32754,36.81663],[139.33019,36.81739],[139.33174,36.81874],[139.33529,36.81932],[139.3356,36.82202],[139.33659,36.82349],[139.34404,36.82031],[139.34494,36.82201],[139.34728,36.82278],[139.34548,36.82009],[139.34611,36.81886],[139.3434,36.81888],[139.34181,36.81707],[139.34303,36.81461],[139.34663,36.81288],[139.34528,36.81539],[139.34757,36.81381],[139.34817,36.81439],[139.34695,36.81491],[139.34794,36.8153],[139.35045,36.81389],[139.35249,36.81561],[139.35101,36.81737],[139.35305,36.81924],[139.35355,36.82236],[139.35812,36.82469],[139.36437,36.82356],[139.37074,36.82542],[139.37584,36.8236],[139.37754,36.82144],[139.37907,36.82098],[139.38581,36.82487],[139.38852,36.82398],[139.38859,36.82511],[139.39029,36.82446],[139.38943,36.8256],[139.39204,36.82569],[139.3981,36.81656],[139.39764,36.81466],[139.39946,36.81371],[139.39945,36.81284],[139.39956,36.81448],[139.40052,36.81475],[139.40349,36.81404],[139.4012,36.81365],[139.40161,36.81232],[139.40248,36.81339],[139.40975,36.81254],[139.41296,36.81106],[139.41464,36.81138],[139.41542,36.81053],[139.41783,36.81104],[139.41872,36.80934],[139.42038,36.80894],[139.42348,36.81035],[139.42581,36.80974],[139.42727,36.80388],[139.42624,36.80247],[139.42902,36.79793],[139.42879,36.79619],[139.43203,36.7949],[139.43579,36.79156],[139.4426,36.78807],[139.45082,36.77738],[139.45166,36.77043],[139.45326,36.76648],[139.45286,36.76245],[139.45227,36.76075],[139.45015,36.75997],[139.45045,36.75825],[139.44905,36.75799],[139.44765,36.75583],[139.45131,36.7571],[139.45264,36.75389],[139.45533,36.75198],[139.45674,36.75311],[139.46149,36.75366],[139.46239,36.75288],[139.46329,36.74957],[139.46772,36.74811],[139.47442,36.74361],[139.48003,36.74139],[139.48383,36.7408],[139.48884,36.74126],[139.49392,36.73969],[139.49868,36.73928],[139.49931,36.73593],[139.50492,36.73419],[139.5138,36.73506],[139.5152,36.73654],[139.5169,36.73699],[139.51509,36.73627],[139.51443,36.7335],[139.51791,36.73236],[139.51834,36.73135],[139.51634,36.73108],[139.51686,36.73039],[139.5163,36.72982],[139.51786,36.72947],[139.51777,36.72815],[139.51917,36.72841],[139.52003,36.72741],[139.52111,36.7278],[139.52008,36.7282],[139.52176,36.72817],[139.52023,36.7289],[139.52304,36.72879],[139.52232,36.72965],[139.52429,36.72865],[139.52314,36.72992],[139.52548,36.72902],[139.52403,36.73037],[139.52666,36.73036],[139.53068,36.73386],[139.52836,36.73257],[139.53028,36.73484],[139.53169,36.73598],[139.533,36.73592],[139.53186,36.73637],[139.52967,36.73541],[139.53034,36.73629],[139.52635,36.73767],[139.52541,36.73858],[139.52595,36.73943],[139.52887,36.73803],[139.53631,36.73913],[139.54684,36.73507],[139.55185,36.73205],[139.55542,36.73211],[139.56224,36.73523],[139.56622,36.74066],[139.56725,36.74428],[139.56973,36.74634],[139.57445,36.74726],[139.57883,36.75012],[139.58917,36.75207],[139.59268,36.75387],[139.59636,36.75437],[139.60229,36.75307],[139.60431,36.75371]],[[139.49868,36.73928],[139.50302,36.73965],[139.50709,36.74463],[139.51227,36.74716],[139.51093,36.74629],[139.51275,36.74704],[139.51153,36.7463],[139.5133,36.74674],[139.51154,36.74576],[139.5134,36.74643],[139.51197,36.74515],[139.51405,36.74657],[139.51328,36.7456],[139.51404,36.74587],[139.51347,36.74538],[139.51418,36.74464],[139.51353,36.74462],[139.51611,36.74348],[139.51703,36.74459],[139.51752,36.74385],[139.51743,36.74468],[139.51783,36.74387],[139.52072,36.7435],[139.52728,36.73876]],[[139.06599,36.65252],[139.05895,36.65035],[139.0556,36.64829],[139.04823,36.6471],[139.04859,36.64582],[139.04162,36.64301],[139.04061,36.63546],[139.03877,36.63449],[139.03679,36.63187]],[[139.56688,36.7433],[139.56677,36.74119],[139.56539,36.73925]],[[139.58893,36.75203],[139.59004,36.75253]],[[139.57613,36.7488],[139.57396,36.74707]],[[139.22876,36.76169],[139.22847,36.7589]]]}}]}