{"type":"FeatureCollection","features":[{"type":"Feature","properties":{"route_id":"506","route_number":506,"name":"国道506号","source":"OpenStreetMap contributors (ODbL)","osm_relations":[13026959]},"geometry":{"type":"MultiLineString","coordinates":[[[127.73817,26.22412],[127.73985,26.21652],[127.73775,26.21181],[127.73739,26.20905],[127.73971,26.19968],[127.73981,26.19617],[127.73776,26.18775],[127.73445,26.18346],[127.72903,26.181],[127.71842,26.18051],[127.70276,26.17383],[127.69627,26.1721],[127.67972,26.17112],[127.67709,26.17201],[127.67361,26.17524]],[[127.67367,26.17534],[127.67696,26.17223],[127.67919,26.17141],[127.69625,26.17222],[127.70279,26.17395],[127.71836,26.18059],[127.72898,26.18109],[127.73438,26.18353],[127.73766,26.1878],[127.73971,26.19618],[127.73966,26.19936],[127.73729,26.20898],[127.73765,26.21185],[127.73973,26.21626],[127.73806,26.22419]]]}}]}