{"type":"FeatureCollection","features":[{"type":"Feature","properties":{"route_id":"213","route_number":213,"name":"国道213号","source":"OpenStreetMap contributors (ODbL)","osm_relations":[6966370]},"geometry":{"type":"MultiLineString","coordinates":[[[131.50682,33.2768],[131.50226,33.29452],[131.50199,33.30807],[131.49958,33.31815],[131.50036,33.32072],[131.49697,33.32755],[131.49511,33.32946],[131.49434,33.33631],[131.4945,33.34409],[131.49726,33.34877],[131.49805,33.35402],[131.49732,33.35722],[131.49868,33.36035],[131.51982,33.36869],[131.53291,33.3725],[131.54581,33.375],[131.55157,33.37803],[131.56348,33.37775],[131.56858,33.37885],[131.57433,33.38576],[131.57796,33.38742],[131.58364,33.39339],[131.58587,33.39416],[131.58827,33.39658],[131.59039,33.39704],[131.59495,33.39511],[131.59819,33.3952],[131.60244,33.39679],[131.60381,33.39824],[131.60789,33.39947],[131.60796,33.40215],[131.61008,33.40347],[131.61181,33.4065],[131.61707,33.40912],[131.62353,33.40927],[131.62551,33.41],[131.62871,33.41521],[131.62842,33.42076],[131.62991,33.42219],[131.63419,33.42394],[131.64094,33.42181],[131.65149,33.42095],[131.656,33.42321],[131.66037,33.42388],[131.66619,33.42009],[131.66931,33.4197],[131.67519,33.41742],[131.69308,33.42274],[131.69804,33.42129],[131.70161,33.42175],[131.70333,33.42349],[131.70831,33.43779],[131.71739,33.44858],[131.72076,33.45104],[131.72184,33.45326],[131.72086,33.45101],[131.71838,33.44948]],[[131.29592,33.53868],[131.29051,33.54107],[131.27312,33.55171],[131.29063,33.54111],[131.29598,33.53876],[131.29836,33.53877],[131.30396,33.53609],[131.30741,33.53642],[131.31397,33.53514],[131.32834,33.53453],[131.34413,33.52511],[131.34864,33.52356],[131.35048,33.52403],[131.35245,33.527],[131.35425,33.52795],[131.3599,33.52834],[131.36548,33.52628],[131.37001,33.52817],[131.38314,33.52873],[131.38773,33.53006],[131.39748,33.53468],[131.40831,33.53443],[131.41799,33.53642],[131.42339,33.54356],[131.43554,33.5539],[131.43688,33.56259],[131.44043,33.56825],[131.44626,33.57483],[131.45181,33.59058],[131.4725,33.60638],[131.47622,33.61082],[131.47753,33.61654],[131.47437,33.61995],[131.47349,33.62206],[131.47566,33.6298],[131.47783,33.63181],[131.4824,33.6329],[131.48507,33.63745],[131.48461,33.63833],[131.48115,33.63984],[131.48084,33.64148],[131.48376,33.64309],[131.48625,33.64258],[131.48679,33.64503],[131.49049,33.64569],[131.49436,33.64347],[131.49831,33.64587],[131.49991,33.64827],[131.49965,33.64969],[131.50173,33.65425],[131.50392,33.65494],[131.50664,33.65389],[131.5078,33.65481],[131.5081,33.65624],[131.5048,33.6589],[131.50709,33.66373],[131.50932,33.66445],[131.51438,33.66331],[131.52547,33.6686],[131.52831,33.66885],[131.53759,33.66266],[131.543,33.66039],[131.55138,33.66081],[131.5556,33.66216],[131.56289,33.67185],[131.5822,33.67175],[131.58947,33.67432],[131.59389,33.67937],[131.59952,33.68301],[131.60678,33.67941],[131.60759,33.67709],[131.60989,33.67545],[131.61478,33.67507],[131.61913,33.67146],[131.62427,33.67021],[131.62626,33.66498],[131.63001,33.66253],[131.63055,33.65796],[131.63148,33.65704],[131.63954,33.65562],[131.64405,33.65855],[131.64838,33.65733],[131.65088,33.65757],[131.65536,33.66056],[131.658,33.66065],[131.66028,33.65661],[131.66472,33.65645],[131.67164,33.6525],[131.67121,33.65018],[131.67468,33.64827],[131.67713,33.64408],[131.6777,33.64147],[131.68014,33.63893],[131.68214,33.63829],[131.68726,33.64058],[131.69277,33.64014],[131.69419,33.63727],[131.69363,33.6334],[131.69733,33.62835],[131.69643,33.62363],[131.6971,33.62206],[131.69899,33.62084],[131.69891,33.61451],[131.70035,33.61041],[131.70815,33.60374],[131.7121,33.60246],[131.7129,33.60004],[131.72208,33.59196],[131.72745,33.57593],[131.73209,33.57099],[131.73171,33.56747],[131.73481,33.54827],[131.73656,33.54823],[131.73883,33.54605],[131.74034,33.54154],[131.73498,33.53345],[131.72736,33.51204],[131.72733,33.49793],[131.7302,33.48873],[131.73067,33.47772],[131.73203,33.47209],[131.72322,33.45922],[131.72184,33.45326]],[[131.19005,33.59541],[131.23092,33.58331],[131.24202,33.57475],[131.25665,33.56647],[131.26858,33.55481],[131.27312,33.55171]],[[131.552,33.37812],[131.54598,33.37497],[131.53392,33.37263],[131.5199,33.36863],[131.50009,33.36105],[131.49788,33.35916],[131.49742,33.35638],[131.49814,33.35358],[131.49737,33.34876],[131.49453,33.34349],[131.49515,33.32985],[131.49698,33.32775],[131.50045,33.32077],[131.49969,33.31815],[131.50213,33.30799],[131.50236,33.2946],[131.50694,33.27681]],[[131.73083,33.48126],[131.73078,33.47756],[131.7321,33.47189],[131.72883,33.46809]]]}}]}