{"type":"FeatureCollection","features":[{"type":"Feature","properties":{"route_id":"119","route_number":119,"name":"国道119号","source":"OpenStreetMap contributors (ODbL)","osm_relations":[3217181,3217182,3217184,13809802]},"geometry":{"type":"MultiLineString","coordinates":[[[139.86765,36.56514],[139.87304,36.56244],[139.87994,36.56166],[139.87327,36.56226],[139.86765,36.56514],[139.87128,36.57555],[139.86298,36.59096],[139.86813,36.5931],[139.86456,36.59596],[139.8599,36.60509],[139.85805,36.62194],[139.85083,36.62673],[139.84698,36.63409]],[[139.86287,36.59118],[139.8676,36.59294],[139.88837,36.59752],[139.89847,36.5928],[139.92752,36.59328],[139.92987,36.59236],[139.93433,36.58843]],[[139.93426,36.58837],[139.93012,36.59207],[139.92749,36.59319],[139.89852,36.59271],[139.88864,36.59742],[139.87134,36.59303],[139.8667,36.59355],[139.86447,36.59591],[139.8598,36.60506],[139.85807,36.62164],[139.85684,36.62313],[139.85076,36.62668],[139.84717,36.63337]],[[139.60431,36.75371],[139.60836,36.75111],[139.62696,36.74464],[139.62871,36.74297],[139.64626,36.73509],[139.66089,36.73268],[139.6707,36.72842],[139.67453,36.72874],[139.68032,36.72747],[139.69148,36.72256],[139.69981,36.721],[139.70709,36.72081],[139.71194,36.71825],[139.71915,36.71634],[139.7186,36.7193],[139.74027,36.71239],[139.74681,36.70762],[139.75257,36.70171],[139.75974,36.69189],[139.76272,36.69041],[139.7671,36.68995],[139.77624,36.68601],[139.78804,36.68373],[139.79365,36.68022],[139.81707,36.66854],[139.8273,36.6676],[139.83298,36.66607],[139.84032,36.65708],[139.83935,36.65873]],[[139.86298,36.59096],[139.85682,36.60653],[139.85621,36.61031],[139.85415,36.61314],[139.85145,36.62946],[139.84589,36.64812],[139.84186,36.65299],[139.84032,36.65708]],[[139.75545,36.69729],[139.75219,36.70158],[139.74155,36.71078],[139.73495,36.71266],[139.727,36.71361],[139.71915,36.71634]],[[139.88082,36.53667],[139.88074,36.53813],[139.88104,36.53745]],[[139.87994,36.56166],[139.87935,36.55494],[139.88074,36.53813]],[[139.87819,36.59491],[139.86937,36.59299],[139.86679,36.5937],[139.86478,36.59545]],[[139.8651,36.59523],[139.86693,36.59369],[139.86955,36.59304],[139.8782,36.59501]],[[139.73433,36.71393],[139.73358,36.7129]]]}}]}