{"type":"FeatureCollection","features":[{"type":"Feature","properties":{"route_id":"415","route_number":415,"name":"国道415号","source":"OpenStreetMap contributors (ODbL)","osm_relations":[8648367]},"geometry":{"type":"MultiLineString","coordinates":[[[136.77713,36.88582],[136.78779,36.88612],[136.79768,36.8895],[136.82283,36.88787],[136.82953,36.89009],[136.83346,36.88803],[136.83488,36.88312],[136.83663,36.88179],[136.84456,36.88258],[136.8468,36.88346],[136.85389,36.88343],[136.85949,36.88537],[136.86305,36.88177],[136.86575,36.88295],[136.87454,36.88436],[136.87895,36.88729],[136.88269,36.88712],[136.88654,36.88652],[136.89163,36.88296],[136.89632,36.88197],[136.89778,36.8775],[136.89988,36.87557],[136.90058,36.87247],[136.91054,36.86856],[136.91464,36.86791],[136.91914,36.86462],[136.92076,36.86583],[136.92334,36.86578],[136.93052,36.86553],[136.93618,36.86427],[136.94149,36.86609],[136.9499,36.86234],[136.96058,36.86013],[136.96846,36.8564],[136.9869,36.85943],[136.98783,36.85075],[136.98728,36.84445],[136.9922,36.83499],[136.99407,36.83425],[137.00074,36.82878],[137.00408,36.82837],[137.01208,36.82385],[137.02897,36.81671],[137.03535,36.81513],[137.0406,36.81535],[137.04401,36.8139],[137.04622,36.81232],[137.04943,36.80751],[137.04999,36.80613],[137.04955,36.80343],[137.0515,36.80048],[137.04882,36.78773],[137.04566,36.78636],[137.04381,36.7845],[137.04404,36.78271],[137.04187,36.78157],[137.03948,36.77468]],[[137.07092,36.78489],[137.06812,36.78805],[137.07147,36.78439],[137.08785,36.77873],[137.08638,36.7675],[137.08848,36.76228],[137.09956,36.75973],[137.10778,36.75472],[137.1246,36.74797],[137.12942,36.74712],[137.13465,36.7597],[137.1341,36.76919],[137.14128,36.76749],[137.16036,36.76048],[137.16504,36.76062],[137.18037,36.75719],[137.18984,36.7568],[137.19206,36.75603],[137.19666,36.75715],[137.20081,36.75184],[137.20157,36.74916],[137.21015,36.74614],[137.24732,36.74591],[137.25677,36.7393],[137.24749,36.74578],[137.21095,36.74595],[137.20157,36.74916]],[[137.2534,36.74281],[137.26075,36.73632],[137.26936,36.73336],[137.27704,36.73298],[137.28999,36.72638],[137.299,36.72492],[137.30324,36.72335],[137.31392,36.72365],[137.31429,36.71945]],[[137.25158,36.74367],[137.25324,36.74311]],[[137.05068,36.7734],[137.03938,36.77469],[137.04176,36.78158],[137.04264,36.78212]],[[137.12931,36.74709],[137.12432,36.74798],[137.10827,36.75441],[137.09952,36.75966],[137.08958,36.762]],[[137.12942,36.74712],[137.13448,36.7594],[137.13429,36.76679]],[[137.24779,36.74546],[137.24995,36.74442]],[[137.31392,36.72365],[137.31481,36.72686]],[[137.25032,36.74413],[137.25229,36.74252]],[[137.05047,36.77341],[137.05505,36.77433],[137.06108,36.78247],[137.06812,36.78805]],[[137.25677,36.7393],[137.25696,36.73912]]]}}]}