{"type":"FeatureCollection","features":[{"type":"Feature","properties":{"route_id":"358","route_number":358,"name":"国道358号","source":"OpenStreetMap contributors (ODbL)","osm_relations":[3836968]},"geometry":{"type":"MultiLineString","coordinates":[[[138.61907,35.48539],[138.61532,35.48637],[138.61505,35.4884],[138.61134,35.48929],[138.61224,35.4908],[138.61062,35.49205],[138.61157,35.49457],[138.61028,35.49688],[138.61517,35.50789],[138.61666,35.50845],[138.61593,35.50945],[138.61603,35.51252],[138.61686,35.51328],[138.61981,35.51361],[138.61759,35.51518],[138.6195,35.51814],[138.61842,35.51893],[138.61817,35.52029],[138.61988,35.52136],[138.62267,35.52103],[138.62273,35.52206],[138.62455,35.52323],[138.61834,35.52372],[138.61829,35.52645],[138.62254,35.52677],[138.62478,35.52883],[138.62311,35.52962],[138.62318,35.53088],[138.62232,35.53128],[138.61948,35.52984],[138.61612,35.53086],[138.60916,35.53058],[138.6056,35.53322],[138.60247,35.53323],[138.60156,35.53428],[138.59665,35.53531],[138.59351,35.53697],[138.59471,35.54096],[138.5897,35.56008],[138.59354,35.56162],[138.59328,35.56297],[138.59441,35.56411],[138.59285,35.56703],[138.59483,35.56826],[138.59778,35.5679],[138.59828,35.56913],[138.59728,35.57015],[138.59425,35.57039],[138.59056,35.57297],[138.59337,35.57815],[138.59047,35.58356],[138.59001,35.5917],[138.58773,35.59478],[138.58083,35.59464],[138.57544,35.59566],[138.57333,35.59963],[138.57345,35.60194],[138.57312,35.59982],[138.5751,35.59586]],[[138.57345,35.60194],[138.57461,35.60679],[138.57145,35.61172],[138.57111,35.61701],[138.57228,35.62151],[138.57146,35.62901],[138.56877,35.63206],[138.56574,35.64118],[138.56841,35.64935],[138.56643,35.65571],[138.56744,35.66169]],[[138.56757,35.66167],[138.56682,35.65833]]]}}]}