{"type":"FeatureCollection","features":[{"type":"Feature","properties":{"route_id":"245","route_number":245,"name":"国道245号","source":"OpenStreetMap contributors (ODbL)","osm_relations":[5431055]},"geometry":{"type":"MultiLineString","coordinates":[[[140.66141,36.58618],[140.65487,36.59077],[140.65662,36.58994],[140.65928,36.58697],[140.66141,36.58618],[140.65663,36.58024],[140.65611,36.57823],[140.65171,36.57194],[140.64679,36.56623],[140.64533,36.55849],[140.64205,36.55259],[140.64193,36.54954],[140.63668,36.53848],[140.63561,36.53008],[140.63375,36.52654],[140.62749,36.52088],[140.62755,36.51939],[140.6304,36.51608],[140.63122,36.51392],[140.62833,36.50435],[140.62102,36.49632],[140.60952,36.48746],[140.60479,36.48567],[140.60475,36.47608],[140.60075,36.46703],[140.59731,36.46182],[140.597,36.45586],[140.59164,36.43036],[140.58624,36.41541],[140.5806,36.40321],[140.58036,36.39379],[140.57785,36.38368],[140.58037,36.35015],[140.5792,36.34679],[140.5739,36.34145],[140.56438,36.34062],[140.55713,36.33433],[140.55441,36.33308],[140.53799,36.34102],[140.52569,36.34583],[140.51076,36.35479],[140.49789,36.36788],[140.49043,36.36597],[140.48456,36.36576],[140.48417,36.36989],[140.48296,36.37145],[140.47986,36.37241],[140.47793,36.37164],[140.47565,36.3721]],[[140.60486,36.47836],[140.60459,36.47524],[140.60084,36.467],[140.59741,36.4618],[140.59711,36.45586],[140.59155,36.42967],[140.58651,36.41578],[140.5807,36.4032],[140.58046,36.39379],[140.57795,36.38364],[140.58048,36.34995],[140.57999,36.34775],[140.57413,36.34147],[140.56451,36.34057],[140.55721,36.33428],[140.55448,36.333],[140.53577,36.34188]],[[140.62679,36.50247],[140.6211,36.49625],[140.60971,36.48747],[140.60745,36.48686]],[[140.65487,36.59077],[140.64929,36.59349]]]}}]}