{"type":"FeatureCollection","features":[{"type":"Feature","properties":{"route_id":"7","route_number":7,"name":"国道7号","source":"OpenStreetMap contributors (ODbL)","osm_relations":[2069116,2076050,2076051,3342869,8885552,8885553,8885554,8885555,8885556,8885557,8885920,8885921,8885922,8885923,8885924,8885925,8885926,8886429,8886430,8886432,8886434,8886623,8886624,8886625,8886626,8886628,8886630,8887678,8887679,8887680,13984640]},"geometry":{"type":"MultiLineString","coordinates":[[[139.06948,37.91855],[139.07243,37.91242],[139.07486,37.90447],[139.074,37.90249],[139.07537,37.90194],[139.08442,37.90717],[139.10037,37.91322],[139.11479,37.91645],[139.12844,37.92243],[139.13132,37.9247],[139.13417,37.92958],[139.13754,37.93165],[139.15475,37.93616],[139.16455,37.93536],[139.16808,37.93584],[139.20241,37.94953],[139.21361,37.9528],[139.22235,37.95639],[139.23363,37.95884],[139.23886,37.96183],[139.24689,37.96397],[139.2569,37.96942],[139.2616,37.96981],[139.26639,37.96891],[139.277,37.96294],[139.29097,37.95946],[139.29548,37.95645],[139.3138,37.96398],[139.31959,37.9639],[139.31327,37.96372],[139.29544,37.95633],[139.29093,37.95939],[139.27692,37.96287],[139.26634,37.96883],[139.26154,37.96972],[139.25693,37.96934],[139.247,37.96391],[139.23953,37.96199],[139.23371,37.95876],[139.22239,37.95629],[139.21368,37.95268],[139.20245,37.94945],[139.16812,37.93577],[139.16457,37.93527],[139.15478,37.93608],[139.13759,37.93157],[139.13425,37.9295],[139.13141,37.92464],[139.12887,37.92253],[139.11488,37.91634],[139.1004,37.91313],[139.08978,37.90853],[139.08448,37.90705],[139.07769,37.90261],[139.07096,37.90031],[139.07129,37.89976],[139.07419,37.90409],[139.0717,37.91361],[139.06948,37.91855],[139.06023,37.91492],[139.05909,37.91673],[139.05017,37.92101],[139.04684,37.92159]],[[140.69986,40.80059],[140.70334,40.79895],[140.70772,40.79808],[140.72619,40.79795],[140.75908,40.7953],[140.76941,40.79558],[140.77823,40.79719],[140.79032,40.80204],[140.80329,40.81175],[140.80447,40.81319],[140.80639,40.81917],[140.81347,40.8271],[140.81449,40.82964],[140.81352,40.82694],[140.80649,40.8191],[140.80399,40.81154],[140.79527,40.80437],[140.78832,40.80034],[140.78138,40.79755],[140.77282,40.79546],[140.76431,40.79479],[140.72579,40.79744],[140.71064,40.79742],[140.70402,40.79861],[140.70041,40.80015],[140.69732,40.80274],[140.69338,40.80988],[140.69066,40.81264],[140.68672,40.81432],[140.67266,40.81758],[140.65699,40.82721]],[[139.06023,37.91492],[139.05864,37.91692]],[[140.496,40.61536],[140.49873,40.6105],[140.49954,40.60292],[140.50575,40.59247],[140.507,40.58732],[140.50839,40.58496],[140.516,40.58054],[140.52526,40.57046],[140.53252,40.56933],[140.53507,40.56815],[140.53922,40.56084],[140.54523,40.55599],[140.55075,40.55342],[140.55229,40.55149],[140.55266,40.54947],[140.55067,40.55333],[140.54464,40.55624],[140.5395,40.56039],[140.53493,40.56813],[140.5327,40.56919],[140.52523,40.57037],[140.51596,40.58046],[140.50845,40.58473],[140.50705,40.58683],[140.50539,40.59299],[140.49943,40.60288],[140.49787,40.61223],[140.49459,40.6171],[140.48868,40.62132],[140.48738,40.62363],[140.48907,40.63861],[140.49001,40.64108],[140.49181,40.64269],[140.49867,40.64591],[140.50585,40.65222],[140.50873,40.65869],[140.50915,40.66506],[140.51081,40.66805],[140.52669,40.67543],[140.51092,40.668],[140.50926,40.66505],[140.50899,40.65908],[140.50597,40.6522],[140.49876,40.64584],[140.49186,40.64258],[140.48985,40.6406],[140.48746,40.62373],[140.48876,40.62137],[140.4935,40.61826],[140.496,40.61536]],[[140.60043,40.77581],[140.59867,40.77262],[140.59983,40.77518],[140.60286,40.77722],[140.60731,40.77651],[140.61453,40.77737],[140.62415,40.78122],[140.62621,40.7842],[140.62672,40.78788],[140.6259,40.79162],[140.6222,40.79748],[140.62214,40.79968],[140.623,40.80136],[140.62491,40.80299],[140.63238,40.80646],[140.63719,40.81238],[140.64574,40.81523],[140.65304,40.82442],[140.66399,40.83216],[140.67671,40.83521],[140.68768,40.83368],[140.69733,40.83333],[140.70261,40.83176],[140.70958,40.82689],[140.71587,40.82726],[140.74136,40.8236]],[[140.52669,40.67543],[140.53545,40.67944],[140.54457,40.68815],[140.56097,40.69179],[140.57992,40.71112],[140.58091,40.71919],[140.58303,40.72525],[140.5842,40.73311],[140.5824,40.74528],[140.58305,40.7511],[140.58645,40.75774],[140.5883,40.76507],[140.59688,40.77047],[140.59867,40.77262]],[[140.74133,40.82349],[140.71581,40.82718],[140.70998,40.82673],[140.70751,40.82791]],[[139.31959,37.9639],[139.33473,37.96203],[139.34404,37.95678],[139.34707,37.95623],[139.3501,37.9571],[139.36001,37.96458],[139.36239,37.96812],[139.36319,37.97206],[139.36091,37.97776],[139.36114,37.98063],[139.38422,38.02882],[139.38928,38.03336],[139.39161,38.03764],[139.39831,38.04436],[139.40697,38.04776],[139.40934,38.05186],[139.41508,38.05797],[139.41682,38.06107],[139.42652,38.06284],[139.43959,38.06644],[139.44119,38.06767],[139.44277,38.07714],[139.43843,38.08402],[139.43799,38.08832],[139.43953,38.093],[139.44479,38.10094],[139.45922,38.13951],[139.46048,38.18272],[139.4638,38.18608],[139.46814,38.19415],[139.47431,38.20313],[139.48402,38.21261],[139.50306,38.23906],[139.50414,38.24391],[139.5033,38.25343],[139.49983,38.25662],[139.49935,38.25824],[139.5013,38.26186],[139.50347,38.26386],[139.50504,38.26971],[139.50684,38.27121],[139.51158,38.27248],[139.51876,38.27791],[139.52888,38.29276],[139.53462,38.29725],[139.53883,38.3027],[139.54219,38.30532],[139.55552,38.32325],[139.55524,38.3322],[139.55205,38.33602],[139.54974,38.34528],[139.55105,38.3485],[139.55036,38.35321],[139.55232,38.35805],[139.55308,38.36874],[139.55657,38.37582],[139.55603,38.38041],[139.55404,38.3843],[139.55516,38.38857],[139.55502,38.39195],[139.55709,38.3975],[139.55657,38.40056],[139.55783,38.40555],[139.5655,38.41238],[139.56742,38.41514],[139.56798,38.41861],[139.56744,38.42051],[139.56813,38.42235],[139.57362,38.42489],[139.57778,38.42493],[139.5832,38.42629],[139.58565,38.42863],[139.58849,38.43449],[139.59129,38.43705],[139.59161,38.43874],[139.59076,38.44027],[139.58177,38.44602],[139.57632,38.45122],[139.57318,38.46214],[139.55829,38.46734],[139.55144,38.47427],[139.54301,38.47581],[139.53814,38.47938],[139.53429,38.48105],[139.5289,38.4855],[139.52485,38.48653],[139.52178,38.4884],[139.5216,38.49989],[139.52254,38.5038],[139.52662,38.50975],[139.53329,38.51825],[139.53608,38.52024],[139.54056,38.52644],[139.54222,38.53088],[139.54534,38.53358],[139.55007,38.54033],[139.55093,38.54269],[139.55005,38.5456],[139.55037,38.55105],[139.55226,38.55648],[139.54873,38.56253],[139.54865,38.56477],[139.55498,38.57355],[139.55782,38.57573],[139.56,38.58165],[139.56083,38.58648],[139.5654,38.59242],[139.56487,38.59537],[139.57016,38.59951],[139.57065,38.60284],[139.5748,38.60581],[139.57507,38.6102],[139.57716,38.61181],[139.5859,38.62279],[139.58861,38.62799],[139.5892,38.63153],[139.59214,38.63393],[139.59397,38.63803],[139.59606,38.64012],[139.59652,38.64676],[139.60084,38.65174],[139.602,38.65448],[139.60678,38.66083],[139.61183,38.66424],[139.61103,38.66684],[139.61173,38.66839],[139.61488,38.67063],[139.61873,38.67607],[139.62133,38.67781],[139.62724,38.68576],[139.6336,38.68426],[139.63751,38.68583],[139.64136,38.68849],[139.64306,38.691],[139.64916,38.69388],[139.65121,38.69652],[139.65236,38.70038],[139.65446,38.70261],[139.6678,38.70679],[139.67227,38.70972],[139.67722,38.71571],[139.68647,38.71627],[139.69155,38.72012],[139.70138,38.71837],[139.70559,38.72008],[139.71316,38.71938],[139.7174,38.72135],[139.71944,38.72151],[139.72222,38.72027],[139.72935,38.71082],[139.73134,38.70956],[139.73383,38.70932],[139.74679,38.71177],[139.77109,38.72294],[139.7783,38.72861],[139.79091,38.73325],[139.79941,38.73914],[139.81423,38.74529],[139.82012,38.7491],[139.82703,38.75514],[139.82022,38.74903],[139.81513,38.74566],[139.79947,38.73906],[139.79038,38.73288],[139.7779,38.7283],[139.77198,38.72332],[139.75916,38.71746]],[[139.82703,38.75514],[139.83284,38.75901],[139.83148,38.77893],[139.83468,38.7874],[139.83272,38.8182],[139.83421,38.82199],[139.83289,38.81898],[139.83314,38.81274]],[[140.04646,40.18601],[140.04596,40.18615],[140.05679,40.18444],[140.08636,40.19027],[140.09063,40.19391],[140.09662,40.19436],[140.10257,40.19211],[140.11592,40.19465],[140.11768,40.19549],[140.12338,40.20261],[140.13119,40.2062],[140.13484,40.20963],[140.13997,40.21175],[140.15785,40.21119],[140.18071,40.22014],[140.18691,40.22],[140.19348,40.21842],[140.19828,40.21334],[140.20028,40.20987],[140.20439,40.20815],[140.20809,40.20878],[140.22568,40.21579],[140.23112,40.21621],[140.23953,40.21857],[140.26198,40.21877],[140.26228,40.21798],[140.26055,40.21647],[140.26137,40.21363],[140.26238,40.21218],[140.26409,40.21159],[140.26874,40.21198],[140.27199,40.21381],[140.27817,40.21431],[140.28343,40.21624],[140.29051,40.21476],[140.29735,40.21564],[140.30414,40.2127],[140.30651,40.21253],[140.31001,40.21414],[140.31491,40.21868],[140.32716,40.22259],[140.33136,40.22605],[140.33438,40.23035],[140.33845,40.23124],[140.34156,40.23338],[140.3486,40.23602],[140.3568,40.24275],[140.35952,40.24649],[140.37381,40.25206],[140.3818,40.25208],[140.38669,40.25423],[140.396,40.25584],[140.40227,40.25803],[140.40528,40.26129],[140.41088,40.26405],[140.43203,40.2641],[140.43457,40.26566],[140.43769,40.26975],[140.4415,40.27193],[140.44644,40.27764],[140.45192,40.27912],[140.46143,40.27963],[140.47455,40.27702],[140.48524,40.27677],[140.49298,40.27458],[140.4993,40.27606],[140.50636,40.27537],[140.51415,40.27646],[140.51721,40.27529],[140.52743,40.27523],[140.54917,40.27239],[140.5589,40.27222],[140.56356,40.27113],[140.56514,40.27413],[140.56373,40.27972],[140.56392,40.28978],[140.56013,40.29693],[140.56263,40.30006],[140.56419,40.3038],[140.56844,40.30785],[140.57045,40.31109],[140.57823,40.31809],[140.58087,40.32216],[140.58279,40.32653],[140.58217,40.33271],[140.59526,40.34174],[140.59657,40.3442],[140.59922,40.34584],[140.60077,40.34894],[140.60069,40.35105],[140.5967,40.36219],[140.6034,40.37929],[140.60354,40.38385],[140.60506,40.38859],[140.60553,40.39642],[140.60676,40.39939],[140.6074,40.40498],[140.61192,40.40943],[140.61139,40.4152],[140.61381,40.41738],[140.62102,40.41757],[140.62326,40.4199],[140.62573,40.42062],[140.63572,40.4265],[140.63713,40.42958],[140.63462,40.43368],[140.63581,40.43601],[140.63402,40.44084],[140.63499,40.44302],[140.63402,40.4458],[140.63547,40.44885],[140.63575,40.46152],[140.63253,40.47051],[140.6251,40.4755],[140.62331,40.4855],[140.61681,40.49228],[140.61725,40.4953],[140.61256,40.50072],[140.61208,40.50654],[140.6083,40.51069],[140.60466,40.51229],[140.59984,40.51828],[140.5984,40.51911],[140.58444,40.52063],[140.57968,40.52497],[140.57752,40.52583],[140.56585,40.52343],[140.56214,40.52432],[140.55438,40.53071],[140.55423,40.53251],[140.55574,40.53626],[140.55249,40.54285],[140.55266,40.54947]],[[139.84369,38.97081],[139.83759,38.95414],[139.83767,38.95086],[139.84368,38.9452],[139.85656,38.93831],[139.85852,38.93572],[139.85929,38.93274],[139.85806,38.91246],[139.85544,38.89739],[139.85286,38.89372],[139.83801,38.88281],[139.8487,38.84859],[139.84888,38.84506],[139.8485,38.84874],[139.83788,38.88279],[139.83882,38.88418],[139.85237,38.89345],[139.85508,38.89685],[139.85788,38.91221],[139.85911,38.93324],[139.85642,38.93828],[139.84262,38.94582],[139.83798,38.95006],[139.8372,38.95275],[139.84619,38.97748],[139.85107,38.98384],[139.85167,38.99404],[139.85876,39.00944],[139.86125,39.01688],[139.86178,39.02201],[139.86468,39.0301],[139.86933,39.03892],[139.86989,39.04335],[139.87521,39.06175],[139.87648,39.06322],[139.88116,39.06532],[139.88643,39.07197],[139.88556,39.0747],[139.87958,39.07833],[139.87789,39.08143],[139.87842,39.08544],[139.88127,39.08983],[139.88209,39.09612],[139.87975,39.09909],[139.87821,39.10526],[139.87526,39.10708],[139.87387,39.11045],[139.87059,39.11213],[139.87012,39.11327],[139.87166,39.11671],[139.87756,39.12002],[139.8836,39.12769],[139.88838,39.1296],[139.88846,39.13879],[139.88568,39.14324],[139.88563,39.14528],[139.89542,39.15293],[139.89903,39.15741],[139.89969,39.16175],[139.90509,39.17019],[139.90509,39.17409],[139.90864,39.1777],[139.90815,39.18076],[139.90987,39.18771],[139.90811,39.19071],[139.90837,39.19543],[139.90573,39.19979],[139.90076,39.20461],[139.89988,39.21214],[139.90151,39.22072],[139.90436,39.22438],[139.91195,39.23888],[139.91443,39.24193],[139.92088,39.24386],[139.92675,39.25147],[139.92641,39.25897],[139.9228,39.26646],[139.92476,39.2747],[139.92837,39.27782],[139.94427,39.28328],[139.9506,39.28702],[139.96226,39.28555],[139.97044,39.28833],[139.97348,39.29044],[139.97563,39.29395],[139.97733,39.3028],[139.9836,39.31036],[139.98767,39.31786],[139.987,39.32281],[139.98989,39.32803],[139.99322,39.33179],[139.99475,39.33616],[139.99649,39.33765],[140.00398,39.33972],[140.01128,39.34494],[140.01392,39.34772],[140.01821,39.37669],[140.01983,39.37823],[140.03018,39.38347],[140.03189,39.38519],[140.02983,39.39305],[140.03209,39.40365],[140.03048,39.41137],[140.03102,39.41409],[140.02761,39.4195],[140.02749,39.42568],[140.03299,39.44412],[140.03285,39.44704],[140.03487,39.45228],[140.03504,39.45508],[140.03704,39.45919],[140.03661,39.46155],[140.03934,39.46885],[140.03928,39.47297],[140.04053,39.47706],[140.04213,39.47905],[140.04305,39.48669],[140.04508,39.49162],[140.04818,39.49359],[140.0492,39.49532],[140.04902,39.49705],[140.04656,39.50107],[140.04944,39.51283],[140.04937,39.51656],[140.05181,39.52526],[140.05227,39.53356],[140.05461,39.53822],[140.05384,39.54117],[140.05489,39.54755],[140.05707,39.55432],[140.05688,39.56302],[140.05994,39.57081],[140.05936,39.57752],[140.06046,39.5821],[140.06064,39.59302],[140.0619,39.59866],[140.06139,39.60228],[140.06248,39.60417],[140.06708,39.60813],[140.068,39.61024],[140.06681,39.62009],[140.06979,39.62807],[140.06754,39.63325],[140.06742,39.63744],[140.06532,39.64032],[140.06485,39.64231],[140.06751,39.65339],[140.07023,39.65764],[140.06996,39.67094],[140.07356,39.68158],[140.07059,39.68966],[140.06837,39.7008],[140.06999,39.70451],[140.08023,39.7171],[140.08242,39.71829],[140.08738,39.71863],[140.0831,39.71841]],[[139.83421,38.82199],[139.84592,38.82983],[139.84876,38.83923],[139.84888,38.84506]],[[140.02508,40.1565],[140.03057,40.15983],[140.04125,40.16227],[140.04729,40.16503],[140.0511,40.16846],[140.05711,40.17632],[140.06363,40.18066],[140.07314,40.18325],[140.0928,40.18507],[140.07116,40.18302],[140.0615,40.17963]],[[140.0114,40.11797],[140.01313,40.13151],[140.01925,40.1426],[140.02127,40.15039]],[[140.0928,40.18507],[140.09799,40.18669],[140.10699,40.19102],[140.11794,40.19395],[140.13197,40.19974],[140.15172,40.20181],[140.17153,40.20748],[140.18176,40.20888],[140.18839,40.20837]],[[140.01127,40.11797],[140.01277,40.13059],[140.01501,40.13542]],[[140.08738,39.71863],[140.08752,39.72437],[140.08525,39.72682],[140.0806,39.72914],[140.07763,39.73519],[140.07081,39.74108],[140.06752,39.74756],[140.06687,39.75315],[140.06896,39.76982],[140.06909,39.77674],[140.06573,39.78427],[140.06031,39.80078],[140.05573,39.80802],[140.05459,39.82904],[140.05017,39.84292],[140.05237,39.84863],[140.06547,39.85462],[140.06851,39.85696],[140.08825,39.88712],[140.09097,39.89256],[140.09071,39.89599],[140.08836,39.89945],[140.08451,39.90179],[140.07799,39.90356],[140.07664,39.90469],[140.07604,39.90648],[140.07722,39.91906],[140.08147,39.93212],[140.08458,39.93799],[140.07954,39.97448],[140.07368,39.98037],[140.0724,39.98392],[140.07301,39.98842],[140.07507,39.99153],[140.07714,40.00125],[140.07958,40.00784],[140.08029,40.02123],[140.07897,40.0265],[140.07831,40.04499],[140.0694,40.06459],[140.06449,40.07041],[140.04252,40.0872],[140.03832,40.0885],[140.03609,40.09092],[140.02592,40.09541],[140.02347,40.09756],[140.00749,40.10447],[140.00468,40.11038],[140.00898,40.13237],[140.01182,40.13798],[140.01186,40.1401],[140.01881,40.15695],[140.01331,40.16155],[140.01164,40.16516],[140.01095,40.17667],[140.01166,40.18407],[140.01271,40.18726],[140.01442,40.18939],[140.01726,40.19059],[140.03287,40.19162],[140.03605,40.19092],[140.04596,40.18615]],[[140.51619,40.25063],[140.52837,40.26868],[140.53946,40.2817],[140.54187,40.28757],[140.55093,40.2921],[140.55591,40.29986],[140.56075,40.30263],[140.55595,40.29974],[140.5513,40.29225],[140.5441,40.28908]],[[139.05385,37.92459],[139.05967,37.92137],[139.05179,37.92534],[139.04495,37.92663],[139.05385,37.92459]],[[140.11288,39.78162],[140.10569,39.78787],[140.10234,39.79282],[140.09139,39.81368],[140.08744,39.82876],[140.07943,39.83952],[140.07686,39.84713],[140.07153,39.85435],[140.071,39.85846]],[[140.08721,39.71861],[140.08733,39.72447],[140.08515,39.72678],[140.08051,39.72907],[140.07701,39.73582],[140.07089,39.7408],[140.06851,39.74439],[140.06706,39.74974]],[[140.51584,40.25026],[140.50204,40.23742],[140.49556,40.23353],[140.48654,40.2296],[140.47459,40.22624],[140.46264,40.22468],[140.45376,40.2248],[140.44364,40.2267],[140.43755,40.2261],[140.43344,40.22426],[140.41625,40.21153],[140.39737,40.20248],[140.38658,40.1993],[140.37315,40.19867]],[[140.51303,40.24752],[140.51905,40.25412]],[[140.51878,40.25353],[140.51374,40.24803]],[[140.37316,40.19873],[140.38332,40.19897],[140.38998,40.20007],[140.40776,40.20731]],[[140.10378,39.79055],[140.10659,39.78712],[140.11296,39.78168]],[[140.68385,40.81493],[140.69066,40.81264]],[[139.83278,38.7596],[139.83267,38.76124]],[[140.69037,40.83345],[140.67649,40.8351],[140.66377,40.83197],[140.65315,40.82436],[140.6504,40.82007],[140.64584,40.81515],[140.64215,40.81396]],[[140.51597,40.25022],[140.50868,40.24329]],[[140.52524,40.26377],[140.51632,40.25058]],[[140.56075,40.30263],[140.57241,40.30708],[140.57935,40.31339]],[[140.07322,39.70847],[140.06957,39.70367],[140.06846,39.70036],[140.07072,39.68964],[140.07368,39.68206],[140.06992,39.67035]],[[140.26123,40.21689],[140.2591,40.21859]]]}}]}