{"type":"FeatureCollection","features":[{"type":"Feature","properties":{"route_id":"11","route_number":11,"name":"国道11号","source":"OpenStreetMap contributors (ODbL)","osm_relations":[12579,2083890,2083891,2083893,2083894,2083895,8907353,8907354,8907355]},"geometry":{"type":"MultiLineString","coordinates":[[[134.12604,34.34353],[134.11689,34.34016],[134.08048,34.33951],[134.07324,34.33842],[134.04783,34.34204],[134.07324,34.33835],[134.08046,34.33944],[134.11631,34.33997],[134.12249,34.34162],[134.12604,34.34353],[134.13166,34.34247],[134.13993,34.33727],[134.15495,34.33533],[134.15772,34.3308],[134.16638,34.32428],[134.17481,34.32138],[134.18207,34.32025],[134.19139,34.32381],[134.19709,34.32156],[134.20289,34.3237],[134.2057,34.32301],[134.21029,34.32347],[134.21281,34.32176],[134.21799,34.31455],[134.22233,34.3129],[134.23028,34.31202],[134.2413,34.30599],[134.2441,34.29787],[134.25077,34.28633],[134.26093,34.28095],[134.277,34.27982],[134.28293,34.27796],[134.28379,34.27521],[134.2886,34.27185],[134.29015,34.26798],[134.29224,34.26537],[134.29273,34.26294],[134.29612,34.25821],[134.30207,34.25331],[134.32866,34.24929],[134.33631,34.24984],[134.34489,34.24747],[134.35279,34.24366],[134.36879,34.24286],[134.3751,34.2379],[134.38053,34.23698],[134.38608,34.2286],[134.38697,34.22597],[134.38944,34.2239],[134.39214,34.22326],[134.39792,34.2247],[134.40296,34.22456],[134.41509,34.21921],[134.42255,34.21401],[134.43775,34.20645],[134.44219,34.20738],[134.44884,34.20567],[134.45468,34.20517],[134.46079,34.20709],[134.47256,34.20879],[134.48129,34.21358],[134.48245,34.21643],[134.48462,34.21828],[134.48852,34.21942],[134.49435,34.22356],[134.50608,34.22571],[134.51388,34.2261],[134.52406,34.22511],[134.53137,34.2267],[134.54028,34.22613],[134.5434,34.22379],[134.55002,34.22342],[134.55832,34.22144],[134.55902,34.21548],[134.56108,34.21092],[134.56327,34.20882],[134.56496,34.20571],[134.56975,34.20401],[134.57106,34.20111],[134.5733,34.19882],[134.57368,34.19552],[134.57734,34.19226],[134.5835,34.18074],[134.5809,34.17097],[134.58111,34.16047],[134.57891,34.14728],[134.57592,34.14085],[134.57377,34.12867],[134.57439,34.12593],[134.57785,34.12261],[134.5787,34.12066],[134.57538,34.10118],[134.56494,34.08472],[134.55951,34.07965],[134.55719,34.06653]],[[134.55703,34.06655],[134.5594,34.07973],[134.56445,34.08435],[134.57533,34.1015],[134.57857,34.12064],[134.57774,34.12257],[134.57435,34.12576],[134.57365,34.12868],[134.57559,34.14025],[134.57864,34.14681],[134.58101,34.16124],[134.58078,34.17099],[134.58336,34.18077],[134.57716,34.19232],[134.57355,34.19552],[134.5732,34.1988],[134.57091,34.20106],[134.56967,34.20393],[134.56576,34.20531]],[[134.04783,34.34204],[134.04616,34.32993],[134.03854,34.31588],[134.03748,34.31147],[134.02803,34.31263],[134.01405,34.30789],[134.0008,34.30558],[133.97992,34.30672],[133.95915,34.29786],[133.94351,34.29657],[133.93462,34.29815],[133.92698,34.29643],[133.92375,34.29731],[133.91936,34.30098],[133.91095,34.30493],[133.90366,34.31723],[133.891,34.31245],[133.88633,34.30862],[133.8831,34.3042],[133.87368,34.29934],[133.87073,34.29943],[133.86386,34.30279],[133.8486,34.30182],[133.83731,34.29547],[133.82661,34.28507],[133.81168,34.27741],[133.80571,34.27054],[133.79036,34.26187],[133.77827,34.25744],[133.77431,34.25315],[133.77122,34.24775],[133.76248,34.24229],[133.75121,34.23676],[133.74168,34.22411],[133.73889,34.22395],[133.73586,34.22263],[133.72975,34.21736],[133.72541,34.20918],[133.72172,34.20551],[133.72011,34.1998],[133.71645,34.17612],[133.71417,34.16786],[133.71177,34.16405],[133.70627,34.15803],[133.70402,34.15072],[133.70013,34.14301],[133.68859,34.12626],[133.67761,34.11969],[133.66339,34.10469],[133.6531,34.08985],[133.64758,34.08499],[133.63846,34.08258],[133.63534,34.06644],[133.62819,34.05321],[133.6226,34.04916],[133.61575,34.04708],[133.60983,34.04346],[133.59953,34.04229],[133.59205,34.0342],[133.58568,34.03275],[133.5804,34.0241],[133.5766,34.02056],[133.57595,34.01848],[133.57148,34.01597],[133.57125,34.0135],[133.57296,34.00868],[133.57108,34.0054],[133.55077,33.99109],[133.54612,33.98657],[133.5414,33.98386],[133.54075,33.98245],[133.53499,33.97956],[133.53228,33.97572],[133.52386,33.97109],[133.51563,33.96814],[133.50577,33.96778],[133.49436,33.9661],[133.48202,33.96751],[133.47727,33.96694],[133.4708,33.96514],[133.46567,33.96477],[133.46148,33.96296],[133.44493,33.96046],[133.44074,33.95843],[133.42521,33.95587],[133.40991,33.95197],[133.40244,33.95166],[133.38543,33.94502],[133.3769,33.94401],[133.37111,33.93926],[133.36658,33.93674],[133.35086,33.94268],[133.34202,33.94353],[133.3338,33.93955],[133.30082,33.93638],[133.28347,33.93167],[133.26699,33.92828],[133.25003,33.92148],[133.24056,33.91977],[133.23014,33.92113],[133.22789,33.9224],[133.22426,33.92627],[133.22914,33.92147],[133.23541,33.92012]],[[133.90469,34.31537],[133.90264,34.31663],[133.89108,34.31239],[133.88641,34.30858],[133.88317,34.30414],[133.87341,34.29917],[133.87014,34.29939],[133.86363,34.30271],[133.85736,34.30182],[133.85112,34.30239],[133.84816,34.30153],[133.83773,34.29566],[133.82668,34.28502],[133.81223,34.27767],[133.80576,34.27043],[133.78986,34.26154],[133.77806,34.25718],[133.77388,34.25238],[133.77182,34.24816],[133.7647,34.24367]],[[134.04797,34.34202],[134.04631,34.32998],[134.03861,34.3157],[134.03757,34.31124],[134.02807,34.31245],[134.01441,34.30779],[134.00077,34.30545],[133.98047,34.30669],[133.97675,34.30566],[133.95939,34.29778],[133.9435,34.29646],[133.93509,34.29808],[133.92697,34.29635],[133.92371,34.29724],[133.9193,34.30092],[133.91106,34.30471],[133.90435,34.31595]],[[133.23538,33.92003],[133.22028,33.91756],[133.21689,33.91559],[133.19992,33.91159],[133.18682,33.90618],[133.18094,33.89999],[133.16563,33.89533],[133.15725,33.89455],[133.1304,33.89541],[133.11015,33.89725],[133.09673,33.89514],[133.09362,33.89392],[133.08776,33.89052],[133.08177,33.88466],[133.07721,33.88186],[133.06458,33.87669],[133.05835,33.87227],[133.05211,33.8701],[133.04844,33.86642],[133.03484,33.85964],[133.01433,33.85622],[133.00982,33.85217],[133.00183,33.85064],[133.00215,33.84777],[133.0011,33.84503],[132.99517,33.84349],[132.99208,33.84019],[132.99004,33.83422],[132.9914,33.82913],[132.98891,33.82724],[132.98819,33.82553],[132.98317,33.82406],[132.98124,33.8219],[132.98081,33.82063],[132.98258,33.81795],[132.98002,33.81534],[132.97914,33.81157],[132.9766,33.81061],[132.97391,33.8077],[132.97036,33.80539],[132.96801,33.80081],[132.95949,33.7943],[132.95687,33.79431],[132.95428,33.79596],[132.95185,33.7955],[132.94932,33.79612],[132.94423,33.79521],[132.94005,33.79328],[132.91783,33.79525],[132.91148,33.79409],[132.9035,33.79795],[132.89943,33.80191],[132.8966,33.80353],[132.87775,33.80752],[132.87362,33.80657],[132.86534,33.80055],[132.86056,33.79829],[132.84953,33.7962],[132.83921,33.79258],[132.83662,33.79244],[132.83388,33.79398],[132.82092,33.80819],[132.80188,33.80889],[132.7992,33.80973],[132.79335,33.81778],[132.78741,33.82121],[132.78165,33.82876],[132.7859,33.82303]],[[134.14291,34.30146],[134.12876,34.29761],[134.11975,34.29706],[134.03757,34.31124]],[[134.03748,34.31147],[134.1198,34.29725],[134.12574,34.29752],[134.14275,34.30179]],[[133.20315,33.93174],[133.21743,33.93261],[133.2196,33.93149],[133.22426,33.92627]],[[132.78582,33.82299],[132.78154,33.82871],[132.78732,33.82116],[132.79325,33.81773],[132.79863,33.80997],[132.80191,33.80881],[132.82086,33.8081],[132.83377,33.79397],[132.83659,33.79235],[132.83955,33.79258],[132.84955,33.79612],[132.8613,33.79847],[132.86549,33.80053],[132.87364,33.80648],[132.87784,33.80744],[132.89699,33.80326],[132.90373,33.79768],[132.911,33.79412],[132.91729,33.79514],[132.92029,33.79482]],[[133.11125,33.91035],[133.10935,33.9088],[133.10736,33.9045],[133.10584,33.90304],[133.09652,33.90062],[133.07792,33.88843]],[[133.5835,33.99612],[133.58135,33.9941],[133.58096,33.99049],[133.57481,33.98574],[133.57204,33.98545],[133.56504,33.98746],[133.56284,33.98738],[133.55894,33.9853],[133.55236,33.97967],[133.54145,33.97398],[133.53726,33.97272],[133.53107,33.97414],[133.5275,33.9731]],[[133.52934,33.97399],[133.53143,33.97421],[133.53696,33.97283],[133.54138,33.9741],[133.55163,33.97935],[133.55651,33.98273],[133.55895,33.98543],[133.56261,33.98742],[133.56514,33.98753],[133.57232,33.98558],[133.57464,33.98587],[133.58059,33.99038],[133.58114,33.99417],[133.58342,33.99618]],[[132.76462,33.83945],[132.76515,33.84115],[132.77544,33.84178],[132.77536,33.83653],[132.78165,33.82876]],[[132.78154,33.82871],[132.77527,33.83648],[132.77532,33.84172],[132.76522,33.84102],[132.76475,33.83938]],[[133.20985,33.93218],[133.20305,33.93157]],[[134.35335,34.23993],[134.3448,34.24364],[134.33676,34.24187],[134.33133,34.24223],[134.31512,34.24878],[134.30569,34.24991],[134.297,34.2499],[134.29438,34.25201]],[[133.26856,33.9285],[133.26402,33.9273],[133.24962,33.92126],[133.23981,33.91957],[133.235,33.9198]],[[133.70425,34.15142],[133.6988,34.14106]]]}}]}