{"type":"FeatureCollection","features":[{"type":"Feature","properties":{"route_id":"438","route_number":438,"name":"国道438号","source":"OpenStreetMap contributors (ODbL)","osm_relations":[12873,9824518,9825001]},"geometry":{"type":"MultiLineString","coordinates":[[[134.294,33.95573],[134.29213,33.95752],[134.29082,33.95666],[134.29174,33.95513],[134.29449,33.95595],[134.29607,33.95739],[134.30226,33.95629],[134.30549,33.95951],[134.3128,33.96021],[134.31653,33.96385],[134.32113,33.96485],[134.32894,33.96405],[134.34522,33.96884],[134.35245,33.96828],[134.35551,33.96649],[134.36062,33.96778],[134.3642,33.97292],[134.37025,33.97489],[134.37345,33.97785],[134.37906,33.98028],[134.38055,33.98392],[134.3909,33.98747],[134.39779,33.98797],[134.40416,33.98654],[134.41469,33.98756],[134.42423,33.98584],[134.43227,33.98811],[134.43535,33.98988],[134.43857,33.99004],[134.44177,33.98905],[134.44947,33.99295],[134.45996,33.99322],[134.46254,33.99611],[134.47708,34.00036],[134.47757,34.0025],[134.47553,34.00698],[134.47831,34.00937],[134.48015,34.01776],[134.48607,34.01666],[134.48621,34.01854],[134.48961,34.0202],[134.48997,34.02618],[134.49177,34.02789],[134.49503,34.02696],[134.49808,34.02476],[134.50179,34.0251],[134.50391,34.02625],[134.50802,34.03047],[134.50915,34.03423],[134.51588,34.03682],[134.51739,34.03882],[134.52392,34.04376],[134.52926,34.04684],[134.53548,34.05318],[134.53952,34.05591],[134.54639,34.05623],[134.54723,34.0587],[134.54738,34.06728],[134.54612,34.07057],[134.54962,34.07274],[134.55346,34.07153],[134.55815,34.07164],[134.55345,34.07145],[134.54984,34.07267]],[[134.54978,34.07259],[134.54622,34.07034]],[[134.29174,33.95513],[134.2886,33.95499],[134.28764,33.9575],[134.28575,33.95702],[134.28468,33.95828],[134.28078,33.95781],[134.27875,33.95965],[134.27707,33.95956],[134.27624,33.96144],[134.2745,33.96044],[134.26694,33.95961],[134.26289,33.9572],[134.26308,33.95532],[134.25952,33.94986],[134.25376,33.94874],[134.2527,33.94715],[134.24192,33.94302],[134.2411,33.94197],[134.24185,33.94136],[134.241,33.93903],[134.24162,33.93832],[134.24131,33.93671],[134.24014,33.93659],[134.24084,33.93814],[134.24002,33.93957],[134.24035,33.93755],[134.23852,33.93683],[134.23908,33.9339],[134.24029,33.93295],[134.23908,33.93199],[134.23787,33.93193],[134.23955,33.9328],[134.23642,33.93449],[134.23727,33.9354],[134.23464,33.93681],[134.23462,33.93846],[134.23112,33.93901],[134.23137,33.94165],[134.22835,33.94117],[134.22615,33.94338],[134.22617,33.9445],[134.22346,33.94515],[134.21981,33.94381],[134.21902,33.94325],[134.22089,33.94373],[134.21821,33.94259],[134.22323,33.9434],[134.22366,33.94175],[134.22462,33.94136],[134.22278,33.94026],[134.22415,33.93818],[134.22247,33.9378],[134.22235,33.93688],[134.22046,33.93728],[134.21672,33.93611],[134.21587,33.93398],[134.21795,33.9327],[134.21472,33.93152],[134.21566,33.92966],[134.21171,33.93187],[134.21061,33.93008],[134.20519,33.93146],[134.20411,33.92947],[134.20458,33.92804],[134.20392,33.92601],[134.2003,33.92566],[134.19989,33.92325],[134.19787,33.92212],[134.19911,33.92048],[134.19842,33.91845],[134.19274,33.91598],[134.19192,33.91368],[134.17625,33.91459],[134.16839,33.91318],[134.16775,33.91214],[134.16798,33.90727],[134.16522,33.90159],[134.16102,33.89996],[134.15973,33.89777],[134.15672,33.89774],[134.14965,33.89313],[134.14858,33.89091],[134.1402,33.88791],[134.13446,33.88357],[134.13416,33.88203],[134.13208,33.88039],[134.13171,33.87835],[134.12607,33.87718],[134.12496,33.87543],[134.12451,33.87616],[134.12444,33.8749],[134.12071,33.87463],[134.12377,33.87575],[134.12454,33.87773],[134.12378,33.87874],[134.12659,33.8795],[134.12583,33.88064],[134.12627,33.88122],[134.12566,33.87947],[134.12185,33.87977],[134.12228,33.87928],[134.12138,33.87809],[134.12278,33.87788],[134.12133,33.87633],[134.12029,33.8763],[134.12004,33.87731],[134.11844,33.87826],[134.11688,33.87676],[134.11569,33.87718],[134.1146,33.87574],[134.10985,33.87612],[134.10968,33.87495],[134.10681,33.87504],[134.1061,33.87306],[134.10623,33.87534],[134.10875,33.87557],[134.10907,33.87728],[134.11167,33.8769],[134.11218,33.87807],[134.11331,33.87788],[134.11365,33.87895],[134.11499,33.87953],[134.11549,33.88227],[134.11767,33.88229],[134.11486,33.88267],[134.11489,33.8816],[134.11362,33.88087],[134.11296,33.8793],[134.11149,33.87933],[134.11032,33.87814],[134.10951,33.87934],[134.10819,33.8796],[134.10732,33.8791],[134.10729,33.87762],[134.10323,33.8774],[134.10356,33.87615],[134.10112,33.87446],[134.09584,33.87549],[134.09633,33.87462],[134.09465,33.87173],[134.09496,33.8708],[134.09241,33.8693],[134.09148,33.86692],[134.08982,33.86735],[134.08942,33.86826],[134.0861,33.869],[134.08602,33.87039],[134.08415,33.87012],[134.08292,33.86873],[134.08235,33.87022],[134.081,33.87078],[134.07992,33.86997],[134.07813,33.87094],[134.0768,33.87022],[134.07542,33.87138],[134.07618,33.87221],[134.07546,33.87286],[134.0711,33.8739],[134.0685,33.87559],[134.0662,33.87416],[134.06308,33.87357],[134.06273,33.87227],[134.06134,33.87342],[134.05975,33.87324],[134.0599,33.87392],[134.05857,33.87499],[134.05937,33.87773],[134.05537,33.87788],[134.05409,33.87877],[134.05261,33.87754],[134.05095,33.87997],[134.0498,33.88041],[134.05126,33.88029],[134.05278,33.87869],[134.05409,33.88052],[134.05524,33.87993],[134.05635,33.8814],[134.06134,33.88225],[134.06103,33.883],[134.0581,33.88248],[134.05588,33.88296],[134.05312,33.88182],[134.05023,33.88447],[134.04703,33.88491],[134.04904,33.88562],[134.05267,33.88505],[134.05069,33.88546],[134.0506,33.88728],[134.04855,33.88682],[134.05056,33.88809],[134.0521,33.88668],[134.05251,33.8876],[134.05538,33.88698],[134.05583,33.88776],[134.05709,33.88749],[134.06101,33.88891],[134.06298,33.8885],[134.0641,33.89064],[134.06745,33.8917],[134.06379,33.89129],[134.06249,33.88994],[134.05994,33.89033],[134.06203,33.89074],[134.06314,33.89249],[134.06532,33.89369],[134.0683,33.89375],[134.07244,33.89246],[134.07169,33.89403],[134.0741,33.89735],[134.07099,33.89463],[134.07044,33.89556],[134.07174,33.89691],[134.07176,33.89827],[134.07499,33.90185],[134.07552,33.90541],[134.07698,33.90691],[134.0768,33.90839],[134.07499,33.91046],[134.0662,33.91349],[134.06796,33.91648],[134.06599,33.91804],[134.06701,33.91974],[134.0655,33.92103],[134.06531,33.92348],[134.06368,33.92471],[134.06479,33.92624],[134.06406,33.92724],[134.06479,33.92846],[134.06399,33.9288],[134.06368,33.93131],[134.06092,33.93485],[134.06253,33.93783],[134.06144,33.94314],[134.06336,33.94888],[134.06124,33.95139],[134.06391,33.95238],[134.06345,33.95447],[134.07046,33.95614],[134.07275,33.95702],[134.07334,33.95851],[134.07969,33.95996],[134.08284,33.96481],[134.08206,33.96626],[134.08271,33.96939],[134.08106,33.97091],[134.07992,33.97656],[134.07668,33.98124],[134.0781,33.98403],[134.0807,33.98592],[134.07713,33.98877],[134.08284,33.98926],[134.08531,33.99534],[134.08353,34.00018],[134.0792,34.003],[134.076,34.00662],[134.07537,34.01063],[134.08008,34.01313],[134.08053,34.01449],[134.0793,34.01514],[134.07717,34.01438],[134.07394,34.0171],[134.07311,34.01891],[134.06886,34.01779],[134.06911,34.01948],[134.06601,34.02135],[134.06615,34.02442],[134.06439,34.02685],[134.06752,34.04016],[134.06337,34.03738],[134.06421,34.04169],[134.06363,34.04368],[134.0558,34.04228],[134.05104,34.04257],[134.05018,34.05013],[134.05449,34.05141],[134.05352,34.05707],[134.05208,34.05859],[134.05489,34.06316],[134.05387,34.06363],[134.0501,34.0617],[134.04932,34.06234],[134.05212,34.06495],[134.05139,34.06702],[134.0534,34.06735],[134.05464,34.06875],[134.05498,34.07065],[134.05384,34.07469],[134.05417,34.07781],[134.05036,34.07919],[134.05257,34.08101],[134.05103,34.08156],[134.05152,34.08286],[134.04875,34.08239],[134.04497,34.08784],[134.03684,34.09067],[134.0175,34.09523],[134.01001,34.09442],[134.00245,34.09759],[133.99881,34.10228],[133.99104,34.10627],[133.99094,34.10842],[133.98512,34.11064],[133.97868,34.10965],[133.97535,34.11133],[133.97218,34.11476],[133.97333,34.11903],[133.97081,34.12349],[133.97092,34.12583],[133.9665,34.12859],[133.96656,34.13134],[133.9663,34.12994]],[[133.84868,34.30193],[133.8482,34.30013],[133.84884,34.29674],[133.85444,34.28886],[133.85729,34.27732],[133.85698,34.27284],[133.85487,34.27023],[133.85537,34.25794],[133.85627,34.25538],[133.8557,34.25313],[133.8617,34.24432],[133.85945,34.24304],[133.85757,34.2385],[133.85666,34.23154],[133.86019,34.22211],[133.86002,34.2198],[133.85764,34.21575],[133.85718,34.21295],[133.85725,34.20339],[133.85833,34.19959],[133.8627,34.1976],[133.8679,34.19308],[133.87163,34.19103],[133.89055,34.17272],[133.89374,34.17231],[133.89697,34.16982],[133.89995,34.16884],[133.90925,34.17013],[133.91774,34.1664],[133.92325,34.1629],[133.93229,34.1602],[133.93862,34.15714],[133.94349,34.15604],[133.94719,34.15122],[133.94735,34.14853],[133.94853,34.14647],[133.95951,34.14137],[133.96535,34.13548],[133.96656,34.13134]],[[133.85567,34.24902],[133.85241,34.25397],[133.85151,34.26584],[133.85236,34.26817],[133.85661,34.27226],[133.85721,34.27713],[133.85432,34.28884],[133.84875,34.29669],[133.84853,34.30185]],[[133.9406,34.15684],[133.93821,34.15729]],[[133.85661,34.22448],[133.85602,34.22788],[133.85665,34.23066],[133.85611,34.22788],[133.85672,34.2245]],[[133.85487,34.27023],[133.85245,34.26813],[133.85166,34.2662],[133.85253,34.25385]],[[133.85739,34.23911],[133.85602,34.24807]]]}}]}