{"type":"FeatureCollection","features":[{"type":"Feature","properties":{"route_id":"495","route_number":495,"name":"国道495号","source":"OpenStreetMap contributors (ODbL)","osm_relations":[9498346,9500290]},"geometry":{"type":"MultiLineString","coordinates":[[[130.44002,33.66432],[130.44252,33.66862],[130.44272,33.67049],[130.4356,33.6817],[130.43399,33.68887],[130.43453,33.69318],[130.43677,33.69811],[130.43999,33.70034],[130.44351,33.71166],[130.4522,33.7175],[130.46133,33.72887],[130.47183,33.7472],[130.47804,33.76316],[130.47039,33.7629],[130.47069,33.76587],[130.4728,33.76909],[130.47288,33.77411],[130.4707,33.78248],[130.46703,33.78587],[130.47265,33.79577],[130.47477,33.80107],[130.48148,33.80803],[130.48249,33.8131],[130.48597,33.82055],[130.49126,33.82733],[130.4904,33.83191],[130.48433,33.84005],[130.48413,33.84255],[130.48546,33.84486],[130.48833,33.84635],[130.49764,33.84618],[130.50797,33.84905],[130.52087,33.85758],[130.52607,33.85938],[130.5358,33.86056],[130.54876,33.85655],[130.56059,33.85806],[130.56305,33.8597],[130.56619,33.85998],[130.56761,33.86226],[130.57006,33.86196],[130.57155,33.86284],[130.5696,33.86398],[130.57205,33.86452],[130.57269,33.86879],[130.57517,33.87395],[130.57799,33.87596],[130.5997,33.87439],[130.60742,33.86899],[130.61433,33.86716],[130.62149,33.86721],[130.62394,33.86505],[130.62775,33.86424],[130.63135,33.86566],[130.64001,33.86698],[130.65105,33.87218],[130.6529,33.87402],[130.66255,33.87583],[130.66869,33.87892]],[[130.80614,33.90198],[130.80803,33.90063],[130.81053,33.90183],[130.81184,33.91038],[130.80463,33.91122],[130.80244,33.91284],[130.80145,33.91432],[130.80122,33.92261],[130.80131,33.91458],[130.80219,33.91297],[130.80462,33.91114],[130.81184,33.91017]],[[130.80124,33.92246],[130.79546,33.92326],[130.79061,33.92269],[130.77387,33.92494],[130.75772,33.91891],[130.75521,33.91864],[130.7528,33.91948],[130.75058,33.92223],[130.74247,33.92649],[130.73787,33.92616],[130.72916,33.92748],[130.72681,33.93014],[130.71768,33.92914],[130.71283,33.93051],[130.70381,33.93505],[130.70131,33.93421],[130.69059,33.93411],[130.68926,33.93272],[130.68965,33.9277],[130.69071,33.92548],[130.68958,33.92209],[130.69003,33.91999],[130.6875,33.91884],[130.68436,33.9187],[130.68145,33.91656],[130.67155,33.91288],[130.6695,33.90919],[130.66588,33.90716],[130.66456,33.90471],[130.66632,33.90105],[130.66937,33.8985],[130.66215,33.89269],[130.66787,33.88979],[130.66917,33.88247],[130.66867,33.87883],[130.66259,33.87575],[130.65297,33.87397],[130.65126,33.8722],[130.64316,33.86849]],[[130.73787,33.92616],[130.72868,33.924],[130.72553,33.92241],[130.72172,33.91747],[130.72174,33.91351],[130.71918,33.9126],[130.71567,33.9126],[130.71113,33.91061],[130.70312,33.9108],[130.69967,33.90907]],[[130.81184,33.91038],[130.81062,33.90174],[130.80803,33.90056],[130.80602,33.90197]],[[130.6996,33.90915],[130.70298,33.91084],[130.71095,33.91066],[130.7157,33.91269],[130.71916,33.91267],[130.72162,33.91354],[130.72138,33.91708],[130.72568,33.9227],[130.72862,33.92408],[130.73845,33.92636],[130.74299,33.92642],[130.75068,33.92228],[130.75303,33.91943],[130.75556,33.91869],[130.77383,33.92501],[130.79056,33.92277],[130.79543,33.92333],[130.80122,33.92261]],[[130.43901,33.66078],[130.4396,33.66395],[130.44202,33.66768]],[[130.67531,33.91406],[130.67847,33.91532]],[[130.72174,33.91351],[130.72165,33.91368]]]}}]}