{"type":"FeatureCollection","features":[{"type":"Feature","properties":{"route_id":"300","route_number":300,"name":"国道300号","source":"OpenStreetMap contributors (ODbL)","osm_relations":[8839514,10601140,10601141,10601142]},"geometry":{"type":"MultiLineString","coordinates":[[[138.7225,35.48345],[138.72723,35.48246],[138.73397,35.48706],[138.73741,35.48853],[138.7567,35.49139],[138.76078,35.49075],[138.78019,35.48246],[138.76078,35.49086],[138.7556,35.49155],[138.73695,35.48847],[138.72685,35.48251],[138.71834,35.48472],[138.71258,35.4822],[138.69825,35.47967],[138.69288,35.47963],[138.68803,35.47745],[138.68317,35.47812],[138.6786,35.47769],[138.67549,35.4786],[138.66236,35.47723],[138.64466,35.48796],[138.63861,35.48605],[138.63557,35.48641],[138.6332,35.48565],[138.6237,35.48952],[138.62001,35.48748],[138.61783,35.48352],[138.6071,35.47825],[138.60765,35.47449],[138.61082,35.47441],[138.61367,35.4716],[138.61281,35.46975],[138.60613,35.46492],[138.60575,35.46271],[138.60378,35.46328],[138.59724,35.47101],[138.59606,35.47345],[138.59355,35.47402],[138.59403,35.47628],[138.59325,35.47714],[138.58975,35.47646],[138.58665,35.47412],[138.5839,35.47412],[138.58272,35.47567],[138.57542,35.47431],[138.56864,35.47698],[138.56573,35.47664],[138.56432,35.47918],[138.56273,35.47768],[138.56012,35.47788],[138.55954,35.47967],[138.55663,35.48222],[138.55522,35.48032],[138.54913,35.47851],[138.55001,35.47811],[138.55104,35.47911],[138.55316,35.4777],[138.55353,35.47861],[138.55634,35.47951],[138.55572,35.47808],[138.55631,35.47661],[138.55559,35.47661],[138.55591,35.47748],[138.55503,35.47803],[138.55248,35.47659],[138.55462,35.47689],[138.55393,35.47567],[138.5553,35.47536],[138.55286,35.47563],[138.54702,35.4742],[138.54582,35.47513],[138.54193,35.47495]],[[138.44477,35.4208],[138.44887,35.41934],[138.45642,35.42028],[138.45937,35.4215],[138.46423,35.42535],[138.46774,35.42529],[138.47424,35.42757],[138.47566,35.43403],[138.47485,35.43869],[138.4776,35.44001],[138.48316,35.44574],[138.48178,35.45379],[138.4837,35.4578],[138.48782,35.46261],[138.49252,35.46321],[138.50127,35.46673],[138.50441,35.46546],[138.50852,35.4661],[138.51941,35.47086],[138.52195,35.47091],[138.52617,35.47315],[138.53151,35.47318],[138.5357,35.47454]],[[138.78019,35.48246],[138.79182,35.47506]]]}}]}