{"type":"FeatureCollection","features":[{"type":"Feature","properties":{"route_id":"269","route_number":269,"name":"国道269号","source":"OpenStreetMap contributors (ODbL)","osm_relations":[9702417,9702458,9702807,9705423,9706190,10365497,12522474]},"geometry":{"type":"MultiLineString","coordinates":[[[131.4233,31.91655],[131.41601,31.91793],[131.41263,31.91015],[131.40589,31.90205],[131.40682,31.89524],[131.40643,31.89323],[131.40329,31.89002],[131.40163,31.88658],[131.39298,31.87977],[131.39183,31.87607],[131.39287,31.87001],[131.39175,31.86765],[131.38628,31.86221],[131.38477,31.85937],[131.38004,31.85773],[131.37344,31.85937],[131.36887,31.85941],[131.36348,31.85539],[131.35175,31.84951],[131.33262,31.8374],[131.32757,31.83678],[131.31434,31.83095],[131.30368,31.8313],[131.29108,31.83341],[131.28488,31.83157],[131.28108,31.83137],[131.27811,31.82974],[131.27313,31.82922],[131.26787,31.83008],[131.26317,31.83483],[131.25947,31.8344],[131.2548,31.83656],[131.25172,31.83534],[131.25038,31.83581],[131.24893,31.83527],[131.23798,31.83664],[131.23553,31.83529],[131.23439,31.83644],[131.23234,31.83676],[131.23204,31.83349],[131.23113,31.83332],[131.22866,31.83498],[131.22538,31.83046],[131.22136,31.82924],[131.22108,31.82733],[131.21713,31.82351],[131.21609,31.82041],[131.214,31.81842],[131.21249,31.81375],[131.21263,31.80936],[131.2075,31.80426],[131.20718,31.80088],[131.20477,31.79606],[131.20194,31.79339],[131.19913,31.78888],[131.19184,31.7884],[131.18898,31.79218],[131.18077,31.79347],[131.17775,31.79543],[131.1761,31.79756],[131.17114,31.80038],[131.16818,31.80071],[131.16485,31.79988],[131.15489,31.78744],[131.15369,31.78501],[131.15355,31.78166],[131.15435,31.77966],[131.15044,31.7793],[131.14754,31.7781],[131.13892,31.77256],[131.13537,31.76915],[131.12058,31.76501],[131.10912,31.75922],[131.09489,31.74768],[131.09069,31.74303],[131.08399,31.73939],[131.08007,31.73853],[131.07775,31.73389],[131.06886,31.73525],[131.06786,31.7304],[131.06114,31.7212],[131.06004,31.7139],[131.05501,31.71012],[131.05179,31.70957],[131.05031,31.70547],[131.04491,31.70279],[131.03714,31.69301],[131.03049,31.6734],[131.02499,31.6667],[131.0222,31.6592],[131.02005,31.65799],[131.02146,31.65625],[131.01957,31.65076],[131.00089,31.63353],[131.00112,31.63105],[131.00251,31.62874],[131.0026,31.62002],[130.99942,31.61662],[130.99623,31.61532],[130.99459,31.61313],[130.99424,31.60954],[130.99192,31.60427],[130.99037,31.59344],[130.98824,31.58793],[130.98915,31.58594],[130.99665,31.58143],[130.99466,31.57819],[130.99462,31.57393],[130.99742,31.57225],[130.99829,31.56656],[131.00116,31.56198],[131.00128,31.5559],[131.00019,31.55328],[130.99914,31.54355],[130.99387,31.53436],[130.99336,31.53092],[130.99159,31.52892],[130.98593,31.52706],[130.98437,31.52117],[130.97991,31.51425],[130.97026,31.51312],[130.96579,31.5101],[130.96232,31.50924],[130.9468,31.51116],[130.93866,31.50671],[130.9306,31.50001],[130.9248,31.49442],[130.92384,31.49176],[130.92305,31.48206],[130.92367,31.47588],[130.92502,31.47409],[130.92483,31.4717],[130.92601,31.46809],[130.92313,31.4664],[130.92149,31.46354],[130.92309,31.46191],[130.92273,31.45993],[130.92502,31.45794],[130.92631,31.45545],[130.92537,31.45501],[130.92279,31.45611],[130.92145,31.45376],[130.92259,31.45176],[130.92096,31.44997],[130.92438,31.44627],[130.92426,31.44521],[130.9035,31.43444],[130.86121,31.38632],[130.85521,31.38674],[130.85296,31.38609],[130.85019,31.3881],[130.84692,31.38903],[130.84408,31.38765],[130.84108,31.38761],[130.83472,31.38346],[130.83123,31.38258],[130.82324,31.37061],[130.82478,31.36799],[130.8244,31.36344],[130.8131,31.35877],[130.80688,31.35819],[130.80257,31.35448],[130.80253,31.3521],[130.80429,31.34967],[130.80267,31.34674],[130.79967,31.34505],[130.79917,31.34398],[130.80447,31.33476],[130.80391,31.32903],[130.80304,31.32729],[130.80047,31.32631],[130.80076,31.3223],[130.79681,31.31858],[130.79552,31.31564],[130.79656,31.31206],[130.79462,31.30886],[130.79261,31.30766],[130.79143,31.30461],[130.79295,31.30072],[130.79531,31.29967],[130.79653,31.29167],[130.79509,31.28815],[130.79511,31.28519],[130.79332,31.28318],[130.79261,31.28026],[130.79359,31.27771],[130.79244,31.27079],[130.7894,31.26586],[130.78898,31.26097],[130.78783,31.25943],[130.78845,31.25626],[130.79115,31.25329],[130.79091,31.24942],[130.78823,31.24511],[130.78318,31.23984],[130.76966,31.23064],[130.76934,31.22659],[130.76514,31.21744],[130.77224,31.21412],[130.77786,31.21271],[130.77635,31.20801],[130.77597,31.20367],[130.77246,31.20047],[130.76857,31.19326],[130.76572,31.19249],[130.76751,31.18019],[130.76604,31.17728],[130.76335,31.17456],[130.76235,31.17142],[130.75962,31.16749],[130.75925,31.16443],[130.75708,31.16046],[130.75692,31.15719],[130.75512,31.1541],[130.75453,31.14965],[130.75179,31.14532],[130.75024,31.13953],[130.74619,31.13464],[130.74488,31.13163],[130.74193,31.13025],[130.74103,31.12847],[130.73926,31.12723],[130.73597,31.12086],[130.73199,31.11653],[130.72332,31.11448],[130.71954,31.11484],[130.71296,31.11303],[130.70939,31.10942],[130.70711,31.10439],[130.7037,31.10044],[130.69403,31.09513],[130.69049,31.09447],[130.6904,31.0963],[130.69204,31.0969],[130.69212,31.09788],[130.64992,31.2075],[130.64833,31.20905],[130.63638,31.21086],[130.63545,31.20962],[130.63778,31.20706],[130.63448,31.2039],[130.63438,31.20053],[130.63006,31.20113],[130.62812,31.20339],[130.62814,31.20855],[130.63062,31.21184],[130.64081,31.2169],[130.64467,31.21708],[130.64654,31.21905],[130.64673,31.22146],[130.6455,31.22533],[130.64422,31.22678],[130.64377,31.22984],[130.63594,31.23797]],[[131.06894,31.73525],[131.06804,31.73052],[131.06191,31.7222]],[[130.82461,31.38086],[130.82466,31.37574],[130.82287,31.37247],[130.82324,31.37061]],[[131.42332,31.91666],[131.41612,31.91811],[131.41271,31.91011],[131.40598,31.90205],[131.40694,31.89474],[131.40651,31.89319],[131.40338,31.88999],[131.4017,31.88653],[131.39423,31.8811],[131.39243,31.87862],[131.39193,31.87572],[131.39287,31.87001]]]}}]}