{"type":"FeatureCollection","features":[{"type":"Feature","properties":{"route_id":"453","route_number":453,"name":"国道453号","source":"OpenStreetMap contributors (ODbL)","osm_relations":[6601896]},"geometry":{"type":"MultiLineString","coordinates":[[[141.02631,42.58476],[141.02532,42.58821],[141.02688,42.59108],[141.02647,42.59381],[141.02817,42.59755],[141.0246,42.6041],[141.0244,42.60729],[141.02305,42.61025],[141.02313,42.61467],[141.02445,42.61686],[141.02306,42.61897],[141.02341,42.62308],[141.02531,42.6257],[141.02555,42.62769],[141.03097,42.63282],[141.04179,42.63916],[141.04588,42.64107],[141.04917,42.64154],[141.05763,42.6486],[141.06228,42.65076],[141.06445,42.65303],[141.06764,42.65421],[141.06837,42.65513],[141.06875,42.65999],[141.07254,42.66323],[141.07333,42.66602],[141.08267,42.67364],[141.09122,42.67818],[141.09552,42.67832],[141.09736,42.67919],[141.10136,42.68308],[141.103,42.68799],[141.10503,42.68987],[141.10673,42.69615],[141.10628,42.69811],[141.10695,42.69879],[141.11545,42.69986],[141.13259,42.69873],[141.1351,42.69969],[141.14132,42.70438],[141.14802,42.7054],[141.15483,42.70264],[141.16288,42.70316],[141.19495,42.70901],[141.19922,42.71157],[141.20875,42.71374],[141.209,42.71488],[141.20679,42.71752],[141.20483,42.71754],[141.20032,42.71543],[141.19868,42.71625],[141.19933,42.71744],[141.20513,42.71932],[141.21401,42.71876],[141.21865,42.71648],[141.22322,42.71796],[141.22696,42.7155],[141.23284,42.71463],[141.23529,42.71546],[141.24165,42.71548],[141.24822,42.71752],[141.25705,42.72207],[141.26349,42.7198],[141.27427,42.7133],[141.28232,42.71122],[141.29158,42.70521],[141.29697,42.70361],[141.30509,42.70407],[141.30879,42.70557],[141.32167,42.71607],[141.32712,42.71803],[141.33326,42.7269],[141.34157,42.7332],[141.35782,42.73746],[141.3642,42.73555],[141.37196,42.73545],[141.37508,42.73434],[141.38425,42.73993],[141.40194,42.74212],[141.40776,42.74122],[141.40941,42.74217],[141.41379,42.74844],[141.41874,42.74952],[141.42876,42.75434],[141.43971,42.75662],[141.43514,42.76405],[141.42489,42.76165],[141.41816,42.76491],[141.41462,42.76781],[141.41401,42.76974],[141.40902,42.77195],[141.40622,42.77214],[141.40305,42.77651],[141.39466,42.77725],[141.39261,42.77947],[141.38732,42.78111],[141.36951,42.79286],[141.35879,42.79851],[141.345,42.80318],[141.33506,42.8041],[141.32646,42.80227],[141.31995,42.79931],[141.31817,42.7992],[141.31895,42.80089],[141.32671,42.80511],[141.31911,42.80282],[141.31488,42.80298],[141.31361,42.80354],[141.3103,42.80765],[141.30687,42.80914],[141.30072,42.80979],[141.29702,42.80893],[141.29187,42.81177],[141.28905,42.8109],[141.28835,42.81153],[141.28765,42.81687],[141.28427,42.82001],[141.28507,42.82064],[141.29461,42.82056],[141.29612,42.82132],[141.29502,42.82425],[141.29511,42.83207],[141.29616,42.833],[141.29654,42.8316],[141.30034,42.83184],[141.30043,42.83356],[141.29903,42.83478],[141.29988,42.83623],[141.30474,42.83809],[141.29752,42.83966],[141.29654,42.84163],[141.31006,42.84841],[141.31517,42.85267],[141.31975,42.85299],[141.32458,42.85627],[141.32907,42.85605],[141.33419,42.8584],[141.34019,42.86317],[141.34417,42.86473],[141.3454,42.8679],[141.3505,42.86978],[141.35818,42.87584],[141.35509,42.8802],[141.35156,42.88315],[141.34769,42.88437],[141.34512,42.8904],[141.338,42.89453],[141.33558,42.89704],[141.3384,42.90179],[141.33874,42.90731],[141.33573,42.91279],[141.33458,42.91965],[141.33507,42.9213],[141.3342,42.92373],[141.33927,42.93019],[141.34087,42.93445],[141.34443,42.93957],[141.34682,42.9462],[141.34668,42.95032],[141.34471,42.95329],[141.34259,42.96632],[141.34628,42.98124],[141.34832,42.98622],[141.35137,42.98848],[141.34952,42.99378],[141.34809,43.00522],[141.35258,43.00706],[141.35819,43.01953],[141.36782,43.02521],[141.37034,43.04186],[141.36866,43.04918],[141.37021,43.04185],[141.36773,43.02509]],[[141.37106,43.0516],[141.36866,43.04918]],[[141.34479,42.97424],[141.34409,42.97194],[141.34599,42.97842]],[[140.83556,42.49111],[140.83817,42.49349],[140.84006,42.49943],[140.84214,42.50288],[140.85248,42.51022],[140.8556,42.51341],[140.86203,42.52301],[140.8652,42.52643],[140.86712,42.5307],[140.87226,42.53689],[140.87568,42.53935],[140.87699,42.54453],[140.88541,42.55315],[140.88629,42.55492],[140.88566,42.55583],[140.88859,42.55776],[140.89128,42.5588],[140.90218,42.56024],[140.91339,42.56387],[140.9157,42.56626],[140.92227,42.56802],[140.92982,42.57366],[140.93681,42.57626],[140.94853,42.57908],[140.95677,42.57852],[140.96006,42.57925],[140.97682,42.57975],[140.99802,42.58376],[141.00076,42.58287],[141.00578,42.58313],[141.00853,42.58245]]]}}]}