{"type":"FeatureCollection","features":[{"type":"Feature","properties":{"route_id":"206","route_number":206,"name":"国道206号","source":"OpenStreetMap contributors (ODbL)","osm_relations":[9364395,9544005,10089481,10089482]},"geometry":{"type":"MultiLineString","coordinates":[[[129.8741,32.74512],[129.87202,32.74577],[129.87198,32.75197],[129.86941,32.75724],[129.86603,32.75966],[129.86455,32.76373],[129.86399,32.77045],[129.86289,32.77163],[129.86206,32.77549],[129.86234,32.78554],[129.86012,32.79151],[129.85702,32.79415],[129.86017,32.79167],[129.86249,32.78546],[129.86199,32.77702],[129.86297,32.77173],[129.8642,32.77032],[129.86473,32.76384],[129.8663,32.75963],[129.86969,32.75714],[129.87223,32.75197],[129.87225,32.74585],[129.87409,32.74523]],[[129.75939,33.05476],[129.75579,33.05077],[129.75588,33.048],[129.75512,33.04694],[129.75304,33.04628],[129.74628,33.04661],[129.74419,33.04418],[129.74178,33.04306],[129.74277,33.03875],[129.74473,33.03762],[129.74504,33.03516],[129.74418,33.03405],[129.74326,33.02903],[129.74042,33.02766],[129.73583,33.01817],[129.73286,33.01668],[129.73319,33.01463],[129.73452,33.0131],[129.73132,33.00805],[129.7302,33.00197],[129.73202,32.99974],[129.7334,32.99415],[129.73771,32.99156],[129.73825,32.98858],[129.74163,32.98706],[129.74711,32.98717],[129.74962,32.99111],[129.75347,32.99491],[129.75909,32.99406],[129.76043,32.99259],[129.76457,32.99063],[129.76818,32.98664],[129.77479,32.98708],[129.78114,32.98238],[129.78193,32.9694],[129.78099,32.9679],[129.78068,32.96453],[129.7834,32.96124],[129.78259,32.95778],[129.78553,32.9537],[129.78483,32.95182],[129.78522,32.94989],[129.78224,32.94501],[129.78187,32.93914],[129.7841,32.93637],[129.78249,32.92925],[129.78619,32.92696],[129.78774,32.92223],[129.78693,32.91978],[129.78478,32.91803],[129.7873,32.91591],[129.78467,32.91422],[129.78402,32.90996],[129.78128,32.90645],[129.78032,32.90375],[129.78096,32.89914],[129.7805,32.89391],[129.78181,32.89146],[129.7895,32.887],[129.79002,32.88593],[129.79003,32.88317],[129.78917,32.88159],[129.78988,32.87835],[129.78825,32.87691],[129.78739,32.87369],[129.78919,32.86937],[129.78723,32.86806],[129.78628,32.86116],[129.78929,32.85975],[129.79271,32.86104],[129.79758,32.86067],[129.79921,32.86137],[129.80641,32.85958],[129.81142,32.86116],[129.8152,32.86022],[129.82929,32.84937],[129.83128,32.84645],[129.83603,32.84309],[129.83768,32.83983],[129.83826,32.83613],[129.84736,32.83098],[129.84861,32.82228],[129.84659,32.81798],[129.84532,32.80947],[129.85261,32.80239],[129.85472,32.79677],[129.85702,32.79415]],[[129.74825,33.04373],[129.74606,33.0409],[129.74362,33.03559],[129.73924,33.03078],[129.73164,33.01761],[129.72686,33.00222],[129.72762,32.99823],[129.72981,32.99635],[129.73239,32.99638],[129.72995,32.99625],[129.72732,32.99855],[129.72681,33.00223],[129.73176,33.01803],[129.73921,33.0308],[129.74359,33.03561],[129.7482,33.04376]]]}}]}