{"type":"FeatureCollection","features":[{"type":"Feature","properties":{"route_id":"252","route_number":252,"name":"国道252号","source":"OpenStreetMap contributors (ODbL)","osm_relations":[6647077,10260529]},"geometry":{"type":"MultiLineString","coordinates":[[[138.57514,37.36759],[138.5802,37.3639],[138.59227,37.35948],[138.58016,37.36383],[138.57514,37.36759]],[[138.59227,37.35948],[138.59505,37.35784],[138.59907,37.35373],[138.61045,37.3469],[138.61305,37.34129],[138.61688,37.33789],[138.62471,37.32643],[138.6255,37.32355],[138.62301,37.31769],[138.62137,37.29809],[138.62529,37.29182],[138.62765,37.28979],[138.62862,37.287],[138.63181,37.2738],[138.63069,37.2693],[138.6315,37.2669],[138.63376,37.26498],[138.63461,37.26564],[138.63936,37.26489],[138.64298,37.25898],[138.64628,37.25648],[138.64872,37.25623],[138.6522,37.25452],[138.65316,37.25029],[138.65216,37.2471],[138.64894,37.24494],[138.64626,37.2448],[138.64535,37.24276],[138.64545,37.24014],[138.64394,37.23986],[138.64212,37.23769],[138.64312,37.23453],[138.64113,37.23351],[138.64307,37.23015],[138.64231,37.22783],[138.64379,37.22644],[138.65601,37.2242],[138.65693,37.22316],[138.65685,37.22088],[138.66168,37.2173],[138.66281,37.21397],[138.67025,37.20891],[138.6812,37.2047],[138.68811,37.1965],[138.69066,37.19601],[138.69487,37.19684],[138.69797,37.19432],[138.7045,37.19327],[138.70642,37.19192],[138.70946,37.19151],[138.71704,37.18486],[138.72758,37.18288],[138.73801,37.18271],[138.74959,37.17947],[138.75761,37.17985],[138.76095,37.1787],[138.76425,37.18014],[138.76525,37.18672],[138.76468,37.18994],[138.76582,37.1913],[138.77376,37.19317],[138.77878,37.19267],[138.77807,37.18354],[138.77613,37.17562],[138.77902,37.17808],[138.79631,37.17762],[138.80117,37.17319],[138.80576,37.17226],[138.80855,37.17029],[138.80919,37.16503],[138.81061,37.16322],[138.81212,37.16344],[138.81379,37.16501],[138.82113,37.16455],[138.82574,37.16691],[138.83328,37.16768],[138.83565,37.16869],[138.84324,37.17547],[138.84474,37.17824],[138.84679,37.17916],[138.84831,37.18099],[138.85073,37.18145],[138.86136,37.18929],[138.86144,37.19219],[138.86353,37.19299],[138.86437,37.19436],[138.86412,37.19771],[138.86702,37.20012],[138.87374,37.20311],[138.8773,37.20754],[138.88434,37.21237],[138.89305,37.22467],[138.901,37.22904],[138.92061,37.24267],[138.92312,37.24269],[138.9328,37.2382],[138.9358,37.23847],[138.94068,37.24112],[138.94671,37.23994],[138.95572,37.24317],[138.96025,37.24124],[138.96224,37.24216],[138.96576,37.2455],[138.97173,37.25389],[138.97439,37.25577],[138.97502,37.25814],[138.97199,37.26108],[138.97405,37.26463],[138.97559,37.27048],[138.98093,37.27553],[138.98483,37.28064],[138.99017,37.29248],[138.99543,37.30062],[138.99995,37.30382],[139.0103,37.30732],[139.01247,37.31],[139.01448,37.31637],[139.01691,37.32103],[139.02313,37.32421],[139.02603,37.32824],[139.02792,37.33343],[139.03292,37.33475],[139.04693,37.34196],[139.0517,37.34957],[139.05019,37.3528],[139.05074,37.35387],[139.05236,37.35435],[139.05344,37.3579],[139.05576,37.35564],[139.05998,37.35645],[139.06966,37.35337],[139.07623,37.34877],[139.07719,37.34723],[139.07717,37.34487],[139.07885,37.34281],[139.08641,37.34302],[139.09284,37.33941],[139.10025,37.33901],[139.10274,37.34223],[139.10704,37.33943],[139.11095,37.34404],[139.11721,37.34293],[139.11897,37.34182],[139.12413,37.34171],[139.12612,37.34004],[139.12484,37.33897],[139.12655,37.33687],[139.12667,37.33508],[139.1312,37.33182],[139.13245,37.32705],[139.13509,37.32562],[139.13817,37.32232],[139.14024,37.32197],[139.14268,37.32274],[139.14432,37.32206],[139.14756,37.318],[139.14855,37.31462],[139.15389,37.31227],[139.15574,37.3103],[139.15843,37.31053],[139.16499,37.30888],[139.16808,37.3102],[139.17259,37.30901],[139.17651,37.30934],[139.17909,37.30804],[139.18102,37.30825],[139.18392,37.30488],[139.18578,37.3052],[139.18678,37.3036],[139.18802,37.30398],[139.18857,37.30337],[139.1896,37.30461],[139.19136,37.30496],[139.19046,37.30551],[139.19461,37.30623],[139.1939,37.30675],[139.19657,37.30703],[139.19651,37.30614],[139.19775,37.30565],[139.19696,37.30636],[139.20204,37.30601],[139.20221,37.30519],[139.203,37.30633],[139.20303,37.30523],[139.20578,37.30486],[139.20796,37.30275],[139.2072,37.30436],[139.20995,37.30181],[139.20957,37.30272],[139.22135,37.3049],[139.22282,37.30773],[139.22394,37.30818],[139.23045,37.30237],[139.2328,37.30246],[139.23418,37.30142],[139.23459,37.30256],[139.23356,37.30526],[139.23458,37.30573],[139.23487,37.30698]],[[139.92864,37.49842],[139.91759,37.50137],[139.90958,37.50571],[139.90109,37.51713],[139.88722,37.52794],[139.87918,37.53656],[139.87712,37.54144],[139.86976,37.55056],[139.86824,37.5518],[139.86315,37.55348],[139.86294,37.55592],[139.85079,37.5579],[139.83395,37.55937],[139.82674,37.56306],[139.81666,37.56516],[139.80584,37.57074],[139.80128,37.57103],[139.79755,37.57278],[139.79039,37.57286],[139.78563,37.57067],[139.77113,37.5585],[139.76256,37.55722],[139.76252,37.55551],[139.76128,37.55455],[139.75691,37.55374],[139.74011,37.54757],[139.73139,37.54688],[139.7251,37.54425],[139.72167,37.53265],[139.72404,37.53028],[139.72395,37.52883],[139.7076,37.51611],[139.70667,37.5122],[139.70556,37.51125],[139.69662,37.50697],[139.68851,37.5065],[139.6848,37.50396],[139.68504,37.49537],[139.68669,37.49129],[139.68619,37.48831],[139.67952,37.48715],[139.67869,37.48311],[139.6776,37.48162],[139.66683,37.47537],[139.65601,37.47536],[139.64857,37.47104],[139.64211,37.46842],[139.63606,37.4701],[139.62679,37.46189],[139.62431,37.46115],[139.62207,37.46116],[139.61947,37.46311],[139.61382,37.46349],[139.61338,37.46226],[139.60768,37.45918],[139.60623,37.45698],[139.60407,37.45757],[139.60409,37.46009],[139.60306,37.4612],[139.59426,37.46372],[139.59355,37.4662],[139.59479,37.468],[139.59456,37.4694],[139.59299,37.47129],[139.59091,37.47221],[139.58739,37.47691],[139.58285,37.47728],[139.58099,37.47897],[139.57253,37.47817],[139.56874,37.48511],[139.56132,37.48289],[139.55969,37.48085],[139.55486,37.48157],[139.55043,37.48331],[139.54662,37.48354],[139.54332,37.48292],[139.54035,37.48101],[139.53497,37.4803],[139.53298,37.47887],[139.53119,37.47562],[139.5302,37.4703],[139.52937,37.46483],[139.53211,37.45978],[139.53094,37.45692],[139.52175,37.45383],[139.51842,37.4559],[139.51644,37.45587],[139.51377,37.45402],[139.51228,37.45118],[139.51215,37.44849],[139.50785,37.44479],[139.49609,37.44303],[139.49235,37.44324],[139.4841,37.43937],[139.48176,37.43319],[139.48436,37.43011],[139.48306,37.42561],[139.48395,37.41916],[139.47995,37.41541],[139.47196,37.41087],[139.47138,37.4087],[139.4727,37.4036],[139.47038,37.39986],[139.46188,37.39716],[139.45818,37.39727],[139.45308,37.39592],[139.45017,37.39379],[139.44158,37.3951],[139.43418,37.39341],[139.43231,37.39546],[139.43099,37.39577],[139.4261,37.39288],[139.42398,37.3942],[139.4202,37.39455],[139.41276,37.394],[139.40866,37.39568],[139.40199,37.39703],[139.39829,37.39613],[139.39062,37.39596],[139.37426,37.38937],[139.37239,37.39042],[139.37166,37.39233],[139.37321,37.39699],[139.37249,37.3981],[139.36883,37.39929],[139.36151,37.39853],[139.35878,37.39658],[139.35675,37.39337],[139.35427,37.39246],[139.35254,37.38992],[139.34921,37.38792],[139.3476,37.38598],[139.34768,37.38368],[139.3439,37.38148],[139.34176,37.37886],[139.33993,37.37856],[139.33763,37.37912],[139.33636,37.3803],[139.33435,37.38044],[139.33279,37.377],[139.32656,37.37656],[139.31969,37.37272],[139.31654,37.37199],[139.3162,37.37053],[139.32029,37.36814],[139.32103,37.36603],[139.32189,37.35609],[139.3214,37.35405],[139.31125,37.34301],[139.30368,37.34174],[139.29919,37.33857],[139.29569,37.33369],[139.29561,37.33006],[139.29373,37.32797],[139.2916,37.32215],[139.28915,37.3201],[139.28785,37.31638],[139.28669,37.31822],[139.28718,37.32041],[139.28484,37.32146],[139.28658,37.32021],[139.28461,37.31668],[139.28496,37.31582],[139.28429,37.31668],[139.28485,37.31741],[139.28397,37.3167],[139.28481,37.31247],[139.28349,37.31216],[139.28039,37.31484],[139.279,37.31361],[139.27424,37.31387],[139.27426,37.31539],[139.27249,37.31605],[139.27219,37.31839],[139.27081,37.31874],[139.27019,37.31988],[139.26894,37.31848],[139.26968,37.31777],[139.26905,37.31538],[139.26314,37.31374],[139.26163,37.3152],[139.26197,37.31623],[139.25848,37.31641],[139.2587,37.3185],[139.25671,37.31747],[139.25397,37.31894],[139.25252,37.31865],[139.25222,37.31785],[139.25597,37.3153],[139.25665,37.31354],[139.25779,37.31338],[139.25548,37.31087],[139.25195,37.30988],[139.24865,37.30998],[139.24751,37.31115],[139.245,37.31151],[139.24389,37.30965],[139.24103,37.31022],[139.23801,37.30758],[139.23669,37.3081]],[[139.23543,37.30769],[139.23628,37.30797]]]}}]}