{"type":"FeatureCollection","features":[{"type":"Feature","properties":{"route_id":"287","route_number":287,"name":"国道287号","source":"OpenStreetMap contributors (ODbL)","osm_relations":[9385020,9385413,9387207,9387259,9387618,10452431,10452432,10452433]},"geometry":{"type":"MultiLineString","coordinates":[[[140.05054,38.05552],[140.04898,38.0593],[140.0428,38.0644],[140.03794,38.07421],[140.0381,38.07883],[140.0427,38.08775],[140.04278,38.09025],[140.04147,38.09431],[140.0434,38.10416],[140.04297,38.11303],[140.04864,38.11485],[140.05076,38.11667],[140.05596,38.12549],[140.05718,38.13039],[140.05559,38.13693],[140.06476,38.15186],[140.07488,38.15999],[140.08253,38.16392],[140.0917,38.17296],[140.09652,38.17935],[140.10173,38.18135],[140.10155,38.18551],[140.10015,38.18878],[140.10128,38.19465],[140.10366,38.19877],[140.1041,38.20267],[140.09955,38.21053],[140.0985,38.21462],[140.09891,38.21889],[140.09808,38.22418],[140.09669,38.22635],[140.09217,38.23025],[140.09046,38.23349],[140.09292,38.24094],[140.09488,38.24297],[140.09608,38.2459],[140.10128,38.24687],[140.1067,38.25072],[140.10899,38.25606],[140.10922,38.26089],[140.11069,38.26344],[140.1192,38.26741],[140.12585,38.27252],[140.13432,38.27457],[140.13724,38.2788],[140.13914,38.28333],[140.13863,38.28535],[140.13924,38.28745],[140.14432,38.29521],[140.14501,38.29975],[140.15409,38.29998],[140.15526,38.30059],[140.1554,38.30616],[140.16039,38.31342],[140.16243,38.32016],[140.16791,38.32621],[140.17603,38.33921],[140.18151,38.3418],[140.18595,38.34678],[140.19199,38.34851],[140.19969,38.35295],[140.2007,38.35567],[140.20455,38.36031],[140.20824,38.36332],[140.21615,38.3722],[140.22411,38.37811],[140.23971,38.38033],[140.24264,38.38507],[140.25106,38.39478],[140.25115,38.40352],[140.252,38.4047],[140.26336,38.40804],[140.27842,38.41726],[140.28392,38.41871],[140.30484,38.41656],[140.32496,38.4132],[140.33664,38.4142],[140.34757,38.41179]],[[140.03844,38.07912],[140.0505,38.06739],[140.05402,38.06069],[140.06033,38.05514],[140.06188,38.05144],[140.05893,38.0405],[140.05914,38.03827],[140.06125,38.03429],[140.06046,38.03025],[140.05643,38.02288],[140.05485,38.01291],[140.04984,38.01265],[140.04688,38.00209],[140.05612,38.00003],[140.05669,37.99509],[140.06086,37.98925],[140.06161,37.98318],[140.06398,37.97816],[140.06481,37.97263],[140.06609,37.9709],[140.06616,37.96625],[140.06764,37.96288],[140.0677,37.95887],[140.06904,37.95618],[140.06892,37.95176],[140.07191,37.94898],[140.07311,37.94553],[140.07622,37.9413],[140.07632,37.93933],[140.07852,37.93501],[140.08108,37.9334],[140.08138,37.92906],[140.08927,37.92228]],[[140.37661,38.42669],[140.369,38.42796],[140.36471,38.42546],[140.36189,38.40958],[140.34757,38.41179],[140.35361,38.41059]],[[140.11231,37.95085],[140.11263,37.96178],[140.11041,37.96468],[140.09914,37.96736],[140.08525,37.96812],[140.07445,37.9673],[140.0708,37.96882],[140.06926,37.97117],[140.06062,37.99939],[140.06525,38.02289],[140.06425,38.02915],[140.06125,38.03429]],[[140.37653,38.42675],[140.37662,38.42675]]]}}]}