{"type":"FeatureCollection","features":[{"type":"Feature","properties":{"route_id":"283","route_number":283,"name":"国道283号","source":"OpenStreetMap contributors (ODbL)","osm_relations":[9220015,10422983]},"geometry":{"type":"MultiLineString","coordinates":[[[141.86198,39.27089],[141.86692,39.27303],[141.87388,39.27208],[141.86668,39.27306],[141.8517,39.26724],[141.83858,39.26506],[141.83026,39.26017],[141.81863,39.25622],[141.80843,39.25638],[141.80002,39.25464],[141.78488,39.25302],[141.7812,39.25392],[141.76298,39.24936],[141.75751,39.25059],[141.75218,39.25583],[141.74741,39.25599],[141.74115,39.25361],[141.7337,39.25745],[141.73314,39.25957],[141.73043,39.2633],[141.72692,39.26581],[141.72639,39.2705],[141.72467,39.27373],[141.71617,39.28074],[141.71531,39.28351],[141.71299,39.28513],[141.71075,39.28493],[141.70872,39.28614],[141.70834,39.28856],[141.70571,39.292],[141.70393,39.2932],[141.70147,39.29326],[141.70375,39.29261],[141.70447,39.29352],[141.70104,39.29398],[141.6996,39.29585],[141.69973,39.29701],[141.69848,39.29778],[141.69919,39.29321],[141.69844,39.29128],[141.6787,39.27444],[141.67632,39.27327],[141.67664,39.27037],[141.67459,39.27026],[141.67216,39.26866],[141.66973,39.26817],[141.66562,39.26535],[141.6618,39.26396],[141.66073,39.26233],[141.65655,39.26135],[141.65432,39.2598],[141.65299,39.2574],[141.64945,39.25597],[141.64403,39.25629],[141.63111,39.25912],[141.62323,39.26325],[141.61441,39.26519],[141.61175,39.26774],[141.61109,39.2705],[141.60905,39.27379],[141.605,39.27597],[141.60323,39.27887],[141.60057,39.28054],[141.59512,39.28121],[141.5893,39.28341],[141.58155,39.28924],[141.57846,39.29224],[141.57882,39.29787],[141.57044,39.31116],[141.56208,39.32989],[141.55987,39.3314],[141.53747,39.3397],[141.53448,39.34],[141.51981,39.33851],[141.51858,39.33718],[141.51926,39.33463],[141.51727,39.33243],[141.50063,39.33136],[141.4979,39.32996],[141.49329,39.32903],[141.48263,39.3282],[141.47029,39.32302],[141.46328,39.32211],[141.44202,39.31721],[141.43544,39.31036],[141.42849,39.30883],[141.42268,39.30541],[141.41724,39.30655],[141.40361,39.30048],[141.39635,39.29986],[141.39106,39.30386],[141.38708,39.30192],[141.38385,39.30149],[141.37914,39.30295],[141.37796,39.30506],[141.37969,39.30837],[141.37873,39.31047],[141.37576,39.31209],[141.37306,39.3111],[141.37158,39.31248],[141.37229,39.31446],[141.37023,39.31604],[141.36661,39.322],[141.36583,39.32373],[141.36623,39.32566],[141.36473,39.32944],[141.36141,39.33351],[141.36177,39.33447],[141.36405,39.33548],[141.36434,39.3365],[141.36397,39.33911],[141.36133,39.34372],[141.35942,39.34491],[141.35,39.347],[141.34918,39.3517],[141.3442,39.35504],[141.34236,39.35514],[141.33977,39.35342],[141.3349,39.35211],[141.33056,39.35219],[141.32922,39.35349],[141.32998,39.35539],[141.32642,39.35729],[141.32363,39.35784],[141.31805,39.35533],[141.30942,39.35554],[141.30641,39.35966],[141.2986,39.36265],[141.29316,39.36102],[141.28539,39.36198],[141.27529,39.36172],[141.26293,39.36257],[141.25911,39.36369],[141.25696,39.36558],[141.25009,39.37635],[141.24533,39.37759],[141.24019,39.37766],[141.23144,39.38297],[141.22231,39.38632],[141.21714,39.38725],[141.21298,39.39019],[141.21103,39.39052],[141.20737,39.38965],[141.20149,39.39387],[141.19363,39.39625],[141.18012,39.396],[141.17385,39.39495],[141.16984,39.39314],[141.166,39.39393],[141.16334,39.39278],[141.15572,39.39225],[141.1495,39.39083],[141.14428,39.38782]],[[141.87388,39.27208],[141.88463,39.26586]],[[141.52182,39.33875],[141.53672,39.33995],[141.56077,39.33102],[141.56306,39.32865],[141.57109,39.31015]]]}}]}