{"type":"FeatureCollection","features":[{"type":"Feature","properties":{"route_id":"278","route_number":278,"name":"国道278号","source":"OpenStreetMap contributors (ODbL)","osm_relations":[3842394,7927819,9403298,9403519,9405712,9405918,9406060]},"geometry":{"type":"MultiLineString","coordinates":[[[140.57709,42.09256],[140.57995,42.09552],[140.58895,42.09874],[140.60821,42.10279],[140.6249,42.10895],[140.62713,42.11075],[140.63169,42.11797],[140.64075,42.12144],[140.65404,42.12473],[140.66017,42.12553],[140.69087,42.12248],[140.70926,42.1277],[140.72489,42.12804],[140.74814,42.1158],[140.75322,42.11533],[140.75611,42.11399],[140.75736,42.1117],[140.75673,42.10926],[140.766,42.09287],[140.7712,42.08615],[140.77496,42.07816],[140.78152,42.07244],[140.79705,42.06319],[140.79991,42.05482],[140.80325,42.05027],[140.80326,42.04284],[140.8095,42.03432],[140.81267,42.03244],[140.83936,42.02285],[140.85252,42.01342],[140.86215,42.01057],[140.86786,42.00661],[140.87224,42.00694],[140.87701,42.00577],[140.87986,42.00143],[140.88199,42.00028],[140.88854,41.99901],[140.89217,41.99616],[140.89517,41.9924],[140.90017,41.99005],[140.90488,41.98614],[140.9084,41.98242],[140.9081,41.97832],[140.90884,41.97587],[140.9129,41.97178],[140.91458,41.9681],[140.91766,41.96674],[140.9222,41.96182],[140.92743,41.95926],[140.92913,41.95564],[140.93115,41.95384],[140.93098,41.94973],[140.93263,41.94602],[140.93263,41.94366],[140.93648,41.93751],[140.94152,41.93403],[140.94844,41.93285],[140.95367,41.92199],[140.9598,41.91557],[140.97934,41.90595],[140.99166,41.90223],[140.99549,41.89953],[141.00711,41.89615],[141.01088,41.89262],[141.01549,41.89275],[141.0225,41.891],[141.02512,41.8925],[141.0292,41.89262],[141.03308,41.89494],[141.04232,41.89298],[141.04604,41.89324],[141.05165,41.89116],[141.05427,41.8911],[141.05653,41.88973],[141.05968,41.88966],[141.06801,41.88659],[141.07105,41.88729],[141.07644,41.8862],[141.08557,41.88058],[141.09516,41.8785],[141.10305,41.87498],[141.10696,41.87485],[141.11195,41.87231],[141.11499,41.86978],[141.11778,41.86515],[141.12207,41.86404],[141.12792,41.85965],[141.13745,41.85637],[141.14243,41.84911],[141.14096,41.83903],[141.14248,41.8342],[141.14231,41.8302],[141.1374,41.82723],[141.11385,41.81985],[141.11042,41.81726],[141.10893,41.81434],[141.10563,41.811],[141.10371,41.80644],[141.10376,41.80266],[141.10167,41.79862],[141.10128,41.79352],[141.10336,41.78838],[141.10734,41.78691],[141.10739,41.78537],[141.10384,41.78338],[141.0958,41.77407],[141.09451,41.76882],[141.09105,41.7672],[141.08975,41.76304],[141.08576,41.7598],[141.07924,41.76173],[141.07533,41.7605],[141.07408,41.75864],[141.07404,41.75048],[141.0703,41.74564],[141.06515,41.74373],[141.05727,41.73676],[141.05223,41.73467],[141.04782,41.72908],[141.04391,41.72789],[141.03535,41.72767],[141.03323,41.72658],[141.02884,41.72141],[141.02694,41.72038],[141.02407,41.72048],[141.02061,41.72301],[141.01569,41.72393],[141.0101,41.72222],[141.00737,41.7194],[141.00659,41.71647],[141.00472,41.71556],[140.998,41.71447],[140.99583,41.71699],[140.99293,41.71772],[140.98283,41.71431],[140.97586,41.71319],[140.96881,41.71048],[140.96197,41.71087],[140.9511,41.71574],[140.95103,41.71888],[140.94741,41.72662],[140.93799,41.73473],[140.92834,41.74085],[140.91918,41.74332],[140.91121,41.74689],[140.90421,41.74885],[140.89909,41.74814],[140.88546,41.75228],[140.87537,41.75273],[140.87034,41.75474],[140.86533,41.75858],[140.85722,41.76183],[140.85084,41.7598],[140.84136,41.76138],[140.83565,41.75975],[140.8277,41.76208],[140.81681,41.7666],[140.81318,41.76719],[140.80279,41.77172],[140.79456,41.77351],[140.79269,41.77471],[140.79472,41.77335],[140.80029,41.77236]],[[140.7281,41.77277],[140.7367,41.76905],[140.75315,41.77238],[140.75999,41.77461],[140.77012,41.77588],[140.79269,41.77471]],[[141.02095,41.89092],[141.0139,41.89148],[141.01039,41.88979],[141.00831,41.8898],[141.0033,41.89271],[140.99562,41.89471],[140.99065,41.89866],[140.9858,41.89951],[140.97606,41.90294],[140.96701,41.90989],[140.96201,41.91096],[140.95628,41.91477],[140.94957,41.92182],[140.94765,41.92597],[140.93284,41.93453],[140.93211,41.9383],[140.92939,41.94148],[140.9314,41.94471],[140.93132,41.94638],[140.92418,41.95367],[140.92237,41.95781]],[[140.73286,41.77107],[140.72801,41.77267]],[[140.73112,41.84291],[140.73906,41.84442],[140.74849,41.84375],[140.76883,41.83151],[140.77138,41.82899],[140.77671,41.82076],[140.78315,41.81697],[140.78498,41.81246],[140.78711,41.80984],[140.80865,41.79764],[140.81348,41.78708],[140.81812,41.78359]],[[140.81807,41.7835],[140.8134,41.78706],[140.81004,41.79558],[140.80832,41.79786],[140.78699,41.80975],[140.78508,41.81198],[140.783,41.8169],[140.77664,41.82065],[140.77127,41.82893],[140.76833,41.83168],[140.74847,41.84364],[140.73882,41.84432],[140.7301,41.84261]]]}}]}