{"type":"FeatureCollection","features":[{"type":"Feature","properties":{"route_id":"271","route_number":271,"name":"国道271号","source":"OpenStreetMap contributors (ODbL)","osm_relations":[12079856]},"geometry":{"type":"MultiLineString","coordinates":[[[139.36312,35.4236],[139.3624,35.4207]],[[139.36041,35.41934],[139.35269,35.41848],[139.34525,35.40966],[139.33611,35.40383],[139.33412,35.39314],[139.32868,35.37925],[139.32482,35.37577],[139.31354,35.37153],[139.30296,35.35902],[139.29809,35.35002],[139.29547,35.33665],[139.29238,35.33184],[139.28935,35.32886],[139.28308,35.3257],[139.27838,35.32188],[139.27127,35.319],[139.26424,35.31488],[139.2457,35.31061],[139.24144,35.30849],[139.23344,35.3077],[139.22514,35.30508],[139.22024,35.30259],[139.21525,35.29739],[139.20018,35.29005],[139.18026,35.29049],[139.17303,35.28767],[139.1748,35.28857]],[[139.13394,35.24478],[139.13227,35.24454],[139.13321,35.24491],[139.1328,35.2481],[139.13571,35.25731],[139.13802,35.25978],[139.14609,35.26401],[139.1498,35.26859],[139.15041,35.27467],[139.15265,35.28094],[139.15551,35.28277],[139.16662,35.28503],[139.17478,35.28866],[139.17292,35.28776]],[[139.17303,35.28767],[139.16607,35.2848],[139.1555,35.28269],[139.15274,35.2809],[139.15044,35.2742],[139.1499,35.26856],[139.14617,35.26396],[139.13795,35.25963],[139.13581,35.25726],[139.13282,35.24716],[139.13351,35.24509],[139.13574,35.24457]],[[139.17478,35.28866],[139.18026,35.29056],[139.20015,35.29012],[139.21541,35.29762],[139.21954,35.30215],[139.22377,35.30457],[139.23137,35.30728],[139.24104,35.30847],[139.24601,35.31079],[139.26464,35.31512],[139.27123,35.31907],[139.27833,35.32194],[139.28234,35.32531],[139.28964,35.32918],[139.29483,35.33593],[139.298,35.35004],[139.30288,35.35905],[139.31378,35.37182],[139.32477,35.37584],[139.32859,35.37929],[139.33402,35.39315],[139.33602,35.40387],[139.34533,35.40985],[139.35252,35.41846],[139.36037,35.41942]],[[139.36229,35.42126],[139.363,35.42361]]]}}]}