{"type":"FeatureCollection","features":[{"type":"Feature","properties":{"route_id":"194","route_number":194,"name":"国道194号","source":"OpenStreetMap contributors (ODbL)","osm_relations":[149016]},"geometry":{"type":"MultiLineString","coordinates":[[[133.53223,33.55804],[133.51625,33.55721],[133.5025,33.55528],[133.49965,33.55583],[133.49774,33.55527],[133.4985,33.55281],[133.49144,33.55224],[133.48695,33.55482],[133.46747,33.55977],[133.46322,33.55752],[133.45842,33.55202],[133.46156,33.55603]],[[133.45842,33.55202],[133.43102,33.54846],[133.42416,33.54648],[133.41987,33.55057],[133.40997,33.55443],[133.40187,33.55254],[133.40071,33.55019],[133.39743,33.54786],[133.39466,33.54785],[133.39126,33.55194],[133.37836,33.55701],[133.36766,33.5661],[133.3651,33.5704],[133.36585,33.57273],[133.3659,33.57805],[133.36433,33.57983],[133.36218,33.58068],[133.3589,33.58047],[133.35496,33.57691],[133.35447,33.57338],[133.35594,33.5657],[133.35489,33.56265],[133.35238,33.56115],[133.34854,33.56171],[133.34786,33.56425],[133.34612,33.56562],[133.3423,33.56601],[133.33995,33.56535],[133.33388,33.56124],[133.33081,33.56131],[133.32698,33.56882],[133.32439,33.57119],[133.31643,33.57414],[133.31236,33.57661],[133.31238,33.57786],[133.30956,33.58219],[133.30556,33.58562],[133.30556,33.5904],[133.30167,33.59685],[133.30295,33.5988],[133.30021,33.60185],[133.30027,33.60439],[133.29721,33.60801],[133.29749,33.60948],[133.30035,33.61241],[133.29988,33.61545],[133.30251,33.62131],[133.30094,33.62555],[133.30411,33.62725],[133.3038,33.63151],[133.3059,33.63244],[133.31008,33.63985],[133.31597,33.63721],[133.31936,33.63846],[133.32242,33.63655],[133.32558,33.63809],[133.32532,33.64048],[133.32982,33.64486],[133.33147,33.6454],[133.33393,33.64462],[133.33594,33.64561],[133.34051,33.64576],[133.34168,33.65107],[133.34133,33.65261],[133.33895,33.65379],[133.33737,33.65621],[133.33556,33.65674],[133.33483,33.65791],[133.33529,33.66181],[133.33393,33.66481],[133.33421,33.66774],[133.33317,33.67009],[133.33439,33.67293],[133.33594,33.67421],[133.33618,33.6758],[133.33805,33.67672],[133.34021,33.67947],[133.33932,33.69246],[133.33777,33.69448],[133.33548,33.69458],[133.33792,33.69577],[133.33829,33.69716],[133.33748,33.69716],[133.33714,33.69583],[133.33295,33.69466],[133.33719,33.69254],[133.33614,33.68893],[133.33366,33.68708],[133.33294,33.68559],[133.32989,33.68784],[133.32896,33.68712],[133.32672,33.68787],[133.31752,33.68691],[133.31533,33.68592],[133.30883,33.69915],[133.30917,33.70178],[133.30855,33.70321],[133.30989,33.7054],[133.30818,33.70711],[133.3089,33.70874],[133.30813,33.71003],[133.31057,33.71326],[133.31012,33.71729],[133.3083,33.71991],[133.30943,33.72495],[133.31114,33.72571],[133.31352,33.72548],[133.31756,33.72844],[133.32186,33.72879],[133.32712,33.73112],[133.32909,33.73293],[133.33239,33.73323],[133.3353,33.73536],[133.33476,33.73982],[133.33358,33.74261],[133.33381,33.74573],[133.3317,33.75114],[133.32988,33.75294],[133.32992,33.75541],[133.32848,33.75689],[133.32921,33.75819],[133.3282,33.75998],[133.32909,33.76399],[133.32016,33.77227],[133.31781,33.77263],[133.31385,33.77165],[133.30924,33.77282],[133.30772,33.7805],[133.30454,33.78353],[133.29488,33.78861],[133.29094,33.7949],[133.23251,33.81235],[133.23143,33.81484],[133.23242,33.81912],[133.23416,33.82146],[133.23208,33.83088],[133.22903,33.83297],[133.22602,33.8333],[133.22474,33.83589],[133.22159,33.83754],[133.21856,33.84387],[133.21503,33.8487],[133.21195,33.84799],[133.20772,33.84842],[133.20558,33.85066],[133.20063,33.84974],[133.20004,33.85238],[133.19712,33.85681],[133.19244,33.85962],[133.19329,33.8617],[133.19099,33.86617],[133.18553,33.86504],[133.18343,33.86686],[133.18038,33.86778],[133.174,33.87458],[133.17472,33.87764],[133.18027,33.88274],[133.18347,33.88783],[133.18993,33.88956],[133.19439,33.89361],[133.19438,33.89491],[133.19233,33.89741],[133.18332,33.90234]],[[133.48484,33.55543],[133.4921,33.55236],[133.49809,33.55298],[133.49754,33.55525],[133.49896,33.55587],[133.50265,33.55539],[133.51622,33.55734],[133.53221,33.55819]]]}}]}