{"type":"FeatureCollection","features":[{"type":"Feature","properties":{"route_id":"145","route_number":145,"name":"国道145号","source":"OpenStreetMap contributors (ODbL)","osm_relations":[3591807,7438376,9107945,9107946]},"geometry":{"type":"MultiLineString","coordinates":[[[138.60546,36.54923],[138.60994,36.55236],[138.61255,36.55252],[138.61418,36.5539],[138.61661,36.5539],[138.62156,36.55172],[138.62477,36.54863],[138.63372,36.54914],[138.63983,36.54816],[138.64755,36.54367],[138.65692,36.54338],[138.65986,36.54176],[138.67044,36.53872],[138.67482,36.54259],[138.67926,36.54382],[138.6863,36.5497],[138.69543,36.55068],[138.70149,36.55633],[138.7093,36.55843],[138.71839,36.56761],[138.72306,36.57111],[138.729,36.57336],[138.73383,36.57406],[138.74178,36.57251],[138.74779,36.56723],[138.75373,36.56564],[138.76326,36.56056],[138.76802,36.55988],[138.77302,36.55601],[138.77842,36.5547],[138.78257,36.55293],[138.7834,36.55167],[138.79189,36.55061],[138.79609,36.5485],[138.80386,36.54877],[138.80623,36.54934],[138.80828,36.55162],[138.81078,36.55967],[138.81812,36.56426],[138.81925,36.56574],[138.81937,36.56858],[138.8289,36.57574],[138.83095,36.57978],[138.83286,36.58172],[138.84138,36.58514],[138.84915,36.587],[138.85896,36.58711],[138.86422,36.59968],[138.87179,36.60279],[138.87794,36.60765],[138.88495,36.61142],[138.88726,36.61376],[138.89413,36.61681],[138.90043,36.61803],[138.90567,36.62055],[138.91016,36.6199],[138.92477,36.62493],[138.92712,36.62417],[138.92939,36.62174],[138.9396,36.6196],[138.94201,36.62195],[138.95073,36.62443],[138.95668,36.62806],[138.96097,36.62862],[138.9657,36.62728],[138.96913,36.62802],[138.97162,36.62752],[138.97526,36.62924],[138.98555,36.62988],[138.98706,36.63079],[138.98799,36.63358],[138.98903,36.63422],[138.99212,36.6338],[138.99778,36.62881],[138.99945,36.62838],[139.00121,36.62931],[139.00581,36.62925],[139.00725,36.63044],[139.01068,36.63],[139.01363,36.62703],[139.01643,36.62806],[139.02307,36.62413],[139.02801,36.62588],[139.03135,36.63003],[139.03437,36.63059],[139.03717,36.62996],[139.03782,36.63068],[139.03679,36.63187]],[[138.74626,36.56843],[138.73471,36.57255],[138.728,36.56579],[138.72147,36.56314],[138.71878,36.55977],[138.71719,36.56046],[138.71539,36.55961]],[[138.65552,36.5459],[138.65855,36.54568]]]}}]}