{"type":"FeatureCollection","features":[{"type":"Feature","properties":{"route_id":"38","route_number":38,"name":"国道38号","source":"OpenStreetMap contributors (ODbL)","osm_relations":[2863334,2863335,2863336,9076767,9076768,9076769,9076770]},"geometry":{"type":"MultiLineString","coordinates":[[[142.6049,43.14236],[142.60234,43.14448],[142.6016,43.14744],[142.60292,43.14363],[142.60992,43.13964],[142.62957,43.1384],[142.63711,43.13606],[142.64538,43.13499],[142.65613,43.13062],[142.65977,43.12743],[142.66839,43.12355],[142.67339,43.1235],[142.67688,43.12432],[142.67814,43.12797],[142.68178,43.13018],[142.72902,43.13278],[142.75132,43.13826],[142.7536,43.13741],[142.75698,43.13315],[142.7588,43.12908],[142.76109,43.1284],[142.76315,43.12983],[142.76236,43.13353],[142.76484,43.13595],[142.76839,43.14216],[142.77057,43.14369],[142.7711,43.14629],[142.77381,43.14772],[142.77329,43.1497],[142.7743,43.15147],[142.7775,43.15319],[142.77759,43.15413],[142.77539,43.15669],[142.77713,43.15842],[142.77934,43.15877],[142.78352,43.15708],[142.78611,43.15703],[142.79706,43.16217],[142.80298,43.1609],[142.80396,43.16182],[142.80397,43.16394],[142.80578,43.16485],[142.81724,43.16094],[142.82398,43.16082],[142.82672,43.15899],[142.8286,43.1545],[142.83441,43.15062],[142.84236,43.13802],[142.83266,43.09196],[142.83401,43.08702],[142.8386,43.08373],[142.84245,43.07484],[142.84107,43.06263],[142.84945,43.04346],[142.85235,43.04221],[142.86496,43.04108],[142.8935,43.01604],[142.89422,43.01314],[142.88992,43.00007],[142.89253,42.97217],[142.89573,42.96741],[142.90122,42.96182],[142.94119,42.94677],[142.96413,42.93619],[142.9752,42.93286],[142.99924,42.91853],[143.00256,42.91761],[143.20396,42.9321],[143.2216,42.92703],[143.22789,42.92674],[143.24732,42.91679],[143.25106,42.91562],[143.33218,42.92106],[143.33506,42.92046],[143.35704,42.91021],[143.37783,42.91137],[143.38091,42.90987],[143.41418,42.88267],[143.43004,42.86664],[143.43611,42.86233],[143.44545,42.85391],[143.47072,42.82872],[143.47944,42.82139],[143.48819,42.81614],[143.49592,42.80863],[143.50002,42.80829],[143.51322,42.8152],[143.51735,42.81632],[143.54534,42.81428],[143.57576,42.79754],[143.59912,42.78114],[143.61619,42.7712],[143.62046,42.7744],[143.62448,42.77575],[143.62737,42.77785],[143.64107,42.78164],[143.64848,42.78996],[143.65105,42.79707],[143.6613,42.80565],[143.66342,42.81857],[143.66532,42.82017],[143.67182,42.82192],[143.6806,42.82005],[143.68582,42.82239],[143.69306,42.823],[143.70063,42.82045],[143.70456,42.82004],[143.71115,42.8211],[143.72469,42.82993],[143.72775,42.83098],[143.7355,42.83045],[143.74441,42.83236],[143.75278,42.83116],[143.7703,42.83308],[143.78074,42.8417],[143.78299,42.84867],[143.78923,42.84974],[143.79447,42.85337],[143.80259,42.85252],[143.81381,42.85307],[143.82507,42.85815],[143.8296,42.85878],[143.83698,42.85782],[143.84997,42.8508],[143.85411,42.85051],[143.86185,42.85192],[143.86583,42.85485],[143.87112,42.86129],[143.87486,42.86437],[143.88362,42.86657],[143.89333,42.86671],[143.90441,42.87366],[143.91777,42.87847],[143.92251,42.8826],[143.92714,42.88847],[143.9492,42.89281],[143.96334,42.90071],[143.9744,42.9093],[143.98373,42.91138],[144.00928,42.92459],[144.01453,42.92822],[144.01469,42.93249],[144.0158,42.93407],[144.02634,42.94027],[144.0333,42.94312],[144.03874,42.94786],[144.05974,42.95578],[144.06736,42.95543],[144.07074,42.95435],[144.08288,42.95434],[144.0905,42.95333],[144.0951,42.95646],[144.10543,42.95915],[144.11239,42.96236],[144.11803,42.96709],[144.12902,42.97359],[144.13453,42.97957],[144.13677,42.98078],[144.14702,42.98283],[144.16603,42.9845],[144.20096,42.99381],[144.25201,43.00297],[144.25421,43.00442],[144.25604,43.00924],[144.25908,43.00956],[144.26537,43.01188],[144.2703,43.00984],[144.29201,43.01057],[144.33353,43.01752],[144.35682,43.0129],[144.36228,43.0086],[144.36467,43.00784],[144.35974,43.00089],[144.36392,42.99683],[144.37595,42.98924],[144.37789,42.98337],[144.38441,42.9845],[144.38596,42.98015]],[[144.31245,43.03402],[144.28153,43.02372],[144.25921,43.02012],[144.25693,43.01794],[144.25645,43.00906],[144.25353,43.00346],[144.23286,42.99965]],[[144.2548,43.00556],[144.25645,43.00987],[144.25676,43.01796],[144.2592,43.02026],[144.28065,43.02356],[144.31678,43.03553],[144.32659,43.03652]],[[142.6016,43.14744],[142.60068,43.15164],[142.59292,43.1564],[142.56849,43.16331],[142.57399,43.17406],[142.57883,43.17859],[142.58229,43.18529],[142.58222,43.18697],[142.57973,43.19001],[142.5782,43.195],[142.57961,43.19616],[142.58382,43.19669],[142.5841,43.19797],[142.57992,43.19846],[142.57471,43.19738],[142.55517,43.20318],[142.54848,43.20806],[142.54058,43.21137],[142.52993,43.2182],[142.51431,43.21708],[142.50686,43.21912],[142.49511,43.21819],[142.49139,43.21528],[142.48725,43.20436],[142.47658,43.19864],[142.46375,43.20189],[142.45808,43.20485],[142.45,43.21504],[142.44779,43.21619],[142.44171,43.21585],[142.43918,43.21309],[142.43525,43.21231],[142.43344,43.21265],[142.43236,43.21507],[142.43043,43.21578],[142.42326,43.21231],[142.41861,43.21332],[142.41348,43.21211],[142.40148,43.21576],[142.37974,43.2193],[142.37857,43.22196],[142.3807,43.23846],[142.38433,43.25194],[142.38282,43.25501],[142.3849,43.27148],[142.3818,43.27666],[142.38077,43.27994],[142.38246,43.29192],[142.38556,43.29218],[142.39201,43.29537],[142.39971,43.29464],[142.40172,43.29568],[142.40359,43.32229],[142.39996,43.32959],[142.39426,43.33832],[142.3801,43.34502],[142.37174,43.34499],[142.3697,43.34573],[142.36001,43.36266],[142.35281,43.36548],[142.34857,43.36857],[142.34799,43.37048],[142.34847,43.37441],[142.34694,43.37962],[142.34801,43.38491],[142.34565,43.38971],[142.34926,43.39589],[142.34945,43.39785],[142.34754,43.4003],[142.34071,43.40319],[142.33861,43.4052],[142.33835,43.40713],[142.34061,43.41502],[142.33498,43.42101],[142.33353,43.43211],[142.33144,43.43851],[142.33008,43.44051],[142.31939,43.45075],[142.31706,43.45197],[142.29613,43.45394],[142.29013,43.45342],[142.28031,43.45576],[142.27596,43.45908],[142.27151,43.46997],[142.25957,43.47194],[142.25402,43.47596],[142.24596,43.47974],[142.24013,43.48054],[142.22006,43.47912],[142.20641,43.48661],[142.20517,43.48826],[142.20083,43.515],[142.19626,43.51927],[142.19149,43.52178],[142.18504,43.5279],[142.18057,43.53061],[142.17801,43.53118],[142.17087,43.53077],[142.1669,43.53246],[142.15855,43.53408],[142.15415,43.53345],[142.14891,43.53421],[142.13051,43.54253],[142.10732,43.54072],[142.10249,43.53755],[142.09798,43.5359],[142.08872,43.53932],[142.07783,43.53859],[142.07211,43.53968],[142.06393,43.54404],[142.06294,43.54762],[142.04918,43.55568],[142.05694,43.56263]],[[141.96377,43.56473],[141.95931,43.56482],[141.94818,43.5626],[141.93434,43.55326],[141.92984,43.5526],[141.92553,43.55337],[141.92984,43.55269],[141.93508,43.55364],[141.94899,43.56295],[141.96,43.56498],[141.96999,43.56443],[141.97301,43.565],[141.97991,43.56956],[141.98577,43.57627],[141.98802,43.57748],[142.02856,43.582],[142.03614,43.57967],[142.04308,43.57512],[142.04639,43.57161],[142.04653,43.5684],[142.05277,43.56667],[142.06468,43.55416],[142.07345,43.55315],[142.08277,43.54735],[142.08379,43.54585],[142.0831,43.54291],[142.08409,43.53903]],[[144.38592,42.97993],[144.38592,42.97993]],[[144.26453,43.01163],[144.26608,43.01195],[144.26924,43.01003]],[[144.38564,42.98007],[144.3857,42.98055]],[[143.29054,42.91817],[143.25032,42.91564],[143.2276,42.92675],[143.22156,42.92696],[143.20397,42.93202],[143.01364,42.91828]],[[142.36134,43.35778],[142.36145,43.3526],[142.35923,43.34514],[142.36046,43.34015],[142.36346,43.33687],[142.37424,43.3305],[142.38101,43.32372],[142.38323,43.31987],[142.38353,43.31589],[142.38071,43.2973],[142.38244,43.29221]],[[142.38236,43.29221],[142.38062,43.2973],[142.38342,43.3159],[142.38316,43.31981],[142.38093,43.32369],[142.37418,43.33045],[142.36404,43.33637],[142.36043,43.34006],[142.35914,43.34514],[142.36124,43.35191],[142.36127,43.35698]],[[144.25746,43.00928],[144.25489,43.0053]],[[141.90848,43.55775],[141.92553,43.55337]],[[144.32662,43.03644],[144.32406,43.0363]],[[142.79981,43.16166],[142.80281,43.16092],[142.80383,43.16177],[142.80371,43.16354],[142.80448,43.16455],[142.80624,43.16491],[142.80811,43.16421]]]}}]}