{"type":"FeatureCollection","features":[{"type":"Feature","properties":{"route_id":"491","route_number":491,"name":"国道491号","source":"OpenStreetMap contributors (ODbL)","osm_relations":[9869733,9874232,9874325]},"geometry":{"type":"MultiLineString","coordinates":[[[131.03752,34.06965],[131.03699,34.07964],[131.03905,34.08329],[131.03976,34.08881],[131.03891,34.0832],[131.03689,34.0797],[131.03752,34.06965],[131.03375,34.07027],[131.02944,34.06761],[131.02662,34.06246],[131.02585,34.05909],[131.02109,34.0544],[131.00865,34.0333],[131.0094,34.02882],[131.00856,34.02712]],[[131.03976,34.08881],[131.03561,34.09764],[131.03614,34.10716],[131.03533,34.1107],[131.03173,34.11633],[131.03241,34.1267],[131.02411,34.12678],[131.01946,34.12802],[131.00322,34.12979],[131.00214,34.13294],[131.00118,34.13346],[130.99937,34.13935],[131.00157,34.14986],[131.00372,34.1549],[131.003,34.15726],[131.00374,34.1602],[131.00286,34.16508],[130.99566,34.17329],[130.99608,34.17549],[130.99455,34.17543],[130.99427,34.17433],[130.99344,34.17476],[130.99278,34.18074],[130.99074,34.18272],[130.99203,34.18409],[130.99409,34.18409],[130.99345,34.18474],[130.9951,34.18838],[130.99943,34.19375],[130.99934,34.19585],[131.00025,34.19779],[131.004,34.20302],[131.00339,34.20601],[131.00646,34.21012],[131.00619,34.21114],[131.00831,34.21245],[131.01482,34.22008],[131.01774,34.22231],[131.02102,34.22274],[131.02343,34.22692],[131.03004,34.23201],[131.03476,34.23189],[131.04078,34.22887],[131.04355,34.23011],[131.04639,34.23425],[131.04584,34.24032],[131.04336,34.24436],[131.03966,34.24725],[131.03857,34.2492],[131.04296,34.25086],[131.04526,34.25303],[131.05344,34.25534],[131.05457,34.25838],[131.05716,34.25884],[131.06024,34.2659],[131.05944,34.26773],[131.06013,34.27356],[131.05909,34.2768],[131.05538,34.28148],[131.05298,34.28273],[131.05226,34.28546],[131.04994,34.28885],[131.05053,34.29289],[131.05173,34.29518],[131.05058,34.29922],[131.05112,34.30065],[131.05195,34.30043],[131.05166,34.29899],[131.0546,34.30065],[131.05477,34.30217],[131.05365,34.30214],[131.05412,34.3039],[131.05301,34.30315],[131.05253,34.30361],[131.05588,34.30655],[131.06038,34.30761],[131.06408,34.30985],[131.06655,34.30989],[131.06561,34.30769],[131.06605,34.30701],[131.06558,34.30635],[131.06488,34.30666],[131.06436,34.30546],[131.06748,34.30727],[131.06955,34.31038],[131.06719,34.31376],[131.06642,34.31759],[131.06731,34.31795],[131.06724,34.32044],[131.06565,34.32312],[131.06383,34.32399],[131.06132,34.32839],[131.06228,34.33225],[131.05992,34.34006],[131.05553,34.34487],[131.05566,34.35106],[131.05373,34.35519],[131.05237,34.36124],[131.0529,34.36368],[131.05247,34.37024]]]}}]}