{"type":"FeatureCollection","features":[{"type":"Feature","properties":{"route_id":"442","route_number":442,"name":"国道442号","source":"OpenStreetMap contributors (ODbL)","osm_relations":[9581589,9581595,9581645,9582089,9582156,9584150]},"geometry":{"type":"MultiLineString","coordinates":[[[131.58274,33.19999],[131.58421,33.20177],[131.58448,33.20345],[131.58751,33.20624],[131.58437,33.20352],[131.58411,33.20178],[131.57548,33.1905],[131.57153,33.18803],[131.56615,33.17498],[131.56127,33.17291],[131.55765,33.17495],[131.55237,33.17627],[131.55413,33.17814],[131.55798,33.17864],[131.57148,33.18779]],[[131.59547,33.22425],[131.59493,33.21881],[131.59533,33.22675],[131.60236,33.23698]],[[131.60247,33.23692],[131.59568,33.22719],[131.59558,33.22519]],[[131.39364,32.9762],[131.40676,32.98066],[131.41119,32.98651],[131.41247,32.98997],[131.41224,32.9937],[131.41312,32.99501],[131.41772,32.99807],[131.42364,33.00069],[131.42771,33.00515],[131.42953,33.00543],[131.4317,33.00746],[131.43292,33.01378],[131.43088,33.02048],[131.43356,33.02227],[131.43379,33.02713],[131.4312,33.03176],[131.42827,33.03295],[131.42727,33.03601],[131.42191,33.04031],[131.42125,33.04303],[131.42183,33.04422],[131.42106,33.04589],[131.42164,33.04839],[131.42061,33.0519],[131.4211,33.05417],[131.42318,33.0564],[131.42712,33.0586],[131.42922,33.06208],[131.42778,33.06207],[131.42744,33.06482],[131.42939,33.06841],[131.43112,33.06905],[131.43028,33.07195],[131.43179,33.07425],[131.4376,33.07908],[131.43913,33.08155],[131.44865,33.08731],[131.45022,33.08897],[131.45036,33.09239],[131.45319,33.09455],[131.45397,33.09689],[131.45569,33.09719],[131.45695,33.0993],[131.45844,33.09889],[131.46013,33.09975],[131.46184,33.1033],[131.46067,33.10661],[131.46584,33.11194],[131.4696,33.1172],[131.47571,33.12023],[131.47944,33.12063],[131.48218,33.12298],[131.48725,33.12465],[131.48989,33.12711],[131.49514,33.12733],[131.49654,33.13186],[131.49926,33.13574],[131.50195,33.13776],[131.5035,33.1412],[131.51068,33.1455],[131.51254,33.15177],[131.51406,33.15277],[131.51958,33.1535],[131.52062,33.15513],[131.52076,33.15739],[131.52409,33.15987],[131.53053,33.16226],[131.53839,33.1638],[131.54103,33.16644],[131.54348,33.17113],[131.54714,33.17223],[131.54819,33.17404],[131.55237,33.17627]],[[130.39445,33.20992],[130.39637,33.21205],[130.40456,33.21523],[130.445,33.21809],[130.45564,33.22179],[130.46033,33.22257],[130.4801,33.21919],[130.48927,33.22156],[130.50198,33.21724],[130.51935,33.21622],[130.51935,33.20917]],[[131.39346,32.97618],[131.38931,32.97365],[131.38206,32.97457],[131.37317,32.97141],[131.3705,32.97266],[131.36657,32.97244],[131.36196,32.97444],[131.359,32.97513],[131.35671,32.97452],[131.35466,32.9755],[131.34973,32.97954],[131.34783,32.98221],[131.34158,32.98429],[131.33866,32.98672],[131.33646,32.99114],[131.33338,32.99312],[131.33131,32.99594],[131.32537,32.99894],[131.32021,32.99927],[131.31794,33.00178],[131.31443,33.00387],[131.31058,33.00431],[131.30463,33.00786],[131.29299,33.02113],[131.29235,33.02312],[131.29019,33.02475],[131.28719,33.02516],[131.28442,33.02983],[131.2791,33.03062],[131.27458,33.02977],[131.27043,33.03165],[131.26489,33.03565],[131.26284,33.03616],[131.25266,33.04207],[131.24396,33.05035],[131.22849,33.05306],[131.21726,33.05335],[131.21546,33.05664],[131.20929,33.05875],[131.20935,33.05959],[131.21178,33.06153],[131.21048,33.06797],[131.20671,33.06942],[131.20184,33.07308],[131.20004,33.07294],[131.19643,33.07036],[131.19673,33.07292],[131.19569,33.07436],[131.1943,33.07246],[131.19074,33.07347],[131.18931,33.07167],[131.18328,33.07426],[131.18065,33.07458],[131.17677,33.07376],[131.17422,33.07158],[131.17283,33.07131],[131.16316,33.07359],[131.15296,33.07474],[131.15025,33.07433],[131.1483,33.07533],[131.13785,33.07699],[131.13573,33.07844],[131.13263,33.07821],[131.12607,33.08029],[131.12444,33.08155],[131.12048,33.08167],[131.11489,33.08403],[131.10344,33.08494],[131.1005,33.08701],[131.09764,33.09057],[131.09779,33.09328],[131.09443,33.09695],[131.09431,33.0997],[131.09521,33.10138],[131.0948,33.10372],[131.09586,33.10556],[131.09333,33.10922],[131.0929,33.11168],[131.08481,33.12028],[131.08428,33.122],[131.0813,33.12303],[131.08139,33.12448],[131.07895,33.12612],[131.0744,33.12568],[131.07205,33.1238],[131.06984,33.1233],[131.06645,33.12487],[131.06401,33.12285],[131.05968,33.12656],[131.05701,33.12528],[131.04154,33.12371],[131.03436,33.12738],[131.02914,33.12357],[131.02082,33.12251],[131.01824,33.12147],[131.00553,33.12444],[131.00213,33.12624],[130.99738,33.12675],[130.99543,33.12975],[130.98877,33.13288],[130.98358,33.13796],[130.9775,33.13746],[130.97552,33.1397],[130.97389,33.13969],[130.97198,33.13887],[130.96905,33.13544],[130.96686,33.13555],[130.96542,33.13436],[130.9637,33.13468],[130.96205,33.1313],[130.96021,33.13235],[130.95877,33.13219],[130.95591,33.13065],[130.95062,33.12939],[130.94832,33.13314],[130.94608,33.13426],[130.94202,33.13384],[130.93778,33.1366],[130.93338,33.137],[130.93152,33.13944],[130.92687,33.14222],[130.92345,33.14005],[130.91901,33.13896],[130.91564,33.13636],[130.91415,33.13646],[130.90852,33.13423],[130.90165,33.13389],[130.89995,33.13455],[130.89075,33.13211],[130.88702,33.13152],[130.88526,33.13212],[130.88495,33.13125],[130.88162,33.13264],[130.88319,33.1335],[130.88267,33.13421],[130.87989,33.1338],[130.86418,33.13645],[130.86178,33.13794],[130.8603,33.14065],[130.85638,33.14314],[130.85494,33.14258],[130.85312,33.14329],[130.8514,33.14203],[130.84687,33.1438],[130.84493,33.14087],[130.84807,33.14185],[130.84839,33.13892],[130.85427,33.1377],[130.85081,33.13812],[130.84458,33.13655],[130.83392,33.14365],[130.83099,33.14401],[130.82543,33.14695],[130.82266,33.14987],[130.81791,33.15056],[130.81328,33.15594],[130.81117,33.15575],[130.81097,33.15479],[130.80998,33.15478],[130.80638,33.15721],[130.80316,33.15553],[130.79803,33.15525],[130.79712,33.15674],[130.79734,33.16047],[130.79485,33.16109],[130.79399,33.1629],[130.7919,33.16342],[130.79039,33.16615],[130.78657,33.16668],[130.785,33.16763],[130.78309,33.1713],[130.78016,33.17123],[130.77862,33.1736],[130.76867,33.1739],[130.76712,33.17334],[130.76665,33.17377],[130.76784,33.17419],[130.76764,33.17473],[130.76166,33.17883],[130.75523,33.18198],[130.74789,33.17962],[130.74594,33.18011],[130.74417,33.18203],[130.73877,33.1792],[130.73297,33.1809],[130.72194,33.17918],[130.71953,33.18002],[130.71695,33.18297],[130.71901,33.18646],[130.71833,33.18944],[130.71345,33.19594],[130.71234,33.19929],[130.71233,33.20245],[130.71121,33.20458],[130.70743,33.20724],[130.69475,33.21009],[130.69149,33.2098],[130.68568,33.21096],[130.6834,33.21178],[130.68207,33.21362],[130.67693,33.21389],[130.67311,33.21275],[130.66683,33.21251],[130.65691,33.21011],[130.64662,33.2097],[130.63837,33.20585],[130.63642,33.20808],[130.63059,33.21018],[130.6205,33.22265],[130.61464,33.22243]],[[130.51936,33.21631],[130.56311,33.21735],[130.5211,33.21621],[130.50701,33.21663],[130.50116,33.21748],[130.48965,33.22159],[130.48026,33.21926],[130.46291,33.22241]],[[130.56311,33.21735],[130.57081,33.21708],[130.57465,33.21499],[130.59024,33.22036],[130.59679,33.22079],[130.59913,33.22205],[130.61268,33.22307],[130.61456,33.22246]],[[130.44586,33.21823],[130.45534,33.22179],[130.46033,33.22257]],[[131.28719,33.02516],[131.29167,33.0191],[131.29726,33.01606]],[[130.4409,33.21771],[130.40481,33.21516],[130.39639,33.21197],[130.39462,33.20994],[130.38512,33.20917]],[[130.38074,33.20612],[130.38477,33.20894]],[[131.59493,33.21881],[131.59619,33.21404],[131.58751,33.20624]],[[131.59609,33.21403],[131.59564,33.21604]],[[131.47195,33.11886],[131.47415,33.11939],[131.4744,33.1211],[131.47952,33.12083],[131.48119,33.12343],[131.483,33.12333]]]}}]}