{"type":"FeatureCollection","features":[{"type":"Feature","properties":{"route_id":"364","route_number":364,"name":"国道364号","source":"OpenStreetMap contributors (ODbL)","osm_relations":[8624536,10143464,15488019,15488020,15488021]},"geometry":{"type":"MultiLineString","coordinates":[[[136.50103,35.97004],[136.48883,35.96977],[136.48215,35.97226],[136.48032,35.97442],[136.47894,35.98244],[136.47417,35.98873],[136.47433,35.99255],[136.45953,35.99548],[136.45572,35.99753],[136.45403,35.99946],[136.45136,36.00034],[136.44242,36.00138],[136.43635,35.9982],[136.43188,35.9973],[136.40636,36.0013],[136.40222,36.0046],[136.39549,36.00791],[136.39096,36.00915],[136.3873,36.00818],[136.38132,36.00436],[136.38046,36.00266],[136.37798,36.0023],[136.37601,36.00009],[136.36614,35.9987],[136.36239,36.00007],[136.35883,36.00375],[136.35698,36.00745],[136.35528,36.00822],[136.3527,36.00708],[136.35124,36.00781],[136.35086,36.00894],[136.35287,36.01377],[136.35218,36.01673],[136.34825,36.01722],[136.34154,36.01433],[136.33615,36.01417],[136.33074,36.01871],[136.32565,36.02008],[136.32225,36.01917],[136.31968,36.02238],[136.3206,36.0238],[136.32033,36.02572],[136.32222,36.02792],[136.33061,36.03346],[136.33271,36.04164],[136.33422,36.04458],[136.334,36.04604],[136.3359,36.04817],[136.33685,36.04802],[136.33657,36.0465],[136.3387,36.04859],[136.34813,36.05152],[136.34986,36.05307],[136.34872,36.0517],[136.34916,36.05133],[136.35206,36.05496],[136.35068,36.05788],[136.34739,36.06014],[136.34736,36.06161],[136.34499,36.06262],[136.34235,36.06569],[136.33648,36.06514],[136.32351,36.07062],[136.32082,36.07244],[136.31985,36.0765],[136.31737,36.08159],[136.31697,36.0857],[136.31843,36.08889],[136.32474,36.09347],[136.32589,36.09901],[136.32822,36.10465],[136.31963,36.10952],[136.31964,36.11467],[136.32202,36.11842],[136.32174,36.11922],[136.31991,36.11732],[136.31855,36.11927],[136.31712,36.11893],[136.31752,36.11694],[136.31541,36.11597],[136.31457,36.11782],[136.31681,36.12101],[136.32237,36.1238],[136.3248,36.13958],[136.32764,36.14786],[136.33082,36.15194],[136.3321,36.15634],[136.3329,36.16206],[136.33188,36.16638],[136.33286,36.17233],[136.33544,36.17435],[136.33761,36.17476],[136.33876,36.17614],[136.34308,36.18852],[136.34371,36.19276],[136.34673,36.19698],[136.3453,36.19917],[136.34507,36.20131],[136.3464,36.20426],[136.34821,36.20579],[136.34909,36.21051],[136.35202,36.21308],[136.35281,36.21556],[136.3526,36.21937],[136.35572,36.22076],[136.35867,36.22384],[136.36069,36.22476],[136.35925,36.22941],[136.36907,36.23936],[136.37074,36.24273],[136.37121,36.24715],[136.37295,36.2512],[136.36906,36.2578],[136.36077,36.26263],[136.35849,36.26559],[136.35657,36.2687],[136.35334,36.27761],[136.3508,36.27975],[136.34842,36.28367],[136.34647,36.29565],[136.34342,36.29842],[136.33916,36.30074]],[[136.3173,36.08187],[136.32191,36.08536],[136.32934,36.08941],[136.33573,36.08941],[136.34027,36.08855]],[[136.31916,36.08332],[136.31737,36.08159]],[[136.4798,35.97738],[136.4781,35.98356]]]}}]}