{"type":"FeatureCollection","features":[{"type":"Feature","properties":{"route_id":"281","route_number":281,"name":"国道281号","source":"OpenStreetMap contributors (ODbL)","osm_relations":[9230437,10411509]},"geometry":{"type":"MultiLineString","coordinates":[[[141.78783,40.18693],[141.78312,40.18666],[141.77911,40.18484],[141.77175,40.18661],[141.77001,40.18823],[141.76983,40.18946],[141.76808,40.19034],[141.75851,40.19204],[141.75631,40.19072],[141.74061,40.18903],[141.72788,40.18323],[141.72321,40.18451],[141.71577,40.18154],[141.70835,40.18092],[141.70029,40.18235],[141.69523,40.17867],[141.68924,40.17967],[141.68609,40.17632],[141.6818,40.17468],[141.67808,40.17661],[141.67532,40.17699],[141.67258,40.1766],[141.66647,40.17387],[141.66175,40.1754],[141.65774,40.17304],[141.6503,40.17464],[141.64853,40.17717],[141.64306,40.17726],[141.64109,40.17615],[141.64048,40.17416],[141.63614,40.17186],[141.6326,40.17278],[141.63004,40.17247],[141.62796,40.17022],[141.62239,40.1716],[141.61022,40.16504],[141.59638,40.16052],[141.57993,40.15916],[141.57732,40.15715],[141.57323,40.15002],[141.56812,40.14924],[141.56288,40.14465],[141.5608,40.14491],[141.558,40.14793],[141.55634,40.14831],[141.54371,40.14092],[141.53802,40.14146],[141.53646,40.14046],[141.53261,40.13999],[141.53135,40.13813],[141.53104,40.13381],[141.52946,40.13217],[141.52599,40.1318],[141.52317,40.12957],[141.5173,40.13112],[141.51603,40.13044],[141.51647,40.12951],[141.52019,40.12838],[141.51918,40.12431],[141.51708,40.12318],[141.51894,40.12141],[141.51535,40.1181],[141.51601,40.11724],[141.51563,40.11351],[141.51752,40.11182],[141.51796,40.10902],[141.51763,40.1046],[141.51562,40.10118],[141.51556,40.09922],[141.51846,40.09709],[141.51753,40.0928],[141.51596,40.09192],[141.51644,40.09021],[141.51537,40.08804],[141.51561,40.08625],[141.51045,40.08288],[141.50861,40.07878],[141.50993,40.07626],[141.50928,40.07158],[141.50724,40.06962],[141.50919,40.06956],[141.50438,40.06579],[141.50605,40.06535],[141.49801,40.06021],[141.48762,40.05799],[141.48472,40.05629],[141.48086,40.05547],[141.47123,40.05029],[141.46257,40.04724],[141.45564,40.04279],[141.45495,40.03657],[141.44581,40.03751],[141.44103,40.04136],[141.43595,40.04115],[141.43295,40.04435],[141.43061,40.045],[141.42349,40.0427],[141.42064,40.0429],[141.4162,40.04739],[141.41466,40.04804],[141.41026,40.048],[141.40782,40.04621],[141.40454,40.0462],[141.40151,40.04362],[141.39982,40.04065],[141.40299,40.03851],[141.40612,40.03424],[141.40388,40.03035],[141.40265,40.02377],[141.40091,40.02104],[141.40322,40.01819],[141.40254,40.01367],[141.40738,40.00775],[141.41026,40.00572],[141.41232,40.00008],[141.41164,39.99718],[141.40738,39.99454],[141.40707,39.99315],[141.40846,39.99145],[141.41306,39.98956],[141.41362,39.98157],[141.41289,39.98059],[141.4044,39.98281],[141.40199,39.98525],[141.39602,39.98722],[141.39421,39.98917],[141.39145,39.99002],[141.38612,39.98708],[141.38136,39.98207],[141.37836,39.9805],[141.37022,39.98083],[141.36736,39.98016],[141.3561,39.98002],[141.35223,39.98174],[141.34547,39.98275],[141.34211,39.9847],[141.3366,39.98492],[141.33358,39.98296],[141.33118,39.98277],[141.32659,39.97952],[141.32059,39.98037],[141.31712,39.97902],[141.31385,39.97995],[141.31097,39.9788],[141.30952,39.97952],[141.30935,39.98127],[141.30866,39.98152],[141.3076,39.98024],[141.30418,39.97892],[141.30281,39.98085],[141.30299,39.97916],[141.30167,39.97705],[141.29711,39.97528],[141.2917,39.97556],[141.28925,39.97347],[141.28413,39.97281],[141.27488,39.97533],[141.27274,39.97505],[141.27053,39.97731],[141.2673,39.9761],[141.26395,39.97728],[141.25801,39.97602],[141.24572,39.97499],[141.23797,39.97586],[141.23119,39.97567],[141.22895,39.97713],[141.22967,39.98212],[141.22785,39.98304],[141.22634,39.9797],[141.22097,39.97735],[141.21896,39.97521],[141.21502,39.97319],[141.2128,39.9688],[141.21089,39.96207],[141.21107,39.95747],[141.21192,39.95569],[141.21755,39.95042],[141.21752,39.94832],[141.21572,39.94465],[141.21434,39.94255],[141.20977,39.93932],[141.20204,39.93517],[141.19961,39.93112],[141.19505,39.9273],[141.19485,39.9254],[141.19602,39.92246],[141.19463,39.91692],[141.19597,39.91472],[141.20118,39.91082],[141.20159,39.90911],[141.20038,39.90301],[141.19564,39.88934],[141.19235,39.88463],[141.18996,39.88266],[141.1844,39.87178],[141.18112,39.86719],[141.18004,39.86194],[141.17519,39.85459],[141.17302,39.83935],[141.16928,39.8364],[141.16016,39.83502],[141.15085,39.83124],[141.14929,39.82996],[141.14829,39.82751],[141.14191,39.82499],[141.13973,39.82181],[141.13628,39.81958],[141.13387,39.81529],[141.12937,39.81074],[141.12298,39.80147],[141.12414,39.79416],[141.12217,39.79078],[141.12495,39.7855],[141.12702,39.77569],[141.13056,39.77037],[141.13165,39.765],[141.13555,39.75601],[141.13188,39.74689],[141.12554,39.73703],[141.12286,39.72791],[141.12531,39.72529],[141.13526,39.72281],[141.13931,39.72038]],[[141.13926,39.7203],[141.13547,39.72265],[141.12504,39.72533],[141.12274,39.72777],[141.12547,39.73706],[141.13183,39.74699],[141.13548,39.75603],[141.13121,39.76503],[141.13059,39.76994],[141.12655,39.77583],[141.12452,39.78478],[141.12203,39.7908],[141.12405,39.79413],[141.12274,39.80118],[141.12905,39.81029]],[[141.12217,39.79078],[141.12207,39.79069]]]}}]}