{"type":"FeatureCollection","features":[{"type":"Feature","properties":{"route_id":"308","route_number":308,"name":"国道308号","source":"OpenStreetMap contributors (ODbL)","osm_relations":[3947962,10627697]},"geometry":{"type":"MultiLineString","coordinates":[[[135.51187,34.67529],[135.50034,34.67521],[135.51746,34.67604],[135.53608,34.67439],[135.54301,34.66901],[135.54892,34.66765],[135.55689,34.66831],[135.55796,34.67914],[135.56991,34.67839],[135.57633,34.67912],[135.61258,34.67869],[135.62193,34.6804],[135.64199,34.6803],[135.64082,34.67316],[135.64442,34.67231],[135.65255,34.67263],[135.66081,34.66887],[135.66245,34.66947],[135.66471,34.66757],[135.66618,34.66787],[135.67129,34.66574],[135.67414,34.66669],[135.67883,34.6665],[135.68091,34.66792],[135.68436,34.66731],[135.68626,34.66819],[135.6897,34.66725],[135.69532,34.66735],[135.69815,34.66571],[135.70359,34.66575],[135.70959,34.6643],[135.71603,34.66637],[135.71827,34.66321],[135.72342,34.6656],[135.7276,34.66513],[135.73227,34.66689],[135.73472,34.66563],[135.73955,34.66926],[135.74233,34.66852],[135.7477,34.66967],[135.75198,34.67114],[135.75442,34.673],[135.7581,34.67311],[135.76201,34.67644],[135.76576,34.67686],[135.77217,34.67926],[135.77276,34.68071],[135.77486,34.68161],[135.8005,34.68183]],[[135.64187,34.67997],[135.62196,34.68018],[135.61231,34.67847],[135.57584,34.67889],[135.56988,34.67817],[135.55802,34.6789],[135.55698,34.66828],[135.549,34.66756],[135.54301,34.66891],[135.53644,34.67417],[135.53291,34.67449]],[[135.7678,34.68469],[135.7869,34.68416]],[[135.76759,34.68471],[135.78105,34.68386],[135.78698,34.68194],[135.8005,34.68192]],[[135.78689,34.68408],[135.78089,34.68371],[135.76965,34.68466],[135.78221,34.68349],[135.78634,34.68209]],[[135.68907,34.66742],[135.68962,34.66726]]]}}]}