{"type":"FeatureCollection","features":[{"type":"Feature","properties":{"route_id":"439","route_number":439,"name":"国道439号","source":"OpenStreetMap contributors (ODbL)","osm_relations":[12591,9769603,9772937,9772990]},"geometry":{"type":"MultiLineString","coordinates":[[[134.294,33.95573],[134.29213,33.95752],[134.29082,33.95666],[134.29174,33.95513],[134.29449,33.95595],[134.29607,33.95739],[134.30226,33.95629],[134.30549,33.95951],[134.3128,33.96021],[134.31653,33.96385],[134.32113,33.96485],[134.32894,33.96405],[134.34522,33.96884],[134.35245,33.96828],[134.35551,33.96649],[134.36062,33.96778],[134.3642,33.97292],[134.37025,33.97489],[134.37345,33.97785],[134.37906,33.98028],[134.38055,33.98392],[134.3909,33.98747],[134.39779,33.98797],[134.40416,33.98654],[134.41469,33.98756],[134.42423,33.98584],[134.43227,33.98811],[134.43535,33.98988],[134.43857,33.99004],[134.44177,33.98905],[134.44947,33.99295],[134.45996,33.99322],[134.46254,33.99611],[134.47708,34.00036],[134.47757,34.0025],[134.47553,34.00698],[134.47831,34.00937],[134.48015,34.01776],[134.48607,34.01666],[134.48621,34.01854],[134.48961,34.0202],[134.48997,34.02618],[134.49177,34.02789],[134.49503,34.02696],[134.49808,34.02476],[134.50179,34.0251],[134.50391,34.02625],[134.50802,34.03047],[134.50915,34.03423],[134.51588,34.03682],[134.51739,34.03882],[134.52392,34.04376],[134.52926,34.04684],[134.53548,34.05318],[134.53952,34.05591],[134.54639,34.05623],[134.54723,34.0587],[134.54738,34.06728],[134.54612,34.07057],[134.54962,34.07274],[134.55346,34.07153],[134.55815,34.07164],[134.55345,34.07145],[134.54984,34.07267]],[[133.99122,33.87464],[133.99425,33.87315],[134.00147,33.87179],[134.00085,33.87408],[134.00149,33.87457],[133.99442,33.87443],[133.9936,33.87493],[133.99357,33.87676],[133.99253,33.87482],[133.97798,33.87265],[133.97584,33.86996],[133.9616,33.86649],[133.95868,33.86456],[133.95552,33.86368],[133.95337,33.86442],[133.94575,33.86313],[133.94412,33.86557],[133.94477,33.86686],[133.94249,33.87023],[133.94217,33.87306],[133.93815,33.87753],[133.93688,33.87968],[133.93733,33.88034],[133.93241,33.87937],[133.93138,33.8817],[133.92794,33.88189],[133.9229,33.87676],[133.91975,33.8758],[133.91993,33.87393],[133.91645,33.87354],[133.91306,33.87108],[133.90995,33.87052],[133.90625,33.86831],[133.90128,33.86319],[133.89963,33.85798],[133.89362,33.85562],[133.89336,33.85304],[133.89519,33.85113],[133.89495,33.84864],[133.89671,33.8469],[133.89523,33.84294],[133.89145,33.83868],[133.88807,33.83823],[133.885,33.83509],[133.88748,33.83848],[133.88104,33.83355],[133.88072,33.83237],[133.87765,33.83114],[133.87852,33.83025],[133.88144,33.83081],[133.88255,33.82886],[133.88321,33.83138],[133.88474,33.83222],[133.88338,33.83075],[133.88335,33.82788],[133.88206,33.8265],[133.88163,33.82875],[133.88062,33.82943],[133.87658,33.82661],[133.87638,33.82842],[133.87367,33.82782],[133.87248,33.82672],[133.87191,33.82765],[133.86879,33.8249],[133.86741,33.8273],[133.86535,33.82672],[133.8641,33.82865],[133.86167,33.83001],[133.86204,33.8312],[133.86326,33.8313],[133.86298,33.83259],[133.86447,33.83294],[133.86575,33.83204],[133.86752,33.83307],[133.86561,33.83267],[133.86373,33.83447],[133.86199,33.83367],[133.86045,33.83438],[133.8599,33.83409],[133.86048,33.83279],[133.85831,33.83158],[133.85776,33.82936],[133.86188,33.8242],[133.86201,33.82187],[133.86028,33.82431],[133.86116,33.82213],[133.8595,33.8236],[133.8603,33.82169],[133.85804,33.82422],[133.85606,33.82305],[133.85396,33.82316],[133.85457,33.82397],[133.85138,33.82626],[133.8494,33.82243],[133.84776,33.82207],[133.84773,33.82101],[133.84522,33.8187],[133.84886,33.82025],[133.84779,33.81968],[133.84801,33.81894],[133.84584,33.81715],[133.84347,33.81658],[133.8433,33.81561],[133.84392,33.81578],[133.84264,33.81548],[133.84248,33.81465],[133.8397,33.81363],[133.84217,33.81388],[133.83901,33.81286],[133.83809,33.81528],[133.83677,33.8119],[133.83558,33.81161],[133.83471,33.81023],[133.83258,33.80999],[133.83029,33.81194],[133.82951,33.80984],[133.82781,33.80934],[133.82697,33.80768],[133.82611,33.80789],[133.82412,33.8064],[133.823,33.80716],[133.82227,33.80562],[133.81664,33.80451],[133.8164,33.80367],[133.81404,33.8041],[133.81481,33.80218],[133.81254,33.80123],[133.80982,33.79864],[133.80983,33.79778],[133.80677,33.79748],[133.80574,33.79881],[133.80226,33.79809],[133.80024,33.80003],[133.79819,33.7974],[133.79679,33.79696],[133.79651,33.79587],[133.78593,33.79165],[133.78434,33.78977],[133.78294,33.78931],[133.7731,33.79311],[133.77071,33.79262],[133.76675,33.7902],[133.76299,33.79078],[133.76091,33.78992],[133.75757,33.79241],[133.75675,33.79534],[133.75442,33.79414],[133.7523,33.79442],[133.7424,33.78972],[133.73262,33.79033],[133.72852,33.78698],[133.7244,33.78898],[133.71797,33.78535],[133.71307,33.78361],[133.71057,33.78504],[133.70977,33.78755],[133.70576,33.78882],[133.70195,33.7879],[133.70008,33.78631],[133.69648,33.78496],[133.69777,33.78132],[133.69226,33.77853],[133.68885,33.77141],[133.68158,33.76847],[133.6779,33.76883],[133.67239,33.76747],[133.66834,33.76308],[133.65768,33.77146],[133.65268,33.77147],[133.64674,33.76725],[133.63794,33.77208],[133.63334,33.77273],[133.63213,33.77134],[133.63619,33.76553],[133.63492,33.7628],[133.62973,33.76337],[133.62822,33.76411],[133.6266,33.76657],[133.6238,33.7667],[133.62218,33.76594],[133.6187,33.76074],[133.61148,33.76001],[133.60859,33.75813],[133.60227,33.75754],[133.59921,33.75987],[133.59924,33.75635],[133.5944,33.7557],[133.591,33.75896],[133.5872,33.75907],[133.5743,33.75224],[133.56992,33.74859],[133.56599,33.74675],[133.56233,33.74642],[133.55114,33.74867],[133.54721,33.74653],[133.54616,33.74296],[133.53327,33.73519],[133.5296,33.73208],[133.52659,33.72772],[133.52367,33.72831],[133.52082,33.72622],[133.51823,33.72863],[133.51718,33.72872],[133.51637,33.72529],[133.51305,33.72451],[133.50604,33.7209],[133.50503,33.71934],[133.50634,33.7171],[133.50654,33.71475],[133.50593,33.71351],[133.50408,33.71268],[133.50514,33.7093],[133.49457,33.70014],[133.48963,33.69838],[133.49025,33.69659],[133.48789,33.69457],[133.48576,33.69387],[133.48364,33.69504],[133.48036,33.69326],[133.47718,33.69023],[133.46917,33.68765],[133.46354,33.68845],[133.45751,33.69229],[133.45206,33.69235],[133.45111,33.68967],[133.43708,33.68162],[133.43623,33.67895],[133.43382,33.67713],[133.41649,33.67088],[133.412,33.67028],[133.40335,33.6665],[133.40033,33.6643],[133.39353,33.66289],[133.38529,33.6568],[133.38069,33.65639],[133.3751,33.65118],[133.36541,33.64903],[133.35944,33.64896],[133.35517,33.65146],[133.34802,33.65096],[133.3456,33.64797],[133.34116,33.64689],[133.34012,33.64554],[133.33594,33.64561],[133.33393,33.64462],[133.33147,33.6454],[133.32982,33.64486],[133.32532,33.64048],[133.32558,33.63809],[133.32231,33.63651],[133.31936,33.63846],[133.31597,33.63721],[133.31021,33.63991],[133.3059,33.63244],[133.3038,33.63151],[133.30411,33.62725],[133.30089,33.62536],[133.29526,33.63134],[133.29093,33.63019],[133.28881,33.63056],[133.28592,33.62923],[133.28339,33.62971],[133.27419,33.62909],[133.2718,33.62764],[133.26685,33.62689],[133.25586,33.62837],[133.25377,33.62741],[133.25113,33.62427],[133.2459,33.62173],[133.24225,33.62215],[133.23799,33.62004],[133.20218,33.61471],[133.1958,33.61284],[133.19043,33.61495],[133.18698,33.61443],[133.1824,33.61045],[133.17459,33.60869],[133.16777,33.60604],[133.16478,33.6024],[133.16405,33.59763],[133.16099,33.59645],[133.1614,33.59352],[133.15954,33.58782],[133.16044,33.58585],[133.1591,33.58425],[133.16009,33.58182],[133.16263,33.58156],[133.16194,33.57831],[133.1643,33.57681],[133.16644,33.57411],[133.16169,33.57253],[133.15752,33.56817],[133.15278,33.56767],[133.15096,33.56611],[133.15063,33.56513],[133.15251,33.56196],[133.15271,33.55957],[133.14936,33.55443],[133.14521,33.55475],[133.1408,33.55389],[133.13902,33.55742],[133.1375,33.55865],[133.1338,33.55973],[133.1322,33.55898],[133.13272,33.55527],[133.13051,33.5495],[133.1322,33.54687],[133.13144,33.54551],[133.12853,33.54375],[133.13031,33.541],[133.12677,33.53757],[133.12928,33.53532],[133.12919,33.53463],[133.1332,33.53265],[133.13298,33.53164],[133.13139,33.53124],[133.13118,33.52955],[133.1297,33.52763],[133.13476,33.52632],[133.13393,33.52509],[133.13438,33.52033],[133.133,33.51895],[133.13353,33.5173],[133.13269,33.5141],[133.13507,33.51258],[133.13537,33.51095],[133.13426,33.50936],[133.13633,33.50702],[133.13443,33.50321],[133.13108,33.50128],[133.12984,33.49944],[133.12684,33.4982],[133.12625,33.4961],[133.12363,33.49524],[133.11999,33.48904],[133.11676,33.48656],[133.11509,33.48654],[133.11119,33.48931],[133.10596,33.48905],[133.10313,33.48799],[133.10198,33.48036],[133.0998,33.4766],[133.09531,33.47468],[133.0916,33.47496],[133.08821,33.47356],[133.0849,33.46488],[133.08243,33.4642],[133.08378,33.46538],[133.07967,33.46481],[133.07804,33.4636],[133.07867,33.46542],[133.08033,33.46546],[133.08177,33.46669],[133.08012,33.46597],[133.07819,33.46644],[133.07581,33.46518],[133.07389,33.46175],[133.07401,33.46065],[133.06732,33.45545],[133.06604,33.4552],[133.06599,33.45403],[133.06304,33.45688],[133.061,33.45667],[133.05736,33.45782],[133.0548,33.45695],[133.05005,33.45918],[133.04802,33.45936],[133.04631,33.45923],[133.04465,33.45798],[133.04111,33.45872],[133.03893,33.45738],[133.03552,33.46012],[133.03216,33.46044],[133.0294,33.45852],[133.0271,33.4544],[133.0249,33.45309],[133.02316,33.45063],[133.02068,33.4497],[133.01858,33.4471],[133.0131,33.44558],[133.01138,33.44358],[133.0081,33.442],[133.00673,33.43696],[133.00819,33.43198],[133.01466,33.42808],[133.01456,33.42611],[133.01693,33.42396],[133.01702,33.42105],[133.02101,33.4185],[133.02221,33.41487],[133.02419,33.41235],[133.02441,33.40827],[133.02943,33.40583],[133.02496,33.402],[133.02504,33.39927],[133.02304,33.39817],[133.02415,33.39584],[133.02374,33.39177],[133.02459,33.39056],[133.01887,33.39092],[133.01244,33.3925],[133.01143,33.39061],[133.00763,33.39095],[133.00599,33.38895],[133.00756,33.38679],[133.00727,33.38486],[133.01126,33.38197],[133.00851,33.38021],[133.00874,33.37718],[133.01283,33.37776],[133.01414,33.37515],[133.01635,33.37396],[133.01626,33.37183],[133.01883,33.37162],[133.01896,33.37],[133.01643,33.3684],[133.01224,33.36905],[133.00851,33.36806],[133.00246,33.36436],[132.99745,33.36463],[132.99673,33.36346],[132.99842,33.36141],[132.99299,33.36102],[132.99141,33.35966],[132.9923,33.3617],[132.99108,33.36402],[132.98867,33.36431],[132.98586,33.36333],[132.98404,33.36201],[132.98478,33.36065],[132.98378,33.35952],[132.98116,33.36017],[132.98345,33.35715],[132.98684,33.35644],[132.98641,33.35499],[132.97941,33.35418],[132.97842,33.35301],[132.9737,33.35343],[132.97337,33.35219],[132.97598,33.35193],[132.97694,33.35071],[132.97259,33.34922],[132.97148,33.34595],[132.96731,33.34742],[132.96657,33.34532],[132.96507,33.34488],[132.96395,33.34563],[132.96378,33.34713],[132.96198,33.34455],[132.9583,33.34317],[132.95861,33.34205],[132.96249,33.34116],[132.96293,33.3394],[132.96227,33.33857],[132.96018,33.33822],[132.9604,33.33535],[132.95933,33.33411],[132.95798,33.33385],[132.95478,33.33506],[132.95443,33.33071],[132.95721,33.32822],[132.96357,33.3279],[132.96744,33.32467],[132.9701,33.3185],[132.97277,33.31597],[132.97217,33.31256],[132.97928,33.30936],[132.97919,33.30754],[132.97676,33.30427],[132.97242,33.30322],[132.97051,33.29971],[132.96724,33.2999],[132.96563,33.30168],[132.96557,33.30291],[132.96863,33.30698],[132.96901,33.30907],[132.96862,33.30991],[132.96585,33.31039],[132.96406,33.30998],[132.96532,33.30728],[132.96424,33.30452],[132.95841,33.29952],[132.95672,33.29956],[132.9487,33.30335],[132.9451,33.30639],[132.94317,33.30557],[132.94521,33.29698],[132.94782,33.29655],[132.94927,33.29486],[132.94896,33.29148],[132.94961,33.29101],[132.94636,33.28842],[132.9494,33.28839],[132.95247,33.28698],[132.9539,33.28491],[132.95352,33.28291],[132.9544,33.28294],[132.95402,33.28198],[132.95573,33.27988],[132.95514,33.27784],[132.95336,33.27732],[132.94803,33.27827],[132.94669,33.27659],[132.9464,33.2746],[132.95827,33.27204],[132.95954,33.27243],[132.96127,33.27144],[132.96321,33.27186],[132.96235,33.27088],[132.96397,33.26862],[132.96264,33.26625],[132.96381,33.26479],[132.96841,33.26118],[132.96973,33.26139],[132.96948,33.26014],[132.97315,33.25974],[132.97449,33.2604],[132.97777,33.25934],[132.9776,33.25782],[132.97393,33.25461],[132.97605,33.25166],[132.97636,33.24937],[132.97514,33.24709],[132.97415,33.2471],[132.97249,33.24554],[132.97773,33.24202]],[[134.54978,34.07259],[134.54622,34.07034]],[[134.29174,33.95513],[134.2886,33.95499],[134.28764,33.9575],[134.28575,33.95702],[134.28468,33.95828],[134.28078,33.95781],[134.27875,33.95965],[134.27707,33.95956],[134.27624,33.96144],[134.2745,33.96044],[134.26694,33.95961],[134.26289,33.9572],[134.26308,33.95532],[134.25952,33.94986],[134.25376,33.94874],[134.2527,33.94715],[134.24192,33.94302],[134.2411,33.94197],[134.24185,33.94136],[134.241,33.93903],[134.24162,33.93832],[134.24131,33.93671],[134.24014,33.93659],[134.24084,33.93814],[134.24002,33.93957],[134.24035,33.93755],[134.23852,33.93683],[134.23908,33.9339],[134.24029,33.93295],[134.23908,33.93199],[134.23787,33.93193],[134.23955,33.9328],[134.23642,33.93449],[134.23727,33.9354],[134.23464,33.93681],[134.23462,33.93846],[134.23112,33.93901],[134.23137,33.94165],[134.22835,33.94117],[134.22615,33.94338],[134.22617,33.9445],[134.22346,33.94515],[134.21981,33.94381],[134.21902,33.94325],[134.22089,33.94373],[134.21821,33.94259],[134.22323,33.9434],[134.22366,33.94175],[134.22462,33.94136],[134.22278,33.94026],[134.22415,33.93818],[134.22247,33.9378],[134.22235,33.93688],[134.22046,33.93728],[134.21672,33.93611],[134.21587,33.93398],[134.21795,33.9327],[134.21472,33.93152],[134.21566,33.92966],[134.21171,33.93187],[134.21061,33.93008],[134.20519,33.93146],[134.20411,33.92947],[134.20458,33.92804],[134.20392,33.92601],[134.2003,33.92566],[134.19989,33.92325],[134.19787,33.92212],[134.19911,33.92048],[134.19842,33.91845],[134.19274,33.91598],[134.19192,33.91368],[134.17625,33.91459],[134.16839,33.91318],[134.16775,33.91214],[134.16798,33.90727],[134.16522,33.90159],[134.16102,33.89996],[134.15973,33.89777],[134.15672,33.89774],[134.14965,33.89313],[134.14858,33.89091],[134.1402,33.88791],[134.13446,33.88357],[134.13416,33.88203],[134.13208,33.88039],[134.13171,33.87835],[134.12607,33.87718],[134.12496,33.87543],[134.12451,33.87616],[134.12444,33.8749],[134.12071,33.87463],[134.12377,33.87575],[134.12454,33.87773],[134.12378,33.87874],[134.12659,33.8795],[134.12583,33.88064],[134.12627,33.88122],[134.12566,33.87947],[134.12185,33.87977],[134.12228,33.87928],[134.12138,33.87809],[134.12278,33.87788],[134.12133,33.87633],[134.12029,33.8763],[134.12004,33.87731],[134.11844,33.87826],[134.11688,33.87676],[134.11569,33.87718],[134.1146,33.87574],[134.10985,33.87612],[134.10968,33.87495],[134.10681,33.87504],[134.1061,33.87306],[134.10623,33.87534],[134.10875,33.87557],[134.10907,33.87728],[134.11167,33.8769],[134.11218,33.87807],[134.11331,33.87788],[134.11365,33.87895],[134.11499,33.87953],[134.11549,33.88227],[134.11767,33.88229],[134.11474,33.88265],[134.11489,33.8816],[134.11362,33.88087],[134.11296,33.8793],[134.11149,33.87933],[134.11032,33.87814],[134.10951,33.87934],[134.10819,33.8796],[134.10732,33.8791],[134.10729,33.87762],[134.10323,33.8774],[134.10356,33.87615],[134.10112,33.87446],[134.09584,33.87549],[134.09633,33.87462],[134.09465,33.87173],[134.09496,33.8708],[134.09241,33.8693],[134.09154,33.86694],[134.08982,33.86735],[134.08948,33.86818],[134.08546,33.86845],[134.08482,33.86942],[134.08551,33.8677],[134.08733,33.8675],[134.08549,33.86582],[134.08541,33.86699],[134.08418,33.86742],[134.08313,33.86677],[134.08072,33.86726],[134.0802,33.86661],[134.07854,33.86661],[134.07806,33.86736],[134.07743,33.86611],[134.07633,33.86594],[134.07437,33.86705],[134.07356,33.86585],[134.07207,33.86653],[134.07031,33.86506],[134.06904,33.86584],[134.06901,33.86474],[134.06749,33.86459],[134.06824,33.86373],[134.06781,33.86214],[134.06612,33.86249],[134.0633,33.86111],[134.06254,33.86158],[134.0619,33.8601],[134.05843,33.85796],[134.05462,33.85856],[134.05243,33.85719],[134.04838,33.85678],[134.04605,33.85439],[134.04236,33.85366],[134.04099,33.85246],[134.03836,33.85184],[134.03435,33.85344],[134.03015,33.85123],[134.03017,33.85339],[134.02851,33.85361],[134.02567,33.85196],[134.02189,33.85335],[134.01773,33.85856],[134.01629,33.85923],[134.01574,33.86084],[134.01228,33.86284],[134.01103,33.86232],[134.01004,33.86281],[134.00743,33.86595],[134.00485,33.86722],[134.00281,33.87143],[134.00147,33.87179]],[[132.94456,32.98189],[132.93731,32.98941],[132.9374,32.99061],[132.93466,32.99099],[132.93532,33.00177],[132.93162,33.01026],[132.93117,33.02383],[132.93234,33.0277],[132.93512,33.03043],[132.93492,33.03287],[132.93307,33.03549],[132.93647,33.03626],[132.93977,33.03971],[132.94229,33.03979],[132.94441,33.04406],[132.9476,33.04684],[132.94885,33.05205],[132.94838,33.0555],[132.94647,33.06165],[132.94379,33.06412],[132.94382,33.06775],[132.9542,33.07565],[132.95389,33.07816],[132.95692,33.08162],[132.95805,33.08702],[132.95663,33.09052],[132.95917,33.09137],[132.96088,33.09399],[132.96037,33.0974],[132.9632,33.09869],[132.96329,33.10064],[132.96165,33.10231],[132.96098,33.1044],[132.96488,33.10708],[132.96669,33.10954],[132.96664,33.11453],[132.96518,33.12258],[132.9607,33.12614],[132.95821,33.1271],[132.95828,33.12971],[132.95997,33.13041],[132.9608,33.12927],[132.96243,33.13111],[132.96548,33.13083],[132.96756,33.13228],[132.96669,33.13284],[132.96693,33.13372],[132.96905,33.13458],[132.96929,33.13553],[132.97175,33.13463],[132.97168,33.1355],[132.97368,33.13609],[132.97081,33.13685],[132.97299,33.13877],[132.97305,33.1404],[132.9703,33.14035],[132.96932,33.14269],[132.96762,33.14259],[132.96671,33.14064],[132.96754,33.14318],[132.97043,33.14359],[132.9665,33.14523],[132.96576,33.14776],[132.96712,33.14872],[132.96641,33.15106],[132.96816,33.15149],[132.96718,33.15242],[132.96746,33.15404],[132.96978,33.15415],[132.97034,33.15499],[132.9733,33.15453],[132.97073,33.1566],[132.97141,33.1576],[132.9714,33.16195],[132.97031,33.16277],[132.966,33.16183],[132.96438,33.16263],[132.96633,33.16416],[132.96597,33.1647],[132.96071,33.16492],[132.96088,33.16612],[132.9638,33.16741],[132.96151,33.16955],[132.96218,33.17145],[132.96165,33.17482],[132.96272,33.17536],[132.9659,33.17395],[132.96689,33.17228],[132.9665,33.17452],[132.96463,33.1758],[132.96728,33.17572],[132.96817,33.17757],[132.96915,33.17709],[132.96857,33.17822],[132.96699,33.17884],[132.96604,33.18139],[132.97171,33.18283],[132.97291,33.18655],[132.97267,33.18846],[132.97018,33.19256],[132.97186,33.19481],[132.972,33.19806],[132.97002,33.20235],[132.96955,33.20682],[132.9755,33.21263],[132.97943,33.21434],[132.98202,33.21962],[132.98192,33.2225],[132.9806,33.22627],[132.98098,33.22818],[132.97776,33.23417],[132.97799,33.23684]],[[133.91594,33.87323],[133.91535,33.87147],[133.91365,33.87155]]]}}]}