{"type":"FeatureCollection","features":[{"type":"Feature","properties":{"route_id":"360","route_number":360,"name":"国道360号","source":"OpenStreetMap contributors (ODbL)","osm_relations":[8630931,14415895]},"geometry":{"type":"MultiLineString","coordinates":[[[136.50684,36.40059],[136.4896,36.40134],[136.47319,36.40105],[136.46076,36.40485],[136.47335,36.40114],[136.49087,36.40141],[136.5133,36.39985],[136.52424,36.39247],[136.5292,36.38574],[136.53789,36.37854],[136.54154,36.37738],[136.54292,36.37485],[136.54802,36.3743],[136.55303,36.37227],[136.55514,36.37243],[136.55952,36.37099],[136.56295,36.37332],[136.56669,36.37449],[136.57427,36.37302],[136.57606,36.37336],[136.57954,36.37168],[136.58135,36.37236],[136.58139,36.37434],[136.58168,36.37185],[136.5836,36.37022],[136.58839,36.3677],[136.58949,36.36615],[136.5946,36.36283],[136.59736,36.36236],[136.6018,36.35929],[136.60601,36.35957],[136.60885,36.36186],[136.61096,36.36243],[136.61313,36.36131],[136.61706,36.36293],[136.61888,36.362],[136.62294,36.35821],[136.62772,36.34697],[136.63385,36.34382],[136.63674,36.34056],[136.64202,36.33729],[136.64298,36.33485],[136.64357,36.3285],[136.64872,36.32327],[136.64811,36.3165],[136.64872,36.3148],[136.64365,36.30857],[136.64021,36.30137],[136.64023,36.2991],[136.64211,36.29594],[136.65672,36.28328],[136.65868,36.28225],[136.66093,36.28225],[136.66778,36.27847],[136.67635,36.27686],[136.67909,36.2749],[136.68131,36.27449],[136.68188,36.27242],[136.68504,36.27297],[136.69125,36.27086],[136.69907,36.27283],[136.70187,36.27243],[136.70332,36.2734],[136.70566,36.2723],[136.7095,36.27229],[136.71595,36.26857],[136.71623,36.26638],[136.72286,36.26276]],[[136.90617,36.2626],[136.90598,36.26379],[136.90674,36.26446],[136.90999,36.26448],[136.91616,36.26001],[136.91798,36.26002],[136.92022,36.25651],[136.91962,36.25994],[136.9227,36.25961],[136.92243,36.25881],[136.92376,36.2601],[136.92675,36.26022],[136.93015,36.26223],[136.93376,36.26257],[136.93219,36.26324],[136.93762,36.26582],[136.93753,36.2638],[136.93975,36.26258],[136.93635,36.2622],[136.94308,36.26137],[136.9397,36.2644],[136.94347,36.26282],[136.94617,36.26021],[136.94454,36.26171],[136.94434,36.26349],[136.94161,36.26516],[136.94414,36.26983],[136.9482,36.27217],[136.95217,36.2716],[136.95447,36.26995],[136.95594,36.26621],[136.95588,36.26188],[136.95695,36.25948],[136.96337,36.25777],[136.96436,36.25935],[136.96604,36.26008],[136.96571,36.26073],[136.96692,36.26021],[136.96954,36.26098],[136.97,36.26122],[136.96906,36.26205],[136.97135,36.26179],[136.97136,36.26284],[136.97409,36.26227],[136.97279,36.2617],[136.97542,36.26222],[136.97637,36.26175],[136.97514,36.2614],[136.97612,36.26133],[136.98623,36.26311],[136.99206,36.26532],[136.99175,36.26656],[136.99489,36.26534],[136.99756,36.26575],[136.99883,36.26658],[136.99855,36.2672],[136.9998,36.26718],[137.00502,36.27051],[137.00532,36.26981],[137.00502,36.27144],[137.00736,36.27009],[137.00912,36.27039],[137.00873,36.26968],[137.01012,36.27062],[137.01402,36.26997],[137.01285,36.26941],[137.01603,36.27029],[137.02131,36.27035],[137.0219,36.2714],[137.02209,36.27016],[137.02394,36.27183],[137.02341,36.27088],[137.02477,36.27097],[137.02429,36.27309],[137.02637,36.274],[137.03087,36.27351],[137.03405,36.27422],[137.04208,36.28022],[137.04381,36.28251],[137.04662,36.28444],[137.04897,36.28776],[137.05624,36.28981],[137.06054,36.29411],[137.06308,36.2937],[137.06748,36.29559],[137.0728,36.29584],[137.07654,36.30157],[137.08377,36.30431],[137.08804,36.30721],[137.08978,36.30737],[137.09703,36.3048],[137.10938,36.30472],[137.11281,36.30187],[137.11354,36.30243],[137.1098,36.30641],[137.11044,36.30734],[137.1156,36.3106],[137.1211,36.3128],[137.12362,36.31282],[137.12773,36.31124],[137.13029,36.3121],[137.13362,36.31638],[137.13381,36.31946],[137.13511,36.32061],[137.13706,36.32694],[137.13908,36.32907],[137.14716,36.33118],[137.15074,36.33577],[137.15295,36.33707],[137.16663,36.33835],[137.17263,36.34036],[137.17868,36.34112],[137.18182,36.34367],[137.18339,36.35032],[137.18853,36.35111],[137.19019,36.35777],[137.19298,36.3623],[137.19305,36.36632],[137.19138,36.36894],[137.18828,36.371],[137.18822,36.37451],[137.18569,36.38466],[137.18232,36.38896],[137.18037,36.38825],[137.18115,36.39231],[137.17757,36.39392],[137.17662,36.39545],[137.17767,36.39748],[137.1817,36.40002],[137.18487,36.40784],[137.18646,36.40938],[137.18973,36.41063],[137.19042,36.4097],[137.18684,36.40698],[137.18558,36.39518],[137.18232,36.38896]],[[137.23849,36.47382],[137.23615,36.47739],[137.239,36.4837],[137.23577,36.49444],[137.23626,36.49691],[137.2326,36.50453],[137.22967,36.50735],[137.22828,36.51098],[137.22854,36.51385],[137.23098,36.5182],[137.23104,36.52328],[137.23011,36.52552],[137.22652,36.52964],[137.2259,36.53481],[137.22754,36.53597],[137.23121,36.53585],[137.22929,36.54002],[137.22957,36.54242],[137.22725,36.54638],[137.22553,36.54771],[137.2238,36.55154],[137.22013,36.55328],[137.21807,36.55586],[137.21577,36.55707],[137.21472,36.561],[137.21102,36.56645],[137.20926,36.57353],[137.20662,36.57932],[137.20384,36.59476],[137.20326,36.60361],[137.20546,36.61862],[137.20446,36.62613],[137.20526,36.62788],[137.20807,36.62977],[137.20898,36.63129],[137.20986,36.66449],[137.21089,36.6806],[137.21256,36.69189]],[[137.21271,36.69188],[137.211,36.6806],[137.20997,36.66448],[137.20909,36.63125],[137.20483,36.62707],[137.20426,36.62323],[137.20012,36.61647],[137.19502,36.604],[137.19393,36.59798],[137.18949,36.59195],[137.18783,36.58744],[137.19021,36.57779],[137.19855,36.56629],[137.19918,36.56278],[137.19799,36.55876],[137.19907,36.55467],[137.2026,36.55122],[137.22072,36.54186],[137.2236,36.53915],[137.2259,36.53481]],[[137.23828,36.48664],[137.23402,36.48003],[137.23366,36.4763],[137.23569,36.47426],[137.23911,36.47345],[137.2407,36.46999],[137.2457,36.46583],[137.24561,36.46377],[137.24412,36.46168],[137.24039,36.46173],[137.23725,36.45893],[137.22145,36.44379],[137.2199,36.44054],[137.2162,36.43678],[137.19943,36.42873],[137.19794,36.42632],[137.19951,36.42234],[137.1991,36.41954],[137.19399,36.41227],[137.19054,36.40986]],[[136.41155,36.40381],[136.42072,36.40762],[136.43028,36.40781],[136.42073,36.40754],[136.4116,36.40376]],[[136.46076,36.40485],[136.43028,36.40781]]]}}]}