{"type":"FeatureCollection","features":[{"type":"Feature","properties":{"route_id":"444","route_number":444,"name":"国道444号","source":"OpenStreetMap contributors (ODbL)","osm_relations":[9364400,9531218,15331866]},"geometry":{"type":"MultiLineString","coordinates":[[[130.10321,33.12722],[130.10607,33.12916],[130.10841,33.13237],[130.11084,33.13347],[130.12123,33.13387],[130.12305,33.1362],[130.12243,33.13828],[130.12506,33.13915],[130.13528,33.13969],[130.14016,33.13671],[130.14288,33.13892],[130.14768,33.14551],[130.15085,33.15186],[130.15286,33.15337],[130.15593,33.15368],[130.16213,33.15798],[130.16811,33.16285],[130.16819,33.16437],[130.1697,33.16581],[130.17431,33.16684],[130.18085,33.16971],[130.18041,33.17322],[130.18861,33.18048],[130.19255,33.1858],[130.19329,33.18775],[130.1929,33.19602],[130.19374,33.19891],[130.19847,33.20123],[130.20237,33.20047],[130.20513,33.20353],[130.20801,33.21137],[130.20878,33.22107],[130.21339,33.22065],[130.22282,33.22181],[130.22934,33.22129],[130.23503,33.21982],[130.24602,33.2201],[130.26397,33.21881],[130.26228,33.21347],[130.26281,33.21107],[130.26431,33.20926],[130.26886,33.20705],[130.27028,33.20316],[130.2791,33.20125],[130.2857,33.20118],[130.28812,33.19984],[130.29195,33.19985],[130.30075,33.19624],[130.30833,33.19772],[130.3147,33.19722],[130.31527,33.19186],[130.31941,33.19148],[130.31959,33.18957],[130.32488,33.18934],[130.33156,33.19049],[130.33496,33.1962],[130.33542,33.21265],[130.34,33.21304],[130.34143,33.21523],[130.34304,33.21594],[130.35962,33.21697],[130.3608,33.21791],[130.36264,33.22211]],[[130.11281,33.1337],[130.10855,33.13261],[130.10599,33.1292],[130.10314,33.12728],[130.09862,33.11995],[130.09658,33.11444],[130.09843,33.10609],[130.10651,33.1022],[130.10826,33.09976],[130.09967,33.09792],[130.09085,33.09375],[130.08546,33.0894],[130.08194,33.08857],[130.07816,33.08604],[130.07074,33.08298],[130.06746,33.07847],[130.06739,33.07587],[130.0703,33.0673],[130.06988,33.05969],[130.07403,33.04995],[130.07162,33.04764],[130.07168,33.04001],[130.06711,33.02609],[130.06694,33.0211],[130.06789,33.01951],[130.06697,33.01671],[130.06526,33.0157],[130.06463,33.01313],[130.06261,33.0103],[130.06371,33.00096],[130.06276,32.99905],[130.04311,32.98744],[130.04109,32.98737],[130.03861,32.98173],[130.0362,32.98299],[130.03502,32.98505],[130.03454,32.98451],[130.03604,32.98097],[130.03415,32.98184],[130.02468,32.98201],[130.01988,32.97986],[130.01856,32.97081],[130.01641,32.96755],[130.0151,32.96365],[130.00952,32.95518],[130.00556,32.95227],[129.99794,32.95154],[129.99437,32.95008],[129.98423,32.95009],[129.98281,32.94706],[129.97828,32.94414],[129.96972,32.94046],[129.96687,32.94039],[129.96352,32.93612],[129.96481,32.93424],[129.95067,32.92984]],[[130.08942,33.0928],[130.09372,33.09436],[130.09448,33.09542]],[[130.19717,33.17684],[130.20739,33.18483],[130.21182,33.1911],[130.21511,33.20477],[130.21447,33.21938],[130.21577,33.22293],[130.21832,33.22619],[130.22255,33.22908],[130.22755,33.23062],[130.25278,33.23154]],[[130.19683,33.17711],[130.20024,33.17937]],[[130.21499,33.22076],[130.20876,33.22099]],[[129.96481,32.93424],[129.95073,32.92971]]]}}]}