{"type":"FeatureCollection","features":[{"type":"Feature","properties":{"route_id":"353","route_number":353,"name":"国道353号","source":"OpenStreetMap contributors (ODbL)","osm_relations":[2888579,11928725,11928726,11928727,11928728,11928729]},"geometry":{"type":"MultiLineString","coordinates":[[[138.8173,36.9358],[138.8227,36.93124],[138.82381,36.92836],[138.82239,36.93174],[138.80353,36.94816],[138.79905,36.95523],[138.79875,36.9588],[138.80118,36.96387],[138.80195,36.97024],[138.80032,36.97267],[138.80049,36.97469],[138.80132,36.97539],[138.80483,36.9754],[138.80776,36.98441],[138.80313,36.98551],[138.80025,36.98769],[138.79461,36.98722],[138.78879,36.98789],[138.78579,36.98545],[138.78395,36.98585],[138.7839,36.98685],[138.78273,36.98718],[138.78271,36.98635],[138.77936,36.98498],[138.7819,36.98427],[138.77679,36.98327],[138.76322,36.98642],[138.7624,36.98744],[138.76242,36.98985],[138.76062,36.99108],[138.75981,36.98895],[138.76045,36.98596],[138.75821,36.98436],[138.75432,36.98492],[138.75276,36.98404],[138.749,36.98418],[138.74664,36.98655],[138.74596,36.98658],[138.74657,36.98594],[138.74471,36.9863],[138.73938,36.98815],[138.73721,36.99372],[138.73146,36.99727],[138.72769,36.99862],[138.72433,37.00375],[138.71847,37.00848],[138.71714,37.01244],[138.71838,37.01173],[138.71871,37.01294],[138.71708,37.0149],[138.71899,37.01689],[138.71738,37.01705],[138.71533,37.01933],[138.71335,37.02333],[138.71088,37.02545],[138.70818,37.03017],[138.70383,37.03473],[138.6978,37.04415],[138.69535,37.05049],[138.6914,37.05433],[138.69161,37.05565],[138.69709,37.06199],[138.69983,37.06385],[138.70183,37.06712],[138.70375,37.06844],[138.70356,37.0697],[138.69078,37.06797],[138.69137,37.06698],[138.69048,37.06585],[138.68649,37.06208],[138.68521,37.06239],[138.68562,37.06161],[138.6843,37.05995],[138.68452,37.05923],[138.68284,37.05873],[138.68338,37.05804],[138.68256,37.05695],[138.68116,37.05709],[138.68238,37.05563],[138.68199,37.05455],[138.67895,37.05271],[138.67267,37.05064],[138.6701,37.04787],[138.66856,37.04778],[138.6675,37.04558],[138.66373,37.04344],[138.66321,37.0447],[138.66627,37.04746],[138.65874,37.05179],[138.65796,37.0569],[138.65032,37.06364],[138.64674,37.06507],[138.6425,37.06968],[138.63808,37.07305],[138.63471,37.07716],[138.62563,37.08169],[138.62095,37.0824],[138.61892,37.08534],[138.6159,37.08679],[138.61192,37.08573],[138.60807,37.08713],[138.60743,37.08882],[138.60481,37.09075],[138.60536,37.09595],[138.59868,37.10074],[138.59693,37.10325],[138.59725,37.10511],[138.59476,37.10586],[138.59319,37.11005],[138.59072,37.11027],[138.58942,37.1112],[138.58901,37.11408],[138.59087,37.11905],[138.58955,37.12239],[138.58157,37.12672],[138.58167,37.12813],[138.58006,37.12915],[138.58104,37.13058],[138.58084,37.13182],[138.57945,37.13237],[138.57779,37.13489],[138.57474,37.136],[138.5735,37.13926],[138.57188,37.14047],[138.57052,37.14304],[138.56834,37.14401],[138.57024,37.14766],[138.56692,37.15092],[138.56654,37.15265],[138.56794,37.15169],[138.56934,37.15209],[138.56775,37.15278],[138.5676,37.15561],[138.56505,37.15661],[138.5659,37.1582],[138.56559,37.15988],[138.56691,37.16164],[138.56952,37.16253],[138.57062,37.16432],[138.56873,37.16576],[138.56871,37.16726],[138.57,37.16665],[138.57202,37.16712],[138.57291,37.16627],[138.57347,37.16703],[138.57259,37.16748],[138.57333,37.16798],[138.57582,37.16632],[138.57742,37.16695],[138.57613,37.16746],[138.57708,37.16805],[138.57581,37.16973],[138.57128,37.17141],[138.56811,37.1717],[138.56869,37.17263],[138.57206,37.17284],[138.5732,37.1738],[138.5718,37.1751],[138.57178,37.17626],[138.57083,37.17578],[138.57138,37.17694],[138.5729,37.17661],[138.57098,37.17888],[138.57217,37.18174],[138.57069,37.18369],[138.57258,37.18551],[138.57154,37.18706],[138.56957,37.18753],[138.57118,37.18807],[138.57095,37.18881],[138.56657,37.18909],[138.56407,37.19124],[138.56153,37.19731],[138.56114,37.19988],[138.56252,37.20159],[138.56315,37.20783],[138.5559,37.22145],[138.55743,37.22414],[138.5565,37.22632],[138.55754,37.22881],[138.55688,37.23096],[138.55929,37.23618],[138.55829,37.23842],[138.55518,37.23739],[138.55396,37.23829],[138.55224,37.23815],[138.55204,37.2458],[138.55238,37.24939],[138.55581,37.25139],[138.55621,37.25412],[138.55808,37.25722],[138.55814,37.25983],[138.56144,37.2626],[138.56446,37.26352],[138.56527,37.26832],[138.56409,37.27407],[138.56459,37.28061],[138.56546,37.28522],[138.56841,37.29116],[138.57125,37.30405],[138.56931,37.30747],[138.5643,37.31123],[138.56381,37.33195],[138.55906,37.33679],[138.55911,37.33897],[138.55594,37.34559],[138.55754,37.35066],[138.5552,37.35585],[138.55273,37.35781],[138.55223,37.36045]],[[138.81325,36.92099],[138.81226,36.9214],[138.81405,36.92192],[138.81306,36.9223],[138.81377,36.92252],[138.81414,36.92188],[138.8124,36.92114],[138.8222,36.92125],[138.82041,36.92103]],[[138.92443,36.54653],[138.92875,36.5481],[138.93396,36.54603],[138.94187,36.54489],[138.94733,36.54279],[138.95693,36.53512],[138.9633,36.5323],[138.9672,36.52779],[138.97849,36.52374],[138.98404,36.52369],[138.98947,36.52057],[138.99031,36.51943],[138.98984,36.51666],[138.99049,36.51478],[138.98992,36.51659],[138.99038,36.5194],[138.98948,36.52063],[138.98405,36.52374],[138.97856,36.52378],[138.9672,36.52784],[138.96325,36.53239],[138.95729,36.53495],[138.94737,36.54282],[138.94234,36.54483],[138.93385,36.54612],[138.92891,36.54813],[138.92443,36.54653],[138.92018,36.54956],[138.92001,36.55238],[138.91467,36.55212],[138.90836,36.55706],[138.89934,36.55782],[138.89724,36.56071],[138.89713,36.56317],[138.8959,36.56455],[138.88965,36.56667],[138.88713,36.56874],[138.87886,36.57289],[138.87263,36.57951],[138.86777,36.58211],[138.86368,36.58568],[138.85783,36.58722],[138.84905,36.58696],[138.84459,36.58888],[138.83899,36.58787],[138.82423,36.58987],[138.81878,36.59158],[138.8133,36.59559],[138.80528,36.59807],[138.80223,36.60225],[138.79821,36.60366],[138.79541,36.60646],[138.79497,36.6079],[138.79686,36.61497],[138.79512,36.61952],[138.79676,36.62194],[138.79682,36.62525],[138.79406,36.63062],[138.79467,36.63228],[138.79386,36.63596],[138.79443,36.63808],[138.79262,36.64161],[138.79319,36.64364],[138.79652,36.6465],[138.79798,36.64915],[138.79897,36.65391],[138.79731,36.66072],[138.79577,36.66218],[138.79536,36.66423],[138.79294,36.66523],[138.78904,36.66883],[138.7887,36.6706],[138.78205,36.67478],[138.78156,36.67917],[138.77408,36.68521],[138.77009,36.68723],[138.77351,36.69347],[138.77207,36.69919],[138.77793,36.69697],[138.77998,36.69752],[138.78217,36.76304],[138.78166,36.76571],[138.7836,36.77076],[138.78298,36.77139],[138.78408,36.77293],[138.7824,36.7741],[138.78437,36.779],[138.78382,36.78377],[138.78647,36.78654],[138.78688,36.78994],[138.79081,36.78909],[138.7919,36.78982],[138.78894,36.79122],[138.78753,36.79319],[138.78785,36.79578],[138.78602,36.80513],[138.7838,36.80748],[138.78362,36.81131],[138.78137,36.81671],[138.78154,36.82661],[138.78061,36.83359],[138.77827,36.84244],[138.77858,36.84465],[138.77701,36.84645],[138.77369,36.85824],[138.77367,36.86302],[138.77752,36.86552],[138.77555,36.8657],[138.77654,36.86612],[138.77728,36.86971],[138.77603,36.86813],[138.77532,36.86833],[138.77844,36.87951],[138.77796,36.88376],[138.77538,36.89067],[138.77685,36.90071],[138.77843,36.90421],[138.78323,36.90428],[138.78928,36.90637],[138.79682,36.91422],[138.79753,36.91384],[138.79606,36.91139],[138.79692,36.90914],[138.79912,36.90879],[138.80094,36.91277],[138.80354,36.91608],[138.80662,36.91767],[138.80798,36.92046],[138.81306,36.9223]],[[138.77645,36.86733],[138.7766,36.86605],[138.77593,36.86591]],[[139.0187,36.51733],[139.01076,36.5204]],[[139.33439,36.38723],[139.32389,36.39674],[139.31524,36.40689],[139.30918,36.41149],[139.31292,36.4151],[139.30856,36.4175],[139.30384,36.42145],[139.29303,36.42625],[139.27536,36.42923],[139.27521,36.43032],[139.27281,36.43007],[139.2681,36.43107],[139.26431,36.43368],[139.26196,36.43271],[139.26044,36.43408],[139.25816,36.43852],[139.25664,36.4394],[139.2516,36.44121],[139.24743,36.44155],[139.24239,36.44388],[139.24019,36.44375],[139.23813,36.44621],[139.23531,36.44657],[139.23113,36.44845],[139.22688,36.44791],[139.2221,36.44958],[139.22154,36.45615],[139.22416,36.45859],[139.22362,36.46095],[139.22252,36.4617],[139.22287,36.46269],[139.22164,36.46707],[139.21679,36.46749],[139.21543,36.46601],[139.20878,36.46656],[139.20834,36.46741],[139.20969,36.47035],[139.20876,36.47042],[139.20838,36.47151],[139.20729,36.47118],[139.20483,36.47249],[139.2004,36.47255],[139.19894,36.47157],[139.19789,36.47251],[139.19563,36.47256],[139.19464,36.46828],[139.19358,36.46806],[139.19287,36.46887],[139.19105,36.46752],[139.18406,36.46706],[139.17644,36.46695],[139.17501,36.46816],[139.1691,36.46856],[139.16824,36.46992],[139.16659,36.46942],[139.16548,36.46754],[139.16317,36.46765],[139.16175,36.46563],[139.16222,36.46428],[139.16126,36.46371],[139.15001,36.46359],[139.14329,36.46117],[139.13106,36.45988],[139.11523,36.46359],[139.11506,36.4648],[139.11079,36.46407],[139.10179,36.46587],[139.09212,36.46923],[139.08617,36.46918],[139.08411,36.4707],[139.07818,36.47179],[139.07615,36.47559],[139.0727,36.47852],[139.06568,36.48908],[139.06117,36.50076],[139.06357,36.50304],[139.06473,36.50541],[139.0636,36.50681],[139.06263,36.51073],[139.06314,36.51248],[139.06211,36.5133],[139.0622,36.51437],[139.06062,36.51424],[139.05917,36.51576],[139.05495,36.5127],[139.04703,36.51011],[139.04447,36.50895],[139.04339,36.50757],[139.03083,36.50429],[139.02942,36.50299],[139.02886,36.50054],[139.02669,36.50063],[139.02464,36.49947],[139.02347,36.50151],[139.0223,36.49897],[139.02015,36.49706],[139.01315,36.49627],[139.01321,36.49457],[139.01165,36.49131],[139.01236,36.48544],[139.01363,36.48216],[139.00279,36.48317],[139.00039,36.48408],[138.99599,36.49055],[138.99579,36.49239],[138.99408,36.4935],[138.99151,36.49911]],[[138.86527,36.5843],[138.85592,36.58227],[138.84851,36.58287],[138.84316,36.58523]],[[138.99579,36.49239],[138.99617,36.49047],[139.00066,36.48403],[139.0136,36.48223],[139.01225,36.48547],[139.01154,36.4913],[139.01315,36.49627]],[[139.01134,36.52027],[139.01349,36.51959]],[[138.8222,36.92125],[138.82397,36.92395],[138.82381,36.92836]],[[138.79739,36.91361],[138.79647,36.91386]],[[138.77913,36.90431],[138.77823,36.90397]],[[138.77713,36.86914],[138.77706,36.86977],[138.77655,36.86936]],[[138.77623,36.8648],[138.7774,36.86543],[138.77697,36.86579]],[[138.98985,36.51237],[138.99049,36.51478]]]}}]}