{"type":"FeatureCollection","features":[{"type":"Feature","properties":{"route_id":"492","route_number":492,"name":"国道492号","source":"OpenStreetMap contributors (ODbL)","osm_relations":[36085]},"geometry":{"type":"MultiLineString","coordinates":[[[134.04702,34.33733],[134.04616,34.32993],[134.03792,34.31413],[134.03265,34.28939],[134.03324,34.2749],[134.03014,34.26905],[134.02691,34.25215],[134.02825,34.23486],[134.02792,34.23063],[134.03442,34.22391],[134.03415,34.22047],[134.03198,34.21615],[134.03384,34.20561],[134.03646,34.20375],[134.04052,34.19868],[134.04342,34.19353],[134.04885,34.19236],[134.05039,34.18898],[134.05291,34.18717],[134.06142,34.18745],[134.06403,34.18602],[134.06683,34.18758],[134.06877,34.18735],[134.07301,34.18355],[134.07384,34.17775],[134.07828,34.17641],[134.0815,34.1767],[134.08296,34.17455],[134.08195,34.17189],[134.08218,34.1702],[134.08569,34.16844],[134.09783,34.17205],[134.10413,34.17277],[134.10642,34.17408],[134.10696,34.17352],[134.10548,34.1712],[134.1058,34.17044],[134.10952,34.17107],[134.11308,34.16928],[134.11607,34.16998],[134.12106,34.17311],[134.12482,34.1716],[134.12954,34.1711],[134.13304,34.17181],[134.1393,34.17095],[134.1425,34.17142],[134.14559,34.16963],[134.15103,34.16803],[134.15255,34.16606],[134.15195,34.16126],[134.15351,34.16025],[134.15348,34.15889],[134.15852,34.15302],[134.15828,34.15235],[134.1559,34.15177],[134.15548,34.15074],[134.15882,34.14639],[134.15905,34.14327],[134.16082,34.14018],[134.15997,34.13852],[134.15679,34.13801],[134.15609,34.13718],[134.16055,34.13355],[134.15988,34.13205],[134.16019,34.13015],[134.16222,34.12689],[134.16257,34.12482],[134.16671,34.12268],[134.16524,34.11733],[134.16614,34.11452],[134.16774,34.11278],[134.16978,34.11235],[134.1712,34.1098],[134.17335,34.10826],[134.17138,34.1004],[134.17165,34.09839],[134.17355,34.09545],[134.17268,34.07832],[134.17529,34.07169],[134.16969,34.06669],[134.16736,34.05406],[134.16983,34.05047],[134.17017,34.04701],[134.16858,34.04291],[134.16249,34.03948],[134.16241,34.03687],[134.15733,34.03735],[134.15404,34.03572],[134.15354,34.03043],[134.15556,34.02713],[134.15163,34.0246],[134.14955,34.02452],[134.14906,34.02362],[134.15103,34.01954],[134.15393,34.01756],[134.15112,34.01593],[134.1476,34.01555],[134.14486,34.01204],[134.14558,34.01018],[134.14892,34.00954],[134.15077,34.00712],[134.14643,34.00319],[134.1452,33.99956],[134.14146,33.99716],[134.14294,33.99328],[134.13926,33.99431],[134.13747,33.99368],[134.13524,33.99445],[134.13427,33.99376],[134.13422,33.99069],[134.13255,33.98788],[134.13266,33.98588],[134.13475,33.9813],[134.13292,33.97927],[134.13467,33.97666],[134.13348,33.9735],[134.1342,33.97172],[134.13081,33.96674],[134.13224,33.96633],[134.13348,33.96702],[134.13545,33.96551],[134.14058,33.96455],[134.14401,33.96277],[134.14755,33.96388],[134.1547,33.96282],[134.15984,33.96329],[134.16515,33.96704],[134.16789,33.96561],[134.17011,33.96569],[134.1717,33.96667],[134.17478,33.9661],[134.17753,33.96437],[134.18117,33.96538],[134.18187,33.96758],[134.18481,33.96508],[134.18839,33.96735],[134.19128,33.96762],[134.19252,33.96617],[134.19642,33.96431],[134.19735,33.965],[134.19724,33.96684],[134.20047,33.96786],[134.20153,33.96996],[134.20387,33.9688],[134.20601,33.97018],[134.20957,33.96933],[134.21092,33.96722],[134.21484,33.96653],[134.21558,33.96391],[134.2132,33.96255],[134.21519,33.96087],[134.21402,33.95926],[134.21387,33.95657],[134.21167,33.95576],[134.21174,33.95338],[134.20914,33.95045],[134.21167,33.94726],[134.21149,33.94384],[134.21344,33.94059],[134.21362,33.93644],[134.21293,33.9354],[134.21086,33.93473],[134.21022,33.93096],[134.20807,33.93058],[134.20519,33.93146],[134.20411,33.92947],[134.20458,33.92804],[134.20392,33.92601],[134.2003,33.92566],[134.19989,33.92325],[134.19787,33.92212],[134.19911,33.92048],[134.19842,33.91845],[134.19274,33.91598],[134.19206,33.91374],[134.17625,33.91459],[134.16839,33.91318],[134.16775,33.91214],[134.16798,33.90727],[134.16522,33.90159],[134.16102,33.89996],[134.15973,33.89777],[134.15672,33.89774],[134.14965,33.89313],[134.14858,33.89091],[134.1402,33.88791],[134.13446,33.88357],[134.13416,33.88203],[134.13221,33.88058],[134.13111,33.878],[134.12735,33.87769],[134.12549,33.87679],[134.12496,33.87543],[134.12456,33.87621],[134.12444,33.8749],[134.12072,33.8746],[134.12377,33.87575],[134.12454,33.87773],[134.12378,33.87874],[134.12659,33.8795],[134.12619,33.88124],[134.12566,33.87947],[134.12185,33.87977],[134.12228,33.87928],[134.12138,33.87809],[134.12278,33.87788],[134.12133,33.87633],[134.12029,33.8763],[134.12004,33.87731],[134.11844,33.87826],[134.11688,33.87676],[134.11569,33.87718],[134.1146,33.87574],[134.10985,33.87612],[134.10968,33.87495],[134.10681,33.87504],[134.1061,33.87306],[134.10623,33.87534],[134.10875,33.87557],[134.10907,33.87728],[134.11167,33.8769],[134.11218,33.87807],[134.11331,33.87788],[134.11365,33.87895],[134.11499,33.87953],[134.11549,33.88227],[134.11767,33.88229],[134.11474,33.88265],[134.11489,33.8816],[134.11362,33.88087],[134.11296,33.8793],[134.11149,33.87933],[134.11032,33.87814],[134.10951,33.87934],[134.10819,33.8796],[134.10732,33.8791],[134.10729,33.87762],[134.10323,33.8774],[134.10356,33.87615],[134.10112,33.87446],[134.09584,33.87549],[134.09633,33.87462],[134.09465,33.87173],[134.09496,33.8708],[134.09241,33.8693],[134.09154,33.86694],[134.08982,33.86735],[134.08948,33.86818],[134.08546,33.86845],[134.08482,33.86942],[134.08551,33.8677],[134.08733,33.8675],[134.08549,33.86582],[134.08541,33.86699],[134.08418,33.86742],[134.08313,33.86677],[134.08072,33.86726],[134.0802,33.86661],[134.07854,33.86661],[134.07806,33.86736],[134.07743,33.86611],[134.07633,33.86594],[134.07437,33.86705],[134.07356,33.86585],[134.07207,33.86653],[134.07031,33.86506],[134.06904,33.86584],[134.06901,33.86474],[134.06749,33.86459],[134.06825,33.86365],[134.06773,33.86208],[134.06616,33.8625],[134.0633,33.86111],[134.06254,33.86158],[134.0619,33.8601],[134.05831,33.85791],[134.05526,33.85866],[134.05243,33.85719],[134.04838,33.85678],[134.04597,33.85435],[134.04236,33.85366],[134.04205,33.85292],[134.03874,33.85183],[134.03435,33.85344],[134.03003,33.85124],[134.03017,33.85339],[134.02851,33.85361],[134.02567,33.85196],[134.02196,33.85331],[134.01773,33.85856],[134.01629,33.85923],[134.01574,33.86084],[134.01228,33.86284],[134.01064,33.86242],[134.00743,33.86595],[134.00485,33.86722],[134.00281,33.87143],[134.00122,33.87212],[134.00085,33.87408],[134.00149,33.87457],[133.99442,33.87443],[133.9936,33.87493],[133.99362,33.87676],[133.99253,33.87482],[133.97798,33.87265],[133.97584,33.86996],[133.9697,33.86815],[133.96694,33.86815],[133.95552,33.86368],[133.95337,33.86442],[133.94542,33.86326],[133.9453,33.86465],[133.94412,33.86557],[133.94477,33.86686],[133.94245,33.87033],[133.94217,33.87306],[133.93815,33.87753],[133.93688,33.87968],[133.93736,33.8803],[133.93241,33.87937],[133.93122,33.88174],[133.92773,33.88181],[133.9229,33.87676],[133.91975,33.8758],[133.91993,33.87393],[133.91659,33.87359],[133.91535,33.87147],[133.91365,33.87155]],[[133.91369,33.87158],[133.90995,33.87052],[133.90625,33.86831],[133.90128,33.86319],[133.89963,33.85798],[133.89362,33.85562],[133.89336,33.85304],[133.89519,33.85113],[133.89495,33.84864],[133.89671,33.8469],[133.89523,33.84294],[133.89145,33.83868],[133.88807,33.83823],[133.885,33.83509],[133.88748,33.83848],[133.88104,33.83355],[133.88072,33.83237],[133.87765,33.83114],[133.87852,33.83025],[133.88144,33.83081],[133.88255,33.82886],[133.88321,33.83138],[133.88474,33.83222],[133.88338,33.83075],[133.88335,33.82788],[133.88199,33.82646],[133.88163,33.82875],[133.88062,33.82943],[133.87658,33.82661],[133.87638,33.82842],[133.87367,33.82782],[133.87248,33.82672],[133.87191,33.82765],[133.86879,33.8249],[133.86741,33.8273],[133.86535,33.82672],[133.8641,33.82865],[133.86167,33.83001],[133.86204,33.8312],[133.86326,33.8313],[133.86298,33.83259],[133.86447,33.83294],[133.86575,33.83204],[133.86752,33.83307],[133.86561,33.83267],[133.86373,33.83447],[133.86199,33.83367],[133.86045,33.83438],[133.8599,33.83409],[133.86048,33.83279],[133.85831,33.83158],[133.85776,33.82936],[133.86188,33.8242],[133.86201,33.82187],[133.86028,33.82431],[133.86116,33.82213],[133.8595,33.8236],[133.8603,33.82169],[133.85804,33.82422],[133.85606,33.82305],[133.85396,33.82316],[133.85457,33.82397],[133.85138,33.82626],[133.8494,33.82243],[133.84776,33.82207],[133.84773,33.82101],[133.84522,33.8187],[133.84886,33.82025],[133.84779,33.81968],[133.84801,33.81894],[133.84584,33.81715],[133.84347,33.81658],[133.8433,33.81561],[133.84392,33.81578],[133.84264,33.81548],[133.84248,33.81465],[133.8397,33.81363],[133.84217,33.81388],[133.83901,33.81286],[133.83809,33.81528],[133.83677,33.8119],[133.83558,33.81161],[133.83471,33.81023],[133.83258,33.80999],[133.83029,33.81194],[133.82951,33.80984],[133.82781,33.80934],[133.82697,33.80768],[133.82611,33.80789],[133.82412,33.8064],[133.823,33.80716],[133.82227,33.80562],[133.81664,33.80451],[133.8164,33.80367],[133.81404,33.8041],[133.81481,33.80218],[133.81254,33.80123],[133.80982,33.79864],[133.80983,33.79778],[133.80677,33.79748],[133.80574,33.79881],[133.80226,33.79809],[133.80024,33.80003],[133.79819,33.7974],[133.79679,33.79696],[133.79651,33.79587],[133.78593,33.79165],[133.78434,33.78977],[133.78294,33.78931],[133.7731,33.79311],[133.77071,33.79262],[133.76675,33.7902],[133.76299,33.79078],[133.76091,33.78992],[133.75757,33.79241],[133.75675,33.79534],[133.75442,33.79414],[133.7523,33.79442],[133.7424,33.78972],[133.73262,33.79033],[133.72852,33.78698],[133.7244,33.78898],[133.71797,33.78535],[133.71307,33.78361],[133.71057,33.78504],[133.70977,33.78755],[133.70774,33.78871],[133.70548,33.78877],[133.70195,33.7879],[133.70008,33.78631],[133.69648,33.78496],[133.69777,33.78132],[133.69226,33.77853],[133.68885,33.77141],[133.68158,33.76847],[133.6779,33.76883],[133.67239,33.76747],[133.66834,33.76308],[133.66504,33.76577]],[[134.17137,34.05182],[134.17197,34.0528],[134.17292,34.0525],[134.17235,34.0462],[134.17016,34.04372]],[[134.04714,34.33723],[134.04631,34.32998],[134.03804,34.31411],[134.03276,34.28936],[134.03336,34.27489],[134.03026,34.26903],[134.02702,34.25214],[134.02837,34.23485],[134.02801,34.23074],[134.03453,34.22393],[134.03413,34.22002],[134.0321,34.21645],[134.03286,34.21112]],[[133.99122,33.87464],[133.99425,33.87315],[134.00147,33.87179]]]}}]}