{"type":"FeatureCollection","features":[{"type":"Feature","properties":{"route_id":"322","route_number":322,"name":"国道322号","source":"OpenStreetMap contributors (ODbL)","osm_relations":[9564858,9564887,9565614,9565744,9566147,9566443,10922529,10922530,10922531]},"geometry":{"type":"MultiLineString","coordinates":[[[130.55293,33.31281],[130.55149,33.32321],[130.55344,33.32593],[130.55161,33.32296],[130.55321,33.31284],[130.54211,33.31022],[130.53547,33.31142],[130.52768,33.31465],[130.5224,33.3134]],[[130.55344,33.32593],[130.55429,33.32729],[130.55508,33.33996],[130.55682,33.34288],[130.55649,33.34839],[130.5573,33.3498],[130.56968,33.35102],[130.57126,33.35466],[130.57091,33.35818],[130.57379,33.36393],[130.57865,33.36557],[130.58179,33.36785],[130.58578,33.36816],[130.59155,33.37031],[130.59483,33.37367],[130.598,33.37291],[130.60362,33.37393],[130.61102,33.37683],[130.61847,33.38176],[130.61875,33.38796],[130.6195,33.38938],[130.62755,33.38996],[130.63499,33.39518],[130.63694,33.3991],[130.63896,33.39917],[130.64146,33.40174]],[[130.62755,33.38996],[130.63716,33.38989],[130.63893,33.39077],[130.63929,33.39515],[130.64092,33.39822],[130.64138,33.40164],[130.64732,33.40671],[130.6556,33.41875],[130.65436,33.41895],[130.65449,33.42534],[130.65585,33.42981],[130.66267,33.43759],[130.66494,33.44175],[130.66991,33.44495],[130.67279,33.45263],[130.67869,33.45899],[130.68193,33.46351],[130.68194,33.46481],[130.68563,33.46817],[130.69665,33.47016],[130.70071,33.47309],[130.70101,33.4749],[130.70304,33.47417],[130.7023,33.47683],[130.69794,33.47569],[130.69778,33.47437],[130.69722,33.47442],[130.69753,33.47614],[130.69867,33.4763],[130.6996,33.47789],[130.70156,33.47902],[130.7013,33.4809],[130.70339,33.47924],[130.70474,33.47951],[130.70509,33.47859],[130.7091,33.47821],[130.70902,33.4794],[130.70883,33.47831],[130.70798,33.47912],[130.70621,33.47914],[130.7065,33.48126],[130.70309,33.48254],[130.70262,33.48373],[130.70391,33.48463],[130.70398,33.48572],[130.70583,33.48612],[130.70542,33.48694],[130.70834,33.48708],[130.70625,33.48798],[130.70614,33.49043],[130.70457,33.48995],[130.7044,33.49184]],[[130.68194,33.46481],[130.68186,33.46945],[130.68297,33.47075],[130.6849,33.47077],[130.68647,33.47221],[130.68653,33.47525],[130.69284,33.47407],[130.69566,33.47269],[130.69808,33.47397],[130.70167,33.50206],[130.70623,33.51538],[130.70557,33.51879],[130.71209,33.53182],[130.71861,33.534],[130.72351,33.54029],[130.73207,33.5436],[130.73947,33.55129],[130.74303,33.55238],[130.74355,33.55122],[130.74631,33.55224],[130.74692,33.5504],[130.74864,33.55034],[130.75043,33.55545],[130.7513,33.55666],[130.75273,33.5567],[130.75227,33.55796],[130.75086,33.55784],[130.75299,33.55872],[130.75597,33.55826],[130.75793,33.5606],[130.76426,33.56368],[130.76401,33.56476],[130.76011,33.56745],[130.75966,33.56985],[130.75829,33.57155],[130.75682,33.57061],[130.75632,33.57],[130.75688,33.56858],[130.75563,33.56821],[130.7552,33.56931],[130.76061,33.5727],[130.76394,33.57213],[130.76729,33.57347],[130.77133,33.57168],[130.77421,33.57142],[130.77991,33.57679],[130.7889,33.58349],[130.79442,33.59215],[130.79368,33.59567],[130.79566,33.60264],[130.79504,33.60507],[130.79649,33.61065],[130.79929,33.61643],[130.79742,33.62318],[130.79893,33.63074],[130.79801,33.63335],[130.80206,33.63431],[130.80382,33.63665],[130.80733,33.6383],[130.81071,33.64239],[130.81138,33.64458],[130.81521,33.64815],[130.82719,33.65418],[130.83003,33.65426],[130.83638,33.65691],[130.84471,33.66471],[130.84577,33.66863],[130.84832,33.67092],[130.85048,33.67596],[130.85002,33.68155],[130.85292,33.68539],[130.85832,33.69862],[130.85613,33.70395],[130.85539,33.71057],[130.85555,33.71748],[130.85816,33.72563],[130.8571,33.72855],[130.85805,33.73152],[130.85703,33.73322],[130.85212,33.7371],[130.85192,33.7386],[130.85327,33.74168],[130.85772,33.74512],[130.86893,33.75916],[130.86985,33.76534],[130.86822,33.77176],[130.8703,33.78723],[130.86921,33.78899],[130.86267,33.79389],[130.85908,33.80283],[130.85707,33.81084],[130.86463,33.82673],[130.86877,33.83284],[130.87295,33.83673],[130.87597,33.8412],[130.87782,33.8485],[130.87991,33.86341],[130.87927,33.8555],[130.87625,33.84152],[130.86458,33.82639],[130.86315,33.82215],[130.85714,33.8106],[130.85921,33.80278],[130.86184,33.79718],[130.86236,33.78474],[130.8652,33.77943],[130.86634,33.77278],[130.86863,33.76834],[130.86575,33.7592],[130.86079,33.75275],[130.85871,33.74796],[130.8524,33.73972],[130.85762,33.7331],[130.86032,33.72522],[130.85704,33.71521],[130.8572,33.71304],[130.86569,33.70699],[130.86728,33.70341],[130.86664,33.69943],[130.86283,33.69638],[130.86128,33.69313],[130.86095,33.68642],[130.85926,33.68064],[130.85907,33.67603],[130.85696,33.67191],[130.85289,33.66754],[130.85317,33.66391],[130.85555,33.65794],[130.85367,33.64959],[130.85602,33.64398],[130.85589,33.63828],[130.8535,33.63524],[130.84837,33.63186],[130.83191,33.62491],[130.82109,33.61439],[130.81353,33.6106],[130.80933,33.60706],[130.80231,33.60414],[130.80046,33.60201],[130.79962,33.59894],[130.7962,33.59591],[130.79442,33.59215]],[[130.87037,33.83433],[130.87342,33.83535],[130.88007,33.84469],[130.87954,33.84583],[130.88147,33.84907],[130.87976,33.85477],[130.88298,33.85899],[130.88338,33.86075],[130.88007,33.86335]],[[130.85588,33.71403],[130.85697,33.71408]],[[130.86184,33.79718],[130.86301,33.79355],[130.86916,33.78914],[130.87044,33.78707],[130.86831,33.77189],[130.86992,33.7659],[130.8696,33.76065],[130.85803,33.74532],[130.85494,33.74298]],[[130.77493,33.57184],[130.77184,33.57139],[130.769,33.56971],[130.76401,33.56476]]]}}]}