{"type":"FeatureCollection","features":[{"type":"Feature","properties":{"route_id":"277","route_number":277,"name":"国道277号","source":"OpenStreetMap contributors (ODbL)","osm_relations":[6594495,10398753]},"geometry":{"type":"MultiLineString","coordinates":[[[140.08638,42.04077],[140.08654,42.03918],[140.09033,42.03666],[140.0865,42.03973],[140.08651,42.04212],[140.0845,42.04655],[140.07791,42.05042],[140.07545,42.05333],[140.07451,42.0639],[140.0734,42.06643],[140.06844,42.07095],[140.06342,42.07182],[140.06288,42.07404],[140.05979,42.07707],[140.0574,42.08258],[140.05457,42.08509],[140.05128,42.09067],[140.04828,42.09203],[140.04473,42.09715],[140.0254,42.11406],[140.02168,42.11673],[140.01763,42.1183],[140.01547,42.12047],[140.00989,42.12173],[140.01495,42.12505],[140.01749,42.1282],[140.02406,42.1322],[140.02847,42.13819],[140.029,42.14196],[140.03986,42.14807],[140.03956,42.15554],[140.0463,42.15832],[140.04908,42.16259],[140.04972,42.16592],[140.05173,42.16849],[140.05352,42.17433],[140.05495,42.17597],[140.05875,42.17728],[140.06559,42.1761],[140.06824,42.17634],[140.07273,42.17526],[140.07372,42.17365],[140.07624,42.17323],[140.08165,42.17555],[140.08113,42.1768],[140.08167,42.17741],[140.08437,42.17714],[140.08674,42.17801],[140.08718,42.18002],[140.08965,42.18033],[140.09124,42.18181],[140.09127,42.18432],[140.09424,42.18295],[140.09631,42.18311],[140.0978,42.1845],[140.09954,42.18364],[140.10257,42.18555],[140.10532,42.19011],[140.11001,42.19032],[140.11053,42.18906],[140.11333,42.19043],[140.11675,42.19063],[140.12272,42.19698],[140.12889,42.19802],[140.13599,42.2013],[140.14118,42.20129],[140.14395,42.20293],[140.14666,42.20274],[140.14928,42.20674],[140.15224,42.20876],[140.15472,42.20967],[140.15732,42.20911],[140.15926,42.21201],[140.16147,42.21176],[140.1656,42.21553],[140.17095,42.2168],[140.17283,42.21976],[140.18186,42.22849],[140.18914,42.22957],[140.19061,42.23288],[140.18944,42.23498],[140.19348,42.23708],[140.19599,42.24315],[140.19898,42.24483],[140.20052,42.24818],[140.20336,42.25138],[140.20296,42.25474],[140.20406,42.25682],[140.21283,42.26481],[140.23125,42.26591],[140.2434,42.26491],[140.27273,42.26699]],[[140.09033,42.03666],[140.09554,42.03418],[140.09661,42.03015],[140.09956,42.02859],[140.10077,42.02475],[140.1008,42.02077],[140.10334,42.01979],[140.10364,42.01798],[140.10563,42.01684],[140.10807,42.0137],[140.10646,42.01049],[140.10688,42.00941],[140.11012,42.00755],[140.11869,42.00507],[140.12073,42.00314],[140.12511,41.99429],[140.12444,41.99081],[140.12661,41.98284],[140.13069,41.97852],[140.13943,41.97396],[140.13945,41.97271],[140.13738,41.96973],[140.13006,41.96649],[140.12861,41.9648],[140.13466,41.95649],[140.13443,41.95277],[140.13516,41.95056],[140.14365,41.94391],[140.15114,41.9332],[140.15147,41.92061]]]}}]}