{"type":"FeatureCollection","features":[{"type":"Feature","properties":{"route_id":"225","route_number":225,"name":"国道225号","source":"OpenStreetMap contributors (ODbL)","osm_relations":[9680900]},"geometry":{"type":"MultiLineString","coordinates":[[[130.2952,31.26978],[130.29127,31.28111],[130.2926,31.28733],[130.29191,31.29048],[130.29996,31.29268],[130.30534,31.29546],[130.31208,31.30256],[130.31182,31.30449],[130.3133,31.30688],[130.31902,31.30751],[130.32052,31.31289],[130.32214,31.31566],[130.33328,31.31924],[130.33313,31.3241],[130.33653,31.32924],[130.33677,31.3359],[130.33964,31.33915],[130.34131,31.34371],[130.3412,31.3459],[130.34516,31.35017],[130.34965,31.35167],[130.35006,31.35484],[130.35139,31.35689],[130.35136,31.36027],[130.35673,31.37188],[130.36114,31.37465],[130.36469,31.37922],[130.3692,31.38079],[130.37055,31.3822],[130.37002,31.38894],[130.37641,31.39302],[130.39032,31.39017],[130.39737,31.38994],[130.39956,31.39086],[130.40169,31.39304],[130.40843,31.39518],[130.41604,31.39922],[130.42357,31.40083],[130.42978,31.40585],[130.43178,31.41067],[130.43371,31.41291],[130.43397,31.41491],[130.4386,31.41846],[130.44506,31.41974],[130.44808,31.42237],[130.45042,31.42291],[130.45356,31.42508],[130.45582,31.42923],[130.46247,31.43341],[130.46604,31.4348],[130.46927,31.43355],[130.47217,31.43489],[130.47629,31.43832],[130.47708,31.44334],[130.4794,31.44624],[130.47966,31.4502],[130.48386,31.45404],[130.4857,31.45958],[130.49017,31.46209],[130.48975,31.4655],[130.48715,31.46689],[130.48578,31.46902],[130.49163,31.4697],[130.49223,31.47211],[130.49079,31.47332],[130.49086,31.4743],[130.49587,31.47612],[130.4967,31.47819],[130.49974,31.47951],[130.50045,31.4817],[130.50352,31.48298],[130.50921,31.50469],[130.51146,31.50667],[130.51434,31.51471],[130.51757,31.51638],[130.51973,31.52644],[130.53195,31.53746],[130.54083,31.54323],[130.54586,31.55642],[130.54891,31.55832],[130.55011,31.56073],[130.55796,31.56708],[130.56026,31.5752],[130.5624,31.57877],[130.56247,31.58163],[130.55622,31.59177],[130.55266,31.59355]],[[130.56247,31.58163],[130.56252,31.5788],[130.56036,31.57518],[130.55798,31.5669],[130.55033,31.56082],[130.54899,31.55827],[130.54591,31.55627],[130.54109,31.54334],[130.53207,31.53754]],[[130.37652,31.39301],[130.37459,31.39197]]]}}]}