{"type":"FeatureCollection","features":[{"type":"Feature","properties":{"route_id":"171","route_number":171,"name":"国道171号","source":"OpenStreetMap contributors (ODbL)","osm_relations":[9316268,9316269,9316270]},"geometry":{"type":"MultiLineString","coordinates":[[[135.74623,34.97916],[135.73267,34.97799],[135.72689,34.97477],[135.72651,34.96611],[135.71757,34.96301],[135.71841,34.96391],[135.72643,34.96616],[135.72681,34.97484],[135.73291,34.97816],[135.74623,34.97927]],[[135.19654,34.69411],[135.21592,34.70238],[135.2241,34.70389],[135.22656,34.70772],[135.25061,34.71602],[135.26147,34.71839],[135.30175,34.73135],[135.33144,34.73834],[135.33941,34.73865],[135.33168,34.73829],[135.30246,34.73143],[135.26153,34.7183],[135.25049,34.7159],[135.22645,34.70753],[135.22555,34.7066],[135.22528,34.70389],[135.21588,34.70212],[135.19674,34.69405]],[[135.70603,34.91009],[135.70486,34.91035],[135.71508,34.93583],[135.7167,34.94184],[135.71674,34.95518],[135.71757,34.96301]],[[135.71578,34.93812],[135.71592,34.93638],[135.7058,34.91014]],[[135.43505,34.80239],[135.44444,34.80676],[135.4478,34.807],[135.44943,34.81056],[135.45265,34.81129],[135.44975,34.8107],[135.43141,34.81108],[135.43061,34.80073],[135.41491,34.79789],[135.41115,34.79444],[135.41493,34.79781],[135.43108,34.8008],[135.43157,34.811],[135.4525,34.81112],[135.44877,34.80962]],[[135.56601,34.83018],[135.56252,34.82922],[135.55936,34.83183],[135.56243,34.8291],[135.5657,34.83002],[135.58679,34.83819],[135.60949,34.8498],[135.61458,34.84394],[135.62587,34.84962],[135.65276,34.86114],[135.68154,34.89094],[135.6862,34.8942],[135.69035,34.90061],[135.70486,34.91035]],[[135.4525,34.81112],[135.46075,34.81411],[135.48104,34.82778],[135.49059,34.83055],[135.50243,34.83521],[135.54477,34.83674],[135.55447,34.83646],[135.55936,34.83183]],[[135.33941,34.73865],[135.33921,34.74453],[135.35153,34.75088],[135.36952,34.76433],[135.37911,34.76475],[135.38005,34.76606],[135.38093,34.77163],[135.39037,34.77693],[135.41115,34.79444]],[[135.64432,34.85748],[135.64337,34.85706]],[[135.38635,34.77501],[135.39221,34.77847]],[[135.45265,34.81129],[135.45395,34.81168]],[[135.22499,34.7047],[135.22483,34.70378]],[[135.6263,34.84981],[135.62775,34.85043]]]}}]}