{"type":"FeatureCollection","features":[{"type":"Feature","properties":{"route_id":"242","route_number":242,"name":"国道242号","source":"OpenStreetMap contributors (ODbL)","osm_relations":[6639503]},"geometry":{"type":"MultiLineString","coordinates":[[[143.20396,42.9321],[143.2216,42.92703],[143.22789,42.92674],[143.24732,42.91679],[143.25106,42.91562],[143.33218,42.92106],[143.33506,42.92046],[143.35718,42.9102],[143.37294,42.91135],[143.37437,42.91343],[143.39244,42.92583],[143.42968,42.92803],[143.427,42.95047],[143.43527,42.96936],[143.43725,42.98271],[143.44007,42.9918],[143.43765,43.00429],[143.43959,43.00839],[143.43787,43.02224],[143.43856,43.02371],[143.44124,43.02482],[143.44986,43.02487],[143.4529,43.02625],[143.49051,43.06084],[143.49542,43.06952],[143.50363,43.07305],[143.53192,43.09886],[143.5369,43.10173],[143.54656,43.10922],[143.59735,43.11109],[143.61087,43.12077],[143.61408,43.13169],[143.61476,43.13909],[143.61427,43.14061],[143.613,43.14236],[143.6063,43.14718],[143.60384,43.1523],[143.60293,43.15699],[143.5885,43.18208],[143.58177,43.18651],[143.57645,43.19672],[143.57095,43.20405],[143.55256,43.21839],[143.54625,43.22962],[143.54793,43.25635],[143.54701,43.25837],[143.54169,43.26318],[143.54101,43.26499],[143.54556,43.27372],[143.5472,43.27576],[143.55462,43.27935],[143.55683,43.28291],[143.5615,43.28614],[143.56356,43.29175],[143.56794,43.2953],[143.5701,43.29891],[143.57912,43.30745],[143.5811,43.31452],[143.57998,43.31903],[143.58253,43.32325],[143.58305,43.32718],[143.58614,43.33053],[143.59432,43.33325],[143.5968,43.33523],[143.59735,43.33962],[143.60603,43.35747],[143.60879,43.35951],[143.61588,43.36154],[143.62621,43.3622],[143.63561,43.36676],[143.64153,43.37064],[143.65234,43.37333],[143.65947,43.37701],[143.66649,43.38225],[143.67031,43.38795],[143.67667,43.39034],[143.6801,43.39306],[143.69593,43.39808],[143.70385,43.40268],[143.70602,43.40639],[143.70534,43.41393],[143.70599,43.41537],[143.7078,43.41694],[143.71334,43.41801],[143.71469,43.41899],[143.72198,43.43382],[143.72891,43.43581],[143.73112,43.4373],[143.73365,43.44129],[143.73501,43.44976],[143.73658,43.45143],[143.73682,43.45362],[143.74192,43.46139],[143.74549,43.46532],[143.74523,43.46654],[143.73896,43.47133],[143.73838,43.47899],[143.73081,43.48776],[143.73093,43.49172],[143.72652,43.50571],[143.71777,43.5161],[143.72014,43.52038],[143.72058,43.52538],[143.72579,43.52902],[143.72516,43.53092],[143.72546,43.54184],[143.71931,43.54909],[143.71798,43.55598],[143.71364,43.55905],[143.7102,43.55913],[143.70023,43.56276],[143.69029,43.56409],[143.6859,43.56886],[143.68485,43.57215],[143.68577,43.57516],[143.68252,43.579],[143.68097,43.58543],[143.67665,43.58993],[143.67454,43.59473],[143.67234,43.59667],[143.6662,43.59853],[143.66127,43.59873],[143.65241,43.60151],[143.64616,43.60626],[143.64251,43.60768],[143.63014,43.6099],[143.62013,43.61765],[143.60988,43.6193],[143.60097,43.62598],[143.59583,43.63146],[143.59322,43.63193],[143.58856,43.63116],[143.58636,43.6318],[143.57515,43.64282],[143.57284,43.65155],[143.56919,43.6551],[143.56813,43.65968],[143.57457,43.66737],[143.57556,43.67194],[143.58112,43.674],[143.58502,43.67756],[143.59005,43.67912],[143.59318,43.68109],[143.60891,43.68606],[143.61098,43.68968],[143.61192,43.69294],[143.61145,43.69478],[143.6096,43.69654],[143.60286,43.6998],[143.60095,43.70602],[143.60197,43.70705],[143.60904,43.70954],[143.60938,43.71153],[143.61112,43.71324],[143.61125,43.716],[143.61326,43.71868],[143.61236,43.7262],[143.61502,43.73054],[143.62212,43.73413],[143.62747,43.73787],[143.61551,43.75043],[143.61182,43.76115],[143.61196,43.76261],[143.61636,43.77043],[143.61697,43.77386],[143.61371,43.78109],[143.6001,43.78244],[143.59577,43.78123],[143.59129,43.78701],[143.58465,43.78833],[143.57466,43.79253],[143.57104,43.79567],[143.57097,43.80009],[143.56824,43.80592],[143.56135,43.80989],[143.55015,43.81219],[143.54342,43.81234],[143.53766,43.81499],[143.52922,43.81439],[143.51929,43.81573],[143.51458,43.81455],[143.51345,43.81525],[143.51515,43.81859],[143.51295,43.82248],[143.51419,43.82741],[143.51183,43.8306],[143.50944,43.84229],[143.50942,43.84641],[143.50706,43.85289],[143.51241,43.86488],[143.51314,43.87131],[143.51542,43.87443],[143.51612,43.87799],[143.52247,43.88532],[143.5264,43.89245],[143.52681,43.89542],[143.53349,43.90747],[143.53591,43.91456],[143.53791,43.91567],[143.53713,43.91836],[143.53373,43.92277],[143.52473,43.93037],[143.5231,43.93464],[143.5198,43.93797],[143.51939,43.9409],[143.52384,43.9504],[143.52626,43.95253],[143.53407,43.96443],[143.53437,43.96809],[143.53144,43.97099],[143.53095,43.97251],[143.53662,43.98809],[143.53387,43.9938],[143.53395,43.99853],[143.53188,44.00258],[143.52583,44.0073],[143.52017,44.01356],[143.51452,44.01648],[143.51149,44.02313],[143.50938,44.02446],[143.52275,44.04634],[143.52157,44.04988],[143.51946,44.05172],[143.51867,44.05389],[143.52035,44.05488],[143.53284,44.07515],[143.53194,44.08387],[143.53376,44.09054],[143.5311,44.09687],[143.53208,44.10166],[143.53534,44.10526],[143.5497,44.11525],[143.60021,44.1971],[143.65675,44.17885],[143.6641,44.17144],[143.66717,44.16665],[143.67684,44.16043],[143.68739,44.15608],[143.69394,44.14578],[143.71075,44.13889],[143.71303,44.13612],[143.71769,44.133],[143.71861,44.12929],[143.7208,44.12561],[143.72064,44.12078],[143.72266,44.1156],[143.72192,44.11194],[143.72895,44.10133],[143.72975,44.09736],[143.73312,44.09358],[143.73858,44.0954],[143.74295,44.09476],[143.74669,44.09175],[143.75305,44.09255],[143.76737,44.09077],[143.77457,44.09212],[143.78174,44.09651],[143.78768,44.09681],[143.79056,44.09575],[143.79611,44.09606],[143.80008,44.09487],[143.8065,44.09447],[143.81343,44.09786],[143.82069,44.09898],[143.82878,44.10318],[143.83737,44.10631],[143.8404,44.10664],[143.84825,44.10483],[143.8566,44.10024],[143.86706,44.10011],[143.87593,44.09795],[143.8806,44.09872],[143.88579,44.09831],[143.8911,44.09376],[143.91574,44.0812],[143.92185,44.08096],[143.92686,44.07914],[143.94067,44.07953],[143.94326,44.08028],[143.95404,44.08863],[143.95869,44.09487],[143.96782,44.10281],[143.99145,44.10269],[143.99874,44.10654],[144.0355,44.11601],[144.03974,44.1214],[144.04132,44.12215],[144.05063,44.12194],[144.06881,44.1158],[144.0775,44.11686],[144.08752,44.12348],[144.09418,44.12422],[144.10052,44.12233],[144.12,44.10957],[144.12689,44.10896],[144.1298,44.107],[144.13033,44.1058],[144.1296,44.10222],[144.12551,44.09504],[144.11527,44.09158],[144.11082,44.08771],[144.11235,44.08078],[144.11114,44.07556],[144.10867,44.07138],[144.10761,44.06783],[144.10503,44.06424],[144.1045,44.05208],[144.1034,44.04956],[144.09931,44.04541],[144.09755,44.03484],[144.09566,44.02895],[144.0981,44.02097],[144.09961,44.01939],[144.10737,44.01648],[144.11317,44.01197],[144.11623,44.01147],[144.13242,44.01054],[144.1447,44.01107],[144.15567,44.01261],[144.16638,44.01091],[144.16795,44.01007],[144.16981,44.00727],[144.1709,44.00283],[144.1741,44.00019],[144.17601,43.99966],[144.18116,44.00161],[144.18945,44.0075],[144.19806,44.00726],[144.20695,44.00809],[144.21275,44.00745],[144.21434,44.00823],[144.21665,44.01221],[144.21841,44.01332],[144.22084,44.01329],[144.22441,44.01196],[144.23881,44.01449],[144.24832,44.01985],[144.2538,44.02053],[144.25646,44.02405],[144.26458,44.02697],[144.26754,44.02249],[144.2681,44.01972]],[[143.29054,42.91817],[143.25032,42.91564],[143.2276,42.92675],[143.22156,42.92696],[143.20397,42.93202]]]}}]}