{"type":"FeatureCollection","features":[{"type":"Feature","properties":{"route_id":"482","route_number":482,"name":"国道482号","source":"OpenStreetMap contributors (ODbL)","osm_relations":[8372093,8414733,8414763,8414786,9986493]},"geometry":{"type":"MultiLineString","coordinates":[[[133.3639,35.4077],[133.37035,35.40286],[133.37778,35.39869],[133.35458,35.4132],[133.35066,35.41991],[133.33876,35.42915],[133.3504,35.42028],[133.35456,35.4133],[133.3639,35.4077]],[[133.37778,35.39869],[133.38105,35.39572],[133.38398,35.38725],[133.38909,35.3801],[133.39661,35.37646],[133.40433,35.37663],[133.41571,35.37287],[133.42611,35.3628],[133.43,35.35836],[133.43169,35.35507],[133.43276,35.34869],[133.43534,35.34233],[133.43682,35.33484],[133.4384,35.33031],[133.44063,35.32703],[133.45851,35.31721],[133.46053,35.31085],[133.46573,35.31152],[133.4664,35.30984],[133.46539,35.3067],[133.46624,35.30919]],[[133.46539,35.3067],[133.46469,35.30469],[133.46939,35.30351],[133.47637,35.29173],[133.47839,35.28995],[133.4811,35.29017],[133.48362,35.28915],[133.48574,35.28544],[133.49022,35.28412],[133.4889,35.2828],[133.49117,35.28368],[133.49153,35.28499],[133.49146,35.28421],[133.49242,35.28409],[133.51292,35.29272],[133.51661,35.29251],[133.52159,35.29386],[133.52521,35.29388],[133.52604,35.29529],[133.528,35.29616],[133.52943,35.29594],[133.53204,35.29378],[133.53494,35.29417],[133.53938,35.29107],[133.54734,35.29524],[133.55141,35.29488],[133.55331,35.29546],[133.55472,35.29438],[133.55699,35.29492],[133.56345,35.29404],[133.56806,35.29585],[133.5704,35.30139],[133.57162,35.302],[133.57246,35.30121],[133.57389,35.29517],[133.57321,35.29156],[133.57556,35.28944],[133.57892,35.28922],[133.57902,35.29077],[133.58012,35.28941],[133.59297,35.28585],[133.60608,35.27957],[133.61205,35.2749],[133.61848,35.27535],[133.62775,35.27867],[133.63513,35.27926],[133.63672,35.28076],[133.65361,35.27834],[133.66142,35.28143],[133.6737,35.27982],[133.68237,35.2817],[133.6937,35.2823],[133.70066,35.28719],[133.7197,35.29051],[133.73187,35.29152],[133.73892,35.28442],[133.73933,35.28292],[133.73034,35.27067],[133.72759,35.26906],[133.7272,35.26741],[133.72886,35.26399],[133.73121,35.26153],[133.73255,35.25636],[133.73429,35.2544],[133.73449,35.24852],[133.73755,35.24707],[133.74185,35.24838],[133.74606,35.24725],[133.74724,35.24582],[133.75148,35.24731],[133.75439,35.25102],[133.75791,35.25179],[133.76029,35.25355],[133.76245,35.25671],[133.76359,35.26091],[133.76765,35.26195],[133.77716,35.26655],[133.78139,35.26962],[133.78302,35.27182],[133.78616,35.27696],[133.78593,35.2836],[133.78672,35.28637],[133.78927,35.2891],[133.78896,35.29101],[133.78579,35.29477],[133.78543,35.29776],[133.78679,35.29957],[133.78652,35.3009],[133.78751,35.30288],[133.78695,35.30444],[133.78869,35.30556],[133.7881,35.30832],[133.78975,35.31037],[133.7913,35.31052],[133.79184,35.30865],[133.79334,35.30809],[133.79622,35.30937],[133.80067,35.31339],[133.81272,35.31375],[133.82081,35.31693],[133.82281,35.32054],[133.82822,35.32121],[133.83263,35.32378],[133.83375,35.3254],[133.84458,35.3181],[133.84703,35.31863],[133.8493,35.31783],[133.85259,35.31811],[133.85799,35.3164],[133.86336,35.31686],[133.86669,35.31615],[133.87215,35.31695],[133.88172,35.31473],[133.89517,35.318],[133.89746,35.31744],[133.9063,35.31255],[133.90905,35.3128],[133.91199,35.31432],[133.91812,35.31428],[133.9379,35.30556],[133.94059,35.29858],[133.94566,35.29183],[133.9484,35.29241],[133.94987,35.29513],[133.95491,35.29577],[133.95808,35.2954],[133.95891,35.29336],[133.96101,35.29151],[133.96406,35.29162],[133.96608,35.29042],[133.97243,35.29278],[133.97634,35.29282],[133.98298,35.29554],[133.98806,35.293],[133.98856,35.29112],[133.99014,35.29039],[133.99141,35.29135],[133.99173,35.29387],[133.9896,35.29938],[133.98973,35.30125],[133.99163,35.30367],[133.99387,35.3049],[133.99603,35.305],[134.00025,35.3082],[134.0034,35.31272],[134.00221,35.31345],[134.00362,35.31501],[134.00276,35.31542],[134.0049,35.31575],[134.00621,35.31459],[134.00817,35.3151],[134.00795,35.31597],[134.0097,35.31776],[134.00862,35.32001],[134.01082,35.3209],[134.01081,35.31994],[134.01293,35.32069],[134.01551,35.32011],[134.01941,35.32221],[134.02658,35.32253],[134.02902,35.32411],[134.03477,35.32438],[134.03686,35.32648],[134.03878,35.32592],[134.0432,35.32814],[134.04548,35.32796],[134.04755,35.32983],[134.05106,35.33094],[134.05323,35.32974],[134.06085,35.33025],[134.06147,35.33066],[134.0611,35.33246],[134.06607,35.33352],[134.06812,35.33318],[134.06992,35.33178],[134.07171,35.32884],[134.075,35.33082],[134.07803,35.32793],[134.07995,35.32805],[134.08125,35.32948],[134.08324,35.32925],[134.08391,35.3268],[134.08656,35.32479],[134.08964,35.32654],[134.0958,35.32807],[134.09906,35.33037],[134.1018,35.33114],[134.10467,35.33134],[134.10951,35.3296],[134.11509,35.33],[134.12271,35.33291],[134.12852,35.33363],[134.13082,35.3325],[134.13743,35.33448],[134.14105,35.33435],[134.14409,35.33584],[134.1467,35.33509],[134.16314,35.34336],[134.17148,35.34188],[134.17661,35.34195],[134.18097,35.33881],[134.18464,35.33778],[134.19408,35.33984],[134.19881,35.34189],[134.20184,35.34076],[134.20583,35.34528],[134.20593,35.34766],[134.20405,35.35129],[134.20566,35.35394],[134.21344,35.35087],[134.21661,35.35062],[134.22292,35.35315],[134.22891,35.35737],[134.23179,35.35746],[134.238,35.35365],[134.23724,35.35466],[134.24185,35.3605],[134.24188,35.36165],[134.24371,35.36056],[134.24273,35.36332],[134.24498,35.36807],[134.24677,35.36972],[134.24898,35.37027],[134.24774,35.37313],[134.24817,35.37835],[134.24317,35.38736],[134.24376,35.38988],[134.24226,35.39224],[134.24241,35.39393],[134.24425,35.39373],[134.24485,35.39232],[134.25345,35.39136],[134.26469,35.38714],[134.26712,35.38702],[134.26949,35.38831],[134.27546,35.38787],[134.28363,35.3827],[134.28546,35.37721],[134.28821,35.37505],[134.29067,35.3744],[134.29615,35.37755],[134.30736,35.37283],[134.31274,35.36796],[134.31639,35.36646],[134.32427,35.3664],[134.3278,35.36752],[134.33858,35.36646],[134.34503,35.36317],[134.35878,35.3612],[134.36552,35.36175],[134.36985,35.36604],[134.37303,35.36785],[134.37548,35.36794],[134.37778,35.36617],[134.37866,35.36041],[134.38402,35.35431],[134.3902,35.34973],[134.39792,35.34706],[134.40053,35.34452],[134.40368,35.33856],[134.40642,35.33552],[134.4148,35.33673],[134.42337,35.33635],[134.42524,35.33699],[134.42803,35.33995],[134.43222,35.34178],[134.43836,35.34267],[134.44316,35.34451],[134.44701,35.34713],[134.44933,35.34747],[134.45001,35.34947],[134.4509,35.34892],[134.45117,35.3459],[134.45401,35.34472],[134.45943,35.34559],[134.4651,35.34968],[134.46967,35.34871],[134.47156,35.34908],[134.47303,35.35067],[134.47317,35.35544],[134.47737,35.35699],[134.48311,35.35651],[134.48576,35.35522],[134.486,35.35409],[134.48815,35.35333],[134.48968,35.35429],[134.49241,35.35432],[134.48992,35.35755],[134.49352,35.35925],[134.49331,35.36077],[134.49465,35.36343],[134.49356,35.36369],[134.4945,35.36476],[134.49258,35.3649],[134.49238,35.36634],[134.49328,35.36698],[134.49273,35.36776],[134.49313,35.36969],[134.4939,35.3699],[134.4925,35.3701],[134.49345,35.37038],[134.49162,35.37239],[134.49052,35.37155],[134.49109,35.37277],[134.49204,35.3727],[134.49101,35.37384],[134.49194,35.37413],[134.49038,35.37485],[134.48968,35.37784],[134.49059,35.37776],[134.48977,35.37844],[134.49042,35.38127],[134.48917,35.3821],[134.48725,35.38533],[134.48775,35.38616],[134.48669,35.38704],[134.48847,35.38934],[134.48834,35.39234],[134.48749,35.3926],[134.49026,35.39491],[134.48983,35.39529],[134.49108,35.39525],[134.49127,35.39703],[134.49335,35.39674],[134.49651,35.39833],[134.49766,35.39919],[134.49778,35.40119],[134.50084,35.40167],[134.50213,35.40279],[134.50211,35.40381],[134.50547,35.40417],[134.50614,35.40541],[134.50758,35.40572],[134.50795,35.40637],[134.50646,35.40686],[134.50642,35.40905],[134.50743,35.40993],[134.50623,35.41167],[134.5085,35.41229],[134.51068,35.41414],[134.51165,35.41614],[134.51497,35.41715],[134.51785,35.41965],[134.52217,35.42135],[134.52243,35.42243],[134.52722,35.42422],[134.52867,35.42869],[134.53269,35.43399],[134.53241,35.43796],[134.53358,35.43918],[134.53322,35.44021],[134.53447,35.44215],[134.53355,35.44565],[134.53495,35.45165],[134.53463,35.45379],[134.53655,35.45343],[134.539,35.4583],[134.53884,35.46012],[134.54563,35.46522],[134.55259,35.4724],[134.55167,35.48226],[134.55331,35.48423],[134.55406,35.48773],[134.56087,35.49036],[134.56147,35.49141],[134.56087,35.49245],[134.56246,35.49354],[134.56564,35.49368],[134.5702,35.48977],[134.57497,35.48863],[134.57598,35.48573],[134.58594,35.48069],[134.58633,35.47996],[134.58524,35.47773],[134.58915,35.47326],[134.59477,35.47296],[134.60188,35.47663],[134.60462,35.47644],[134.60662,35.47894],[134.61233,35.47985],[134.61681,35.48858],[134.64636,35.51385],[134.64868,35.51446],[134.66827,35.50772],[134.67389,35.49935],[134.68347,35.49259],[134.68529,35.49178],[134.68908,35.49272],[134.68971,35.49098],[134.68814,35.49072],[134.6889,35.48887],[134.69099,35.48911],[134.69255,35.48648],[134.69412,35.48732],[134.70382,35.48562],[134.70693,35.48327],[134.70979,35.47692],[134.7169,35.47249],[134.72218,35.4706],[134.7268,35.46666],[134.73203,35.46415],[134.73337,35.4618],[134.73546,35.46067],[134.73749,35.46082],[134.74514,35.46512],[134.75501,35.4655],[134.75922,35.46857],[134.76856,35.46941],[134.76833,35.4666],[134.77545,35.4653],[134.77577,35.467],[134.77813,35.47004],[134.78676,35.47527],[134.78633,35.47738],[134.79066,35.47747],[134.79326,35.47883],[134.80874,35.48048],[134.81156,35.48236],[134.81503,35.48344],[134.81829,35.4867],[134.82589,35.4881],[134.83018,35.48735],[134.83445,35.48426],[134.844,35.48159],[134.85765,35.48145],[134.86161,35.48021],[134.86098,35.47838],[134.86163,35.47571],[134.85974,35.47515],[134.86182,35.4705],[134.8623,35.46001],[134.86441,35.45655],[134.86953,35.45175],[134.87057,35.44881],[134.87181,35.44778],[134.87567,35.44737],[134.88501,35.45133],[134.90395,35.45429],[134.91,35.45423],[134.92073,35.45641],[134.92545,35.45585],[134.92671,35.45734],[134.92423,35.46223],[134.92543,35.46399],[134.93243,35.46404],[134.93542,35.46182],[134.93724,35.46162],[134.94425,35.46446],[134.9521,35.47442],[134.95158,35.47833],[134.95272,35.48161],[134.95186,35.48518],[134.95375,35.48958],[134.96036,35.49546],[134.97018,35.49861],[134.97498,35.49832],[134.97963,35.49728],[134.98051,35.49528],[134.98031,35.49156],[134.98376,35.48945],[134.98794,35.48886],[134.99331,35.49125],[134.99376,35.49427],[134.99203,35.4978],[134.99281,35.50298],[134.99125,35.50718],[134.99242,35.51022],[134.98989,35.51834],[134.98635,35.52552],[134.97814,35.53236],[134.97775,35.53373],[134.979,35.53597],[134.97685,35.5373],[134.97792,35.53877],[134.9773,35.54104],[134.97815,35.54251],[134.97836,35.54766],[134.97707,35.55317],[134.97959,35.55906],[134.97761,35.56468],[134.97426,35.56574],[134.97369,35.56662],[134.97839,35.57367],[134.983,35.57291],[134.98645,35.57552],[134.98882,35.57631],[134.99462,35.57559],[134.99996,35.57752],[135.01003,35.57736],[135.01965,35.57835],[135.02222,35.57988],[135.03405,35.58167],[135.03546,35.58352],[135.03563,35.58584],[135.04303,35.59412],[135.04687,35.60121],[135.05444,35.6058],[135.06308,35.60887],[135.07737,35.61003],[135.07955,35.60952],[135.08033,35.61144],[135.0783,35.61433]],[[135.15042,35.55295],[135.1536,35.55862],[135.1532,35.56267],[135.15217,35.56411],[135.1525,35.56558],[135.1561,35.57047],[135.18029,35.5767],[135.19419,35.58199],[135.19799,35.58166],[135.2049,35.5845],[135.20913,35.59156],[135.21211,35.59363],[135.21365,35.59782],[135.21961,35.60225],[135.23254,35.61546],[135.24111,35.6179],[135.2444,35.62045],[135.24582,35.6259],[135.24562,35.63008],[135.25008,35.63954],[135.25104,35.64554],[135.25357,35.65015],[135.25889,35.65604],[135.25875,35.6572],[135.25729,35.65835],[135.25751,35.6596],[135.2619,35.66554],[135.26888,35.66964],[135.27401,35.6757],[135.287,35.68166],[135.28911,35.68355],[135.28969,35.68586],[135.2878,35.68737],[135.28257,35.68751],[135.27834,35.69006],[135.27742,35.69419],[135.27863,35.7002],[135.2824,35.70448],[135.28083,35.70634],[135.27822,35.70656],[135.27614,35.70816],[135.2731,35.70777],[135.27136,35.70906],[135.26803,35.70992],[135.26633,35.70911],[135.26382,35.70949],[135.25996,35.71223],[135.25698,35.71858],[135.25275,35.72052],[135.25488,35.72386],[135.25579,35.72994],[135.25827,35.73222],[135.25407,35.73698],[135.25601,35.74395],[135.24964,35.75171],[135.25108,35.756],[135.24903,35.75671],[135.24719,35.7561],[135.24578,35.75684],[135.24405,35.7592],[135.2402,35.76079],[135.23731,35.764],[135.23575,35.76243],[135.23572,35.76429],[135.23435,35.76486],[135.23425,35.76705],[135.23352,35.76771],[135.22876,35.76725],[135.22698,35.76869],[135.22643,35.76757],[135.2223,35.76975],[135.21694,35.7683],[135.21359,35.76621],[135.20672,35.76374],[135.19358,35.76447],[135.18179,35.75872],[135.17955,35.75893],[135.17472,35.75694],[135.17177,35.75418],[135.17279,35.75306],[135.16903,35.75245],[135.16752,35.75123],[135.16708,35.75027],[135.16819,35.74903],[135.1658,35.74882],[135.16352,35.7474],[135.15661,35.7522],[135.15155,35.75081],[135.14577,35.7474],[135.14412,35.74901],[135.14113,35.7493],[135.13931,35.75095],[135.13728,35.75126],[135.12997,35.74802],[135.13035,35.74633],[135.12837,35.7465],[135.1258,35.74497],[135.1205,35.74444],[135.11693,35.74157],[135.11135,35.74172],[135.10583,35.73813],[135.10286,35.73981],[135.09575,35.73096],[135.09851,35.72848],[135.09842,35.72487],[135.10408,35.72073],[135.10498,35.71468],[135.10633,35.71298],[135.1043,35.70173],[135.10296,35.69934],[135.104,35.69744],[135.10171,35.69368],[135.0986,35.69087],[135.09805,35.68738],[135.09941,35.68247],[135.0985,35.67819],[135.09488,35.67281],[135.09201,35.67054],[135.09115,35.6649],[135.09301,35.65947],[135.09186,35.65045],[135.08938,35.64818],[135.08812,35.64287],[135.08347,35.64063],[135.07957,35.64004],[135.08005,35.64108],[135.08422,35.64384],[135.08535,35.64918],[135.08782,35.6501],[135.08982,35.65244],[135.08947,35.65483],[135.08679,35.66037],[135.08586,35.66501],[135.08696,35.6708],[135.08839,35.67289],[135.08818,35.67547],[135.08957,35.67834],[135.09494,35.68395],[135.09637,35.68928],[135.09836,35.689]],[[133.53858,35.29142],[133.5335,35.29402]],[[135.07803,35.61476],[135.07484,35.61979],[135.07169,35.62889],[135.07516,35.63075],[135.07503,35.63289],[135.07983,35.63554],[135.07957,35.64004]],[[133.33876,35.42915],[133.3339,35.43319]]]}}]}