{"type":"FeatureCollection","features":[{"type":"Feature","properties":{"route_id":"485","route_number":485,"name":"国道485号","source":"OpenStreetMap contributors (ODbL)","osm_relations":[7441644,9473486,20059126]},"geometry":{"type":"MultiLineString","coordinates":[[[133.08534,35.49006],[133.08919,35.49324],[133.08928,35.49843],[133.0927,35.50455],[133.10123,35.50864],[133.10948,35.50748],[133.12176,35.51494],[133.13353,35.51635],[133.13658,35.51766],[133.13938,35.5203],[133.14337,35.52095],[133.14836,35.5243],[133.15211,35.53549],[133.15859,35.53938],[133.16124,35.53824],[133.16318,35.53838],[133.16701,35.53528],[133.172,35.53749],[133.18035,35.53807],[133.18498,35.53318],[133.18766,35.53338],[133.19077,35.53516],[133.19609,35.53466],[133.19855,35.5361],[133.19842,35.53738],[133.20013,35.53893],[133.20363,35.54084],[133.20818,35.54204],[133.212,35.54563],[133.21702,35.54862],[133.22676,35.5502],[133.22811,35.55111],[133.22799,35.55434],[133.22456,35.56294],[133.2266,35.56573],[133.22427,35.56999],[133.22899,35.57095]],[[133.15057,35.53008],[133.15198,35.52998],[133.15388,35.53128],[133.15387,35.53534],[133.15675,35.53732],[133.16052,35.53628],[133.16118,35.53286],[133.16278,35.53129],[133.16345,35.53188],[133.16336,35.53386],[133.16701,35.53528]],[[132.9942,36.09339],[132.99611,36.0932],[132.99748,36.0908],[132.99932,36.09108],[132.99844,36.09338],[133,36.09422],[133.00076,36.09359],[133.00408,36.09403],[133.00829,36.09147],[133.01098,36.09127],[133.01643,36.09323],[133.01566,36.09687],[133.01668,36.09906],[133.02059,36.10129],[133.02397,36.10199],[133.02573,36.1045],[133.02783,36.10585],[133.03577,36.10697],[133.03907,36.10608]],[[133.33495,36.20355],[133.33129,36.20328],[133.32975,36.20188],[133.32831,36.20244],[133.32695,36.20435],[133.32215,36.20348],[133.31522,36.20556],[133.31362,36.20707],[133.31402,36.2095],[133.31331,36.21161],[133.3058,36.21688],[133.30534,36.22043],[133.29859,36.22597],[133.2969,36.22789],[133.2957,36.23128],[133.2905,36.23552],[133.2904,36.2388],[133.28663,36.24455],[133.28047,36.24606],[133.27773,36.24521],[133.27613,36.24552],[133.27066,36.2513],[133.25947,36.25423],[133.25179,36.26077],[133.25063,36.26508],[133.25218,36.27293],[133.2477,36.27978],[133.24932,36.28398],[133.25197,36.28547],[133.25511,36.28601],[133.25599,36.28707],[133.25341,36.29348],[133.25377,36.30302],[133.25292,36.30573],[133.25413,36.30802],[133.25634,36.30872],[133.25911,36.3083],[133.26109,36.31115],[133.26553,36.31202],[133.2666,36.31403],[133.26802,36.31449],[133.26829,36.31699],[133.26731,36.3194],[133.27106,36.32526],[133.27251,36.32537],[133.27412,36.32677],[133.27585,36.32634],[133.28008,36.32778],[133.28236,36.3303],[133.28534,36.33049],[133.28712,36.32699],[133.29551,36.3271],[133.30052,36.32414],[133.3021,36.32076],[133.30546,36.31703],[133.31092,36.31802],[133.31494,36.31405],[133.31532,36.31254],[133.31448,36.3111],[133.31453,36.30904],[133.31534,36.30792],[133.32132,36.30859],[133.32547,36.30754],[133.33145,36.30189],[133.33266,36.2962],[133.33558,36.29449],[133.34048,36.28882],[133.34276,36.29107],[133.34732,36.29199],[133.3489,36.29153],[133.35467,36.29388],[133.35635,36.29376]],[[133.10113,35.44377],[133.09288,35.44723],[133.09427,35.44974],[133.09241,35.45308],[133.0919,35.4564],[133.09593,35.47439],[133.09564,35.48174],[133.09296,35.48542],[133.08525,35.49013],[133.08918,35.49342],[133.08921,35.49861],[133.0925,35.50454],[133.10118,35.50873],[133.10944,35.50755],[133.11672,35.51198]],[[133.09681,35.44546],[133.10275,35.44389]],[[133.09438,35.44964],[133.09413,35.44799],[133.09511,35.44683]],[[133.09619,35.4459],[133.10109,35.44406]]]}}]}