{"type":"FeatureCollection","features":[{"type":"Feature","properties":{"route_id":"413","route_number":413,"name":"国道413号","source":"OpenStreetMap contributors (ODbL)","osm_relations":[3908697]},"geometry":{"type":"MultiLineString","coordinates":[[[139.1284,35.54374],[139.12792,35.54338],[139.12708,35.54446],[139.12484,35.54399],[139.12351,35.54253],[139.12377,35.54136],[139.12243,35.54062],[139.12001,35.5408],[139.11834,35.54203],[139.11527,35.54172],[139.11307,35.53922],[139.11105,35.53908],[139.1128,35.53837],[139.11113,35.53649],[139.10748,35.53624],[139.10792,35.53548],[139.10962,35.5354],[139.10852,35.53368],[139.10516,35.53324],[139.10478,35.53169],[139.10287,35.53021],[139.09748,35.52877],[139.09592,35.53102],[139.09715,35.53168],[139.09428,35.53184],[139.09458,35.53307],[139.09275,35.5345],[139.08892,35.53545],[139.08671,35.53692],[139.08418,35.53552],[139.07947,35.53709],[139.0779,35.53452],[139.07614,35.53419],[139.0744,35.53507],[139.07262,35.53388],[139.06917,35.53368],[139.06847,35.53437],[139.06447,35.53425],[139.05944,35.53688],[139.05423,35.53489],[139.05256,35.53289],[139.04811,35.53241],[139.04546,35.53077],[139.04337,35.53086],[139.03964,35.52909],[139.03232,35.52732],[139.02888,35.52737],[139.02664,35.52617],[139.0195,35.51856],[139.01544,35.51754],[139.01306,35.51472],[139.0066,35.51368],[138.99931,35.511],[138.99803,35.5088],[138.99458,35.50698],[138.99224,35.50459],[138.98927,35.50382],[138.98689,35.49976],[138.98183,35.49655],[138.98123,35.49531],[138.96958,35.48869],[138.96642,35.48777],[138.96567,35.48639],[138.96266,35.48556],[138.95768,35.47981],[138.95189,35.47786],[138.95026,35.47402],[138.94347,35.4702],[138.94392,35.46877],[138.94279,35.46763],[138.94194,35.46379],[138.93931,35.46066],[138.93993,35.4594],[138.93726,35.4571],[138.93656,35.45512],[138.93419,35.4542],[138.9325,35.45467],[138.93327,35.45337],[138.93025,35.45173],[138.93061,35.45065],[138.92873,35.44943],[138.92945,35.4484],[138.92701,35.44523],[138.91449,35.43555],[138.90837,35.433],[138.90459,35.43038],[138.90375,35.42901],[138.90351,35.42642],[138.90456,35.42571],[138.90306,35.41739],[138.90138,35.41609],[138.89252,35.4134],[138.88284,35.4082],[138.87324,35.40723],[138.86285,35.40951],[138.85777,35.41617],[138.84961,35.42343],[138.84837,35.42723],[138.84522,35.42947],[138.83863,35.437],[138.83136,35.44201],[138.81735,35.44914],[138.80585,35.45654],[138.80435,35.45832],[138.80374,35.46279],[138.80071,35.46929],[138.79182,35.47506]],[[139.33873,35.59778],[139.31695,35.59833],[139.30546,35.59627],[139.30281,35.59414],[139.30083,35.5941],[139.29996,35.59243],[139.29753,35.59179],[139.29996,35.59243]],[[139.29753,35.59179],[139.2889,35.59074],[139.28502,35.5865],[139.2824,35.58549],[139.28007,35.5866],[139.27383,35.58492],[139.27034,35.58556],[139.26209,35.58288],[139.25795,35.585],[139.2565,35.58684],[139.24917,35.58974],[139.24124,35.5875],[139.23238,35.58853],[139.22989,35.58358],[139.23147,35.5812],[139.22969,35.5806],[139.22731,35.57767],[139.22464,35.57703],[139.21899,35.56684],[139.21519,35.56534],[139.20905,35.5643],[139.2073,35.56274],[139.20644,35.56364],[139.20015,35.56472],[139.19059,35.56425],[139.18541,35.56218],[139.18506,35.56044],[139.18375,35.55937],[139.17951,35.55932],[139.17851,35.55687],[139.17684,35.5584],[139.1715,35.55713],[139.17732,35.56038],[139.18314,35.56088],[139.18541,35.56218]],[[139.12349,35.5421],[139.12323,35.54323],[139.12476,35.54479],[139.12857,35.54477],[139.13065,35.54575],[139.13057,35.54496],[139.13157,35.5452],[139.13176,35.54417],[139.13773,35.54203],[139.13788,35.54387],[139.14099,35.54482],[139.14344,35.54796],[139.14631,35.54915],[139.14873,35.54834],[139.15062,35.54951],[139.15268,35.54889],[139.15432,35.5514],[139.1579,35.55338],[139.16248,35.55338],[139.16802,35.55656],[139.1715,35.55713]]]}}]}