{"type":"FeatureCollection","features":[{"type":"Feature","properties":{"route_id":"112","route_number":112,"name":"国道112号","source":"OpenStreetMap contributors (ODbL)","osm_relations":[3118834,3118835,10220506,10220507,10220508,10220509,10220510,10220511]},"geometry":{"type":"MultiLineString","coordinates":[[[140.32323,38.21427],[140.32442,38.22048],[140.32792,38.22713],[140.32978,38.23414],[140.33308,38.24226],[140.3396,38.25392],[140.33746,38.25469],[140.33863,38.25694],[140.33115,38.25922],[140.3254,38.25999],[140.32422,38.27188],[140.31453,38.27528],[140.31465,38.27635],[140.30549,38.28571],[140.30416,38.28842],[140.30144,38.30549],[140.28099,38.32009],[140.27971,38.32189],[140.27775,38.33201],[140.29053,38.35719],[140.28962,38.36653],[140.29103,38.37327],[140.2897,38.36641],[140.29083,38.35789],[140.27794,38.3323],[140.27921,38.32398]],[[140.29103,38.37327],[140.29364,38.38534],[140.2927,38.38885],[140.28977,38.39157],[140.27341,38.39796],[140.25955,38.39831],[140.2495,38.39952],[140.24324,38.4026],[140.23591,38.40298],[140.22983,38.40619],[140.22092,38.40735],[140.21418,38.41087],[140.20346,38.4116],[140.17844,38.41862],[140.16637,38.4206],[140.11875,38.43746],[140.10621,38.43661],[140.10117,38.43546],[140.09152,38.4361],[140.08917,38.43466],[140.08124,38.43622],[140.07799,38.43775],[140.07338,38.43857],[140.06985,38.44102],[140.06858,38.44357],[140.06168,38.44759],[140.06154,38.44976],[140.05957,38.45287],[140.05284,38.45263],[140.05096,38.45374],[140.04703,38.45405],[140.0461,38.45697],[140.04236,38.459],[140.03758,38.45875],[140.0303,38.45625],[140.01892,38.45656],[140.01335,38.4592],[140.00885,38.45823],[140.00748,38.45561],[140.00596,38.45455],[139.99986,38.4529],[139.99499,38.45262],[139.99127,38.45655],[139.9905,38.45917],[139.99447,38.47014],[139.9953,38.47484],[139.99492,38.4774],[139.99433,38.47878],[139.99228,38.48007],[139.99194,38.48205],[139.98907,38.48634],[139.98465,38.48903],[139.9834,38.49139],[139.97587,38.4942],[139.97253,38.49457],[139.96461,38.50267],[139.94937,38.52438],[139.95063,38.52966],[139.94961,38.53225],[139.94669,38.5331],[139.94264,38.53145],[139.941,38.53159],[139.93269,38.53892],[139.93021,38.55541],[139.92885,38.55855],[139.93396,38.56186],[139.93834,38.56234],[139.93984,38.56323],[139.93989,38.5648],[139.93649,38.56846],[139.93811,38.57012],[139.93807,38.57225],[139.93896,38.57394],[139.94314,38.57624],[139.94276,38.57959],[139.93756,38.58106],[139.92935,38.57644],[139.91873,38.57398],[139.91639,38.57263],[139.91525,38.57044],[139.91285,38.57028],[139.9158,38.57032],[139.91884,38.57292],[139.92214,38.57256],[139.92202,38.56996],[139.92091,38.56933],[139.92183,38.56819],[139.92148,38.56669],[139.92197,38.56616],[139.92366,38.56668],[139.9211,38.56492],[139.92322,38.56285],[139.92148,38.5621],[139.92572,38.56122],[139.92632,38.55863],[139.92612,38.55751],[139.92523,38.55861],[139.92428,38.55716],[139.92267,38.55652],[139.92319,38.55518],[139.9223,38.5537],[139.92669,38.55092],[139.92702,38.54855],[139.92576,38.54751],[139.92728,38.54636],[139.92827,38.54737],[139.92917,38.54671],[139.92784,38.54368],[139.92933,38.54081],[139.9367,38.53953],[139.93621,38.5388],[139.93679,38.53724],[139.9353,38.53499],[139.93634,38.53214],[139.93809,38.53127],[139.93983,38.53316],[139.94213,38.53392],[139.94382,38.53303],[139.94551,38.53499],[139.94759,38.53488],[139.95062,38.53639],[139.95356,38.53551],[139.95652,38.53585],[139.95852,38.53435],[139.95473,38.52905],[139.95468,38.52702],[139.9536,38.52673],[139.95367,38.52446],[139.95634,38.52412],[139.95679,38.52037],[139.9541,38.51748],[139.9517,38.51761],[139.95166,38.51564],[139.95549,38.51384],[139.95738,38.51175],[139.95909,38.51163],[139.96083,38.50971],[139.96211,38.506],[139.96423,38.50544],[139.96612,38.50827],[139.96973,38.50938],[139.9701,38.50824],[139.97099,38.50848],[139.97148,38.50747],[139.97335,38.5072],[139.97262,38.50589],[139.97387,38.50482],[139.9722,38.50346],[139.9734,38.50212],[139.97987,38.50194],[139.98176,38.50077],[139.98334,38.50149],[139.98418,38.49994],[139.98908,38.49928],[139.99067,38.49704],[139.99184,38.49954],[139.99561,38.50043],[139.99712,38.50027],[139.99909,38.49865],[139.99973,38.48952],[140.00034,38.48806],[140.00431,38.4849],[140.00586,38.4791],[140.0041,38.47512],[140.00286,38.46886],[140.00108,38.46676],[139.9984,38.45949],[139.99872,38.45488],[139.99977,38.45614],[140.00211,38.45604],[140.0008,38.456],[140.00199,38.45502],[140.00065,38.45442],[140.00118,38.45337]],[[139.91274,38.57015],[139.91109,38.57106],[139.90245,38.57196],[139.90067,38.57454],[139.90032,38.57798],[139.90133,38.58063],[139.90054,38.58294],[139.89799,38.58482],[139.88782,38.58935],[139.88095,38.58908],[139.87737,38.58668],[139.87347,38.58759],[139.86898,38.58746],[139.8648,38.58511],[139.84843,38.58959],[139.84091,38.60183],[139.83855,38.60956],[139.83543,38.61515],[139.83981,38.62044],[139.84225,38.62628],[139.84442,38.62937],[139.84846,38.64354],[139.84555,38.65223],[139.84677,38.65842],[139.84639,38.66093],[139.83749,38.67541],[139.83623,38.67864],[139.83679,38.6895],[139.83361,38.70038],[139.83487,38.70257],[139.84431,38.70952],[139.84646,38.71304],[139.84776,38.72461],[139.84499,38.73472],[139.84678,38.74446],[139.84498,38.74616],[139.83632,38.74713],[139.83417,38.74819],[139.83339,38.75013],[139.83284,38.75901],[139.82915,38.75697],[139.81596,38.74614],[139.8017,38.74012],[139.81645,38.74655],[139.82703,38.75514]],[[139.8017,38.74012],[139.79183,38.74749],[139.77937,38.74828],[139.77607,38.74935],[139.76183,38.74856],[139.75685,38.74738],[139.75331,38.74505],[139.75089,38.74684],[139.74383,38.74987],[139.74041,38.75382],[139.73627,38.75622],[139.73556,38.75849],[139.73603,38.75981],[139.73408,38.7623],[139.73462,38.76352],[139.73256,38.76625],[139.73418,38.76821],[139.73935,38.77027],[139.74168,38.77284],[139.74774,38.77501],[139.75394,38.78446],[139.76476,38.78638],[139.76846,38.79181],[139.77159,38.7998],[139.77862,38.80911],[139.77845,38.82407],[139.77979,38.82968],[139.78376,38.83357],[139.78746,38.84227],[139.79044,38.84532],[139.79331,38.85199],[139.79869,38.85993],[139.80096,38.87608],[139.80302,38.88027],[139.8062,38.89129],[139.83585,38.90886],[139.81794,38.89819]],[[139.90028,38.57758],[139.90091,38.5805],[139.90023,38.58263],[139.89405,38.58635]],[[139.83585,38.90886],[139.83487,38.91216],[139.83901,38.92189],[139.83452,38.92245],[139.8302,38.92707],[139.8248,38.93861],[139.83347,38.94565],[139.83687,38.95286]],[[139.83284,38.75901],[139.83432,38.74826],[139.8363,38.74726],[139.845,38.74627],[139.84666,38.74507],[139.84518,38.73587],[139.84531,38.73181]],[[140.31465,38.27635],[140.31464,38.27525]],[[140.3254,38.25999],[140.33404,38.25844]]]}}]}