{"type":"FeatureCollection","features":[{"type":"Feature","properties":{"route_id":"352","route_number":352,"name":"国道352号","source":"OpenStreetMap contributors (ODbL)","osm_relations":[6357795,11643937]},"geometry":{"type":"MultiLineString","coordinates":[[[138.85779,37.46521],[138.84887,37.4448],[138.85191,37.4428],[138.85748,37.44094],[138.85994,37.44106],[138.86004,37.43707],[138.86521,37.43553],[138.87479,37.42937],[138.87709,37.42746],[138.8789,37.4237],[138.88679,37.42371],[138.89702,37.42162],[138.90971,37.41429],[138.90959,37.41296],[138.91218,37.41062],[138.91284,37.40827],[138.91225,37.40402],[138.91592,37.40144],[138.92004,37.37532],[138.9204,37.37456],[138.92087,37.3755],[138.92124,37.37462],[138.92071,37.37203],[138.91932,37.37158],[138.91902,37.37006],[138.92191,37.36529],[138.92354,37.36485],[138.92413,37.36321],[138.92323,37.3611],[138.92432,37.36052],[138.92521,37.36582],[138.92349,37.36927],[138.91338,37.37392],[138.90746,37.37457],[138.90557,37.37569],[138.90204,37.37981],[138.89797,37.38077],[138.89909,37.38284],[138.91139,37.38802],[138.91381,37.39031],[138.91529,37.39343],[138.91623,37.40096]],[[138.55159,37.36038],[138.55086,37.365],[138.54903,37.36826],[138.5533,37.36943],[138.55317,37.37102],[138.55104,37.37332],[138.55978,37.3814],[138.56891,37.38406],[138.58052,37.40776],[138.58214,37.40735],[138.58614,37.40826],[138.58875,37.40961],[138.58971,37.41166],[138.59528,37.41502],[138.59568,37.41725],[138.60373,37.41902],[138.60805,37.42543],[138.61128,37.43213],[138.61222,37.44008],[138.6111,37.44185],[138.60588,37.44423],[138.60528,37.44834],[138.60979,37.45564],[138.61155,37.46098],[138.61797,37.47296],[138.6193,37.48205],[138.62111,37.48345],[138.62751,37.48536],[138.63263,37.4879],[138.63471,37.49484],[138.64189,37.49886],[138.64435,37.5029],[138.64881,37.50592],[138.65092,37.51113],[138.65644,37.51624],[138.65581,37.51918],[138.65632,37.52067],[138.66177,37.52459],[138.67051,37.53398],[138.67722,37.53803],[138.68227,37.53975],[138.68692,37.54372],[138.6881,37.54299],[138.69152,37.54391],[138.69178,37.54187],[138.69269,37.54117],[138.69725,37.54135],[138.70161,37.53859],[138.70683,37.53769],[138.7087,37.53537],[138.7081,37.53302],[138.71102,37.53072],[138.71535,37.53049],[138.72119,37.52804],[138.73132,37.51929],[138.73605,37.51734],[138.75457,37.5055],[138.75742,37.50488],[138.76106,37.50571],[138.76277,37.50882],[138.76517,37.51063],[138.77145,37.50964],[138.77564,37.50754],[138.78078,37.50728],[138.78633,37.50524],[138.78666,37.50297],[138.78517,37.50125],[138.78537,37.49982],[138.80059,37.49952],[138.80065,37.49607],[138.80194,37.49205],[138.81199,37.49172],[138.82334,37.48977],[138.82969,37.49185],[138.83322,37.48887],[138.83561,37.48498],[138.8352,37.47939],[138.84424,37.47841],[138.86043,37.47401]],[[139.39483,37.03015],[139.39167,37.02845],[139.38693,37.02223],[139.38401,37.02044],[139.38219,37.01706],[139.38046,37.01601],[139.3785,37.01277],[139.37295,37.00725],[139.36944,37.00453],[139.36612,37.00352],[139.36028,36.99995],[139.35976,36.99688],[139.35376,36.98911],[139.3483,36.98523],[139.33761,36.98625],[139.33645,36.98591],[139.33796,36.98518],[139.33663,36.98428],[139.33681,36.98505],[139.33565,36.98467],[139.33248,36.9865],[139.33389,36.98431],[139.33504,36.98394],[139.33501,36.98271],[139.33243,36.98516],[139.32874,36.98536],[139.33138,36.98469],[139.33252,36.98195],[139.32396,36.98157],[139.3204,36.98036],[139.31173,36.98068],[139.30961,36.98092],[139.30814,36.98343],[139.30591,36.98465],[139.30399,36.98402],[139.30419,36.98455],[139.29941,36.98483],[139.29886,36.98406],[139.29713,36.98436],[139.29588,36.98676],[139.29488,36.98687],[139.29391,36.98485],[139.29057,36.98512],[139.2863,36.98758],[139.28577,36.98862],[139.28767,36.99092],[139.2856,36.99202],[139.2799,36.99181],[139.27886,36.99247],[139.27838,36.99466],[139.27833,36.99193],[139.28256,36.99035],[139.27894,36.99055],[139.27666,36.99184],[139.27596,36.99414],[139.27485,36.9952],[139.27386,36.99494],[139.27076,36.99889],[139.27365,36.99817],[139.27502,36.99963],[139.27308,37.00085],[139.27196,37.00356],[139.26647,37.00055],[139.25391,37.00469],[139.25135,37.00829],[139.24671,37.01127],[139.2464,37.01551],[139.24826,37.02301],[139.24675,37.02415],[139.24698,37.02708],[139.24862,37.03195],[139.2523,37.03413],[139.253,37.0369],[139.25207,37.03896],[139.25231,37.04046],[139.256,37.04282],[139.25887,37.04669],[139.25581,37.05035],[139.25506,37.05292],[139.25571,37.05422],[139.25412,37.05843],[139.24529,37.07155],[139.24487,37.07374],[139.24569,37.07511],[139.24332,37.07558],[139.24549,37.0768],[139.24545,37.07843],[139.24705,37.08016],[139.24406,37.08092],[139.24285,37.0803],[139.24218,37.0812],[139.23936,37.07971],[139.23803,37.07978],[139.23909,37.08174],[139.23873,37.08263],[139.23772,37.08275],[139.23763,37.08387],[139.23396,37.08352],[139.2345,37.08484],[139.23216,37.08561],[139.23337,37.08702],[139.23099,37.09067],[139.23108,37.09299],[139.23265,37.09382],[139.23279,37.09512],[139.23158,37.09365],[139.23023,37.09352],[139.23045,37.09157],[139.22927,37.08794],[139.22732,37.08562],[139.22709,37.0841],[139.22407,37.08054],[139.22318,37.08045],[139.22305,37.07878],[139.2224,37.07879],[139.22192,37.08],[139.22457,37.08485],[139.22467,37.08716],[139.22264,37.08806],[139.2245,37.08904],[139.22348,37.08997],[139.22382,37.09078],[139.22179,37.09122],[139.22311,37.09289],[139.2225,37.09423],[139.22448,37.09474],[139.22263,37.09596],[139.22168,37.09896],[139.21772,37.09559],[139.21763,37.09425],[139.21542,37.09344],[139.21477,37.09097],[139.21256,37.09027],[139.21315,37.08734],[139.21064,37.0896],[139.21051,37.09177],[139.20849,37.09029],[139.20909,37.09175],[139.20793,37.08999],[139.20562,37.09012],[139.20479,37.08938],[139.20412,37.09021],[139.20731,37.09329],[139.20565,37.09497],[139.20852,37.094],[139.20948,37.09444],[139.21046,37.09528],[139.21073,37.09698],[139.2093,37.09812],[139.21333,37.099],[139.21481,37.10217],[139.21279,37.10308],[139.21485,37.10358],[139.21568,37.10737],[139.21424,37.10774],[139.21626,37.10951],[139.21537,37.11122],[139.21329,37.11127],[139.21114,37.11259],[139.21372,37.11286],[139.21222,37.11564],[139.21275,37.11776],[139.21385,37.11862],[139.21404,37.12132],[139.20951,37.1187],[139.20564,37.12063],[139.20332,37.1204],[139.20231,37.12159],[139.20174,37.11868],[139.19969,37.11791],[139.19741,37.1189],[139.1954,37.12264],[139.19339,37.12137],[139.1931,37.11945],[139.19184,37.12263],[139.18872,37.12052],[139.18949,37.12447],[139.18825,37.1251],[139.18619,37.12409],[139.18683,37.12597],[139.18589,37.12701],[139.18329,37.12616],[139.18341,37.1269],[139.18096,37.12699],[139.18206,37.12792],[139.18151,37.12872],[139.18019,37.12915],[139.17818,37.12843],[139.17922,37.12989],[139.17771,37.13034],[139.17793,37.13114],[139.1769,37.13224],[139.17384,37.13347],[139.14803,37.1373],[139.14884,37.13874],[139.14775,37.13945],[139.14268,37.13833],[139.14639,37.1407],[139.14911,37.1401],[139.1466,37.14142],[139.13975,37.1394],[139.14015,37.14037],[139.13727,37.14284],[139.13176,37.14269],[139.13042,37.14126],[139.13141,37.14336],[139.12746,37.14411],[139.12619,37.14526],[139.12862,37.14655],[139.13045,37.14942],[139.12941,37.16011],[139.12733,37.16142],[139.12688,37.16334],[139.12772,37.16413],[139.12648,37.16521],[139.12629,37.16757],[139.12157,37.16884],[139.12244,37.17072],[139.1239,37.17107],[139.12347,37.17255],[139.12566,37.17532],[139.12397,37.17648],[139.12495,37.17914],[139.12277,37.17881],[139.12025,37.17723],[139.11372,37.17668],[139.11356,37.17541],[139.11252,37.17489],[139.11109,37.176],[139.10967,37.17585],[139.10873,37.17461],[139.10939,37.17307],[139.10581,37.17327],[139.10508,37.17126],[139.10218,37.17235],[139.10188,37.17154],[139.09824,37.17158],[139.09824,37.17387],[139.09891,37.17454],[139.09802,37.17539],[139.09641,37.17479],[139.09499,37.17247],[139.09363,37.17239],[139.09365,37.17359],[139.09264,37.17417],[139.08905,37.17251],[139.09145,37.17253],[139.0906,37.17227],[139.09123,37.17201],[139.08746,37.17172],[139.08618,37.17401],[139.0869,37.17819],[139.08206,37.18039],[139.0801,37.18327],[139.08137,37.1855],[139.08195,37.18916],[139.0804,37.19315],[139.07737,37.19605],[139.07658,37.19947],[139.0745,37.20272],[139.07156,37.20464],[139.06046,37.20881],[139.05433,37.2125],[139.04513,37.2122],[139.03687,37.21647],[139.03247,37.21967],[139.02145,37.22456],[138.98465,37.22869],[138.97077,37.23185],[138.96233,37.2315],[138.95769,37.23218],[138.95821,37.23786],[138.96062,37.24014],[138.96109,37.24172],[138.96576,37.2455],[138.97173,37.25389],[138.97447,37.25592],[138.97502,37.25814],[138.97202,37.26126],[138.97405,37.26463],[138.97567,37.27063],[138.98081,37.27541],[138.98089,37.27676],[138.98284,37.27923],[138.98241,37.281],[138.97947,37.28662],[138.9752,37.2901],[138.97496,37.29475],[138.97353,37.29754],[138.97578,37.30453],[138.96911,37.3103],[138.96918,37.31387],[138.96768,37.31696],[138.96743,37.32088],[138.96554,37.32186],[138.96341,37.32136],[138.96006,37.32326],[138.95795,37.32576],[138.9552,37.32644],[138.95029,37.32978],[138.94791,37.33226],[138.94779,37.33396],[138.94512,37.33519],[138.94363,37.33955],[138.93904,37.34384],[138.93821,37.34759],[138.93618,37.34961],[138.93387,37.34984],[138.93331,37.35228],[138.93156,37.35376],[138.9307,37.35595],[138.92925,37.3555],[138.92923,37.35401],[138.92552,37.354],[138.92712,37.35682],[138.92432,37.35868],[138.92432,37.36052]],[[139.39563,37.03113],[139.39601,37.03246],[139.4021,37.03732],[139.40396,37.04511],[139.40264,37.04882],[139.40296,37.04996],[139.40926,37.05173],[139.40893,37.05378],[139.40809,37.05437],[139.40847,37.0559],[139.41008,37.05876],[139.41349,37.06209],[139.41247,37.06623],[139.41739,37.07015],[139.41597,37.07488],[139.41949,37.07992],[139.42418,37.08066],[139.42613,37.08471],[139.42905,37.0857],[139.43374,37.08936],[139.43619,37.09034],[139.43928,37.09401],[139.44441,37.09627],[139.45064,37.10413],[139.45209,37.10889],[139.45377,37.10909],[139.45421,37.1125],[139.45891,37.12121],[139.46517,37.12393],[139.46851,37.12832],[139.47375,37.13215],[139.47645,37.13555],[139.48292,37.13839],[139.4889,37.14508],[139.49057,37.14404],[139.49178,37.13653],[139.49531,37.13423],[139.49343,37.13014],[139.49427,37.12895],[139.49672,37.12797],[139.49704,37.12409],[139.50127,37.12021],[139.50097,37.11758],[139.50549,37.11846],[139.5079,37.11811],[139.51256,37.11617],[139.51495,37.11382],[139.518,37.1128],[139.52032,37.10576],[139.531,37.0935],[139.53935,37.09115],[139.54164,37.08666],[139.54957,37.08739],[139.553,37.08916],[139.55493,37.08899],[139.55674,37.0874],[139.56206,37.08843],[139.5692,37.09234],[139.57542,37.0937],[139.58034,37.09709],[139.58531,37.0992],[139.58853,37.09799],[139.59019,37.09552],[139.59278,37.09399],[139.59506,37.09036],[139.59577,37.08736],[139.59773,37.08678],[139.60493,37.08018],[139.60963,37.07271],[139.61485,37.06891],[139.61858,37.06781],[139.62097,37.065],[139.62727,37.06289],[139.63154,37.06345],[139.63433,37.0663],[139.63499,37.06849],[139.63751,37.06976],[139.63995,37.06998],[139.64354,37.07179],[139.65175,37.07274],[139.65813,37.07515],[139.66042,37.07518],[139.66281,37.07708],[139.66188,37.07812],[139.662,37.0793],[139.66389,37.08073],[139.66305,37.08206],[139.66364,37.08289],[139.66714,37.08068],[139.66854,37.08055],[139.66913,37.08179],[139.66996,37.07976],[139.67958,37.07706],[139.68252,37.07713],[139.68609,37.08002],[139.69023,37.08106],[139.69184,37.08248],[139.69504,37.08248],[139.6977,37.08464],[139.69898,37.08734],[139.70355,37.09116],[139.70709,37.09642],[139.70966,37.09782],[139.71335,37.10279],[139.7178,37.10578],[139.71883,37.10757],[139.71878,37.11193],[139.71992,37.1115],[139.72179,37.10887],[139.72173,37.10616],[139.724,37.10477],[139.72428,37.10006],[139.72523,37.09795],[139.72502,37.09095],[139.73037,37.0832],[139.73317,37.08111],[139.74719,37.07647],[139.74814,37.07456],[139.74716,37.06875],[139.74606,37.06659],[139.73643,37.05844],[139.73021,37.05055],[139.72961,37.04615],[139.72341,37.03893],[139.72823,37.0286],[139.72687,37.02376],[139.73044,37.01933],[139.7298,37.01408],[139.72533,37.00938],[139.72319,37.0039],[139.71904,36.99918],[139.71487,36.99737],[139.71206,36.99491],[139.70867,36.98938],[139.69937,36.9868],[139.6915,36.9827],[139.69168,36.97815],[139.68826,36.97258],[139.69062,36.97035],[139.68716,36.96818],[139.68654,36.96692],[139.68832,36.96331],[139.69238,36.96469],[139.69609,36.96364],[139.69758,36.96224],[139.69719,36.95874],[139.6937,36.95778],[139.69318,36.95691],[139.69519,36.95437],[139.69496,36.94986],[139.69886,36.94951],[139.70056,36.94751],[139.70002,36.94354],[139.69831,36.9424],[139.69808,36.94078],[139.69461,36.93626],[139.69619,36.93487],[139.69571,36.93434],[139.69701,36.93383],[139.69581,36.93257],[139.69753,36.93048],[139.69748,36.92909],[139.69918,36.9274],[139.69883,36.92518],[139.69613,36.9225],[139.69562,36.92041],[139.69298,36.92048],[139.692,36.91956],[139.69845,36.91513],[139.70087,36.91053],[139.70263,36.90443],[139.70339,36.90396],[139.70362,36.90104],[139.70837,36.89795],[139.70154,36.89573],[139.70711,36.89646],[139.71002,36.89608],[139.71101,36.89484],[139.71095,36.89418],[139.70827,36.89431],[139.70719,36.89315],[139.70789,36.89236],[139.70747,36.89105],[139.70516,36.88878],[139.70309,36.88383],[139.7031,36.88205],[139.70048,36.87876],[139.70499,36.87343],[139.7056,36.86996],[139.71415,36.86502],[139.71668,36.86461],[139.71713,36.86268],[139.71844,36.86445],[139.71983,36.8645],[139.71936,36.86079],[139.72671,36.85831],[139.73074,36.85457],[139.73313,36.85076],[139.7328,36.84981],[139.72958,36.84811],[139.7227,36.84245],[139.72275,36.83829],[139.72068,36.83463],[139.71963,36.82773],[139.71617,36.82042],[139.71587,36.81744],[139.7108,36.81193],[139.70456,36.79615],[139.70556,36.79005],[139.70692,36.78734],[139.71234,36.78135],[139.71184,36.77968],[139.7125,36.77707],[139.71104,36.77385],[139.71476,36.7696],[139.71104,36.77385]],[[139.70943,36.69875],[139.70851,36.69836],[139.71028,36.69892],[139.71187,36.69794],[139.71685,36.69056],[139.72003,36.67902],[139.72192,36.67521],[139.72283,36.67516],[139.72243,36.66958],[139.72099,36.66467],[139.72193,36.65227],[139.72394,36.64415],[139.72502,36.64328],[139.72783,36.63674],[139.72908,36.62949],[139.74066,36.60918],[139.74619,36.59305],[139.7534,36.57836],[139.75303,36.57735],[139.75154,36.5771],[139.75027,36.57361],[139.74849,36.5714],[139.74655,36.56341],[139.74675,36.55341],[139.74811,36.54594],[139.74705,36.53885],[139.74752,36.53114],[139.74995,36.52489],[139.75186,36.51664],[139.7512,36.50366],[139.75521,36.49333],[139.7574,36.4914],[139.76269,36.48267],[139.76446,36.47708],[139.76484,36.46885],[139.77194,36.45829],[139.77428,36.45622],[139.7759,36.45142],[139.79168,36.43582],[139.79436,36.4318],[139.80684,36.43021],[139.81211,36.4314],[139.83531,36.43037],[139.84947,36.4277],[139.8579,36.42484],[139.86887,36.42303],[139.88458,36.42804],[139.90492,36.42911]],[[139.9049,36.42902],[139.8843,36.42791],[139.86887,36.42296],[139.8575,36.42484],[139.84938,36.42762],[139.83493,36.43038]],[[139.71469,36.76955],[139.71554,36.764],[139.70817,36.76137],[139.70947,36.75908],[139.70873,36.75122],[139.7054,36.74245],[139.70141,36.73892],[139.69758,36.73762],[139.69235,36.73291],[139.69045,36.73234],[139.68852,36.73286],[139.68496,36.7254],[139.68988,36.72318],[139.69311,36.71762],[139.6946,36.71677],[139.69585,36.71407],[139.69884,36.71147],[139.70079,36.70848],[139.70656,36.70447],[139.70759,36.70321],[139.70868,36.69878]],[[139.68691,36.72989],[139.68852,36.73286]],[[139.71958,37.11171],[139.71873,37.11168]],[[139.65927,37.07499],[139.65148,37.07271]],[[139.69723,36.93987],[139.69812,36.94134]],[[139.75397,36.49651],[139.75359,36.49753]]]}}]}