{"type":"FeatureCollection","features":[{"type":"Feature","properties":{"route_id":"490","route_number":490,"name":"国道490号","source":"OpenStreetMap contributors (ODbL)","osm_relations":[4452065,9878357,9879899]},"geometry":{"type":"MultiLineString","coordinates":[[[131.32632,34.17875],[131.32458,34.17725],[131.32687,34.17546],[131.32889,34.17501],[131.32929,34.16936],[131.32562,34.16547],[131.31967,34.16142],[131.31878,34.15937],[131.31614,34.15737],[131.31605,34.15493],[131.31436,34.15365],[131.31529,34.15059],[131.3218,34.14702],[131.32329,34.14424],[131.32361,34.14105],[131.32108,34.13759],[131.31977,34.13198],[131.32014,34.12965],[131.32186,34.12804],[131.32196,34.1268],[131.31761,34.11912],[131.31976,34.11491],[131.32257,34.11167],[131.32253,34.10884],[131.31554,34.10451],[131.31473,34.10157],[131.31278,34.10011],[131.3122,34.09761],[131.30873,34.09262],[131.3086,34.09077],[131.30637,34.0871],[131.30496,34.08611],[131.3036,34.08172],[131.29907,34.07801],[131.29488,34.07981],[131.2929,34.07854],[131.29394,34.07459],[131.29252,34.07298],[131.29128,34.06831],[131.29373,34.0623],[131.2936,34.05989],[131.29037,34.06007],[131.28903,34.05938],[131.28619,34.05373],[131.28199,34.04885],[131.27983,34.04343],[131.28242,34.04279],[131.28601,34.04059],[131.28682,34.03371],[131.28829,34.03143],[131.28552,34.02919],[131.28517,34.02799],[131.28873,34.02122],[131.28624,34.01198],[131.2791,33.99982],[131.27951,33.99447],[131.27857,33.99045],[131.27237,33.9753],[131.26973,33.97297],[131.25789,33.95507],[131.25146,33.94788]],[[131.37206,34.39128],[131.3731,34.391],[131.37398,34.38621],[131.37712,34.38325],[131.37696,34.38034],[131.37269,34.37619],[131.36702,34.37286],[131.36426,34.37032],[131.36387,34.36901],[131.36534,34.36681],[131.36931,34.36401],[131.36865,34.36208],[131.36968,34.35984],[131.3732,34.35875],[131.37447,34.35744],[131.37654,34.35349],[131.37616,34.3512],[131.37717,34.34862],[131.3784,34.34906],[131.38045,34.34638],[131.37935,34.34368],[131.37578,34.34175],[131.37597,34.34082],[131.37422,34.33902],[131.37359,34.33708],[131.3725,34.33688],[131.37242,34.33539],[131.37447,34.33514],[131.37449,34.33409],[131.37129,34.33156],[131.37186,34.32899],[131.37125,34.32771],[131.36754,34.327],[131.36574,34.32407],[131.36619,34.32242],[131.36423,34.3186],[131.36517,34.31576],[131.3647,34.31479],[131.36608,34.31213],[131.3644,34.31009],[131.3698,34.30798],[131.37039,34.30676],[131.36953,34.30507],[131.37043,34.30251],[131.36939,34.29961],[131.37163,34.29516],[131.3729,34.29448],[131.36784,34.28516],[131.36178,34.28408],[131.35947,34.28087],[131.35544,34.27831],[131.3504,34.27235],[131.35127,34.26994],[131.34958,34.25863],[131.34558,34.24948],[131.34468,34.24561],[131.34541,34.24328],[131.34869,34.23975],[131.34986,34.23725],[131.34897,34.22463],[131.35172,34.21766],[131.35155,34.21301],[131.34828,34.20639],[131.33926,34.19992],[131.33643,34.19201],[131.32503,34.17691]],[[131.35207,34.21666],[131.34979,34.21657],[131.34835,34.21549]],[[131.28866,34.02031],[131.28637,34.01203],[131.2848,34.00911]],[[131.32665,34.17903],[131.33636,34.19204],[131.33921,34.19995],[131.34823,34.20642],[131.35149,34.21303],[131.35167,34.21765],[131.34891,34.22461],[131.3498,34.23725],[131.34864,34.23972],[131.34537,34.24325],[131.34462,34.24561],[131.34549,34.24953],[131.34966,34.25931],[131.35112,34.26993],[131.3504,34.27235],[131.34928,34.27163]],[[131.27904,33.99235],[131.27747,33.98673],[131.27236,33.97512],[131.26984,33.97295],[131.25814,33.95516],[131.25155,33.94778]]]}}]}