{"type":"FeatureCollection","features":[{"type":"Feature","properties":{"route_id":"251","route_number":251,"name":"国道251号","source":"OpenStreetMap contributors (ODbL)","osm_relations":[8043956,9365397,10256384,10256385,10256386,10256387,10256388,13287400]},"geometry":{"type":"MultiLineString","coordinates":[[[129.94673,32.76022],[129.94181,32.76036],[129.93958,32.76117],[129.93617,32.76488],[129.93574,32.76175],[129.93128,32.759],[129.9169,32.75909],[129.90584,32.75318],[129.89582,32.75041],[129.89195,32.75203],[129.88312,32.75265],[129.87685,32.74947],[129.8741,32.74512],[129.87673,32.74949],[129.88326,32.75277],[129.89211,32.75213],[129.89587,32.75052],[129.9058,32.75326],[129.90854,32.7555],[129.91282,32.75665],[129.91689,32.7594],[129.93124,32.7591],[129.93557,32.76172],[129.93614,32.76499],[129.93964,32.76125],[129.94184,32.76045],[129.9467,32.7603],[129.94787,32.76172],[129.94821,32.76638],[129.95123,32.77283],[129.95215,32.77707],[129.95533,32.77675],[129.96058,32.77429],[129.9647,32.77444],[129.96754,32.77263],[129.97217,32.77235],[129.9738,32.77305],[129.97518,32.77045],[129.97783,32.76883],[129.97653,32.76538],[129.97533,32.76454],[129.95763,32.76526],[129.95122,32.76332],[129.9499,32.76142],[129.94673,32.76022],[129.94984,32.76147],[129.95118,32.76346],[129.95312,32.76353]],[[129.97783,32.76883],[129.9791,32.77204],[129.98219,32.77485],[129.9911,32.77455],[129.99412,32.77376],[129.9963,32.77423],[130.00132,32.78089],[130.00734,32.78219],[130.01619,32.78003],[130.02751,32.78049],[130.03535,32.78345],[130.04502,32.78533],[130.04647,32.78911],[130.04844,32.79026],[130.05264,32.78974],[130.05495,32.7907],[130.06316,32.79156],[130.06746,32.79002],[130.0735,32.79147],[130.08524,32.79941],[130.09727,32.79503],[130.10392,32.79494],[130.11175,32.79264],[130.11683,32.79551],[130.12037,32.79419],[130.12207,32.79433],[130.12491,32.79845],[130.13014,32.80103],[130.13192,32.80039],[130.13432,32.79708],[130.13694,32.79612],[130.14809,32.79808],[130.15915,32.79622],[130.16512,32.79624],[130.16693,32.7951],[130.17673,32.79624],[130.18281,32.79461],[130.18363,32.79307],[130.18982,32.78873],[130.20458,32.784],[130.21303,32.7754],[130.21439,32.77109],[130.21346,32.76838],[130.21416,32.7661],[130.21357,32.76485],[130.20947,32.76168],[130.2047,32.7614],[130.20267,32.75996],[130.20303,32.75781],[130.20422,32.75676],[130.20933,32.75719],[130.20831,32.75351],[130.21119,32.75193],[130.21048,32.74386],[130.2095,32.74099],[130.21007,32.73803],[130.20872,32.73382],[130.20678,32.73189],[130.2063,32.72664],[130.20447,32.72536],[130.2018,32.71996],[130.19952,32.71799],[130.19509,32.71627],[130.19243,32.71624],[130.18992,32.71474],[130.18875,32.71302],[130.18739,32.70764],[130.17182,32.70207],[130.16894,32.69789],[130.17129,32.69478],[130.17136,32.69226],[130.16441,32.69395],[130.16335,32.69229],[130.15833,32.68851],[130.15837,32.68534],[130.15504,32.68313],[130.15048,32.682],[130.14784,32.68019],[130.14661,32.67784],[130.14448,32.67657],[130.14315,32.6739],[130.14106,32.67363],[130.13623,32.67565],[130.13101,32.67582],[130.13062,32.67008],[130.12849,32.66411],[130.12902,32.65553],[130.12786,32.64976],[130.12933,32.6464],[130.12969,32.64147],[130.13053,32.64002],[130.13698,32.63604],[130.14523,32.63603],[130.15079,32.6329],[130.15793,32.62731],[130.16157,32.62716],[130.16691,32.6243],[130.16791,32.62216],[130.17192,32.61837],[130.17428,32.61274],[130.18125,32.60855],[130.18376,32.60858],[130.18674,32.61184],[130.18789,32.61217],[130.19303,32.61044],[130.20085,32.6096],[130.2037,32.60574],[130.20736,32.60468],[130.21119,32.60635],[130.21768,32.60554],[130.21978,32.60597],[130.22635,32.61059],[130.23063,32.61245],[130.23169,32.61687],[130.23801,32.6265],[130.24526,32.63136],[130.25112,32.63305],[130.25317,32.63481],[130.25272,32.64276],[130.25343,32.64915],[130.25703,32.65447],[130.25971,32.65487],[130.26467,32.65279],[130.27026,32.65451],[130.28119,32.6531],[130.28775,32.65382],[130.29109,32.65535],[130.29582,32.65979],[130.32214,32.66531],[130.32668,32.66496],[130.32898,32.66603],[130.33369,32.67016],[130.34482,32.6729],[130.34855,32.67871],[130.35,32.68384],[130.35286,32.68888],[130.35373,32.69553],[130.35242,32.69725],[130.34544,32.70052],[130.34383,32.70848],[130.34779,32.71426],[130.35595,32.72179],[130.3566,32.72577],[130.36269,32.73275],[130.36389,32.73639],[130.36999,32.74589],[130.37188,32.75268],[130.37225,32.75767],[130.3718,32.75941],[130.36925,32.76212],[130.37311,32.77068],[130.37335,32.78258],[130.37201,32.78701],[130.3674,32.7964],[130.35508,32.81726],[130.35359,32.82195],[130.3465,32.83389],[130.34417,32.84492],[130.34227,32.84739],[130.33763,32.85052],[130.33828,32.85422],[130.33766,32.85587],[130.33367,32.85904],[130.32739,32.85974],[130.31855,32.86732],[130.31132,32.87036],[130.30792,32.87261],[130.30557,32.87629],[130.29365,32.87816],[130.28577,32.87665],[130.28341,32.8755],[130.27042,32.87407],[130.26291,32.87149],[130.24709,32.873],[130.22492,32.85979],[130.21423,32.85595],[130.20927,32.85269],[130.20027,32.85087],[130.19601,32.84543],[130.19457,32.84203],[130.18797,32.83674],[130.17829,32.83333],[130.17383,32.83003],[130.16758,32.8296],[130.16109,32.82319],[130.15804,32.81858],[130.15665,32.8179],[130.15358,32.81769],[130.15064,32.81886],[130.14957,32.81986],[130.14721,32.82602],[130.134,32.83397],[130.11519,32.83401],[130.10547,32.83717],[130.10068,32.83794],[130.0829,32.833],[130.07602,32.83299],[130.06751,32.8342],[130.05352,32.83205],[130.0423,32.83424],[130.03288,32.84116],[130.02691,32.84093]],[[130.35554,32.72126],[130.35772,32.72145],[130.36042,32.72325],[130.36538,32.72866],[130.36922,32.73484],[130.37111,32.73906],[130.37408,32.75331],[130.37251,32.75644],[130.36485,32.76076],[130.36133,32.76413],[130.3575,32.77142],[130.35509,32.78082],[130.35324,32.78321],[130.34809,32.78726],[130.34722,32.78913]],[[130.34,32.80818],[130.34439,32.7928],[130.34992,32.78596]],[[130.09585,32.83689],[130.08943,32.83423],[130.08258,32.83286],[130.06752,32.83414],[130.05384,32.83197],[130.04226,32.83419],[130.03294,32.84099],[130.02706,32.84069]],[[130.1692,32.81876],[130.17383,32.8172],[130.17627,32.8176],[130.16469,32.81915],[130.16155,32.82091],[130.15728,32.82527],[130.14957,32.82547],[130.14479,32.82773]],[[130.1446,32.82757],[130.14508,32.82795],[130.15004,32.82544],[130.15733,32.82532],[130.16182,32.82071]]]}}]}