{"type":"FeatureCollection","features":[{"type":"Feature","properties":{"route_id":"55","route_number":55,"name":"国道55号","source":"OpenStreetMap contributors (ODbL)","osm_relations":[12583,2820820,2820821,9427146,9427147,21297182]},"geometry":{"type":"MultiLineString","coordinates":[[[133.94078,33.48213],[133.94204,33.48055],[133.93422,33.48999],[133.92502,33.49347],[133.9212,33.49675],[133.91293,33.49934],[133.91081,33.50156],[133.89645,33.50395],[133.88862,33.50193],[133.87242,33.50411],[133.86839,33.50383],[133.85774,33.50688],[133.84933,33.50742],[133.84523,33.50681],[133.83903,33.50905],[133.83709,33.51271],[133.83341,33.51611],[133.831,33.51671],[133.82447,33.51637],[133.81443,33.51858],[133.7876,33.51947],[133.78226,33.51899],[133.77638,33.51689],[133.77148,33.51677],[133.76079,33.52451],[133.75733,33.53211],[133.75479,33.53444],[133.74653,33.53758],[133.73542,33.5398],[133.72338,33.54014],[133.72065,33.54621],[133.7157,33.55159],[133.71245,33.55295],[133.70551,33.558],[133.69021,33.55806],[133.65452,33.56492],[133.64745,33.5676],[133.64237,33.56824],[133.63542,33.56693],[133.61779,33.56768],[133.61287,33.56536],[133.60778,33.56558],[133.60415,33.56479],[133.58454,33.55707],[133.57065,33.55628],[133.56591,33.5574],[133.54129,33.55962],[133.53223,33.55804]],[[134.65276,33.8879],[134.65869,33.89024],[134.67097,33.89307],[134.67417,33.89613],[134.67816,33.92318],[134.67512,33.93029],[134.67542,33.93975],[134.67443,33.94368],[134.65969,33.9626],[134.65432,33.96666],[134.62689,33.97528],[134.60359,33.97767],[134.59552,33.98195],[134.59126,33.98502],[134.58356,33.99428],[134.57094,34.00491],[134.56346,34.01362],[134.55828,34.01736],[134.5525,34.02825],[134.55203,34.03096],[134.55199,34.04969],[134.55703,34.06655],[134.55216,34.04999],[134.55214,34.03095],[134.55254,34.0284],[134.5582,34.01767],[134.56358,34.01367],[134.57106,34.00492],[134.5841,33.9939],[134.59344,33.98349],[134.60378,33.97773],[134.62654,33.97546],[134.65385,33.96701],[134.65897,33.96351],[134.67356,33.9454],[134.67548,33.94032],[134.67524,33.93029],[134.67829,33.92312],[134.67429,33.8961],[134.67105,33.89299],[134.65622,33.88931],[134.64558,33.88331],[134.64803,33.88529],[134.65276,33.8879],[134.65229,33.88043],[134.64402,33.87496],[134.64213,33.87278],[134.63861,33.87208],[134.63741,33.87329],[134.63489,33.87137],[134.63266,33.86781],[134.63128,33.86296],[134.62726,33.86001],[134.62666,33.85809],[134.6274,33.85592],[134.62592,33.84665],[134.62432,33.84307],[134.61887,33.83568],[134.61616,33.83383],[134.61088,33.83211],[134.60068,33.81876],[134.59114,33.81458],[134.59072,33.81138],[134.59145,33.8092],[134.59054,33.80691],[134.59234,33.80348],[134.59075,33.79983],[134.5852,33.79653],[134.57865,33.79529],[134.57358,33.79253],[134.56173,33.78881],[134.55978,33.78719],[134.56,33.78437],[134.55893,33.78245],[134.55553,33.78133],[134.5527,33.78163],[134.54869,33.78045],[134.54718,33.77904],[134.54594,33.78086],[134.54282,33.7795],[134.54112,33.77468],[134.53868,33.77501],[134.53723,33.77368],[134.53784,33.77195],[134.53577,33.7711],[134.53569,33.76804],[134.53293,33.76568],[134.52686,33.76444],[134.52666,33.76225],[134.52915,33.75797],[134.5281,33.75414],[134.52965,33.75233],[134.53256,33.75178],[134.53442,33.74713],[134.53411,33.74247],[134.53003,33.73829],[134.52879,33.73285],[134.53081,33.72558],[134.5303,33.72415],[134.52796,33.7228],[134.52299,33.72195],[134.51581,33.72486],[134.51112,33.72454],[134.50441,33.72265],[134.50165,33.72021],[134.49402,33.71798],[134.48668,33.71754],[134.48211,33.71505],[134.47979,33.71238],[134.47381,33.71189],[134.46826,33.70848],[134.46369,33.70747],[134.45826,33.70768],[134.44562,33.70467],[134.4428,33.70018],[134.43534,33.69884],[134.43518,33.69739],[134.43757,33.69508],[134.43648,33.69241],[134.42968,33.68996],[134.42748,33.68994],[134.42504,33.68763],[134.42088,33.68641],[134.42065,33.68376],[134.4219,33.68033],[134.42155,33.67692],[134.41856,33.67027],[134.4161,33.66863],[134.41474,33.66462],[134.40626,33.66045],[134.40193,33.66027],[134.39716,33.658],[134.3925,33.65432],[134.38601,33.64714],[134.38564,33.64466],[134.383,33.64188],[134.37853,33.63996],[134.37545,33.63646],[134.37123,33.6355],[134.36783,33.6325],[134.36504,33.63241],[134.36131,33.63031],[134.35965,33.62632],[134.35396,33.62425],[134.35336,33.62326],[134.35367,33.62111],[134.34964,33.61921],[134.3499,33.61675],[134.35288,33.61471],[134.35341,33.61274],[134.35186,33.60987],[134.35111,33.60456],[134.35292,33.59362],[134.35125,33.58756],[134.35018,33.58623],[134.34204,33.58512],[134.34019,33.58587],[134.33661,33.58574],[134.33116,33.58457],[134.3294,33.58296],[134.32689,33.58236],[134.3193,33.5824],[134.30821,33.57703],[134.30903,33.57399],[134.30752,33.56636],[134.30843,33.55956],[134.30418,33.54769],[134.29869,33.54476],[134.29224,33.54263],[134.29135,33.54139],[134.29229,33.54008],[134.29029,33.53823],[134.29071,33.53603],[134.28614,33.53162],[134.28244,33.53029],[134.2825,33.52833],[134.28136,33.52692],[134.28218,33.51955],[134.28086,33.51406],[134.2761,33.5114],[134.26959,33.50367],[134.26718,33.50035],[134.26643,33.49504],[134.26045,33.49024],[134.25883,33.48697],[134.25624,33.4856],[134.25213,33.47934],[134.24969,33.47394],[134.24481,33.46969],[134.24156,33.46378],[134.24026,33.45957],[134.2404,33.45048],[134.23443,33.44229],[134.23411,33.43768],[134.2231,33.42412],[134.21847,33.41438],[134.21475,33.40896],[134.21403,33.40583],[134.21038,33.40318],[134.20629,33.39752],[134.20666,33.39279],[134.2108,33.39162],[134.21318,33.38937],[134.21279,33.38357],[134.21027,33.37544],[134.20475,33.36959],[134.20457,33.36223],[134.20236,33.35929],[134.20124,33.35568],[134.20232,33.35345],[134.20094,33.35261],[134.19959,33.3502],[134.19805,33.34387],[134.19741,33.32894],[134.19526,33.32189],[134.19273,33.31983],[134.19342,33.31794],[134.19204,33.31281],[134.19188,33.30823],[134.18744,33.30097],[134.18761,33.29779],[134.18604,33.29431],[134.18536,33.28856],[134.186,33.28456],[134.18314,33.2715],[134.18356,33.26352],[134.18111,33.25749],[134.18149,33.25295],[134.17735,33.24584],[134.1743,33.24579],[134.16689,33.26241],[134.15747,33.27625],[134.15502,33.27829],[134.1537,33.28307],[134.15045,33.28549],[134.15115,33.28815],[134.15056,33.29092],[134.14704,33.29051],[134.14492,33.29313],[134.13987,33.29625],[134.12802,33.29982],[134.12011,33.29926],[134.1176,33.29626],[134.11514,33.29499],[134.11071,33.29579],[134.10873,33.29864],[134.11036,33.30605],[134.10953,33.31122],[134.10777,33.31453],[134.10608,33.32306],[134.10422,33.32663],[134.09969,33.33041],[134.09287,33.33404],[134.08636,33.3359],[134.08012,33.33903],[134.07601,33.34406],[134.07412,33.34851],[134.07062,33.35259],[134.0674,33.35812],[134.06273,33.36256],[134.06086,33.36587],[134.05676,33.36913],[134.04982,33.37198],[134.04377,33.37283],[134.04144,33.37276],[134.03917,33.37113],[134.03803,33.37158],[134.0376,33.37475],[134.03518,33.37643],[134.03446,33.37808],[134.03732,33.38326],[134.03633,33.38729],[134.03846,33.39315],[134.03651,33.39728],[134.03693,33.40026],[134.0341,33.40382],[134.03117,33.41402],[134.02785,33.41699],[134.02353,33.42412],[134.0128,33.42918],[134.00507,33.43004],[134.00033,33.42791],[133.98945,33.43034],[133.98678,33.43169],[133.98262,33.43578],[133.97697,33.43726],[133.97279,33.43988],[133.96257,33.44325],[133.95933,33.44782],[133.95219,33.45087],[133.9492,33.45301],[133.94508,33.4599],[133.94633,33.47035],[133.9441,33.47728],[133.94204,33.48055]],[[134.58604,33.77851],[134.58279,33.77521],[134.57566,33.77142],[134.58418,33.77648],[134.59005,33.78519],[134.59198,33.79028],[134.59253,33.79731],[134.59382,33.80078],[134.59211,33.80257]],[[134.57566,33.77142],[134.56762,33.76801],[134.56019,33.75796],[134.54061,33.74829],[134.5342,33.74283]],[[133.53221,33.55819],[133.54143,33.55975],[133.56665,33.55755],[133.57065,33.55636],[133.58454,33.55715],[133.60413,33.56486],[133.60772,33.56565],[133.61284,33.56544],[133.61776,33.56777],[133.63542,33.56703],[133.64312,33.5683],[133.64747,33.56769],[133.65454,33.565],[133.69026,33.55813],[133.7058,33.55803],[133.7127,33.55289],[133.71554,33.55185],[133.71996,33.54698]],[[134.59253,33.79731],[134.59318,33.8019]],[[134.64558,33.88331],[134.63128,33.87178],[134.63062,33.86907],[134.63194,33.86404]],[[134.17233,33.24975],[134.17192,33.25047]],[[134.02614,33.43187],[134.01925,33.42993],[134.00888,33.43219],[134.00243,33.43454],[133.99184,33.44314],[133.98897,33.44457],[133.96576,33.44911],[133.95861,33.44982],[133.95651,33.45073],[133.9511,33.45503],[133.94561,33.46422],[133.94535,33.46751],[133.94702,33.47367],[133.94517,33.47984],[133.93689,33.49044],[133.93293,33.49355],[133.92991,33.4946]]]}}]}