{"type":"FeatureCollection","features":[{"type":"Feature","properties":{"route_id":"166","route_number":166,"name":"国道166号","source":"OpenStreetMap contributors (ODbL)","osm_relations":[8798843,9157588,9157589]},"geometry":{"type":"MultiLineString","coordinates":[[[135.60738,34.55317],[135.61271,34.55248],[135.61453,34.55134],[135.61487,34.55219],[135.6173,34.55135],[135.61703,34.54977],[135.625,34.54503],[135.62619,34.54386],[135.62632,34.54219],[135.63156,34.53726],[135.63411,34.53519],[135.63925,34.53277],[135.64147,34.5296],[135.64217,34.52623],[135.6458,34.52484],[135.64819,34.52012],[135.65,34.51872],[135.65021,34.51728],[135.65475,34.51553],[135.65823,34.5161],[135.66146,34.51845],[135.67008,34.51856],[135.68361,34.51323],[135.69123,34.50863],[135.69326,34.50819],[135.69481,34.50836],[135.69473,34.50956],[135.69564,34.50895],[135.70341,34.51046],[135.74947,34.51058],[135.74947,34.50941],[135.77155,34.50702],[135.7834,34.50495],[135.78814,34.50313]],[[135.80135,34.50879],[135.80089,34.50075],[135.78946,34.50258],[135.80105,34.50069],[135.80135,34.50879],[135.81394,34.50886],[135.81983,34.50716],[135.84649,34.50954],[135.84865,34.51092],[135.8532,34.51142],[135.85662,34.51042],[135.86336,34.51286],[135.8712,34.50865],[135.87261,34.50527],[135.87726,34.50201],[135.88724,34.50173],[135.89001,34.50273],[135.89437,34.50251],[135.90816,34.50632],[135.9101,34.50569],[135.91452,34.50179],[135.91735,34.50154],[135.9277,34.49821],[135.93099,34.49898],[135.92761,34.48144],[135.93265,34.47622],[135.94765,34.4782],[135.95378,34.47632],[135.96125,34.47706],[135.96899,34.47438],[135.97131,34.47254],[135.97503,34.47339],[135.98204,34.4691],[135.98191,34.46179],[135.98433,34.45785],[135.98104,34.44896],[135.98224,34.44153],[135.98059,34.43945],[135.98199,34.43767],[135.98137,34.43303],[135.98513,34.42574],[135.98763,34.42372],[135.99884,34.42285],[136.0024,34.42416],[136.0042,34.4235],[136.0251,34.42263],[136.02814,34.42314],[136.03309,34.42215],[136.0418,34.42372],[136.04551,34.42295],[136.05204,34.423],[136.06316,34.41824],[136.06398,34.41572],[136.06237,34.41455],[136.06268,34.41287],[136.0641,34.41461],[136.06613,34.4151],[136.0659,34.41616],[136.06717,34.41741],[136.06957,34.41733],[136.07372,34.41428],[136.07489,34.41586],[136.07771,34.4162],[136.10458,34.41488],[136.10808,34.41356],[136.10801,34.41165],[136.10933,34.4106],[136.10851,34.41187],[136.10987,34.41282],[136.10869,34.41494],[136.10876,34.41397],[136.11057,34.41281],[136.11127,34.41049],[136.1142,34.41],[136.1168,34.41065],[136.12146,34.40959],[136.123,34.41012],[136.12505,34.40901],[136.12798,34.41061],[136.12966,34.41366],[136.13262,34.41622],[136.13715,34.41838],[136.13915,34.42116],[136.14382,34.42336],[136.1472,34.42258],[136.15169,34.42329],[136.15464,34.42161],[136.15849,34.42276],[136.15934,34.42218],[136.15969,34.42032],[136.16611,34.4174],[136.1707,34.41833],[136.17845,34.41561],[136.18271,34.41302],[136.1835,34.4112],[136.18598,34.4098],[136.19004,34.41027],[136.19376,34.40824],[136.19453,34.40601],[136.19927,34.40211],[136.19959,34.3978],[136.20534,34.39604],[136.20568,34.39014],[136.20882,34.38871],[136.21544,34.39188],[136.21853,34.39454],[136.219,34.39676],[136.21721,34.39946],[136.21718,34.4009],[136.22289,34.40555],[136.22329,34.40964],[136.22858,34.4113],[136.23237,34.41101]],[[136.22329,34.40964],[136.22433,34.41069],[136.22846,34.41159],[136.23565,34.41128],[136.23673,34.4133],[136.23614,34.41665],[136.23684,34.4184],[136.24545,34.4233],[136.24891,34.42253],[136.25103,34.42009],[136.25377,34.41967],[136.26118,34.42331],[136.26465,34.42058],[136.27094,34.41802],[136.27316,34.41884],[136.2775,34.42233],[136.28193,34.42062],[136.28952,34.42041],[136.29561,34.42299],[136.30393,34.43043],[136.30662,34.43147],[136.31259,34.43191],[136.31477,34.43398],[136.3176,34.43469],[136.31872,34.4332],[136.31573,34.4296],[136.31624,34.42842],[136.3261,34.42673],[136.32988,34.42702],[136.33653,34.431],[136.34053,34.43629],[136.34446,34.43708],[136.35486,34.4412],[136.36517,34.44018],[136.36739,34.44337],[136.37158,34.44526],[136.3771,34.44652],[136.38414,34.45094],[136.39433,34.4526],[136.39599,34.45578],[136.39846,34.45706],[136.39772,34.46083],[136.39504,34.46254],[136.39402,34.46549],[136.39643,34.46938],[136.39873,34.47112],[136.41767,34.4772],[136.42535,34.47888],[136.42948,34.48391],[136.43372,34.48356],[136.43853,34.48186],[136.45012,34.48488],[136.45191,34.48747],[136.44974,34.49132],[136.4505,34.49325],[136.45044,34.50089],[136.45254,34.50586],[136.45412,34.50742],[136.4543,34.51146],[136.45531,34.51327],[136.45748,34.51468],[136.46164,34.51387],[136.46729,34.51758],[136.47226,34.51903],[136.47564,34.5219],[136.47651,34.52315],[136.47641,34.52908],[136.47712,34.53137],[136.48484,34.53605],[136.48752,34.53929],[136.48874,34.54453],[136.50389,34.5509],[136.50992,34.55606],[136.5214,34.56317],[136.52749,34.56317],[136.53037,34.56425],[136.53447,34.57015],[136.54218,34.57632],[136.54096,34.57797],[136.52601,34.58908],[136.52005,34.59667],[136.51616,34.6149]],[[135.78861,34.50294],[135.78947,34.50283]],[[136.51627,34.61489],[136.51644,34.61394]],[[135.79277,34.50191],[135.78866,34.50278]]]}}]}