{"type":"FeatureCollection","features":[{"type":"Feature","properties":{"route_id":"227","route_number":227,"name":"国道227号","source":"OpenStreetMap contributors (ODbL)","osm_relations":[33010]},"geometry":{"type":"MultiLineString","coordinates":[[[140.64163,41.89674],[140.63734,41.89692],[140.64169,41.89689],[140.65492,41.8793],[140.65607,41.87654],[140.65709,41.86974],[140.70836,41.82149],[140.65685,41.86982],[140.65515,41.87863],[140.64163,41.89674]],[[140.70836,41.82149],[140.70313,41.81658],[140.71722,41.80861],[140.72306,41.80296],[140.72806,41.79549],[140.73014,41.79011],[140.73189,41.78947]],[[140.54108,41.94563],[140.54346,41.94241],[140.54075,41.94589],[140.53015,41.95122],[140.52154,41.95328],[140.51514,41.95281],[140.50152,41.95533],[140.49467,41.95205],[140.49018,41.94693],[140.48788,41.94589],[140.4856,41.94586],[140.47974,41.94858],[140.47528,41.94775],[140.47188,41.94583],[140.46808,41.94647],[140.46465,41.94516],[140.4585,41.94719],[140.45532,41.95137],[140.45174,41.95429],[140.43701,41.95815],[140.42238,41.95224],[140.40486,41.95232],[140.3998,41.95166],[140.39462,41.9525],[140.38867,41.95222],[140.38254,41.9488],[140.38304,41.94463],[140.38016,41.93946],[140.37013,41.93555],[140.35729,41.93285],[140.33032,41.93202],[140.31506,41.93679],[140.30932,41.93578],[140.30324,41.93332],[140.28832,41.9236],[140.27508,41.91904],[140.27156,41.9141],[140.26864,41.9125],[140.25961,41.91702],[140.25407,41.91611],[140.25072,41.91263],[140.24178,41.91211],[140.24036,41.91275],[140.23898,41.91595],[140.2368,41.91698],[140.23337,41.91634],[140.23086,41.91426],[140.22949,41.91403],[140.22288,41.91716],[140.21552,41.91713],[140.18572,41.92254],[140.17564,41.92529],[140.17353,41.92496],[140.16865,41.92236],[140.15771,41.92325],[140.15421,41.92227],[140.15775,41.92319],[140.16414,41.92252]],[[140.4428,41.95643],[140.43776,41.95797],[140.43524,41.95767]],[[140.15421,41.92227],[140.14258,41.91416],[140.13778,41.9079],[140.13721,41.90556],[140.13923,41.90033],[140.13995,41.89243],[140.13649,41.8905],[140.13422,41.88786],[140.13413,41.88325],[140.13198,41.87736],[140.1342,41.88312],[140.13409,41.88735],[140.13568,41.88963]],[[140.13198,41.87736],[140.13132,41.87213],[140.12841,41.86937]],[[140.63734,41.89692],[140.62773,41.89768],[140.61766,41.89985],[140.60917,41.9067],[140.59707,41.91362],[140.59311,41.91745],[140.58105,41.92203],[140.57335,41.92621],[140.56902,41.92995],[140.56654,41.93417],[140.56218,41.93584],[140.55968,41.93817],[140.54878,41.94384],[140.54346,41.94241]]]}}]}