{"type":"FeatureCollection","features":[{"type":"Feature","properties":{"route_id":"412","route_number":412,"name":"国道412号","source":"OpenStreetMap contributors (ODbL)","osm_relations":[2162634]},"geometry":{"type":"MultiLineString","coordinates":[[[139.35898,35.33224],[139.35627,35.34118],[139.35636,35.35258],[139.35844,35.35896],[139.36142,35.36431],[139.36151,35.40824],[139.36301,35.41437],[139.35664,35.42928],[139.35843,35.44969],[139.35576,35.45061],[139.35326,35.45286],[139.34837,35.46258],[139.33866,35.47207],[139.32959,35.48449],[139.32212,35.49135],[139.31816,35.49398],[139.32258,35.49108],[139.32959,35.48461],[139.33904,35.47178],[139.34844,35.46261],[139.35314,35.45316],[139.35582,35.45066],[139.35857,35.44972],[139.35676,35.42918],[139.36311,35.41434],[139.36169,35.40961],[139.36154,35.36465],[139.35854,35.35896],[139.35645,35.35281],[139.35635,35.3412],[139.35908,35.33222]],[[139.31816,35.49398],[139.31577,35.49618],[139.30825,35.5069],[139.29434,35.51819],[139.29195,35.51907],[139.29077,35.51868],[139.29248,35.5206],[139.2918,35.52282],[139.28431,35.52334],[139.2816,35.52467],[139.28048,35.52887],[139.28225,35.53328],[139.28044,35.53352],[139.27629,35.53123],[139.26738,35.54094],[139.26224,35.54097],[139.2621,35.5463],[139.2636,35.54869],[139.26401,35.55121],[139.26104,35.55685],[139.26445,35.56047],[139.26501,35.56454],[139.25452,35.56621],[139.24555,35.56618],[139.2392,35.57063],[139.23607,35.57168],[139.23436,35.57689],[139.2299,35.58341],[139.23238,35.58853],[139.22651,35.5917],[139.22503,35.59689],[139.22546,35.59877],[139.22431,35.60016],[139.21856,35.60118],[139.21626,35.60012],[139.2113,35.5997],[139.2089,35.60047],[139.20286,35.59966],[139.19792,35.60157],[139.19579,35.60493],[139.19412,35.60565],[139.1921,35.6091],[139.19259,35.61027],[139.19537,35.61118],[139.19591,35.61354],[139.1943,35.61425],[139.19309,35.61262],[139.18937,35.6134],[139.18747,35.61532],[139.18915,35.61614],[139.18212,35.61847],[139.18077,35.62085],[139.17989,35.62001],[139.17875,35.62059],[139.17772,35.61998],[139.17488,35.6218],[139.17302,35.62037],[139.17157,35.6212],[139.17108,35.62039],[139.17167,35.6194],[139.16975,35.6171],[139.17029,35.61565]]]}}]}