{"type":"FeatureCollection","features":[{"type":"Feature","properties":{"route_id":"13","route_number":13,"name":"国道13号","source":"OpenStreetMap contributors (ODbL)","osm_relations":[2098597,2098858,2098860,2098863,2098865,2098866,8910145,8910146,8910147,8910149,8910150,8910151,8910152,8910153,8910154,8910155,8910157,9393091,18400959]},"geometry":{"type":"MultiLineString","coordinates":[[[140.4613,37.79017],[140.46542,37.77764],[140.46399,37.75292],[140.47179,37.75252],[140.46389,37.75292],[140.46527,37.77696],[140.46395,37.7825],[140.45982,37.79343],[140.4537,37.80234],[140.44342,37.81199],[140.45301,37.80344],[140.4594,37.7943],[140.4613,37.79017],[140.4524,37.78045],[140.4428,37.77438],[140.43648,37.76626],[140.43515,37.75987],[140.43599,37.75022],[140.44041,37.73862],[140.44294,37.7294]],[[140.39136,38.60857],[140.4,38.59332],[140.40013,38.5827],[140.40309,38.57748],[140.40399,38.57424],[140.40331,38.56779],[140.40394,38.56375],[140.40295,38.55785],[140.39663,38.55167],[140.3959,38.54436],[140.39289,38.5333],[140.39306,38.53033],[140.39557,38.52488],[140.39502,38.51712],[140.39017,38.5013],[140.38446,38.49462],[140.38317,38.49196],[140.38212,38.45214],[140.37617,38.4251],[140.37337,38.40428],[140.37457,38.39957],[140.38098,38.38883],[140.38307,38.37329],[140.38807,38.36144],[140.38842,38.3561],[140.38511,38.35023],[140.37611,38.34413],[140.37313,38.34106],[140.36891,38.33147],[140.3627,38.32083],[140.36232,38.31662],[140.36341,38.30719],[140.36041,38.29627],[140.36122,38.28507],[140.36007,38.27625],[140.36204,38.2646],[140.36061,38.26082],[140.35465,38.25419],[140.35655,38.24845],[140.35589,38.24534],[140.35002,38.2349],[140.33901,38.22911],[140.33162,38.2211],[140.31616,38.20779],[140.31489,38.20477],[140.31403,38.19652],[140.30993,38.18747],[140.30978,38.18021],[140.30477,38.17395],[140.30675,38.16903],[140.30664,38.16709],[140.29061,38.15016],[140.28634,38.13975],[140.28277,38.13655],[140.28643,38.13969],[140.29074,38.15013],[140.30655,38.16663],[140.30693,38.16881],[140.30489,38.17389],[140.30989,38.1802],[140.31013,38.1878],[140.31414,38.19654],[140.31501,38.20476],[140.31623,38.20761],[140.32314,38.21432],[140.33239,38.22168],[140.33922,38.22915],[140.3501,38.23485],[140.35492,38.24314],[140.35668,38.24751],[140.35478,38.25418],[140.36071,38.26074],[140.36212,38.26428],[140.36014,38.27515],[140.36133,38.28442],[140.36054,38.2963],[140.36352,38.30726],[140.36241,38.31698],[140.36293,38.32125],[140.36903,38.33146],[140.37345,38.34129],[140.37666,38.3444],[140.3848,38.34982],[140.38838,38.35543],[140.38857,38.36022],[140.38302,38.3741],[140.38136,38.38797],[140.38007,38.39132],[140.37414,38.40072],[140.37352,38.40543],[140.37638,38.42557],[140.38203,38.45028],[140.38328,38.49182],[140.38457,38.4946],[140.39056,38.50188],[140.39514,38.51714],[140.39567,38.52537],[140.39321,38.53029],[140.39301,38.53325],[140.39587,38.54343],[140.39675,38.55161],[140.40289,38.55752],[140.40407,38.56375],[140.40342,38.56762],[140.40411,38.57425],[140.40333,38.57731],[140.4002,38.58304],[140.40057,38.59071],[140.39987,38.59409],[140.38731,38.61515],[140.3756,38.62965],[140.37155,38.63356],[140.36138,38.65767],[140.35841,38.65918],[140.3512,38.65858],[140.34584,38.66178],[140.33635,38.66548],[140.32851,38.67197],[140.32579,38.67588],[140.32216,38.67792],[140.32075,38.67974],[140.32189,38.68507],[140.31904,38.68938],[140.31992,38.69609],[140.31881,38.7059],[140.3154,38.70892],[140.31438,38.71258],[140.31651,38.72125],[140.31649,38.72387],[140.31544,38.72716],[140.31106,38.73194],[140.30963,38.73466],[140.30974,38.74428],[140.31082,38.75103],[140.31037,38.77451],[140.31111,38.77715],[140.31818,38.78991],[140.31872,38.79705],[140.32633,38.81989],[140.33102,38.84387],[140.33053,38.84579],[140.32751,38.85],[140.32392,38.85192],[140.32325,38.85357],[140.32438,38.85473],[140.33012,38.85539],[140.33157,38.85649],[140.33076,38.86205],[140.33684,38.88262],[140.3312,38.88883],[140.32665,38.88908],[140.32362,38.89089],[140.3237,38.89259],[140.32766,38.89805],[140.32725,38.90429],[140.32368,38.90769],[140.3231,38.9099],[140.32533,38.91595],[140.32916,38.91995],[140.33069,38.92039],[140.33473,38.91879],[140.33335,38.92007],[140.33399,38.92274],[140.3398,38.92321],[140.34461,38.92736],[140.34698,38.93215],[140.34889,38.93416],[140.35008,38.93758],[140.35325,38.94031],[140.35289,38.94362],[140.35545,38.94899],[140.35888,38.95361],[140.35793,38.9565],[140.35853,38.95856],[140.35269,38.96575],[140.35386,38.96956],[140.35351,38.97209],[140.35512,38.97244],[140.35554,38.97359],[140.35765,38.97383],[140.35765,38.97575],[140.36203,38.98071],[140.36307,38.98524],[140.36246,38.98842],[140.36362,38.99223],[140.36315,38.9952],[140.3641,38.99937],[140.36902,39.00321],[140.37109,39.0058],[140.37189,39.00819],[140.37223,39.0153],[140.37644,39.02195],[140.37926,39.02402],[140.38439,39.03193],[140.39238,39.03882],[140.39398,39.04268],[140.4036,39.0515],[140.42118,39.04716],[140.42796,39.05172],[140.43698,39.05363],[140.44,39.05361],[140.44544,39.0514],[140.44908,39.05181],[140.45241,39.05375],[140.45803,39.06028],[140.45979,39.06035]],[[140.4427,37.72941],[140.43568,37.7514],[140.43503,37.75988],[140.43636,37.76628],[140.44283,37.77456],[140.45229,37.78049],[140.46126,37.79029]],[[140.44342,37.81199],[140.42739,37.82528],[140.4193,37.82682],[140.40986,37.82694],[140.40373,37.82984],[140.39786,37.82953],[140.38949,37.8327],[140.38736,37.83473],[140.37294,37.83919],[140.367,37.83992],[140.36312,37.84158],[140.35045,37.84117],[140.34653,37.84021],[140.3425,37.84084],[140.33683,37.8384],[140.33162,37.83931],[140.32702,37.8413],[140.31502,37.84024],[140.30809,37.84195],[140.30578,37.84053],[140.30244,37.83995],[140.27858,37.82279],[140.27675,37.82027],[140.27415,37.81991],[140.26854,37.82389],[140.26684,37.82786],[140.24309,37.84635],[140.24251,37.84737],[140.24297,37.84999],[140.23954,37.85294],[140.23773,37.85723],[140.23515,37.85839],[140.23444,37.86075],[140.23222,37.86211],[140.23085,37.86435],[140.23079,37.86691],[140.22885,37.86927],[140.22432,37.8706],[140.21445,37.87078],[140.20821,37.87173],[140.20473,37.87493],[140.19913,37.87682],[140.1963,37.87921],[140.1958,37.88183],[140.19418,37.88287],[140.19008,37.88372],[140.16258,37.89487],[140.14301,37.89885],[140.14055,37.89993],[140.13903,37.90183],[140.1324,37.91682],[140.12815,37.9236],[140.12333,37.94065],[140.12063,37.94325],[140.12925,37.9668],[140.13926,37.98452],[140.14431,37.99109],[140.14528,37.9951],[140.14527,38.00095],[140.151,38.01786],[140.15337,38.02197],[140.15393,38.02548],[140.15736,38.0323],[140.1607,38.03026],[140.15708,38.03175]],[[140.49124,39.46359],[140.48568,39.47033],[140.48146,39.47317],[140.45814,39.479],[140.45676,39.4804],[140.45221,39.48947],[140.45833,39.479],[140.47936,39.47411],[140.48612,39.47004],[140.49797,39.45533],[140.50833,39.43598],[140.49907,39.45338],[140.49124,39.46359]],[[140.1607,38.03026],[140.16549,38.02852],[140.16859,38.02645],[140.17002,38.02825],[140.17528,38.04474],[140.17531,38.04699],[140.17331,38.05269],[140.17425,38.05803],[140.17681,38.06192],[140.17715,38.06541],[140.184,38.07114],[140.18315,38.07643],[140.1902,38.08993],[140.2042,38.10002],[140.20986,38.10631],[140.21121,38.10989],[140.21107,38.11961],[140.21365,38.12377],[140.21998,38.12866],[140.22299,38.12992],[140.22843,38.13063],[140.24655,38.13057],[140.25285,38.12814],[140.25619,38.1278],[140.28277,38.13655]],[[140.38844,38.60853],[140.38732,38.60586],[140.38553,38.60794],[140.38688,38.60577],[140.38887,38.60503],[140.38849,38.60414],[140.3879,38.60475],[140.38839,38.61052],[140.38735,38.61421],[140.37368,38.63062],[140.37255,38.63449],[140.37333,38.64172],[140.37277,38.64582],[140.37023,38.65109],[140.36487,38.6577],[140.35959,38.66223],[140.35394,38.66502],[140.34964,38.66611],[140.33898,38.66693],[140.33467,38.66821],[140.32271,38.67573],[140.31955,38.67856],[140.31215,38.69178],[140.30885,38.70582],[140.30886,38.71924],[140.30706,38.7265],[140.28614,38.75591],[140.28218,38.76276],[140.28204,38.76673],[140.28345,38.77028],[140.29599,38.78378],[140.29777,38.78673],[140.29743,38.79524],[140.30077,38.80419],[140.30174,38.80932],[140.30386,38.81339],[140.30296,38.81951],[140.30379,38.82238],[140.30567,38.82441],[140.30838,38.82574],[140.3166,38.82626],[140.32099,38.82739],[140.32455,38.82967],[140.32665,38.83234]],[[140.46606,39.06476],[140.47301,39.07417],[140.48106,39.08274],[140.48392,39.08967],[140.48468,39.10014],[140.48788,39.12202],[140.48724,39.12655],[140.4837,39.13396],[140.48269,39.13835],[140.48355,39.15135],[140.48124,39.16476],[140.48373,39.18377],[140.48713,39.18916],[140.50526,39.20435],[140.51268,39.213],[140.51484,39.2174],[140.51595,39.22487],[140.51795,39.22997],[140.52762,39.24607],[140.53242,39.25698],[140.5415,39.27159],[140.54431,39.27922],[140.55013,39.28576],[140.55225,39.28928],[140.55761,39.30561],[140.55442,39.32243],[140.55471,39.32643],[140.56048,39.33605],[140.55949,39.34219],[140.56162,39.34738],[140.56272,39.3529],[140.56235,39.35628],[140.56933,39.37245],[140.56755,39.38524],[140.56824,39.39171],[140.56233,39.40105],[140.55236,39.41399],[140.54986,39.41534],[140.54393,39.41636],[140.53595,39.42126],[140.523,39.42171],[140.51877,39.42283],[140.51622,39.42457],[140.51206,39.42958],[140.50833,39.43598]],[[140.45221,39.48947],[140.44899,39.4948],[140.44567,39.49676],[140.41721,39.50036],[140.38187,39.51096],[140.37949,39.51339],[140.37791,39.51664],[140.37737,39.52749],[140.37801,39.52939],[140.38384,39.53554],[140.38524,39.53862],[140.38526,39.54282],[140.38373,39.54902],[140.38243,39.55119],[140.37984,39.55281],[140.37203,39.55511],[140.36224,39.55512],[140.34542,39.56367],[140.3373,39.56459],[140.32909,39.5677],[140.32294,39.56835],[140.3227,39.57067],[140.32566,39.57537],[140.32567,39.58552],[140.32909,39.59055],[140.32858,39.59288],[140.32573,39.59626],[140.32933,39.60519],[140.32591,39.61165],[140.32547,39.61554],[140.32198,39.62125],[140.31836,39.625],[140.31267,39.62684],[140.30803,39.63139],[140.30782,39.63413],[140.30576,39.6358],[140.30113,39.63769],[140.29645,39.63789],[140.29482,39.64185],[140.2894,39.64477],[140.28442,39.64628],[140.28149,39.64861],[140.27635,39.64898],[140.2702,39.65125],[140.26711,39.65148],[140.25914,39.65488],[140.25617,39.65487],[140.25173,39.65277],[140.24526,39.6553],[140.24045,39.65595],[140.22862,39.65224],[140.2175,39.65453],[140.20846,39.65461],[140.1863,39.66267],[140.17708,39.66376],[140.16975,39.66564],[140.14883,39.67659],[140.13835,39.67677],[140.13189,39.67558],[140.12931,39.67603],[140.12636,39.67862],[140.12575,39.68372],[140.12382,39.68904],[140.11855,39.69701],[140.09441,39.70787],[140.08817,39.71334],[140.08738,39.71863]],[[140.32533,38.91595],[140.32559,38.918],[140.32866,38.92104],[140.33249,38.92301],[140.33949,38.92494],[140.34378,38.92811],[140.34906,38.93742],[140.35247,38.9417],[140.35571,38.94822],[140.36053,38.95482],[140.36222,38.95964],[140.36461,38.97906],[140.36426,38.98047],[140.3621,38.98206]],[[140.45803,39.06028],[140.46103,39.06448],[140.46128,39.07669],[140.47136,39.08447],[140.47496,39.08895],[140.47779,39.09106],[140.47765,39.09399],[140.47938,39.10238],[140.47944,39.11493],[140.48081,39.11855],[140.48257,39.12961],[140.48157,39.13681],[140.48279,39.13886],[140.48899,39.14267],[140.49128,39.1456],[140.49153,39.14881],[140.48954,39.15308],[140.48896,39.16411],[140.49306,39.17774],[140.50062,39.18761],[140.50589,39.20063],[140.50567,39.20402],[140.513,39.21266],[140.51765,39.22324],[140.52551,39.23276],[140.53127,39.2381],[140.53255,39.24557],[140.54011,39.25559],[140.5419,39.25962],[140.54574,39.26222],[140.55345,39.27294],[140.55629,39.27546],[140.55831,39.27961],[140.5642,39.29879],[140.55683,39.30226],[140.55146,39.28743],[140.54471,39.27966],[140.53996,39.26903]],[[140.48542,39.13063],[140.48748,39.12598],[140.48793,39.12088],[140.48475,39.10011],[140.48399,39.08965],[140.48295,39.08609]],[[140.1388,39.6768],[140.14909,39.67664],[140.16992,39.66576],[140.17739,39.66384],[140.18653,39.66273],[140.20781,39.65482],[140.21761,39.65463],[140.22878,39.65237],[140.23984,39.65588]],[[140.10544,39.70315],[140.09532,39.70723],[140.08979,39.71122],[140.08748,39.71448],[140.08721,39.71861]],[[140.52122,39.22719],[140.5189,39.22476]],[[140.51595,39.22487],[140.51742,39.22924],[140.52757,39.24608],[140.53182,39.25597],[140.53535,39.2617]],[[140.24379,38.13041],[140.22806,38.13052],[140.22235,38.12969],[140.21956,38.12826]],[[140.16481,37.89412],[140.14155,37.89925],[140.13926,37.90123],[140.13524,37.90973]],[[140.39036,39.03738],[140.39255,39.03732],[140.40683,39.04569],[140.41198,39.04643],[140.42124,39.04584],[140.42805,39.04928]],[[140.48143,39.16754],[140.48391,39.18427]],[[140.33066,38.67093],[140.33773,38.66729],[140.34964,38.66611]],[[140.30891,38.71701],[140.30878,38.70731],[140.31081,38.69746]],[[140.55476,39.32653],[140.55463,39.32184],[140.55772,39.30669],[140.55671,39.30232]]]}}]}