{"type":"FeatureCollection","features":[{"type":"Feature","properties":{"route_id":"265","route_number":265,"name":"国道265号","source":"OpenStreetMap contributors (ODbL)","osm_relations":[9621534,10300315,10300316]},"geometry":{"type":"MultiLineString","coordinates":[[[131.1106,32.93829],[131.10029,32.93805],[131.09242,32.93646],[131.08615,32.93799],[131.0838,32.93734]],[[131.17765,32.47668],[131.17502,32.47795],[131.17276,32.47804],[131.17095,32.47684],[131.17026,32.47512],[131.17765,32.47668],[131.18218,32.47334],[131.18561,32.47432],[131.18999,32.47246],[131.19162,32.47475],[131.19123,32.47705],[131.18716,32.48232],[131.18824,32.4844],[131.18903,32.48877],[131.18855,32.49052],[131.18947,32.49206],[131.18807,32.49391],[131.18757,32.49704],[131.18854,32.50071],[131.1852,32.50393],[131.18511,32.50554],[131.18707,32.50978],[131.18723,32.51301],[131.18634,32.51503],[131.18699,32.51632],[131.18388,32.51779],[131.1823,32.51706],[131.18032,32.51882],[131.17982,32.51999],[131.18072,32.52128],[131.17875,32.52298],[131.17913,32.52399],[131.17734,32.52591],[131.17748,32.52762],[131.17279,32.53369],[131.17235,32.53817],[131.1693,32.54004],[131.16837,32.54167],[131.16856,32.54503],[131.16784,32.54692],[131.16987,32.55223],[131.16928,32.55393],[131.17281,32.55722],[131.17368,32.56413],[131.16448,32.57917],[131.15633,32.58721],[131.15517,32.59491],[131.15396,32.59806],[131.15396,32.60432],[131.15655,32.60643],[131.15644,32.60739],[131.15927,32.61039],[131.16183,32.61484],[131.16129,32.61614],[131.16214,32.61799],[131.16128,32.62067],[131.15961,32.62203],[131.15759,32.62858],[131.15513,32.63188],[131.15395,32.63704],[131.15945,32.64615],[131.16122,32.64782],[131.16064,32.64919],[131.15858,32.64991],[131.15816,32.65082],[131.16454,32.65499],[131.16422,32.65704],[131.16504,32.65938],[131.16413,32.66472],[131.1629,32.66672],[131.15931,32.66622],[131.15813,32.66808],[131.15796,32.67116],[131.1596,32.6752],[131.1584,32.67776],[131.15589,32.67946],[131.15534,32.68272],[131.14987,32.6847],[131.14693,32.68454],[131.14279,32.68671],[131.1396,32.69089],[131.13789,32.69144],[131.13694,32.69334],[131.13527,32.69388],[131.13508,32.69509],[131.13717,32.69955],[131.13786,32.70369],[131.13707,32.70635],[131.13732,32.70882],[131.14204,32.71155],[131.14716,32.71226],[131.14873,32.71367],[131.14922,32.71581],[131.15452,32.71761],[131.15753,32.71763],[131.15965,32.71897],[131.16156,32.7227],[131.16631,32.72571],[131.17142,32.73095],[131.17315,32.74002],[131.17629,32.74191],[131.1791,32.74824],[131.17619,32.7563],[131.1733,32.76087],[131.17001,32.76405],[131.16692,32.76867],[131.16405,32.77021],[131.16109,32.77543],[131.15549,32.77871],[131.15522,32.78231],[131.15253,32.7863],[131.15136,32.78959],[131.15115,32.79509],[131.14844,32.797],[131.14845,32.80098],[131.14218,32.80386],[131.13925,32.80664],[131.13922,32.81035],[131.1407,32.81139],[131.13979,32.81371],[131.14094,32.81511],[131.14029,32.81644],[131.13818,32.81679],[131.13919,32.8147],[131.13661,32.81425],[131.13648,32.81151],[131.13532,32.81176],[131.13425,32.81331],[131.13485,32.815],[131.13379,32.82132],[131.13528,32.82439],[131.13224,32.82721],[131.13528,32.83628],[131.13534,32.83883],[131.13837,32.84105],[131.14663,32.84492],[131.15349,32.85368],[131.16147,32.85782],[131.16227,32.85958],[131.16648,32.86299],[131.16786,32.86537],[131.16657,32.86861],[131.16833,32.8693],[131.17129,32.87477],[131.16993,32.87613],[131.16681,32.87669],[131.16601,32.87846],[131.16863,32.87777],[131.16975,32.87838],[131.17174,32.87704],[131.17317,32.87818],[131.17406,32.87718],[131.17553,32.87854],[131.17044,32.88076],[131.17101,32.88364],[131.17008,32.88532],[131.17039,32.88682],[131.16858,32.89013],[131.16721,32.8905],[131.16824,32.89233],[131.16752,32.89326],[131.16782,32.89471],[131.16904,32.89617],[131.16782,32.89857],[131.16603,32.89976],[131.16674,32.90159],[131.16366,32.90262],[131.16244,32.9052],[131.15871,32.90754],[131.15476,32.90671],[131.15407,32.90503],[131.15284,32.90531],[131.15228,32.90232],[131.1504,32.90417],[131.14712,32.90434],[131.14849,32.90493]],[[130.97916,31.99186],[130.98148,31.99651],[130.98122,31.99845],[130.98331,32.00327],[130.9902,32.00292],[130.99224,32.00348],[130.99825,32.00577],[131.00955,32.01289],[131.01013,32.01527],[131.01375,32.01723],[131.01515,32.01912],[131.01562,32.02763],[131.01728,32.02935],[131.02244,32.03024],[131.02624,32.02645],[131.02744,32.02633],[131.03159,32.03033],[131.03368,32.03476],[131.03658,32.03542],[131.03763,32.03783],[131.04639,32.03954],[131.04809,32.04115],[131.04921,32.04465],[131.05227,32.04626],[131.05415,32.04686],[131.05637,32.0459],[131.06065,32.04873],[131.06335,32.04814],[131.06541,32.04911],[131.07603,32.0596],[131.07916,32.06097],[131.08028,32.06634],[131.07715,32.06803],[131.0748,32.07313],[131.06908,32.07857],[131.06737,32.07912],[131.06723,32.08112],[131.06597,32.08228],[131.07056,32.08644],[131.07051,32.08863],[131.06942,32.09007],[131.06985,32.09313],[131.06874,32.09632],[131.06918,32.09835],[131.06748,32.10166],[131.06902,32.10584],[131.07248,32.10787],[131.07128,32.11202],[131.07187,32.11474],[131.07379,32.11615],[131.07578,32.11646],[131.07518,32.11564],[131.07325,32.11536],[131.07227,32.1139],[131.0723,32.11318],[131.07399,32.11262],[131.07267,32.11158],[131.07371,32.11138],[131.07375,32.1102],[131.07741,32.1111],[131.0784,32.11415],[131.08417,32.1174],[131.08474,32.11708],[131.0843,32.11632],[131.08609,32.11574],[131.0862,32.11482],[131.08358,32.112],[131.08621,32.1129],[131.08678,32.11136],[131.08874,32.11082],[131.09018,32.11233],[131.09223,32.11274],[131.09156,32.11043],[131.09372,32.11109],[131.09623,32.10974],[131.09477,32.11242],[131.09734,32.11566],[131.09435,32.11534],[131.09056,32.11665],[131.09021,32.11851],[131.09192,32.12035],[131.09125,32.12096],[131.09021,32.12055],[131.08881,32.12182],[131.09336,32.123],[131.09589,32.12252],[131.09528,32.12362],[131.09579,32.12509],[131.09827,32.12508],[131.09828,32.12609],[131.09987,32.1262],[131.10083,32.12866],[131.1003,32.12958],[131.10262,32.1313],[131.10145,32.13301],[131.10275,32.13394],[131.10265,32.13562],[131.09876,32.13701],[131.09743,32.13666],[131.09837,32.13841],[131.10157,32.13842],[131.10198,32.14012],[131.10315,32.13782],[131.10565,32.1361],[131.10678,32.13651],[131.10954,32.13505],[131.11158,32.13612],[131.115,32.13607],[131.11856,32.13494],[131.1226,32.13752],[131.12999,32.14668],[131.12875,32.14822],[131.12502,32.1485],[131.12509,32.14986],[131.12382,32.15079],[131.12441,32.15217],[131.12275,32.15268],[131.12287,32.15558],[131.12178,32.15627],[131.12238,32.15783],[131.12407,32.15865],[131.12166,32.15974],[131.12287,32.16349],[131.11898,32.16758],[131.1191,32.16845],[131.12058,32.16889],[131.12044,32.17096],[131.11911,32.17133],[131.11979,32.17447],[131.11749,32.17715],[131.11741,32.17845],[131.11535,32.17902],[131.11336,32.1821],[131.11307,32.1861],[131.1123,32.18603],[131.11175,32.18721],[131.11287,32.18878],[131.11228,32.19042],[131.11297,32.19252],[131.11153,32.19046],[131.11215,32.19246],[131.11039,32.19387],[131.1101,32.19746],[131.10675,32.19886],[131.10868,32.19835],[131.10945,32.19908],[131.10981,32.19835],[131.11146,32.2002],[131.11358,32.20006],[131.1121,32.19925],[131.11183,32.19753],[131.11247,32.19907],[131.11457,32.19945],[131.11498,32.20043],[131.11132,32.20146],[131.10788,32.20117],[131.10432,32.20384],[131.10847,32.20367],[131.1099,32.20768],[131.1107,32.20775],[131.11227,32.2104],[131.11061,32.21188],[131.11092,32.21288],[131.10841,32.21437],[131.10833,32.21512],[131.10912,32.21528],[131.10713,32.21725],[131.10783,32.21795],[131.10713,32.21851],[131.10648,32.21762],[131.10702,32.21548],[131.1063,32.21469],[131.10731,32.21223],[131.10604,32.21171],[131.10605,32.21271],[131.10029,32.21978],[131.09815,32.22091],[131.09777,32.2236],[131.09976,32.2265],[131.09946,32.22819],[131.10685,32.23201],[131.10806,32.23367],[131.11564,32.23482],[131.12057,32.23718],[131.12263,32.23652],[131.12647,32.23696],[131.12914,32.23555],[131.1353,32.23658],[131.13932,32.23407],[131.14214,32.23375],[131.14389,32.23061],[131.14578,32.23052],[131.14947,32.22788],[131.15166,32.22832],[131.15325,32.22584],[131.1544,32.22588],[131.1536,32.2281],[131.15156,32.22988],[131.15402,32.23205],[131.15313,32.23391],[131.15382,32.2363],[131.15223,32.23848],[131.1538,32.2406],[131.15354,32.24285],[131.14817,32.24691],[131.1416,32.24907],[131.13997,32.25209],[131.13811,32.25273],[131.13628,32.25577],[131.13731,32.25918],[131.13528,32.26359],[131.13216,32.2653],[131.13322,32.26943],[131.12823,32.27329],[131.13098,32.27554],[131.12909,32.28003],[131.12753,32.28104],[131.12977,32.28328],[131.13112,32.28629],[131.12995,32.28758],[131.12984,32.28946],[131.12795,32.29028],[131.12801,32.29158],[131.12531,32.29671],[131.12682,32.29991],[131.12664,32.30338],[131.12948,32.30249],[131.13064,32.30287],[131.13061,32.30579],[131.13323,32.30996],[131.13272,32.31172],[131.13723,32.31307],[131.13719,32.31416],[131.13541,32.31616],[131.13982,32.3209],[131.13814,32.32372],[131.14388,32.32973],[131.14335,32.33104],[131.14431,32.33221],[131.14384,32.3378],[131.14525,32.33915],[131.14419,32.34225],[131.14658,32.34688],[131.14517,32.34802],[131.14581,32.34994],[131.1439,32.35128],[131.14433,32.35537],[131.14601,32.35728],[131.14395,32.35786],[131.14217,32.36164],[131.14502,32.36647],[131.14428,32.367],[131.14204,32.36513],[131.14112,32.36251],[131.1416,32.35856],[131.13929,32.35749],[131.13506,32.35791],[131.13285,32.35673],[131.13288,32.35852],[131.13183,32.3581],[131.13071,32.36059],[131.1262,32.36234],[131.12681,32.36391],[131.12487,32.36492],[131.12669,32.36648],[131.12621,32.36932],[131.12768,32.37221],[131.12909,32.37259],[131.1291,32.3742],[131.12806,32.3754],[131.12869,32.37657],[131.1276,32.38147],[131.1245,32.38384],[131.12539,32.38542],[131.12472,32.38537],[131.12414,32.38839],[131.12515,32.39247],[131.12641,32.39295],[131.12531,32.3935],[131.12541,32.39461],[131.12858,32.39658],[131.12746,32.39695],[131.12745,32.39804],[131.12657,32.39714],[131.12589,32.39893],[131.12459,32.39918],[131.12489,32.39775],[131.12302,32.39801],[131.12358,32.39657],[131.1226,32.39627],[131.12248,32.39466],[131.12163,32.39634],[131.1226,32.39886],[131.12181,32.39967],[131.12453,32.40137],[131.11874,32.40328],[131.11635,32.40606],[131.11625,32.4081],[131.11363,32.40656],[131.11509,32.40388],[131.11429,32.40097],[131.11244,32.40085],[131.11085,32.39906],[131.10869,32.40012],[131.10757,32.39909],[131.10466,32.40082],[131.10371,32.39991],[131.10402,32.39717],[131.10095,32.39878],[131.09999,32.39722],[131.09839,32.39773],[131.09899,32.39964],[131.09747,32.39991],[131.09891,32.40247],[131.09703,32.40303],[131.09898,32.40467],[131.09817,32.40494],[131.09883,32.40711],[131.09786,32.40719],[131.09808,32.40914],[131.09649,32.4086],[131.09435,32.40942],[131.09298,32.40775],[131.09231,32.40852],[131.09053,32.40654],[131.08979,32.40699],[131.09319,32.41208],[131.09655,32.41251],[131.09898,32.41449],[131.09932,32.41707],[131.10126,32.42062],[131.10601,32.42274],[131.10629,32.42469],[131.10957,32.42725],[131.11183,32.42667],[131.11364,32.42845],[131.11417,32.43097],[131.11743,32.4315],[131.12152,32.43375],[131.12474,32.43411],[131.12444,32.43561],[131.12757,32.43843],[131.13074,32.44035],[131.13185,32.43921],[131.13517,32.44541],[131.13913,32.44611],[131.14045,32.44475],[131.14061,32.44629],[131.14197,32.44665],[131.14227,32.4496],[131.14372,32.44972],[131.14385,32.45244],[131.14311,32.45306],[131.14437,32.4544],[131.14491,32.45779],[131.14934,32.45832],[131.14994,32.45619],[131.15236,32.455],[131.15326,32.45236],[131.15621,32.45099],[131.15797,32.4487],[131.15356,32.45495],[131.15315,32.45683],[131.15399,32.46264],[131.15563,32.46381],[131.15604,32.46551],[131.16065,32.46771],[131.16042,32.46923],[131.16197,32.47123],[131.16788,32.47232],[131.17023,32.4742],[131.17026,32.47512]],[[131.12848,32.91924],[131.13373,32.92644],[131.13708,32.93356],[131.138,32.93761],[131.13163,32.93819],[131.12668,32.93722],[131.12253,32.93812],[131.11748,32.93783]]]}}]}