{"type":"FeatureCollection","features":[{"type":"Feature","properties":{"route_id":"455","route_number":455,"name":"国道455号","source":"OpenStreetMap contributors (ODbL)","osm_relations":[416686]},"geometry":{"type":"MultiLineString","coordinates":[[[141.96391,39.84646],[141.95921,39.84239],[141.95384,39.84146],[141.94488,39.84372],[141.9392,39.83861],[141.93497,39.83638],[141.93217,39.83605],[141.92945,39.83832],[141.92464,39.83666],[141.92391,39.83573],[141.91992,39.83768],[141.91492,39.838],[141.9099,39.84304],[141.90531,39.84602],[141.90252,39.84686],[141.8991,39.84598],[141.8969,39.8443],[141.89593,39.84197],[141.89305,39.84085],[141.88709,39.84214],[141.8848,39.84476],[141.87907,39.84638],[141.87211,39.84142],[141.87019,39.84174],[141.86832,39.84347],[141.8646,39.84394],[141.85524,39.8395],[141.8497,39.84468],[141.83453,39.84387],[141.83129,39.84493],[141.82625,39.84862],[141.82399,39.84894],[141.81909,39.84792],[141.80672,39.84997],[141.79972,39.84702],[141.78327,39.84734],[141.77916,39.84491],[141.77884,39.84206],[141.77775,39.84047],[141.77012,39.84157],[141.76493,39.83895],[141.76147,39.83614],[141.75829,39.83687],[141.75441,39.84198],[141.75232,39.84262],[141.74909,39.84064],[141.74351,39.83147],[141.74242,39.8313],[141.73966,39.83335],[141.73777,39.83368],[141.73373,39.83259],[141.73252,39.82838],[141.72881,39.82925],[141.72644,39.82776],[141.72378,39.82947],[141.72245,39.83219],[141.71017,39.8341],[141.70398,39.83663],[141.70299,39.84612],[141.70208,39.84758],[141.70008,39.8477],[141.69528,39.84529],[141.68919,39.84676],[141.68343,39.85253],[141.68024,39.85815],[141.6782,39.85956],[141.67588,39.85983],[141.66775,39.86713],[141.66239,39.86901],[141.65837,39.87184],[141.65494,39.87285],[141.65119,39.8752],[141.64558,39.87601],[141.64295,39.88057],[141.63627,39.88115],[141.63159,39.87563],[141.62856,39.87482],[141.62432,39.87228],[141.6219,39.8732],[141.61961,39.87125],[141.61596,39.86995],[141.61422,39.87044],[141.61105,39.86899],[141.6095,39.8698],[141.6074,39.86946],[141.60583,39.87042],[141.60525,39.8721],[141.60173,39.87108],[141.59951,39.86939],[141.59797,39.8696],[141.59677,39.87095],[141.59504,39.87049],[141.59293,39.87131],[141.59015,39.8705],[141.58812,39.87111],[141.58189,39.86805],[141.57606,39.86683],[141.57346,39.86659],[141.57177,39.86753],[141.56483,39.86659],[141.55977,39.86407],[141.5596,39.86108],[141.55808,39.85736],[141.55521,39.85431],[141.54889,39.85629],[141.54708,39.85513],[141.54626,39.85321],[141.54347,39.85208],[141.53884,39.8533],[141.53764,39.8526],[141.53739,39.85124],[141.534,39.85],[141.49313,39.83918],[141.48785,39.84012],[141.48111,39.83931],[141.4741,39.84016],[141.46603,39.83946],[141.45807,39.84388],[141.45571,39.84705],[141.44978,39.84913],[141.44741,39.84846],[141.44337,39.84513],[141.43224,39.84779],[141.42803,39.84561],[141.42657,39.84339],[141.42358,39.84143],[141.42043,39.8418],[141.41937,39.84301],[141.4167,39.84187],[141.41437,39.84042],[141.41323,39.83778],[141.4078,39.83633],[141.39813,39.82893],[141.38602,39.82726],[141.38105,39.82505],[141.37388,39.82502],[141.36957,39.82641],[141.36591,39.82498],[141.36331,39.82731],[141.36072,39.82758],[141.35832,39.82642],[141.35762,39.8241],[141.36024,39.82103],[141.36024,39.81838],[141.35683,39.81512],[141.35933,39.81133],[141.36151,39.8096],[141.36077,39.80555],[141.35912,39.80246],[141.35484,39.79804],[141.35037,39.7977],[141.34464,39.79571],[141.34347,39.79358],[141.34506,39.78861],[141.34134,39.78488],[141.33287,39.78492],[141.32156,39.77944],[141.31399,39.78132],[141.30788,39.78166],[141.30629,39.77915],[141.30712,39.77634],[141.29949,39.7691],[141.29733,39.77029],[141.2943,39.77017],[141.29358,39.77179],[141.29138,39.77306],[141.28474,39.77394],[141.2815,39.77734],[141.27619,39.77885],[141.27505,39.78033],[141.27076,39.78266],[141.26329,39.78317],[141.25995,39.78481],[141.2582,39.78353],[141.25661,39.78407],[141.25117,39.78311],[141.25214,39.78122],[141.24927,39.78118],[141.24698,39.77873],[141.2483,39.77587],[141.2458,39.77614],[141.24538,39.775],[141.24374,39.77443],[141.24224,39.77488],[141.24214,39.77592],[141.23245,39.77332],[141.23087,39.77434],[141.22869,39.77442],[141.22844,39.77365],[141.23035,39.77352],[141.23121,39.77227],[141.22964,39.77105],[141.22788,39.77148],[141.22633,39.77049],[141.22419,39.77207],[141.2224,39.77083],[141.21994,39.77338],[141.21684,39.77036],[141.21651,39.76793],[141.21297,39.76753],[141.20996,39.76487],[141.20592,39.76349],[141.19963,39.7577],[141.19262,39.75673],[141.1895,39.75501],[141.1847,39.75455],[141.18172,39.75185],[141.18178,39.74819],[141.17989,39.74636],[141.17141,39.7454],[141.16866,39.74405],[141.16638,39.74084],[141.16575,39.73787],[141.16306,39.73484],[141.16293,39.73024],[141.1577,39.72568],[141.15031,39.72111],[141.1491,39.71612]],[[141.14897,39.71614],[141.14912,39.71989],[141.15034,39.7218],[141.15762,39.72574],[141.16287,39.73028],[141.16295,39.73477],[141.16572,39.73799],[141.16635,39.74092],[141.16799,39.7433]],[[141.15057,39.70376],[141.15426,39.70222]]]}}]}