{"type":"FeatureCollection","features":[{"type":"Feature","properties":{"route_id":"324","route_number":324,"name":"国道324号","source":"OpenStreetMap contributors (ODbL)","osm_relations":[2360722,10960864]},"geometry":{"type":"MultiLineString","coordinates":[[[129.87409,32.74523],[129.88068,32.7431],[129.8826,32.74157],[129.88349,32.73913],[129.8892,32.7347],[129.891,32.73476],[129.8924,32.73631],[129.8917,32.7338],[129.89041,32.73321],[129.8927,32.73112],[129.89148,32.72717],[129.89353,32.72356],[129.89347,32.72235],[129.89626,32.71877],[129.89682,32.7165],[129.89635,32.71465],[129.89756,32.7151],[129.90166,32.70981],[129.90167,32.70637],[129.90374,32.70439],[129.90696,32.70513],[129.9109,32.7044],[129.91421,32.70476],[129.91599,32.70612],[130.04965,32.55004],[130.05177,32.53849],[130.04723,32.52634],[130.04276,32.52322],[130.03437,32.52474],[130.03188,32.52293],[130.03218,32.52131],[130.03581,32.51725],[130.03786,32.51326],[130.04208,32.50911],[130.05185,32.50949],[130.05673,32.51306],[130.0677,32.5156],[130.07179,32.52076],[130.07956,32.52351],[130.08355,32.5241],[130.0876,32.52629],[130.089,32.52795],[130.09246,32.5292],[130.09714,32.53388],[130.10203,32.53564],[130.10489,32.53804],[130.11618,32.54099],[130.11944,32.54446],[130.12184,32.54551],[130.13512,32.54571],[130.13968,32.54739],[130.14579,32.54814],[130.14786,32.54955],[130.15474,32.54925],[130.16164,32.55045],[130.16583,32.54947],[130.17448,32.55042],[130.17991,32.54981],[130.18564,32.5477],[130.18672,32.54459],[130.19041,32.54059],[130.19251,32.53299],[130.18851,32.52681],[130.18936,32.52323],[130.19237,32.51861],[130.18835,32.5108],[130.18884,32.50773],[130.18661,32.50484],[130.18831,32.50237],[130.18912,32.49937],[130.19114,32.49745],[130.19258,32.4934],[130.19672,32.48699],[130.19257,32.48003],[130.18973,32.47884],[130.18737,32.47649],[130.18581,32.46874],[130.1902,32.46405],[130.19441,32.45427],[130.19901,32.44975],[130.20131,32.44649],[130.20062,32.44611],[130.20001,32.4464],[130.20215,32.44807],[130.20535,32.44801],[130.20574,32.44711],[130.205,32.44752],[130.20601,32.44808],[130.20791,32.45172],[130.21321,32.45399],[130.21629,32.45699],[130.22174,32.45677],[130.22369,32.45887],[130.2261,32.45999],[130.23509,32.46078],[130.24395,32.46666],[130.24723,32.46778],[130.25341,32.47171],[130.25897,32.47366],[130.26144,32.47711],[130.26985,32.47925],[130.27662,32.48327],[130.28168,32.48391],[130.28499,32.48694],[130.28729,32.48663],[130.28984,32.48841],[130.29049,32.48981],[130.2985,32.49482],[130.29917,32.49675],[130.29861,32.50062],[130.30316,32.50455],[130.30474,32.50205],[130.3061,32.50136],[130.31582,32.50818],[130.31959,32.50967],[130.34035,32.50802],[130.34659,32.50846],[130.35639,32.51124],[130.36129,32.51153],[130.36731,32.50971],[130.38261,32.49876],[130.3881,32.49702],[130.39268,32.49698],[130.39775,32.49957],[130.40306,32.50627],[130.41155,32.51222],[130.41581,32.51864],[130.42055,32.52148]],[[129.90411,32.72765],[129.90226,32.72545],[129.90148,32.7219],[129.89946,32.72017]],[[130.30316,32.50455],[130.30956,32.50848],[130.31427,32.51463],[130.31853,32.51763],[130.32525,32.51874],[130.32899,32.51733],[130.33107,32.5152],[130.33153,32.51179],[130.33255,32.51128],[130.33599,32.51383],[130.34116,32.51452],[130.34308,32.51772],[130.34451,32.51867],[130.34848,32.51893],[130.3537,32.52252],[130.35694,32.52338],[130.36183,32.51971],[130.36164,32.51703],[130.36279,32.51411],[130.36905,32.51305],[130.37151,32.50958],[130.37686,32.50859],[130.38293,32.50944],[130.3853,32.50606],[130.39042,32.50366],[130.39075,32.50135],[130.39252,32.50035],[130.39331,32.49783],[130.39597,32.49934],[130.40165,32.50031],[130.40472,32.49819],[130.41147,32.49618],[130.41731,32.49261],[130.41885,32.49275],[130.42015,32.49636],[130.42338,32.49731],[130.42646,32.50123],[130.42934,32.51106],[130.42931,32.51417],[130.42808,32.51752],[130.42238,32.51895],[130.42063,32.52053],[130.42078,32.5219],[130.42426,32.52469],[130.42489,32.52617],[130.42272,32.53471],[130.42352,32.54052],[130.42235,32.54222],[130.42193,32.54838],[130.4173,32.55307],[130.41355,32.56151],[130.40988,32.56481],[130.40869,32.56748],[130.41463,32.56847],[130.4155,32.5701],[130.41934,32.57273],[130.41975,32.57521],[130.42249,32.57884],[130.42919,32.58452],[130.43031,32.59205],[130.43524,32.59698],[130.43614,32.60061],[130.43873,32.6035],[130.43776,32.60437],[130.43788,32.60546],[130.44012,32.60607]],[[130.43873,32.6035],[130.44339,32.61039],[130.44433,32.61714],[130.4469,32.61934],[130.45401,32.61548],[130.45425,32.61384],[130.45626,32.61317],[130.45602,32.61195],[130.46358,32.60911],[130.46675,32.60982]],[[129.89661,32.72034],[129.90005,32.7209],[129.90184,32.72277],[129.8993,32.72082],[129.89931,32.72],[129.89519,32.72021]],[[130.44026,32.60613],[130.44321,32.6077],[130.44679,32.61183],[130.45174,32.61431],[130.45535,32.61403],[130.46308,32.6099],[130.46598,32.61047],[130.46549,32.61165],[130.46419,32.6112]],[[129.87641,32.74483],[129.87601,32.74427],[129.8741,32.74512]],[[130.30739,32.50196],[130.30528,32.5015],[130.3029,32.50441]],[[130.20001,32.4464],[130.20131,32.44649]],[[130.19697,32.45654],[130.20435,32.45188],[130.20999,32.45183],[130.21188,32.4533]],[[130.20882,32.45165],[130.21057,32.45246],[130.21013,32.45163],[130.20741,32.45153]]]}}]}