{"type":"FeatureCollection","features":[{"type":"Feature","properties":{"route_id":"501","route_number":501,"name":"国道501号","source":"OpenStreetMap contributors (ODbL)","osm_relations":[9593068,9593069]},"geometry":{"type":"MultiLineString","coordinates":[[[130.44277,33.03322],[130.43618,33.02372],[130.42971,33.01799],[130.42834,32.99999],[130.4299,32.9958],[130.43095,32.98959],[130.43085,32.97632],[130.43085,32.98959],[130.42824,33.00012],[130.42958,33.01799],[130.43608,33.02373],[130.4427,33.03326],[130.44634,33.0318]],[[130.45982,32.9223],[130.45006,32.92777],[130.44476,32.92801],[130.44038,32.93228],[130.44482,32.9281],[130.45032,32.92779],[130.46305,32.92069],[130.45982,32.9223]],[[130.46305,32.92069],[130.52303,32.89896],[130.54375,32.89068],[130.54331,32.8836],[130.54394,32.88286],[130.5538,32.88009],[130.56045,32.87716],[130.57197,32.87665],[130.57586,32.87778],[130.57762,32.8768],[130.58311,32.87196],[130.58613,32.85746],[130.58545,32.85614],[130.58574,32.84943],[130.58385,32.84634],[130.58451,32.84185],[130.58215,32.83734],[130.58315,32.83599],[130.58323,32.8338],[130.58608,32.83321],[130.58719,32.82981],[130.59251,32.82667],[130.59391,32.82265],[130.59524,32.82177],[130.59423,32.81974],[130.59558,32.81738],[130.59335,32.81374],[130.59502,32.81289],[130.5962,32.81072],[130.60146,32.81092],[130.60297,32.80738],[130.60499,32.80589],[130.60457,32.80169],[130.60725,32.7992],[130.61293,32.79764],[130.61268,32.79555],[130.61901,32.78721],[130.62072,32.78294],[130.62465,32.78213],[130.62633,32.78049],[130.6302,32.77896],[130.63682,32.7809]],[[130.44038,32.93228],[130.43875,32.94025],[130.44027,32.94176],[130.43934,32.94213],[130.43549,32.95499],[130.43388,32.96341],[130.43317,32.97547],[130.43124,32.97564],[130.43085,32.97632]],[[130.63719,32.78025],[130.63843,32.77652],[130.63821,32.77473],[130.63642,32.77223],[130.63606,32.76254],[130.63773,32.75936],[130.64154,32.75534],[130.6426,32.74733],[130.64523,32.74041],[130.64332,32.73756],[130.63889,32.73384],[130.6408,32.71871],[130.64409,32.71436],[130.64433,32.71003],[130.64772,32.70351],[130.64814,32.6987],[130.64741,32.69491],[130.64855,32.69146]],[[130.63634,32.78111],[130.63716,32.78133],[130.6368,32.78093]],[[130.58312,32.839],[130.58219,32.83803]],[[130.58296,32.83442],[130.58299,32.83515]]]}}]}