{"type":"FeatureCollection","features":[{"type":"Feature","properties":{"route_id":"474","route_number":474,"name":"国道474号","source":"OpenStreetMap contributors (ODbL)","osm_relations":[12288548]},"geometry":{"type":"MultiLineString","coordinates":[[[137.66211,34.99839],[137.66703,35.00007],[137.66438,34.9963],[137.67901,35.01551],[137.68704,35.02228],[137.71723,35.0393],[137.72367,35.04206],[137.75352,35.05977],[137.78563,35.07172],[137.79063,35.07493],[137.79063,35.0757]],[[137.9447,35.45163],[137.986,35.44601],[137.98969,35.44414],[137.99179,35.43983],[137.98995,35.43591],[137.98811,35.43422],[137.98887,35.43274],[137.98733,35.43124],[137.98715,35.42898],[137.98357,35.42631],[137.98343,35.42423],[137.98139,35.42278],[137.97981,35.41878],[137.97648,35.41774],[137.97543,35.4166],[137.97604,35.41213],[137.97254,35.40126],[137.9711,35.40002],[137.97199,35.39747],[137.96876,35.39468],[137.96898,35.39337],[137.97092,35.39197],[137.96988,35.3882],[137.97094,35.38615],[137.96835,35.38397],[137.96407,35.37265],[137.96414,35.37038],[137.96046,35.36649],[137.96057,35.36424],[137.95877,35.36056],[137.95951,35.35859],[137.95611,35.35185],[137.95586,35.34915],[137.95192,35.34486],[137.95232,35.34268],[137.95388,35.34076],[137.94869,35.33407],[137.94287,35.32977],[137.9354,35.32783],[137.93365,35.32426],[137.92769,35.31983],[137.92673,35.31662],[137.92784,35.3119],[137.92458,35.30488],[137.92421,35.29719],[137.92165,35.29611],[137.91837,35.29167],[137.91632,35.28161],[137.91181,35.27542],[137.90096,35.24542],[137.90031,35.23736],[137.8989,35.23459]],[[137.87641,35.46311],[137.88187,35.46405],[137.89447,35.46904],[137.88183,35.46399],[137.87355,35.46247],[137.86401,35.45945],[137.85467,35.45425],[137.84451,35.45247],[137.83816,35.44808],[137.83469,35.44297],[137.82918,35.43842],[137.82532,35.43401],[137.82284,35.43264],[137.81959,35.43215],[137.81437,35.43382],[137.80892,35.43758],[137.80677,35.44021],[137.80439,35.44555],[137.79922,35.45049],[137.79645,35.45711],[137.79026,35.46184],[137.78605,35.4664],[137.78041,35.46754],[137.77332,35.4648],[137.76896,35.46423],[137.76413,35.46508],[137.75987,35.46709]],[[137.7599,35.4672],[137.76611,35.46456]],[[137.65484,34.87921],[137.66073,34.88244],[137.66821,34.88801]],[[137.66879,34.88834],[137.66791,34.88762],[137.67226,34.89166],[137.67323,34.89516],[137.66775,34.90714],[137.66761,34.91177],[137.67001,34.92429],[137.66057,34.97556],[137.6596,34.98438],[137.66068,34.99097],[137.66695,34.99963],[137.66471,34.99948]],[[137.7884,35.07372],[137.79088,35.07891],[137.79737,35.08626],[137.80251,35.09432],[137.84199,35.13663],[137.84587,35.14231],[137.86129,35.16998],[137.87031,35.1775],[137.87141,35.1808],[137.87311,35.18251],[137.87363,35.18822],[137.87697,35.19063],[137.87776,35.19324],[137.88265,35.19788],[137.8824,35.19909],[137.88464,35.20324],[137.88864,35.20459],[137.89131,35.2084],[137.8911,35.20993],[137.89294,35.21191],[137.8924,35.21442],[137.89468,35.21877],[137.89412,35.22033],[137.89501,35.22331],[137.89597,35.22466],[137.89726,35.22489],[137.89709,35.22639],[137.89878,35.22697],[137.899,35.22855],[137.89756,35.2319],[137.89891,35.23458]],[[137.9452,35.45155],[137.93807,35.45223],[137.92709,35.45161],[137.92356,35.45273],[137.92181,35.45468],[137.92001,35.45967],[137.91741,35.46221],[137.91516,35.47008],[137.91326,35.47231],[137.91021,35.47388],[137.90517,35.47393],[137.89715,35.47097],[137.89447,35.46904]],[[137.80857,35.43795],[137.81682,35.4328],[137.81959,35.43221],[137.82299,35.43276],[137.82527,35.43405],[137.82882,35.43817],[137.83436,35.44269],[137.83843,35.44845],[137.84392,35.45225],[137.85465,35.4543],[137.86353,35.45931],[137.87477,35.46282]],[[137.66788,34.88767],[137.67084,34.89013]],[[137.66457,34.88551],[137.66664,34.88683]],[[137.65509,34.87944],[137.65818,34.88089]],[[137.66791,34.88762],[137.66772,34.8875]]]}}]}