{"type":"FeatureCollection","features":[{"type":"Feature","properties":{"route_id":"223","route_number":223,"name":"国道223号","source":"OpenStreetMap contributors (ODbL)","osm_relations":[9669415,10143573]},"geometry":{"type":"MultiLineString","coordinates":[[[130.98958,31.98816],[130.9907,31.98608],[130.99589,31.98134],[130.99992,31.97465],[131.00173,31.96643],[131.004,31.96294],[131.00472,31.95793],[131.00748,31.95116],[131.0071,31.94948],[131.00468,31.94752],[131.00774,31.94439],[131.00832,31.9419],[131.01183,31.93541],[131.00984,31.9311],[131.01348,31.92942],[131.00952,31.92777],[131.00742,31.92555],[131.00094,31.92309],[130.98984,31.92226],[130.98765,31.9197],[130.98761,31.91688],[130.9863,31.91499],[130.97687,31.90352],[130.97222,31.90111],[130.96723,31.89474],[130.96894,31.89193],[130.97132,31.89133],[130.97701,31.88665],[130.97698,31.88221],[130.97445,31.88021],[130.97418,31.87764],[130.97329,31.87699],[130.97155,31.87754],[130.96802,31.87608],[130.96302,31.87666],[130.96289,31.87463],[130.96162,31.87366],[130.95828,31.8748],[130.9548,31.87492],[130.95248,31.87349],[130.95203,31.87239],[130.95016,31.87209],[130.94874,31.86973],[130.9493,31.86867],[130.95076,31.86835],[130.94917,31.86384],[130.94052,31.86421],[130.93782,31.86246],[130.9352,31.85925],[130.93362,31.85881],[130.93463,31.85761],[130.93434,31.85645],[130.931,31.85661],[130.92799,31.85567],[130.92734,31.85142],[130.926,31.84934],[130.92067,31.85039],[130.91917,31.84994],[130.91816,31.85183],[130.91468,31.85197],[130.91325,31.85127],[130.91126,31.85219],[130.91044,31.85103],[130.90865,31.85044],[130.90743,31.84796],[130.90623,31.84947],[130.90404,31.8498],[130.90071,31.84735],[130.8981,31.84742],[130.89527,31.84986],[130.89148,31.85102],[130.88387,31.85106],[130.87528,31.85288],[130.86915,31.85293],[130.86789,31.85409],[130.86734,31.85672],[130.86486,31.8609],[130.86121,31.86396],[130.85574,31.86439],[130.85401,31.86327],[130.85089,31.86301],[130.84745,31.86478],[130.84631,31.86648],[130.84439,31.86706],[130.84295,31.86982],[130.83934,31.87029],[130.83799,31.87281],[130.83612,31.87291],[130.83535,31.87421],[130.83326,31.87474],[130.83525,31.87737],[130.8348,31.8783],[130.8322,31.87893],[130.83332,31.88011],[130.83228,31.88256],[130.83297,31.88477],[130.83472,31.88624],[130.83195,31.88633],[130.83214,31.88806],[130.83072,31.88829],[130.82963,31.89151],[130.82711,31.89309],[130.8264,31.89195],[130.82351,31.89052],[130.82061,31.88626],[130.81756,31.88639],[130.814,31.8846],[130.80914,31.8855],[130.80647,31.8841],[130.80298,31.88356],[130.80201,31.88059],[130.80321,31.87838],[130.80293,31.87631],[130.79908,31.8747],[130.79556,31.87491],[130.79241,31.87231],[130.7917,31.86967],[130.78861,31.86968],[130.78862,31.86772],[130.78666,31.86625],[130.78644,31.86493],[130.78685,31.86388],[130.78893,31.86292],[130.78865,31.86156],[130.78149,31.86063],[130.77286,31.8572],[130.768,31.85719],[130.7638,31.85596],[130.7625,31.85623],[130.75962,31.85881],[130.75604,31.85825],[130.75291,31.85435],[130.75322,31.85046],[130.75167,31.84911],[130.75327,31.84635],[130.75235,31.84352],[130.7487,31.84063],[130.74919,31.83824],[130.74673,31.83767],[130.74615,31.8387],[130.74537,31.83851],[130.74389,31.83697],[130.74378,31.83433],[130.74258,31.83299],[130.74016,31.83313],[130.7383,31.83443],[130.73623,31.83395],[130.73742,31.82945],[130.74065,31.82857],[130.74425,31.82998],[130.74896,31.82853],[130.74848,31.82201],[130.74913,31.82103],[130.75286,31.82075],[130.75527,31.81819],[130.75735,31.81966],[130.75854,31.81867],[130.75619,31.81452],[130.75694,31.81125],[130.75528,31.80841],[130.75722,31.8036],[130.75213,31.7995],[130.75266,31.79828],[130.75399,31.79839],[130.75452,31.79738],[130.75379,31.78977],[130.75215,31.78709],[130.75405,31.78037],[130.75051,31.77818],[130.74818,31.77546],[130.75202,31.76925],[130.75214,31.76031],[130.74662,31.74617],[130.74217,31.74196],[130.73427,31.72505]],[[130.75407,31.79329],[130.75154,31.79286],[130.74998,31.78962],[130.75215,31.78709]]]}}]}