{"type":"FeatureCollection","features":[{"type":"Feature","properties":{"route_id":"268","route_number":268,"name":"国道268号","source":"OpenStreetMap contributors (ODbL)","osm_relations":[9637071]},"geometry":{"type":"MultiLineString","coordinates":[[[131.26778,31.95162],[131.26454,31.95243],[131.25019,31.95204],[131.24553,31.95475],[131.23766,31.95479],[131.23449,31.95787],[131.22385,31.96175],[131.21992,31.96439],[131.20782,31.96643],[131.20045,31.96909],[131.19909,31.96885],[131.196,31.9663],[131.18437,31.96262],[131.17509,31.96233],[131.1679,31.96464],[131.16489,31.96348],[131.16289,31.96094],[131.16023,31.96079],[131.15338,31.96279],[131.14181,31.96248],[131.14016,31.96146],[131.13933,31.95869],[131.13659,31.95693],[131.13448,31.95657],[131.12432,31.95819],[131.11975,31.95577],[131.11382,31.95716],[131.10797,31.95675],[131.10396,31.95732],[131.09678,31.96044],[131.07884,31.96609],[131.07528,31.96809],[131.0666,31.97615],[131.06241,31.97791],[131.05449,31.97712],[131.04487,31.97915],[131.03779,31.97943],[131.02967,31.97315],[131.02413,31.97511],[131.01982,31.97391],[131.01661,31.97449],[131.0106,31.97619],[131.00775,31.97986],[131.00128,31.98147],[130.98432,31.99151],[130.97773,31.99213],[130.96626,31.99753],[130.9563,32.00863],[130.95056,32.00939],[130.946,32.00823],[130.93891,32.00899],[130.93484,32.01231],[130.92513,32.0173],[130.92372,32.019],[130.9183,32.02181],[130.91428,32.02514],[130.91183,32.02761],[130.90741,32.03806],[130.89751,32.04517],[130.89345,32.04461],[130.89111,32.04556],[130.88624,32.04531],[130.87945,32.04389],[130.86201,32.04982],[130.84109,32.04793],[130.83804,32.04899],[130.82376,32.05032],[130.81636,32.05286],[130.81202,32.05065],[130.80775,32.04992],[130.79124,32.05817],[130.78171,32.05903],[130.77811,32.05763],[130.77289,32.04962],[130.76696,32.04768],[130.76347,32.04507],[130.76194,32.04154],[130.74441,32.03494],[130.74226,32.02749],[130.74355,32.02506],[130.74303,32.02169],[130.74616,32.006],[130.7487,31.99997],[130.74847,31.995],[130.74755,31.99103],[130.74473,31.98938],[130.74299,31.98586],[130.73974,31.96754],[130.73658,31.96098],[130.73417,31.95836],[130.73,31.95739],[130.72441,31.95464],[130.71799,31.95311],[130.71272,31.9539],[130.70779,31.95603],[130.70294,31.96155],[130.69362,31.96583],[130.69164,31.9674],[130.69023,31.97083],[130.68634,31.97278],[130.68394,31.97536],[130.67676,31.9791],[130.67447,31.98113],[130.67158,31.98622],[130.67136,31.98836],[130.66917,31.99065],[130.66764,32.00164],[130.66015,32.00661],[130.65793,32.01356],[130.6515,32.02043],[130.65013,32.02485],[130.64732,32.02627],[130.64145,32.02582],[130.635,32.02963],[130.63413,32.03417],[130.6327,32.03611],[130.6282,32.0392],[130.62653,32.04172],[130.62661,32.04398],[130.62403,32.04978],[130.61887,32.05549],[130.61519,32.05636],[130.60888,32.05537],[130.60721,32.05598],[130.60286,32.06639],[130.60198,32.07514],[130.60016,32.07907],[130.59335,32.08602],[130.58738,32.0894],[130.58325,32.09385],[130.57503,32.09745],[130.56891,32.10164],[130.5652,32.10616],[130.56498,32.10802],[130.56193,32.11269],[130.55762,32.11428],[130.55699,32.11737],[130.5577,32.12361],[130.55416,32.12598],[130.55318,32.12864],[130.55421,32.13517],[130.55156,32.14038],[130.55354,32.14322],[130.55335,32.14403],[130.55021,32.14353],[130.54835,32.14464],[130.54599,32.14283],[130.54269,32.14196],[130.53763,32.14372],[130.53278,32.1418],[130.52935,32.14207],[130.52508,32.14559],[130.52401,32.14874],[130.52018,32.15187],[130.51505,32.15405],[130.51113,32.15465],[130.50885,32.15734],[130.50956,32.15898],[130.50895,32.15977],[130.49358,32.16397],[130.47798,32.16314],[130.47382,32.16518],[130.4711,32.16466],[130.46916,32.16526],[130.46814,32.16799],[130.46582,32.17036],[130.45548,32.17557],[130.44912,32.17999],[130.44608,32.18099],[130.44018,32.18875],[130.43874,32.19174],[130.43458,32.1957],[130.42934,32.1961],[130.42568,32.19842],[130.42429,32.2029],[130.42022,32.20972]]]}}]}