{"type":"FeatureCollection","features":[{"type":"Feature","properties":{"route_id":"419","route_number":419,"name":"国道419号","source":"OpenStreetMap contributors (ODbL)","osm_relations":[8456817,8469253]},"geometry":{"type":"MultiLineString","coordinates":[[[137.07774,35.02353],[137.07126,35.01655],[137.06432,35.01778],[137.07089,35.01668],[137.06273,35.00576]],[[136.98265,34.93117],[136.9825,34.93377],[136.98338,34.93511],[136.99307,34.9365],[136.99539,34.93752],[137.01264,34.95368],[137.01977,34.9648],[137.02972,34.97127],[137.03726,34.98321],[137.04167,34.98853]],[[137.29111,35.30674],[137.29128,35.30254],[137.29301,35.30037],[137.2927,35.29821],[137.29373,35.29652],[137.29279,35.29337],[137.29144,35.29216],[137.29255,35.29194],[137.29339,35.29323],[137.29616,35.2926],[137.29896,35.29083],[137.29983,35.28906],[137.29779,35.28525],[137.29858,35.28255],[137.29751,35.28043],[137.29847,35.27711],[137.29805,35.27355],[137.29567,35.27168],[137.29501,35.2695],[137.29762,35.26717],[137.29602,35.26488],[137.29827,35.26168],[137.30216,35.25906],[137.30033,35.25711],[137.30038,35.25499],[137.29716,35.2476],[137.29977,35.24393],[137.29851,35.24131],[137.29529,35.23877],[137.29376,35.2344],[137.29454,35.23241],[137.2843,35.23122],[137.28155,35.22989],[137.2743,35.2305],[137.26733,35.2266],[137.25951,35.22651],[137.25638,35.22544],[137.25301,35.22251],[137.24617,35.21996],[137.24271,35.21721],[137.23783,35.21875],[137.23481,35.21701],[137.23148,35.21312],[137.22896,35.20745],[137.22042,35.20501],[137.21354,35.20147],[137.21034,35.20072],[137.20728,35.1964],[137.20457,35.19535],[137.20288,35.19212],[137.19922,35.18845],[137.19849,35.18475],[137.19349,35.17982],[137.19326,35.17669],[137.19048,35.17256],[137.18897,35.16474],[137.18605,35.16169],[137.18164,35.15337],[137.16685,35.14083],[137.16544,35.12845],[137.16615,35.12313],[137.16826,35.11941],[137.16691,35.11047],[137.16378,35.10601],[137.16348,35.09376],[137.16111,35.08387]],[[137.13014,35.05977],[137.13369,35.06461],[137.13849,35.06839],[137.13717,35.06666],[137.13373,35.06453]],[[137.0644,35.01783],[137.08268,35.03387],[137.08648,35.03496],[137.09304,35.03528],[137.10079,35.04173],[137.10692,35.0452],[137.1117,35.05118],[137.11296,35.05417],[137.11609,35.05706],[137.12933,35.05946]],[[136.98261,34.9318],[136.98295,34.9284],[136.9814,34.92297]],[[137.06008,35.00232],[137.05354,34.99448],[137.04394,34.99092],[137.03737,34.9832],[137.02944,34.97077],[137.0203,34.96516],[137.01316,34.95401],[136.99592,34.93774],[136.99345,34.93645],[136.98961,34.93611]],[[137.1635,35.10059],[137.16339,35.09377],[137.16101,35.08389],[137.1552,35.08462],[137.15443,35.07885],[137.152,35.07228],[137.14206,35.07196],[137.13849,35.06839]],[[137.1635,35.10111],[137.16366,35.10592],[137.16675,35.11035],[137.16814,35.11933],[137.16599,35.12285],[137.16605,35.12443]],[[137.07101,35.01649],[137.06514,35.00879]],[[137.04107,34.98785],[137.04476,34.99182],[137.05122,34.99366],[137.05416,34.99537]],[[137.05422,34.99543],[137.05991,35.00236]],[[136.98122,34.92299],[136.98263,34.92812],[136.98258,34.93214]],[[137.07089,35.01668],[137.07698,35.02299]]]}}]}