{"type":"FeatureCollection","features":[{"type":"Feature","properties":{"route_id":"286","route_number":286,"name":"国道286号","source":"OpenStreetMap contributors (ODbL)","osm_relations":[9388098,9389808,10452336]},"geometry":{"type":"MultiLineString","coordinates":[[[140.33013,38.23479],[140.35203,38.23527],[140.35677,38.23754],[140.37184,38.24089],[140.3761,38.2425],[140.37287,38.24104],[140.35678,38.23748],[140.35175,38.23514],[140.33003,38.23469]],[[140.3761,38.2425],[140.38933,38.24241],[140.39458,38.23997],[140.39824,38.24167],[140.40249,38.24169],[140.40541,38.23789],[140.41313,38.23382],[140.41479,38.23155],[140.42681,38.22654],[140.43721,38.22489],[140.44236,38.22541],[140.44595,38.22842],[140.44882,38.22717],[140.44665,38.22557],[140.44749,38.22484],[140.45485,38.2267],[140.45441,38.22722],[140.45622,38.22795],[140.45595,38.22713],[140.45794,38.2296],[140.45799,38.22847],[140.45914,38.22956],[140.45856,38.22841],[140.45965,38.22921],[140.45881,38.22838],[140.46183,38.22875],[140.46114,38.22783],[140.46246,38.22871],[140.46155,38.2273],[140.46427,38.22842],[140.46268,38.2298],[140.46267,38.23085],[140.46293,38.22996],[140.4661,38.22808],[140.46502,38.22706],[140.46672,38.22767],[140.46554,38.22915],[140.46697,38.2285],[140.46734,38.22737],[140.46613,38.22648],[140.47103,38.2295],[140.47118,38.2285],[140.47415,38.22795],[140.47747,38.22534],[140.47567,38.22777],[140.47735,38.22707],[140.47434,38.22976],[140.48036,38.23102],[140.47887,38.23232],[140.47773,38.2323],[140.47875,38.23478],[140.47892,38.23303],[140.48202,38.23105],[140.48029,38.22936],[140.48325,38.23086],[140.48159,38.23238],[140.48217,38.23312],[140.48784,38.23031],[140.49085,38.23106],[140.48941,38.2307],[140.48893,38.22977],[140.49243,38.22999],[140.50264,38.2247],[140.51268,38.22525],[140.52015,38.2208],[140.52317,38.21799],[140.53673,38.21627],[140.54424,38.21427],[140.54858,38.21224],[140.55442,38.2118],[140.55683,38.21267],[140.55925,38.21252],[140.56292,38.21133],[140.56799,38.20764],[140.57451,38.20653],[140.57896,38.20773],[140.58327,38.206],[140.58262,38.20313],[140.58339,38.20206],[140.59084,38.19997],[140.59331,38.19715],[140.6009,38.19317],[140.6272,38.1814],[140.63158,38.18482],[140.64485,38.18469],[140.64991,38.18551],[140.65467,38.18335],[140.666,38.18423],[140.67347,38.18789],[140.68535,38.19519],[140.69575,38.19844],[140.69633,38.20017],[140.69871,38.20185],[140.70903,38.20337],[140.71347,38.20092],[140.71851,38.20003],[140.72327,38.19772],[140.72616,38.19755],[140.72757,38.20001],[140.73055,38.20165],[140.7317,38.20432],[140.73368,38.20501],[140.73439,38.20651],[140.74226,38.20651],[140.74671,38.21073],[140.75056,38.21273],[140.75435,38.2133],[140.75972,38.21194],[140.76573,38.21184],[140.77074,38.2131],[140.7755,38.21258],[140.77862,38.21317],[140.78177,38.21553],[140.78381,38.22079],[140.78625,38.22207],[140.79469,38.22207],[140.80072,38.21662],[140.80692,38.21719],[140.81007,38.21567],[140.81928,38.21506],[140.83076,38.21246],[140.84069,38.21982],[140.8575,38.22114],[140.86172,38.22221],[140.87583,38.23068],[140.88131,38.23886],[140.88395,38.24095],[140.87894,38.24386],[140.88075,38.25065],[140.87148,38.26608]],[[140.8716,38.26623],[140.88095,38.25072],[140.87903,38.24395],[140.88417,38.24089],[140.88171,38.23917],[140.87595,38.23063],[140.86404,38.22316],[140.85757,38.22104],[140.84072,38.2197],[140.83069,38.21225],[140.81917,38.21483],[140.81002,38.21558],[140.80704,38.21709],[140.80055,38.21657],[140.79467,38.22197],[140.78636,38.222],[140.78395,38.22083],[140.78186,38.21553],[140.77946,38.21345],[140.7758,38.2125],[140.77091,38.21304],[140.76573,38.21184]],[[140.73689,38.20647],[140.7345,38.20644],[140.73368,38.20501]],[[140.66239,38.18356],[140.66609,38.18427]]]}}]}