{"type":"FeatureCollection","features":[{"type":"Feature","properties":{"route_id":"361","route_number":361,"name":"国道361号","source":"OpenStreetMap contributors (ODbL)","osm_relations":[6518158,10163333,10163779,10166166,10166232]},"geometry":{"type":"MultiLineString","coordinates":[[[137.27948,36.14962],[137.28167,36.14555],[137.28369,36.14362],[137.28583,36.13869],[137.28932,36.13755],[137.29198,36.13543],[137.29245,36.13286],[137.29445,36.13109],[137.29378,36.1263],[137.29164,36.12326],[137.28942,36.12168],[137.29039,36.11585],[137.29152,36.11338],[137.30109,36.10312],[137.30217,36.10092],[137.30195,36.0962],[137.29887,36.0938],[137.29832,36.09085],[137.29276,36.08695],[137.2928,36.08581],[137.29394,36.08485],[137.29641,36.0869],[137.30385,36.08906],[137.31359,36.09053],[137.31698,36.08948],[137.3223,36.09144],[137.32649,36.09111],[137.32744,36.0899],[137.33349,36.0888],[137.33904,36.09016],[137.34411,36.08815],[137.35622,36.08826],[137.36151,36.08109],[137.37842,36.07899],[137.38236,36.07498],[137.38474,36.074],[137.38609,36.07102],[137.38999,36.06767],[137.39245,36.06714],[137.39555,36.06836],[137.39786,36.06822],[137.40036,36.06545],[137.40087,36.06173],[137.40392,36.05957],[137.41894,36.05889],[137.4302,36.05676],[137.43275,36.05215],[137.43637,36.0492],[137.44001,36.04765],[137.44236,36.04465],[137.44288,36.036],[137.44236,36.03311],[137.44441,36.0303],[137.44687,36.02877],[137.45446,36.02808],[137.45654,36.0285],[137.45746,36.02999],[137.46201,36.0301],[137.47174,36.03204],[137.47549,36.03175],[137.47657,36.03332],[137.4794,36.03375],[137.48746,36.03703],[137.4926,36.03585],[137.49792,36.03832],[137.50091,36.03797],[137.50233,36.03571],[137.49845,36.02372],[137.4997,36.02099],[137.50542,36.01807],[137.50799,36.01331],[137.5104,36.01088],[137.51188,36.01045],[137.51387,36.00718],[137.51586,36.00534],[137.51745,36.00501],[137.51834,36.00287],[137.52204,36.00141],[137.52111,35.99953],[137.52152,35.99893],[137.52778,36.00006],[137.52882,35.9978],[137.53302,35.99635],[137.53217,35.99494],[137.53037,35.99425],[137.52965,35.99157],[137.52789,35.9892],[137.52955,35.98591],[137.52829,35.98449],[137.53004,35.98293],[137.53201,35.97849],[137.53301,35.97782],[137.53252,35.97659],[137.53415,35.97299],[137.54207,35.97326],[137.54329,35.97257],[137.54454,35.97007],[137.54601,35.96984],[137.54799,35.97049],[137.54657,35.9706],[137.54728,35.97151],[137.5466,35.97188],[137.5487,35.97179],[137.54925,35.97288],[137.55006,35.97],[137.55189,35.9689],[137.55131,35.96801],[137.55644,35.9652],[137.55723,35.96186],[137.55698,35.95429],[137.55762,35.95322],[137.56458,35.94972],[137.57317,35.94662],[137.57665,35.94839],[137.58144,35.95274],[137.58331,35.95214],[137.58317,35.95064],[137.58133,35.94781],[137.58176,35.94375],[137.58033,35.93932],[137.58169,35.93769],[137.58304,35.93912],[137.58437,35.93835],[137.58635,35.93941],[137.58688,35.93684],[137.591,35.93772],[137.59062,35.93613],[137.59118,35.93561],[137.58961,35.9336],[137.59098,35.93203],[137.59765,35.93255],[137.59741,35.93438],[137.60009,35.94009],[137.60306,35.93848],[137.60459,35.9367],[137.60457,35.9352],[137.60586,35.93459],[137.6081,35.93522],[137.61072,35.93418],[137.61566,35.93553],[137.62068,35.93437],[137.62471,35.93609],[137.62921,35.93679],[137.63372,35.93866],[137.63786,35.9455],[137.64231,35.94958],[137.64389,35.9522],[137.64737,35.95228],[137.65041,35.95434],[137.65646,35.95332],[137.66409,35.94151],[137.67033,35.93733],[137.67193,35.932],[137.67666,35.92671],[137.67525,35.92086],[137.67561,35.91646],[137.67748,35.91249],[137.6809,35.9094],[137.68335,35.90249],[137.67991,35.89626],[137.67964,35.89385],[137.67628,35.8856],[137.67544,35.88085],[137.67581,35.87772],[137.67737,35.87161],[137.68067,35.87009],[137.68216,35.86675],[137.68398,35.86483],[137.68754,35.8632],[137.68996,35.8632],[137.6925,35.86152],[137.70044,35.86035],[137.70668,35.85738],[137.71047,35.85453],[137.71408,35.85758],[137.72011,35.85888],[137.72222,35.86111],[137.72839,35.86175],[137.73219,35.86379],[137.73471,35.86412],[137.7445,35.87082],[137.75427,35.87535],[137.75894,35.87959],[137.76216,35.88349],[137.76709,35.89201],[137.76784,35.89604],[137.77317,35.8998],[137.77407,35.90276],[137.77678,35.90346],[137.78358,35.91393],[137.78545,35.91521],[137.78874,35.91512],[137.7966,35.91219],[137.80836,35.9132],[137.81249,35.91186],[137.81447,35.90974],[137.81565,35.90632],[137.81864,35.90224],[137.82112,35.89416],[137.82368,35.89075],[137.82553,35.88961],[137.87704,35.87698],[137.88064,35.87492],[137.88375,35.87122],[137.89114,35.86828],[137.89183,35.86699],[137.89155,35.86407],[137.89312,35.86254],[137.94483,35.85122],[137.95536,35.84525],[137.95897,35.84128],[137.97135,35.83877],[137.98722,35.83735],[138.01001,35.83706],[138.0132,35.83973],[138.01673,35.84049],[138.0307,35.83987],[138.03514,35.84052],[138.0471,35.83875],[138.05159,35.83894],[138.06026,35.83578]],[[137.79419,35.91282],[137.79096,35.91419],[137.79165,35.91417]],[[137.45675,36.02864],[137.45931,36.03021]]]}}]}