{"type":"FeatureCollection","features":[{"type":"Feature","properties":{"route_id":"183","route_number":183,"name":"国道183号","source":"OpenStreetMap contributors (ODbL)","osm_relations":[3500263,7451799,8407005,9384862,9384863]},"geometry":{"type":"MultiLineString","coordinates":[[[132.45389,34.38463],[132.45754,34.39522],[132.44693,34.39736],[132.45019,34.4092],[132.44717,34.39745],[132.45777,34.39535],[132.45408,34.38459]],[[132.45019,34.4092],[132.45276,34.40941],[132.45471,34.41585],[132.45974,34.42276],[132.45965,34.4279],[132.46469,34.43366],[132.46868,34.44154],[132.47056,34.45391],[132.47752,34.46099],[132.47848,34.46622],[132.48296,34.46965],[132.49022,34.47723],[132.50131,34.4841],[132.50224,34.48794],[132.50482,34.49124],[132.50656,34.49546],[132.5123,34.49661],[132.51247,34.50067],[132.51387,34.50442],[132.50943,34.51429],[132.51554,34.52914],[132.52182,34.53598],[132.54252,34.55226],[132.55387,34.56475],[132.55723,34.56602],[132.56046,34.56866],[132.56672,34.57197],[132.57069,34.57604],[132.57828,34.57991],[132.58622,34.59064],[132.5874,34.59472],[132.60696,34.61914],[132.62305,34.63091],[132.62802,34.6319],[132.6433,34.62896],[132.64491,34.62931],[132.66727,34.64499],[132.68266,34.65391],[132.69684,34.65817],[132.69872,34.65997],[132.70066,34.66453],[132.70255,34.66651],[132.70515,34.66744],[132.7108,34.66716],[132.71277,34.66789],[132.7153,34.67106],[132.71697,34.6775],[132.71914,34.68045],[132.72805,34.68028],[132.74042,34.68184],[132.7447,34.68016],[132.74642,34.68059],[132.75221,34.68611],[132.75296,34.68901],[132.75266,34.69518],[132.75606,34.70127],[132.75839,34.70441],[132.76212,34.70705],[132.77283,34.72211],[132.77714,34.72541],[132.78313,34.73585],[132.78448,34.74006],[132.78716,34.74096],[132.79275,34.74129],[132.80068,34.74484],[132.80324,34.74519],[132.81097,34.75507],[132.82102,34.76538],[132.82217,34.76805],[132.82811,34.76997],[132.83084,34.77423],[132.83146,34.77697],[132.83337,34.77887],[132.83782,34.78109],[132.83813,34.78219],[132.83749,34.7829],[132.83034,34.78466],[132.82813,34.78839],[132.83369,34.7926],[132.83867,34.80029],[132.83888,34.80195],[132.84704,34.80363],[132.85002,34.80289],[132.85493,34.80326],[132.8752,34.80607],[132.87977,34.80384],[132.88161,34.80163],[132.87973,34.80379],[132.87518,34.806],[132.85622,34.8034]],[[132.4771,34.46042],[132.47856,34.46657],[132.48283,34.46972],[132.49006,34.47731],[132.50128,34.48421],[132.50214,34.48796],[132.50474,34.4913],[132.50622,34.49525],[132.512,34.49747],[132.51247,34.50067]],[[133.3639,35.4077],[133.37035,35.40286],[133.37778,35.39869],[133.35458,35.4132],[133.35066,35.41991],[133.33876,35.42915],[133.3504,35.42028],[133.35456,35.4133],[133.3639,35.4077]],[[133.37778,35.39869],[133.38105,35.39572],[133.38398,35.38725],[133.38909,35.3801],[133.39661,35.37646],[133.40433,35.37663],[133.41571,35.37287],[133.42611,35.3628],[133.43,35.35836],[133.43169,35.35507],[133.43276,35.34869],[133.43534,35.34233],[133.43682,35.33484],[133.4384,35.33031],[133.44063,35.32703],[133.45851,35.31721],[133.46053,35.31085],[133.46573,35.31152],[133.4664,35.30984],[133.46539,35.3067],[133.46624,35.30919]],[[133.29322,35.15964],[133.28145,35.15843],[133.27198,35.15493],[133.26396,35.15387],[133.26105,35.15084],[133.26083,35.14783],[133.26161,35.14506],[133.26109,35.14352],[133.25376,35.14381],[133.25181,35.14254],[133.24658,35.13623],[133.24542,35.13285],[133.24615,35.12843],[133.24215,35.12745],[133.23885,35.12339],[133.23691,35.12367],[133.23446,35.12553],[133.23258,35.12461],[133.22858,35.12445],[133.22736,35.12245],[133.22508,35.12283],[133.22109,35.12083],[133.20612,35.12138],[133.20202,35.11884],[133.20001,35.11583],[133.2004,35.11278],[133.19494,35.10862],[133.18964,35.10027],[133.19004,35.09744],[133.18809,35.09021],[133.18909,35.08896],[133.18731,35.08689],[133.18517,35.07966],[133.18231,35.07866],[133.18663,35.07824],[133.18686,35.077],[133.18844,35.0757],[133.18549,35.07144],[133.18808,35.06599],[133.18857,35.05843],[133.19059,35.05422],[133.19047,35.04872],[133.18736,35.04463],[133.1867,35.04225],[133.18478,35.04068],[133.18251,35.04054],[133.18143,35.04142],[133.17915,35.04017],[133.17888,35.03812],[133.17748,35.03654],[133.17075,35.03295],[133.16417,35.03182],[133.1614,35.0293],[133.15926,35.02892],[133.15904,35.02543],[133.15678,35.02119],[133.1569,35.01955],[133.15425,35.01994],[133.15323,35.01883],[133.15428,35.017],[133.15267,35.01461],[133.15283,35.01217],[133.15717,35.01045],[133.15491,35.00814],[133.15391,35.00516],[133.1508,35.00257],[133.14629,35.00091],[133.14114,35.00067],[133.13647,34.99851],[133.13706,34.99724],[133.13593,34.99443],[133.13697,34.99388],[133.13898,34.99507],[133.13982,34.99386],[133.1404,34.98835],[133.13983,34.98639],[133.13778,34.98495],[133.1382,34.98235],[133.14025,34.97952],[133.13595,34.978],[133.12946,34.97395],[133.1255,34.97393],[133.12297,34.97118],[133.12302,34.96195],[133.12461,34.95805],[133.12288,34.9492],[133.12289,34.94408],[133.11875,34.94209],[133.11573,34.93821],[133.11791,34.93728],[133.11926,34.93407],[133.11769,34.9301],[133.11767,34.9273],[133.11564,34.92465],[133.11721,34.91992],[133.11493,34.91675],[133.10345,34.91493],[133.1004,34.91349],[133.09834,34.91102],[133.09211,34.90652],[133.08847,34.9055],[133.08067,34.89772],[133.07552,34.88605],[133.07318,34.88277],[133.06906,34.88312],[133.06732,34.8812],[133.05357,34.87274],[133.04534,34.86537],[133.03876,34.86123],[133.03436,34.85703],[133.02897,34.85338],[133.02708,34.85077],[133.02324,34.85077],[133.01493,34.84877],[133.00842,34.84965],[133.00392,34.85289],[132.99966,34.85215],[133.00368,34.85302],[133.00846,34.84972],[133.01467,34.8489],[133.02244,34.8506]],[[132.88161,34.80163],[132.88794,34.80301],[132.89326,34.80057],[132.89758,34.80334],[132.89962,34.80359],[132.9069,34.80274],[132.91044,34.80077],[132.9118,34.80202],[132.9217,34.80404],[132.93157,34.81002],[132.93454,34.81878],[132.93883,34.82701],[132.94411,34.82999],[132.9669,34.83764],[132.99631,34.85237],[132.99966,34.85215]],[[133.30088,35.15955],[133.30799,35.16178],[133.31783,35.17046],[133.32579,35.1748],[133.32969,35.18085],[133.32908,35.18287],[133.32965,35.18242],[133.32989,35.18097],[133.32614,35.17496],[133.31792,35.17036],[133.30839,35.16194],[133.30378,35.16002]],[[133.32908,35.18287],[133.32737,35.18522],[133.32774,35.18752],[133.33087,35.18981],[133.33628,35.19079],[133.34024,35.19391],[133.35201,35.19264],[133.35663,35.19405],[133.35802,35.1964],[133.3617,35.19779],[133.36695,35.19566],[133.37235,35.19865],[133.3763,35.20253],[133.38159,35.20156],[133.38714,35.20366],[133.38782,35.20669],[133.38695,35.21139],[133.38789,35.21406],[133.39338,35.21531],[133.39531,35.21697],[133.39878,35.21795],[133.40205,35.2169],[133.40297,35.2198],[133.40538,35.22262],[133.40933,35.2229],[133.41752,35.22562],[133.4203,35.22997],[133.41865,35.23454],[133.41907,35.23569],[133.42599,35.23845],[133.42823,35.2385],[133.43615,35.23489],[133.43808,35.23519],[133.43941,35.23599],[133.44069,35.24225],[133.44667,35.24342],[133.44881,35.24467],[133.45294,35.25065],[133.46542,35.26113],[133.47658,35.26327],[133.47748,35.26521],[133.4755,35.26968],[133.48007,35.27278],[133.47924,35.27479],[133.47964,35.27572],[133.48227,35.27676],[133.48429,35.2814],[133.48496,35.28696],[133.48315,35.28945],[133.48078,35.29021],[133.47854,35.28989],[133.47637,35.29173],[133.46939,35.30351],[133.46469,35.30469],[133.46539,35.3067]],[[133.33876,35.42915],[133.3339,35.43319]]]}}]}