{"type":"FeatureCollection","features":[{"type":"Feature","properties":{"route_id":"461","route_number":461,"name":"国道461号","source":"OpenStreetMap contributors (ODbL)","osm_relations":[6682046]},"geometry":{"type":"MultiLineString","coordinates":[[[140.04232,36.86375],[140.03433,36.8601],[140.04185,36.86362],[140.05966,36.86955],[140.06856,36.86834],[140.08195,36.86479],[140.08769,36.8613],[140.09155,36.86006],[140.11484,36.85652],[140.11619,36.85706],[140.11708,36.85913],[140.1195,36.85885],[140.12287,36.86031],[140.12552,36.86284],[140.12608,36.86452],[140.1255,36.86929],[140.13566,36.87126],[140.1487,36.87058],[140.15641,36.86747],[140.16614,36.86498],[140.16993,36.86201],[140.17258,36.8612],[140.17544,36.85541],[140.17521,36.85255],[140.17366,36.84901],[140.17481,36.84593],[140.17923,36.8479],[140.18325,36.84743],[140.18564,36.8459],[140.1871,36.84453],[140.18749,36.84266],[140.19198,36.83805],[140.19121,36.83151],[140.19269,36.82842],[140.19504,36.82636],[140.19799,36.82532],[140.2027,36.81951],[140.20558,36.81913],[140.20719,36.81802],[140.20995,36.81366],[140.21428,36.81332],[140.21765,36.80703],[140.21852,36.79994],[140.21642,36.78502],[140.21134,36.77876],[140.20899,36.77799],[140.20651,36.77453],[140.20525,36.76701],[140.20304,36.76408],[140.20202,36.76001],[140.20227,36.75768],[140.20348,36.75656],[140.20839,36.75949],[140.21154,36.75884],[140.2161,36.76013],[140.2215,36.76004],[140.22379,36.76421],[140.22925,36.76507],[140.23705,36.77213],[140.24424,36.77518],[140.24702,36.77534],[140.24989,36.77377],[140.25332,36.77307],[140.26042,36.77397],[140.26468,36.77807],[140.2716,36.78068],[140.27521,36.77883],[140.27928,36.77912],[140.28202,36.77808],[140.29471,36.77854],[140.30344,36.77772],[140.30602,36.77912],[140.30595,36.78059],[140.30702,36.78207],[140.31145,36.78317],[140.31392,36.78202],[140.32218,36.7811],[140.32665,36.7777],[140.33056,36.77646],[140.3338,36.77633],[140.34163,36.7789],[140.34532,36.77785],[140.35016,36.77362],[140.35264,36.76907],[140.35579,36.76838],[140.35849,36.76876],[140.35916,36.76647],[140.35863,36.76318],[140.35986,36.76157],[140.36663,36.7608],[140.37174,36.7637],[140.37548,36.76412],[140.37776,36.76217],[140.38142,36.76093],[140.38196,36.75856],[140.38701,36.75841],[140.39057,36.7592],[140.38978,36.7566],[140.39137,36.75296],[140.39369,36.7508],[140.39774,36.74957],[140.40929,36.75879],[140.41152,36.76179],[140.41182,36.76347],[140.42022,36.76501],[140.4237,36.76968],[140.42878,36.77176],[140.42906,36.77019],[140.43269,36.7666],[140.43523,36.76013],[140.43719,36.75835],[140.44145,36.75182],[140.44842,36.75071],[140.45229,36.7488],[140.45347,36.74645],[140.4534,36.74435],[140.45759,36.73796],[140.45716,36.73501],[140.46557,36.70756],[140.47281,36.70929],[140.48791,36.71037],[140.49453,36.71444],[140.49662,36.71419],[140.50387,36.71765],[140.50685,36.72042],[140.50883,36.72541],[140.5104,36.72582],[140.50954,36.72671],[140.51116,36.72771],[140.51075,36.72936],[140.51234,36.73093],[140.51287,36.73345],[140.51682,36.73554],[140.52069,36.73607],[140.52357,36.73496],[140.53883,36.73939],[140.54128,36.73639],[140.54398,36.73602],[140.54637,36.73683],[140.54775,36.73844],[140.55021,36.73829],[140.55101,36.73718],[140.55376,36.7375],[140.55555,36.73654],[140.558,36.73891],[140.55957,36.73891],[140.56206,36.74111],[140.56617,36.74103],[140.56781,36.73984],[140.57783,36.74122],[140.58248,36.74305],[140.59503,36.74276],[140.59876,36.742],[140.60237,36.74331],[140.60491,36.74228],[140.60626,36.74051],[140.60843,36.73962],[140.61108,36.73719],[140.61925,36.73581],[140.6223,36.73128],[140.62628,36.72765],[140.62846,36.72769],[140.63002,36.72921],[140.63243,36.7285],[140.63581,36.72376],[140.63778,36.72579],[140.64015,36.7252],[140.64466,36.72585],[140.64611,36.72495],[140.64952,36.72593],[140.65221,36.72452],[140.65533,36.72528],[140.65717,36.7243],[140.66587,36.72536],[140.67108,36.72484],[140.67807,36.72172],[140.68421,36.71671],[140.68922,36.71528],[140.69307,36.71617],[140.70164,36.71457],[140.70418,36.71162],[140.70998,36.71036],[140.70913,36.70837],[140.71063,36.70132],[140.71438,36.69621],[140.71395,36.69491],[140.7096,36.69125],[140.71024,36.68954],[140.71247,36.68888]],[[139.70408,36.72122],[139.70534,36.72574],[139.70507,36.73355],[139.71241,36.7423],[139.71657,36.74404],[139.72483,36.74539],[139.74457,36.75281],[139.74778,36.75492],[139.75116,36.7615],[139.75463,36.75943],[139.75729,36.76174],[139.75748,36.76441],[139.76034,36.76762],[139.77203,36.76348],[139.78638,36.76361],[139.80178,36.76809],[139.80693,36.77054],[139.81203,36.77561],[139.8147,36.77649],[139.83143,36.76947],[139.84134,36.76712],[139.84473,36.76984],[139.84791,36.77024],[139.86266,36.77732],[139.867,36.78177],[139.86672,36.78554],[139.86793,36.78747],[139.87327,36.78926],[139.8772,36.79429],[139.88735,36.79189],[139.88865,36.79463],[139.89246,36.79608],[139.89602,36.79568],[139.89939,36.79951],[139.90581,36.79931],[139.91756,36.8051],[139.92154,36.80798],[139.93276,36.81053],[139.93512,36.81031],[139.94154,36.80733],[139.94256,36.80981],[139.94581,36.81331],[139.9478,36.81861],[139.94741,36.82475],[139.94887,36.83222],[139.95381,36.83763],[139.95231,36.83654]],[[140.03433,36.8601],[140.02801,36.86682],[140.02257,36.86454],[140.02126,36.86313],[140.01235,36.85955],[139.95381,36.83763]],[[140.12608,36.86452],[140.1256,36.8642]],[[139.71251,36.74229],[139.70526,36.73377],[139.70544,36.72559],[139.70479,36.72356]],[[140.08217,36.8647],[140.06079,36.86946]]]}}]}