{"type":"FeatureCollection","features":[{"type":"Feature","properties":{"route_id":"108","route_number":108,"name":"国道108号","source":"OpenStreetMap contributors (ODbL)","osm_relations":[3118577,9376382,9376383,9376384,9376385,9376386,9376387]},"geometry":{"type":"MultiLineString","coordinates":[[[140.70489,38.73665],[140.69673,38.7404],[140.69551,38.74186],[140.6969,38.75184],[140.70411,38.76091],[140.7048,38.76607],[140.70032,38.77841],[140.69712,38.78314],[140.69535,38.78398],[140.68791,38.78297],[140.68567,38.78363],[140.67801,38.78827],[140.67519,38.78855],[140.67039,38.7938],[140.66651,38.79373],[140.65481,38.79625],[140.64799,38.80018],[140.6471,38.8023],[140.64752,38.80907],[140.64392,38.81412],[140.64603,38.81603],[140.64351,38.8193],[140.64339,38.82394],[140.64164,38.82575],[140.63679,38.82697],[140.63619,38.8289],[140.63889,38.83383],[140.63928,38.83831],[140.63475,38.84279],[140.63433,38.84415],[140.63604,38.84605],[140.64147,38.84514],[140.64225,38.84583],[140.63852,38.85143],[140.63652,38.85159],[140.63492,38.8496],[140.63348,38.84921],[140.62968,38.85022],[140.62585,38.85283],[140.62234,38.854],[140.61502,38.8532],[140.59686,38.85456],[140.58245,38.85823],[140.57749,38.86073],[140.57343,38.86474],[140.56848,38.87837],[140.56337,38.89771],[140.56264,38.90357],[140.55864,38.91183],[140.55956,38.91839],[140.55716,38.92367],[140.55552,38.92527],[140.55537,38.92719],[140.5534,38.92962],[140.55372,38.93284],[140.55042,38.93587],[140.5496,38.9402],[140.55054,38.94494],[140.54831,38.94762],[140.54851,38.94932],[140.54576,38.95044],[140.5449,38.95209],[140.541,38.95478],[140.53909,38.95775],[140.5334,38.96001],[140.52747,38.96706],[140.52004,38.97136],[140.5191,38.97281],[140.52036,38.97774],[140.51505,38.98199],[140.50651,38.97977],[140.49482,38.9785],[140.48771,38.98187],[140.48228,38.98703],[140.47439,38.98727],[140.47277,38.98842],[140.47075,38.99399],[140.46764,38.99683],[140.46325,39.00315],[140.46224,39.00591],[140.46292,39.01032],[140.46149,39.01597],[140.45823,39.02119],[140.45707,39.02526],[140.45254,39.02914],[140.45358,39.03202],[140.44749,39.04132],[140.44695,39.04574],[140.44759,39.05141],[140.44465,39.05157],[140.43967,39.05368],[140.43698,39.05363],[140.42796,39.05172],[140.42316,39.04793],[140.42083,39.04713],[140.40655,39.05121],[140.40582,39.04982],[140.40448,39.0497],[140.4024,39.05223],[140.40024,39.05322],[140.38842,39.05189],[140.38037,39.05668],[140.3773,39.0569],[140.37698,39.05839],[140.37499,39.05894],[140.37268,39.06084],[140.36437,39.06416],[140.35967,39.06491],[140.35314,39.06364],[140.34658,39.06458],[140.32532,39.07285],[140.31868,39.07692],[140.31067,39.07994],[140.30587,39.08351],[140.29908,39.09135],[140.29864,39.09346],[140.29974,39.09861],[140.29779,39.10274],[140.29143,39.10825],[140.29093,39.11053],[140.28623,39.11728],[140.28482,39.12204],[140.28037,39.1244],[140.27629,39.13132],[140.27028,39.1347],[140.26403,39.14058],[140.25729,39.14443],[140.2557,39.14658],[140.25239,39.14813],[140.24728,39.1538],[140.24477,39.15512],[140.23817,39.15547],[140.23469,39.15943],[140.23064,39.1616],[140.23025,39.16569],[140.22896,39.16765],[140.22167,39.16978],[140.21861,39.17536],[140.21296,39.17702],[140.20507,39.18152],[140.1958,39.18203],[140.19145,39.18387],[140.19041,39.18753],[140.18756,39.19065],[140.19102,39.20356],[140.19091,39.20584],[140.1883,39.20931],[140.1895,39.21306],[140.18874,39.21472],[140.1861,39.21614],[140.17565,39.21832],[140.14949,39.2272],[140.14814,39.22994],[140.14214,39.23163],[140.13632,39.23713],[140.13676,39.24776],[140.13607,39.24867],[140.13253,39.24952],[140.12493,39.24572],[140.12034,39.24788],[140.11874,39.25063],[140.11836,39.25756],[140.1212,39.26149],[140.12144,39.26358],[140.11565,39.26595],[140.11062,39.26941],[140.11062,39.27135],[140.1151,39.27741],[140.11586,39.28036],[140.11134,39.28531],[140.10662,39.28836],[140.10269,39.29332],[140.10292,39.30447],[140.10121,39.30865],[140.10084,39.31264],[140.09791,39.31896],[140.09444,39.32144],[140.09279,39.3238],[140.08503,39.32457],[140.07384,39.33173],[140.07344,39.33273],[140.07492,39.33591],[140.07306,39.34146],[140.0678,39.34399],[140.06442,39.34676],[140.04825,39.3626],[140.04776,39.36469],[140.0492,39.36845],[140.05653,39.37977],[140.0427,39.38601],[140.032,39.38641]],[[140.87789,38.64967],[140.87742,38.64729],[140.87801,38.64533],[140.87752,38.64885],[140.88057,38.65567],[140.8803,38.65742],[140.87193,38.66336],[140.85993,38.67803],[140.87198,38.66339],[140.88038,38.6574],[140.88062,38.65567],[140.87789,38.64967]],[[141.28582,38.44288],[141.28244,38.44486],[141.27511,38.44677],[141.27163,38.4485],[141.2703,38.45023],[141.26776,38.45104],[141.26681,38.45063],[141.26347,38.45348],[141.26688,38.45072]],[[141.14007,38.53131],[141.14302,38.5316],[141.14201,38.53257],[141.13549,38.52934],[141.12358,38.533],[141.11707,38.53776],[141.10937,38.54151],[141.10834,38.54327],[141.10799,38.54642],[141.10664,38.54769],[141.10196,38.54861],[141.07791,38.55658],[141.07242,38.55693],[141.05688,38.55257],[141.05131,38.55251],[141.04309,38.55488],[141.03477,38.55932],[141.02691,38.55955],[141.00809,38.56549],[140.96475,38.57371],[140.96558,38.57634],[140.96157,38.57793],[140.95555,38.58211],[140.95007,38.5834],[140.94454,38.58605],[140.94013,38.58888],[140.9386,38.59107],[140.9332,38.59504],[140.93893,38.59089],[140.94025,38.58889],[140.95048,38.58334]],[[140.85993,38.67803],[140.85627,38.68353],[140.84676,38.69267],[140.84544,38.69561],[140.84021,38.70047],[140.83691,38.7053],[140.82951,38.71315],[140.82224,38.71659],[140.81833,38.71581],[140.8141,38.71706],[140.8085,38.71607],[140.80426,38.71751],[140.80273,38.71879],[140.79984,38.72431],[140.7916,38.73143],[140.78448,38.7338],[140.77554,38.73312],[140.77751,38.7329]],[[140.9332,38.59504],[140.93155,38.59773],[140.92642,38.60199],[140.9216,38.60936],[140.91528,38.61346],[140.9092,38.62025],[140.89762,38.62877],[140.88638,38.63923],[140.87801,38.64533]],[[141.26347,38.45348],[141.25679,38.4565],[141.25066,38.45713],[141.24348,38.46053],[141.23838,38.46752],[141.22815,38.47208],[141.21285,38.47231],[141.21026,38.47123],[141.20617,38.47713],[141.20472,38.48051],[141.20533,38.48331],[141.20059,38.49109],[141.20298,38.49836],[141.20055,38.50355],[141.20026,38.50625],[141.1785,38.5139],[141.17621,38.51766],[141.17624,38.52047],[141.1716,38.52304],[141.16286,38.52299],[141.15759,38.52634],[141.14947,38.52714],[141.14302,38.5316]],[[140.95271,38.55374],[140.96983,38.55627],[140.97373,38.55887],[140.97647,38.56469],[140.97826,38.5664],[140.98642,38.56869],[140.99097,38.56869]],[[140.69619,38.78381],[140.70211,38.78502],[140.70306,38.78325],[140.70745,38.78163],[140.71024,38.77837],[140.70929,38.77556],[140.7124,38.76906],[140.71059,38.76569],[140.71149,38.76449],[140.71179,38.7613],[140.7109,38.75947],[140.7113,38.75711],[140.70801,38.75388],[140.70508,38.75361],[140.70176,38.75203],[140.70103,38.74944],[140.70217,38.74684],[140.70514,38.74511],[140.70779,38.74501],[140.712,38.74791],[140.71951,38.75005],[140.72119,38.74824],[140.72594,38.74887],[140.73333,38.74851],[140.73761,38.74609],[140.73939,38.74188],[140.742,38.7393],[140.75459,38.73352],[140.7581,38.73331],[140.76411,38.73594],[140.77554,38.73312]]]}}]}