{"type":"FeatureCollection","features":[{"type":"Feature","properties":{"route_id":"9","route_number":9,"name":"国道9号","source":"OpenStreetMap contributors (ODbL)","osm_relations":[2076294,2957977,8400079,8400080,8402331,8402388,8403742,8403761,8403866,8403879,8404324]},"geometry":{"type":"MultiLineString","coordinates":[[[133.86379,35.49548],[133.86377,35.49603],[133.87322,35.49697],[133.86705,35.49567],[133.84785,35.49517],[133.81696,35.49863],[133.77605,35.4984],[133.72707,35.50182],[133.71798,35.50005],[133.70991,35.50292],[133.70449,35.5037],[133.67551,35.50375],[133.66672,35.50519],[133.64444,35.51161],[133.6399,35.51554],[133.63315,35.51786],[133.60695,35.51939],[133.5932,35.52341],[133.58247,35.525],[133.56651,35.5206],[133.55768,35.52039],[133.54915,35.51609],[133.5377,35.51362],[133.51706,35.51404],[133.50721,35.51286],[133.50107,35.51372],[133.47858,35.49921],[133.47464,35.49792],[133.46192,35.49676],[133.45143,35.49276],[133.4459,35.48854],[133.44132,35.48269],[133.43745,35.48013],[133.43189,35.46659],[133.42303,35.45517],[133.39061,35.44368],[133.38846,35.44122],[133.38785,35.43586],[133.38693,35.43398],[133.37998,35.42952],[133.37546,35.42891],[133.35888,35.43273],[133.35283,35.43262],[133.3413,35.43896],[133.33241,35.43189],[133.33168,35.4302],[133.32678,35.4254],[133.32547,35.42309],[133.32487,35.41629],[133.32227,35.41493],[133.32059,35.41171],[133.31604,35.40939],[133.3082,35.40807],[133.29739,35.40883],[133.29468,35.41319],[133.28948,35.41727],[133.28774,35.42157],[133.28349,35.42494],[133.27678,35.42534],[133.27235,35.42789],[133.25731,35.42883],[133.24677,35.43299],[133.20898,35.43366],[133.20547,35.43238],[133.20018,35.43261],[133.19487,35.43183],[133.19004,35.43232],[133.18501,35.43084],[133.17798,35.43298],[133.16615,35.43427],[133.16189,35.43237],[133.15963,35.42893],[133.15761,35.4277],[133.14813,35.42621],[133.14194,35.42648],[133.13479,35.42883],[133.1233,35.43548],[133.11716,35.44274],[133.11336,35.44474],[133.11098,35.44841],[133.1054,35.4496],[133.10144,35.45237],[133.08001,35.45989],[133.05158,35.45862],[133.04453,35.44347],[133.04335,35.44239],[133.05124,35.45851],[133.06669,35.45891]],[[134.14409,35.52833],[134.15788,35.52723],[134.16871,35.52303],[134.18156,35.52581],[134.19155,35.52044],[134.19392,35.5199],[134.20707,35.51941],[134.22391,35.52404],[134.2311,35.5219],[134.22392,35.52395],[134.20703,35.51931],[134.19366,35.51981],[134.1816,35.52573],[134.16899,35.52291],[134.15808,35.52708],[134.14409,35.52833],[134.13843,35.52677],[134.13054,35.52727],[134.11687,35.52559],[134.11329,35.52588],[134.10387,35.52074],[134.09505,35.52315],[134.08969,35.52284],[134.08221,35.51852],[134.07195,35.51597],[134.06147,35.51899],[134.05394,35.51808],[134.03414,35.51761],[134.02623,35.51854],[134.02297,35.51566],[134.01737,35.51337],[134.00899,35.51193],[134.00174,35.51309]],[[135.68938,34.97865],[135.68672,34.97392],[135.68103,34.97076],[135.6787,34.97032],[135.67356,34.97102],[135.66576,34.97538],[135.65898,34.97678],[135.65665,34.97905],[135.65622,34.98054],[135.65975,34.97687],[135.66611,34.97531],[135.6736,34.97109],[135.67982,34.97047],[135.68693,34.9742],[135.68948,34.97878],[135.7004,34.98946],[135.71384,34.99583],[135.75966,34.99632]],[[135.75966,34.99611],[135.71987,34.99611]],[[135.65622,34.98054],[135.65259,34.98764],[135.65323,34.98978],[135.6505,34.99188],[135.64666,34.9925],[135.64205,34.99139],[135.63871,34.99176],[135.63711,34.9899],[135.63437,34.98963],[135.63184,34.9896],[135.62761,34.9917],[135.62535,34.99052],[135.62252,34.99351],[135.60739,35.00112],[135.58773,35.00446],[135.57959,35.00686],[135.57284,35.01301],[135.56328,35.01782],[135.55753,35.0245],[135.54676,35.03981],[135.54509,35.04948],[135.54771,35.05425],[135.54801,35.05672],[135.54451,35.06246],[135.53994,35.06615],[135.52927,35.071],[135.51568,35.08117],[135.50499,35.08313],[135.50179,35.08969],[135.49701,35.09388],[135.49548,35.09661],[135.49279,35.09916],[135.47821,35.10729],[135.47643,35.10899],[135.46511,35.11224],[135.46207,35.11523],[135.45255,35.11929],[135.45128,35.12091],[135.45214,35.12286],[135.45172,35.12561],[135.44823,35.12253],[135.4458,35.12321],[135.44305,35.12233],[135.43898,35.12247],[135.43632,35.12394],[135.43611,35.12503],[135.43471,35.1254],[135.43368,35.12698],[135.43358,35.12931],[135.42559,35.13735],[135.42548,35.13941],[135.4286,35.1497],[135.42518,35.16255],[135.42375,35.16509],[135.42528,35.16257],[135.42864,35.15007],[135.42813,35.14769]],[[132.48982,35.19914],[132.50337,35.20673],[132.50396,35.2093],[132.50358,35.20708],[132.50135,35.20541],[132.48781,35.19821],[132.47595,35.19674],[132.47313,35.1985],[132.46674,35.19947],[132.46242,35.20174],[132.4576,35.20084],[132.45223,35.1964],[132.44739,35.19627],[132.44017,35.19391],[132.43758,35.19283],[132.43574,35.18996],[132.42974,35.18876],[132.42376,35.18292],[132.42343,35.17973],[132.41458,35.1628],[132.41027,35.15843],[132.40584,35.15757],[132.40488,35.14768],[132.40205,35.14497],[132.40047,35.13657],[132.39449,35.13251],[132.39416,35.12866],[132.38822,35.1246],[132.38515,35.12409],[132.38104,35.12025],[132.37965,35.11183],[132.3767,35.10917],[132.37333,35.10044],[132.37324,35.0966],[132.36433,35.09224],[132.35134,35.0902],[132.34761,35.08805],[132.34716,35.08676],[132.34833,35.08344],[132.34734,35.08164],[132.34692,35.07527],[132.34542,35.07115],[132.34224,35.07017],[132.33942,35.06715],[132.33144,35.07146],[132.32823,35.0717],[132.32307,35.06985],[132.32066,35.0647],[132.3179,35.06213],[132.3169,35.05888],[132.31352,35.05595],[132.31222,35.05121],[132.30903,35.05019],[132.30382,35.0462],[132.29534,35.04495],[132.28152,35.03721],[132.26482,35.03569],[132.25881,35.03766],[132.25528,35.03553],[132.25257,35.03656],[132.24503,35.03486],[132.23341,35.02535],[132.23245,35.02286],[132.23245,35.02012],[132.23339,35.01796],[132.23264,35.01651],[132.22064,35.01239],[132.21958,35.01077],[132.20646,35.00354],[132.19483,34.99851],[132.18954,34.99216],[132.18819,34.98834],[132.18378,34.98329],[132.175,34.97782],[132.16412,34.97472],[132.15948,34.97231],[132.15514,34.97152],[132.14999,34.96851],[132.14909,34.96621],[132.14475,34.96128],[132.13574,34.95552],[132.13456,34.95319],[132.13173,34.95133],[132.1298,34.94801],[132.12538,34.94658],[132.12106,34.9397],[132.11853,34.93822],[132.11357,34.93776],[132.11107,34.93601],[132.10898,34.93019],[132.10989,34.92332],[132.10668,34.92042],[132.10691,34.91912],[132.10877,34.9181],[132.10888,34.9168],[132.10349,34.91146],[132.10126,34.90711],[132.09777,34.90563],[132.0863,34.90443],[132.08312,34.90026],[132.07599,34.90032],[132.07182,34.89885],[132.07282,34.89518],[132.07179,34.89243],[132.06899,34.88974],[132.06464,34.88783],[132.0626,34.88255],[132.06074,34.8804],[132.0598,34.87482],[132.05599,34.86979],[132.05197,34.86816],[132.04434,34.86923],[132.03208,34.86545],[132.02731,34.8654],[132.02226,34.85803],[132.0169,34.85586],[132.01184,34.85206],[132.01004,34.84476],[132.0034,34.84077],[131.99962,34.83991],[131.99661,34.8336],[131.99303,34.83333],[131.99213,34.83011],[131.9895,34.82773],[131.9803,34.82347],[131.97727,34.81989],[131.97708,34.81626],[131.97536,34.81311],[131.9758,34.81171],[131.97488,34.81016],[131.97453,34.80552],[131.97099,34.80263],[131.96903,34.79565],[131.96621,34.79345],[131.96343,34.78982],[131.96436,34.78761],[131.9647,34.78231],[131.96064,34.77557],[131.95872,34.77501],[131.95352,34.7764],[131.94832,34.77606],[131.94352,34.76814],[131.93962,34.7666],[131.934,34.76858],[131.93065,34.76724],[131.92618,34.7674],[131.92434,34.7658],[131.92333,34.76144],[131.90935,34.75408],[131.89536,34.75649],[131.89118,34.75527],[131.88481,34.75563],[131.8735,34.74785],[131.87309,34.74634],[131.87562,34.74414],[131.87587,34.74214],[131.87391,34.73921],[131.87411,34.73428],[131.87309,34.73194],[131.8725,34.72497],[131.86439,34.7221],[131.85834,34.71436],[131.85838,34.71205],[131.8633,34.70548],[131.86463,34.70157],[131.86496,34.69937],[131.86379,34.69628],[131.85785,34.69239],[131.85552,34.68911],[131.84834,34.68763],[131.83657,34.68318],[131.83514,34.68166],[131.83429,34.67873],[131.83149,34.67842],[131.82275,34.67142],[131.8202,34.66411],[131.81053,34.65883],[131.81263,34.65146],[131.81198,34.64568],[131.79974,34.64007],[131.79761,34.63738],[131.79799,34.63614],[131.80644,34.62853],[131.80679,34.62414],[131.80614,34.62105],[131.80164,34.61654],[131.79976,34.61058],[131.79976,34.60808],[131.79829,34.60633],[131.80158,34.59977],[131.80137,34.59296],[131.79725,34.58823],[131.79322,34.58627],[131.7923,34.58506],[131.79658,34.57668],[131.79237,34.5699],[131.7934,34.56783],[131.79682,34.56466],[131.80012,34.55683],[131.81241,34.54953],[131.81729,34.54491],[131.82015,34.54353],[131.82229,34.54415],[131.82668,34.54674],[131.82883,34.5513],[131.83074,34.55205],[131.83333,34.55099],[131.83345,34.54626],[131.83456,34.54382],[131.83238,34.54252],[131.83161,34.54109],[131.83234,34.537],[131.83106,34.52833],[131.82707,34.51983],[131.81689,34.50563],[131.81292,34.49908],[131.81034,34.49221],[131.8075,34.48906],[131.80547,34.48507],[131.80285,34.48275],[131.79969,34.48245],[131.79426,34.47908],[131.79244,34.47907],[131.78923,34.48059],[131.78565,34.47886],[131.78328,34.47647],[131.77884,34.47531],[131.77725,34.47403],[131.77695,34.47241],[131.77875,34.4695],[131.77872,34.46786],[131.77481,34.45784],[131.77326,34.45596],[131.77336,34.45245],[131.77499,34.44944],[131.77278,34.44713],[131.77204,34.44366],[131.77272,34.4415],[131.76886,34.44092],[131.76882,34.43884],[131.76745,34.4372],[131.76808,34.43408],[131.76259,34.42857],[131.75515,34.42346],[131.75051,34.41586],[131.74853,34.41387],[131.74019,34.40772],[131.72352,34.39764],[131.69984,34.38],[131.69604,34.37532],[131.68724,34.37331],[131.68163,34.36664],[131.67995,34.361],[131.67679,34.3595],[131.67301,34.354],[131.66725,34.35166],[131.66022,34.35135],[131.6412,34.34636],[131.63578,34.34657],[131.63328,34.34581],[131.61759,34.33466],[131.61115,34.3277],[131.60941,34.32419],[131.60328,34.31911],[131.60105,34.31809],[131.59661,34.3176],[131.57947,34.30627],[131.57547,34.30191],[131.57406,34.29861],[131.56957,34.29564],[131.56736,34.29094],[131.5648,34.28875],[131.55922,34.28631],[131.55535,34.28249],[131.5535,34.27918],[131.54833,34.27385],[131.54094,34.26816],[131.534,34.26028],[131.53296,34.25758],[131.53375,34.25463],[131.53334,34.25328],[131.52268,34.25036],[131.52304,34.24469],[131.52025,34.24099],[131.518,34.23948],[131.51704,34.23722],[131.51741,34.23468],[131.51479,34.23165],[131.51581,34.22661],[131.51374,34.2233],[131.51629,34.2217],[131.51679,34.22018],[131.516,34.21878],[131.51871,34.21446],[131.51634,34.21176],[131.51482,34.20704],[131.50655,34.2012],[131.49187,34.19335],[131.481,34.18924],[131.47294,34.18416],[131.46867,34.18048],[131.46139,34.1765],[131.43347,34.1562],[131.42402,34.13658],[131.42094,34.13333],[131.40604,34.12264],[131.40177,34.11719],[131.40083,34.11068],[131.39564,34.10587],[131.39064,34.09239],[131.39131,34.09074],[131.39516,34.08727],[131.39686,34.08371],[131.38865,34.08],[131.38706,34.07794],[131.3851,34.07237],[131.37644,34.06581],[131.36653,34.05692],[131.36342,34.05526],[131.36045,34.05479],[131.34497,34.05513],[131.3367,34.05645],[131.32773,34.05657],[131.32515,34.05577],[131.32072,34.0569],[131.3157,34.05564],[131.31306,34.05665],[131.31151,34.05873],[131.30818,34.05861],[131.30656,34.06137],[131.29969,34.06058],[131.29756,34.05957],[131.29037,34.06007],[131.28889,34.0592],[131.28619,34.05373],[131.28224,34.04926],[131.27885,34.04139],[131.27441,34.03996],[131.26507,34.04018],[131.25248,34.03632],[131.24889,34.03848],[131.24591,34.04204],[131.24314,34.043],[131.23714,34.04313],[131.23152,34.04479],[131.22863,34.04405],[131.22521,34.04743],[131.22204,34.0458],[131.21504,34.04421],[131.20516,34.04683],[131.19589,34.05162],[131.1899,34.05119],[131.18351,34.04923],[131.17366,34.044],[131.1612,34.04279],[131.15426,34.04268],[131.14932,34.04368],[131.14636,34.04524],[131.14258,34.04919],[131.13912,34.05023],[131.12644,34.04644],[131.11883,34.04292],[131.10971,34.04428],[131.10245,34.04323],[131.08556,34.04425],[131.07661,34.04643],[131.06851,34.04493],[131.06212,34.04809],[131.05799,34.05379],[131.04977,34.06058],[131.04573,34.06138],[131.03441,34.06051],[131.02987,34.05773],[131.01708,34.03574],[131.00267,34.02066],[130.99526,34.00912],[130.99107,33.99892],[130.99135,33.98878],[130.98591,33.984],[130.98135,33.98192],[130.97636,33.97663],[130.96808,33.97249],[130.96162,33.96794],[130.9572,33.96633],[130.95245,33.96093],[130.94542,33.95707],[130.94199,33.95648],[130.9384,33.95197],[130.9338,33.95248],[130.92679,33.95083],[130.92261,33.95123],[130.92604,33.95068],[130.93366,33.95237],[130.93847,33.95189],[130.9421,33.95644],[130.94547,33.95701],[130.95243,33.96083],[130.95725,33.96627],[130.96163,33.96788],[130.96813,33.97243],[130.97642,33.97659],[130.98141,33.98186],[130.98591,33.98391],[130.9914,33.9887],[130.99126,33.99947],[130.99538,34.00908],[131.00279,34.02064],[131.0166,34.0349],[131.0297,34.05731],[131.0318,34.05934],[131.03595,34.06063],[131.04608,34.06129],[131.0491,34.06074],[131.05785,34.05379],[131.06177,34.04826],[131.06707,34.0453]],[[134.78438,35.37755],[134.782,35.37999],[134.78916,35.3731],[134.79295,35.37127],[134.80464,35.36724],[134.809,35.36731],[134.81413,35.3662],[134.81937,35.36042],[134.82526,35.35683],[134.83298,35.35453],[134.83668,35.3486],[134.84399,35.33994],[134.85091,35.33837],[134.86879,35.3287],[134.8758,35.32592],[134.87737,35.32481],[134.87877,35.32181],[134.88203,35.31921],[134.88531,35.31869],[134.8883,35.31707],[134.89281,35.32003],[134.8956,35.32049],[134.89804,35.32252],[134.90226,35.32392],[134.90616,35.32871],[134.91035,35.33087],[134.91478,35.33464],[134.91954,35.33326],[134.92866,35.33463],[134.93287,35.33312],[134.9364,35.33282],[134.94026,35.33121],[134.94324,35.32895],[134.9461,35.32926],[134.95844,35.32522],[134.96593,35.32592],[134.96891,35.32435],[134.97772,35.32301],[134.98539,35.31992],[134.99075,35.32131],[135.00129,35.32003],[135.01144,35.32066],[135.01821,35.32343],[135.02095,35.32163],[135.02286,35.32142],[135.03063,35.32262],[135.03297,35.32545],[135.03544,35.32612],[135.04257,35.32502],[135.04645,35.32304],[135.0475,35.32361],[135.0488,35.32625],[135.05442,35.32563],[135.06475,35.32824],[135.0717,35.33306],[135.07743,35.33212],[135.08452,35.3337],[135.09285,35.33333],[135.09767,35.33459],[135.10009,35.33103],[135.09952,35.32848],[135.10041,35.32643],[135.09721,35.32443],[135.09699,35.32335],[135.10288,35.31145],[135.10367,35.30537],[135.10819,35.30247],[135.11003,35.29728],[135.11313,35.29612],[135.11797,35.29257],[135.1231,35.2906],[135.133,35.29128],[135.14084,35.29011],[135.14518,35.29069],[135.15253,35.28738],[135.1586,35.28722],[135.17934,35.28228],[135.18159,35.27931],[135.18351,35.27468],[135.18197,35.26894],[135.18232,35.26783],[135.18621,35.26401],[135.1997,35.25779],[135.2148,35.24794],[135.21741,35.24294],[135.21907,35.23743],[135.21808,35.23488],[135.21848,35.23282],[135.22395,35.23093],[135.22624,35.2274],[135.22488,35.22204],[135.2276,35.22036],[135.23236,35.2191],[135.23617,35.21663],[135.23782,35.21409],[135.24259,35.21169],[135.24647,35.20862],[135.24717,35.20703],[135.24628,35.20403],[135.24866,35.20146],[135.25645,35.2],[135.26063,35.20454],[135.26527,35.20534],[135.26947,35.20844],[135.27482,35.20771],[135.28293,35.20859],[135.28422,35.20796],[135.28446,35.20661],[135.28137,35.20249],[135.28303,35.19958],[135.28327,35.19752],[135.28746,35.19327],[135.29646,35.18901],[135.30229,35.19034],[135.30672,35.18977],[135.30931,35.19076],[135.31407,35.18774],[135.31814,35.18874],[135.32226,35.18808],[135.3288,35.18877],[135.33351,35.19036],[135.33835,35.1857],[135.34411,35.1832],[135.34862,35.17949],[135.35353,35.17878],[135.36074,35.17933],[135.36319,35.18101],[135.37328,35.18265],[135.37558,35.18228],[135.38048,35.17969],[135.38776,35.18035],[135.39529,35.17743],[135.40452,35.17673],[135.40945,35.17502],[135.41794,35.17017],[135.42375,35.16509]],[[135.18358,35.27365],[135.1811,35.28003],[135.17767,35.28305],[135.15859,35.28714],[135.15249,35.2873],[135.1449,35.29063],[135.14059,35.29004],[135.13301,35.2912],[135.12272,35.29057],[135.11796,35.29244],[135.10945,35.29806]],[[131.34392,34.0553],[131.36071,34.05489],[131.365,34.05602],[131.38496,34.07237],[131.38695,34.07796],[131.3886,34.08009],[131.39652,34.0842],[131.39491,34.08745],[131.39124,34.0907],[131.39055,34.09239],[131.39554,34.10589],[131.40084,34.11092],[131.40181,34.11756],[131.40607,34.12282],[131.42094,34.13348],[131.42409,34.13685],[131.43186,34.15421],[131.43427,34.15708],[131.4613,34.17657],[131.46863,34.18058],[131.47257,34.18404],[131.48095,34.18931],[131.49187,34.19347],[131.50648,34.20127],[131.51482,34.20704]],[[132.75441,35.37364],[132.76525,35.37628],[132.77373,35.37525],[132.76675,35.37618],[132.76283,35.37577],[132.75441,35.37364],[132.74809,35.37111],[132.73854,35.36924],[132.73211,35.36617],[132.72486,35.35679],[132.72433,35.35384],[132.72483,35.34959],[132.72352,35.3469],[132.7102,35.33884],[132.68101,35.3339],[132.6752,35.32982],[132.67325,35.32589],[132.66937,35.32304],[132.66619,35.31906],[132.66241,35.31601],[132.65859,35.30871],[132.64975,35.30143],[132.64755,35.29593],[132.64365,35.29495],[132.63808,35.29163],[132.63306,35.29042],[132.62554,35.2845],[132.61882,35.28261],[132.61712,35.28042],[132.6136,35.27991],[132.61129,35.27826],[132.60895,35.27827],[132.59697,35.27511],[132.59304,35.27598],[132.58669,35.27461],[132.58552,35.27288],[132.58095,35.27052],[132.58197,35.26588],[132.58148,35.26209],[132.57763,35.2609],[132.57667,35.25706],[132.57024,35.25263],[132.56949,35.24938],[132.56733,35.2485],[132.56113,35.24978],[132.55718,35.24714],[132.54945,35.24416],[132.54541,35.2448],[132.54186,35.2431],[132.52686,35.2332],[132.50942,35.219],[132.50517,35.21364],[132.50396,35.2093]],[[133.04335,35.44239],[133.03924,35.4402],[133.03654,35.43734],[133.03293,35.43576],[133.02735,35.43639],[133.02316,35.43504],[133.01426,35.43473],[133.00905,35.4336],[133.00531,35.43145],[133.00181,35.4305],[133.01687,35.43466]],[[134.782,35.37999],[134.77746,35.38531],[134.77241,35.39603],[134.77015,35.39761],[134.76693,35.39809],[134.76371,35.39731],[134.7579,35.3939],[134.75473,35.39427],[134.75158,35.39324],[134.74138,35.39303],[134.734,35.39109],[134.72572,35.38653],[134.71559,35.38491],[134.7082,35.38513],[134.69928,35.38382],[134.69079,35.38701],[134.68351,35.38695],[134.67896,35.38571],[134.67674,35.38356],[134.67145,35.38292],[134.66666,35.3806],[134.657,35.38131],[134.65074,35.38023],[134.64472,35.37618],[134.64066,35.37492],[134.63531,35.37858],[134.62909,35.38746],[134.62593,35.38964],[134.62708,35.38997],[134.62693,35.38906],[134.62574,35.38929],[134.62528,35.3917],[134.6226,35.39361],[134.61987,35.3942],[134.61792,35.39732],[134.60287,35.40798],[134.60041,35.41194],[134.60017,35.41342],[134.60168,35.41749],[134.60041,35.41921],[134.60089,35.42136],[134.60008,35.42916],[134.60142,35.43147],[134.6012,35.43644],[134.60252,35.4452],[134.60133,35.44904],[134.60113,35.45717],[134.60281,35.46376],[134.59807,35.47114],[134.59439,35.47307],[134.58898,35.47337],[134.58524,35.47773],[134.58609,35.48056],[134.57608,35.48566],[134.57515,35.48851],[134.5702,35.48977],[134.56552,35.49373],[134.56246,35.49354],[134.55218,35.48787],[134.55058,35.4884],[134.54874,35.49051],[134.54091,35.49286],[134.53763,35.5008],[134.52374,35.51241],[134.52196,35.52219],[134.5185,35.52645],[134.51392,35.53511],[134.50781,35.54051],[134.50611,35.54309],[134.5012,35.54558],[134.49944,35.54772],[134.49348,35.5516],[134.48609,35.56006],[134.48361,35.56109],[134.48198,35.56565],[134.47412,35.5629],[134.46751,35.55689],[134.46318,35.55626],[134.45497,35.55038],[134.44719,35.54674],[134.44533,35.54453],[134.44397,35.54013],[134.44047,35.53687],[134.44079,35.53245],[134.43993,35.53062],[134.4331,35.526],[134.43026,35.52509],[134.41211,35.52452],[134.40584,35.52672],[134.40099,35.52521],[134.39906,35.52541],[134.39429,35.52936],[134.38293,35.5344],[134.38038,35.54681],[134.37761,35.54986],[134.3759,35.5533],[134.36632,35.55706],[134.34397,35.56079],[134.34211,35.56393],[134.33749,35.56386],[134.33324,35.56702],[134.32186,35.56721],[134.31558,35.57274],[134.31374,35.57292],[134.30534,35.57175],[134.29107,35.56701],[134.2868,35.56362],[134.2792,35.55328],[134.27542,35.55124],[134.26451,35.54792],[134.25527,35.53982],[134.26449,35.54795],[134.27539,35.55129],[134.27916,35.55332],[134.28675,35.56364],[134.29105,35.56704],[134.3064,35.57206],[134.31464,35.57324],[134.31558,35.57274]],[[132.79116,35.37334],[132.80019,35.37953],[132.79211,35.3738],[132.78966,35.3729],[132.77373,35.37525]],[[133.00181,35.4305],[132.99843,35.42966],[132.98581,35.43092],[132.98294,35.43],[132.98076,35.42651],[132.9735,35.4233],[132.9687,35.42357],[132.96508,35.42277],[132.95861,35.42401],[132.95417,35.42122],[132.93568,35.41799],[132.93202,35.41578],[132.92222,35.41196],[132.91605,35.41283],[132.90962,35.41174],[132.89944,35.40355],[132.89308,35.40201],[132.88627,35.39901],[132.87251,35.39756],[132.86202,35.39424],[132.85159,35.39654],[132.82673,35.39056],[132.8178,35.39037],[132.80928,35.38674],[132.80531,35.38424],[132.80019,35.37953]],[[133.00621,35.43205],[133.00866,35.43355],[133.01372,35.43472],[133.02333,35.43514],[133.02734,35.43649],[133.03161,35.43579],[133.03604,35.43708]],[[134.0256,35.51838],[134.01809,35.51928],[134.01597,35.52107],[134.0168,35.52405],[134.01529,35.52588],[134.01177,35.52773],[134.00591,35.52917],[134.0016,35.52445],[133.99452,35.52282],[133.99372,35.51988],[133.99248,35.51914],[133.98385,35.52156],[133.9824,35.5234],[133.97955,35.52144],[133.97422,35.52241],[133.97103,35.52107],[133.96418,35.52269],[133.96026,35.51841],[133.95347,35.51484],[133.93838,35.51282],[133.93613,35.50994],[133.93507,35.50657],[133.93343,35.50559],[133.91221,35.50585],[133.90818,35.50734],[133.90588,35.51],[133.90287,35.51016],[133.89806,35.50758],[133.89289,35.50667],[133.88701,35.50696],[133.88263,35.5058],[133.8786,35.50651],[133.87319,35.5041],[133.87322,35.49697]],[[133.76281,35.49944],[133.76524,35.49987],[133.7797,35.49876],[133.81341,35.49944],[133.8245,35.49862],[133.82795,35.49754]],[[134.01567,35.52555],[134.01696,35.52417],[134.01632,35.52295]],[[134.25703,35.54197],[134.23735,35.52268],[134.23426,35.52144],[134.2311,35.5219]],[[132.74995,35.37171],[132.73943,35.36939],[132.73178,35.36578],[132.72523,35.35719],[132.72449,35.3527]],[[134.00208,35.51258],[134.00528,35.51171]],[[134.25748,35.54166],[134.2573,35.54149]],[[131.82387,34.68721],[131.82451,34.68807],[131.82393,34.68719]],[[132.10746,34.91881],[132.10654,34.9195],[132.107,34.9212]],[[134.00789,35.52874],[134.00601,35.52908],[134.00493,35.52817]],[[134.04358,35.51786],[134.06111,35.5191],[134.06828,35.51675]],[[134.2572,35.54139],[134.25476,35.53933],[134.25527,35.53982]],[[133.72749,35.50181],[133.71798,35.50005]],[[131.10828,34.04423],[131.11958,34.04311],[131.1245,34.04575],[131.13418,34.04917]],[[132.10818,34.91575],[132.10505,34.91326]],[[135.09814,35.33423],[135.09669,35.3345]]]}}]}