{"type":"FeatureCollection","features":[{"type":"Feature","properties":{"route_id":"390","route_number":390,"name":"国道390号","source":"OpenStreetMap contributors (ODbL)","osm_relations":[9849118,9849119]},"geometry":{"type":"MultiLineString","coordinates":[[[124.17838,24.33786],[124.17649,24.33326],[124.17379,24.33118],[124.16065,24.33497],[124.15774,24.33825],[124.15913,24.33896],[124.16397,24.33516],[124.16566,24.33749],[124.17377,24.33827],[124.18204,24.33776],[124.19362,24.34164],[124.19597,24.3428],[124.19829,24.34691],[124.19798,24.35181],[124.19889,24.35378],[124.21212,24.35886],[124.21433,24.35804],[124.21882,24.35427],[124.22515,24.35148],[124.23903,24.35249],[124.24481,24.35742],[124.24691,24.3627],[124.2462,24.37156],[124.24661,24.37826],[124.24393,24.3844],[124.23707,24.38839],[124.23626,24.38985],[124.23979,24.39552],[124.24078,24.40163],[124.24428,24.40518],[124.2436,24.41099],[124.24516,24.4172],[124.24349,24.42237],[124.24419,24.42533],[124.24762,24.42983],[124.24748,24.43153],[124.24904,24.43617],[124.24923,24.4408],[124.24791,24.44534],[124.24964,24.45085],[124.24836,24.45562],[124.25034,24.46273],[124.24982,24.46593],[124.2605,24.47987],[124.26409,24.48236],[124.26858,24.48345],[124.27093,24.48644],[124.27413,24.4883],[124.2797,24.48972],[124.27966,24.50106],[125.43193,24.72042],[125.4326,24.73085],[125.42985,24.7305],[125.42452,24.73151],[125.42179,24.73452],[125.41871,24.73405],[125.41592,24.73554],[125.41176,24.73553],[125.408,24.73692],[125.40582,24.74316],[125.3992,24.74857],[125.39575,24.74864],[125.39245,24.75297],[125.3902,24.75203],[125.38693,24.7469],[125.38076,24.74116],[125.37584,24.73926],[125.37399,24.74031],[125.37146,24.73958],[125.36722,24.74029],[125.36357,24.73955],[125.35856,24.73357],[125.35488,24.73415],[125.34981,24.7304],[125.34684,24.73136],[125.34023,24.72946],[125.3275,24.73159],[125.31904,24.73768],[125.31328,24.73689],[125.30791,24.73826],[125.30467,24.7377],[125.3026,24.73826],[125.3005,24.74065],[125.29801,24.74136],[125.29372,24.74113],[125.28519,24.74296],[125.28272,24.74264],[125.28052,24.74394],[125.27726,24.74863],[125.28366,24.75105],[125.2852,24.75262],[125.2863,24.75849],[125.28479,24.76286],[125.28583,24.77087],[125.28201,24.77767],[125.28191,24.78672],[125.27923,24.79156],[125.2763,24.79497],[125.26977,24.79875],[125.26922,24.79973],[125.26988,24.80132],[125.27701,24.8069],[125.27901,24.80749],[125.26953,24.81309],[125.26371,24.83076],[125.25475,24.9103],[125.35496,24.99017],[127.64844,26.21856],[127.6552,26.21877],[127.66388,26.21354],[127.66661,26.21027],[127.66893,26.20979],[127.67069,26.21273],[127.67508,26.21138]],[[125.42617,24.73156],[125.42462,24.73351],[125.42311,24.73286]]]}}]}