{"type":"FeatureCollection","features":[{"type":"Feature","properties":{"route_id":"254","route_number":254,"name":"国道254号","source":"OpenStreetMap contributors (ODbL)","osm_relations":[1020657,10270600,10270601,10270602,10270604,10270605,10270606,10270607,10270608,10270609,10270610,10270611,10270612,10270613,10270614,10270615,10270616,10270617,10270618,10270619,10270621,10270622]},"geometry":{"type":"MultiLineString","coordinates":[[[139.54647,35.81456],[139.54749,35.81488],[139.54846,35.81283],[139.54487,35.81756],[139.53623,35.82496],[139.53254,35.8311],[139.51991,35.84612],[139.51078,35.86294],[139.50385,35.87126],[139.50139,35.87595],[139.49771,35.87961],[139.49078,35.89663],[139.48777,35.90054],[139.48748,35.90169],[139.49779,35.91092],[139.49961,35.91498],[139.49844,35.91823],[139.50313,35.91167],[139.50757,35.90236],[139.52898,35.88942],[139.55189,35.85732],[139.55557,35.85507],[139.56648,35.85169],[139.57406,35.84738]],[[139.31113,36.04566],[139.31777,36.03982],[139.32719,36.03653],[139.32987,36.03658],[139.33963,36.03928],[139.34947,36.03983],[139.37448,36.03016],[139.38585,36.0295],[139.40529,36.02622],[139.41583,36.02271],[139.42092,36.02213],[139.42979,36.01738],[139.43386,36.01427],[139.43707,36.01044],[139.44503,36.0067],[139.45,36.00168],[139.46633,35.97928],[139.46962,35.97195],[139.47488,35.94983],[139.4776,35.94447],[139.48335,35.93901],[139.49957,35.91704],[139.49982,35.91466],[139.49743,35.91027],[139.48749,35.90159]],[[139.0891,36.23785],[139.09097,36.23924],[139.08609,36.23685],[139.07801,36.23604],[139.07042,36.23655],[139.05756,36.24405],[139.04508,36.24444],[139.03512,36.24735],[139.02701,36.24853],[139.02126,36.25159],[139.02018,36.25317],[139.01429,36.25544],[139.01033,36.25464],[139.00013,36.25484],[138.99175,36.25273],[138.98247,36.2523],[138.97738,36.25062],[138.96511,36.25033],[138.95697,36.25133],[138.95255,36.25329],[138.92995,36.25414],[138.92504,36.25521],[138.92009,36.25481],[138.91304,36.25934],[138.90824,36.25852],[138.87547,36.25746],[138.87141,36.25597],[138.86332,36.25516],[138.8594,36.24795],[138.86519,36.25835],[138.88191,36.26558],[138.91346,36.26116],[138.91932,36.25752],[138.93188,36.25968],[138.97352,36.25908]],[[138.8594,36.24795],[138.85605,36.24433],[138.8513,36.24392],[138.85054,36.24254],[138.84753,36.24154],[138.83501,36.24148],[138.82404,36.23889],[138.82198,36.23358],[138.81874,36.23038],[138.81277,36.22682],[138.80312,36.22507],[138.79919,36.22193],[138.79971,36.21944],[138.80313,36.2174],[138.80333,36.21552],[138.80249,36.21378],[138.80056,36.21257],[138.79164,36.2105],[138.78933,36.21117],[138.78721,36.21335],[138.78062,36.21499],[138.77971,36.21933],[138.77615,36.22465],[138.77171,36.22708],[138.76394,36.22765],[138.75978,36.23022],[138.7549,36.23075],[138.73805,36.22986],[138.73269,36.23337],[138.72526,36.2362],[138.72174,36.23676],[138.71685,36.24076],[138.71387,36.24184],[138.69968,36.23977],[138.69623,36.23999],[138.69302,36.23834],[138.68545,36.23934],[138.68235,36.2385],[138.67255,36.23895],[138.66783,36.23687],[138.66047,36.23785],[138.65759,36.23985],[138.65517,36.23971],[138.6501,36.24259],[138.65015,36.24153],[138.653,36.24019],[138.65267,36.23749],[138.64575,36.23615],[138.64183,36.23266],[138.63543,36.22986],[138.63175,36.22687],[138.63098,36.22752],[138.63263,36.22871],[138.63276,36.22976],[138.6295,36.22748],[138.62924,36.22848],[138.63112,36.229],[138.62946,36.2298],[138.62907,36.23137],[138.62809,36.23122],[138.62797,36.22986],[138.62543,36.23019],[138.62525,36.22914],[138.62828,36.22747],[138.62669,36.22474],[138.62095,36.22425],[138.62083,36.22352],[138.62326,36.22262],[138.62267,36.22145],[138.60428,36.21167],[138.59203,36.21599],[138.58264,36.2182],[138.56927,36.21825],[138.56436,36.21991],[138.55733,36.22055],[138.55422,36.21951],[138.55068,36.22168],[138.54851,36.22409],[138.51364,36.23418],[138.49668,36.23283],[138.49104,36.23454],[138.48141,36.23473],[138.47801,36.23372],[138.47976,36.23443]],[[138.42754,36.24151],[138.45882,36.23125],[138.42297,36.24325],[138.40646,36.25392],[138.40286,36.26159],[138.39804,36.26771],[138.39625,36.26876],[138.38771,36.27025],[138.38083,36.26866],[138.37661,36.26858],[138.37231,36.26557],[138.37165,36.26003],[138.36475,36.25732],[138.36121,36.25848],[138.35454,36.26405],[138.35322,36.26717],[138.35131,36.26914],[138.35042,36.27266],[138.34763,36.27423],[138.34534,36.27776],[138.34365,36.2786],[138.32438,36.27534],[138.31952,36.27594],[138.31123,36.27526],[138.30683,36.27096],[138.29935,36.2759],[138.29296,36.2771],[138.28982,36.28107],[138.28661,36.28047],[138.28429,36.27806],[138.28123,36.27798],[138.28146,36.27635],[138.28061,36.27524],[138.2719,36.27511],[138.27226,36.27418],[138.26999,36.27509],[138.27006,36.27448],[138.26883,36.27468],[138.26832,36.2736],[138.26605,36.27604],[138.25806,36.2759],[138.2562,36.28981],[138.24949,36.30138],[138.24929,36.31014],[138.24707,36.31188],[138.24422,36.31246],[138.24032,36.31176],[138.2375,36.31326],[138.23216,36.31163],[138.21969,36.31145],[138.21593,36.30973],[138.21256,36.30657],[138.20398,36.30577],[138.19295,36.30097],[138.18655,36.30139],[138.18208,36.30033],[138.17193,36.30004],[138.16355,36.30246],[138.16181,36.30195],[138.15709,36.30406],[138.14237,36.30448],[138.1383,36.30012],[138.13266,36.29751],[138.1269,36.29357],[138.11786,36.29277],[138.11158,36.29065],[138.10437,36.29029],[138.09804,36.29226],[138.08526,36.29012],[138.08061,36.28743],[138.0542,36.28009],[138.04811,36.27855],[138.04043,36.27831],[138.03531,36.27412],[138.03168,36.27351],[138.03313,36.27329],[138.03217,36.27284],[138.02759,36.27249],[138.02253,36.27322],[138.01969,36.27513],[138.01768,36.27803],[138.01476,36.27772],[138.01195,36.27989],[138.01035,36.28134],[138.01035,36.28258],[138.01134,36.28302]],[[139.22683,36.08945],[139.22588,36.08734],[139.22307,36.08603],[139.22115,36.08382],[139.22196,36.08147],[139.22008,36.07918],[139.22479,36.0764],[139.23503,36.07368],[139.25086,36.06194],[139.25668,36.05932],[139.25925,36.0568],[139.25908,36.05401],[139.26778,36.05528],[139.27717,36.05303],[139.28054,36.05301],[139.28603,36.0501],[139.2933,36.0482],[139.29537,36.04671],[139.29926,36.0485],[139.30117,36.05156],[139.30378,36.05253],[139.29824,36.05564],[139.29082,36.06201],[139.2878,36.06673],[139.28223,36.06994],[139.27354,36.07063],[139.26269,36.06755],[139.25518,36.06877],[139.24701,36.07316],[139.24036,36.08117],[139.22726,36.08899],[139.22619,36.09093],[139.22591,36.09437],[139.23003,36.09733],[139.23381,36.09812],[139.23483,36.10052],[139.23452,36.10193],[139.23233,36.10567],[139.22825,36.10807],[139.21454,36.10907],[139.21165,36.11062],[139.21064,36.11603],[139.21226,36.12217],[139.20823,36.12212],[139.20151,36.1259],[139.20322,36.12834],[139.2026,36.13388],[139.1995,36.13776],[139.19705,36.14552],[139.18881,36.14938],[139.18651,36.15395],[139.17783,36.16213],[139.17232,36.16499],[139.16622,36.16947],[139.16437,36.17339],[139.15299,36.17703],[139.14767,36.18423],[139.1469,36.18835],[139.1414,36.19428],[139.13427,36.19771],[139.11288,36.2137],[139.11192,36.21556],[139.11047,36.22387],[139.10698,36.2325],[139.09097,36.23924]],[[138.47801,36.23372],[138.47098,36.22801],[138.46632,36.22616],[138.4643,36.22931],[138.45882,36.23125]],[[139.49886,35.918],[139.50372,35.91083],[139.50771,35.90231],[139.52907,35.88945],[139.55196,35.85737],[139.55601,35.85501],[139.56702,35.85154],[139.5741,35.84744]],[[139.7606,35.70752],[139.75643,35.70727],[139.75391,35.70835],[139.74938,35.70871],[139.74102,35.7139],[139.73876,35.71641],[139.73284,35.72038],[139.73888,35.71645],[139.74134,35.71382],[139.7495,35.70874],[139.75387,35.70847],[139.75645,35.70736],[139.7606,35.70752]],[[139.54846,35.81283],[139.55101,35.80644],[139.55293,35.80446],[139.56223,35.79936],[139.58549,35.78979],[139.60299,35.78457],[139.61013,35.78322],[139.61947,35.7785],[139.62521,35.77962],[139.63434,35.77513],[139.63808,35.77209],[139.64236,35.77093],[139.64587,35.76899],[139.68016,35.75961],[139.68804,35.75524],[139.70726,35.74098],[139.71399,35.73727],[139.71721,35.73322],[139.73014,35.72564],[139.71683,35.73341],[139.71386,35.73715],[139.70822,35.73998],[139.69526,35.75017],[139.68043,35.75939],[139.64601,35.76886],[139.64247,35.7708],[139.63811,35.77199],[139.6341,35.77518],[139.62516,35.77954],[139.61948,35.77839],[139.61023,35.78308],[139.60291,35.78451],[139.58582,35.78959],[139.56219,35.7993],[139.55174,35.80529],[139.54852,35.81258],[139.54611,35.81583]],[[139.49844,35.91823],[139.48353,35.93869],[139.47747,35.94447],[139.47469,35.9501],[139.46952,35.97193],[139.4655,35.98044],[139.4484,36.00342],[139.44362,36.00758],[139.43647,36.01076],[139.43394,36.01406],[139.43007,36.01699],[139.42088,36.02206],[139.41573,36.02266],[139.40722,36.02575],[139.38581,36.02943],[139.37397,36.0302],[139.3497,36.03971],[139.33965,36.03917],[139.32974,36.03646],[139.32659,36.03656],[139.31776,36.0397],[139.30906,36.04742],[139.30608,36.0512],[139.30378,36.05253]],[[138.03168,36.27351],[138.02886,36.27325],[138.02378,36.27482],[138.0204,36.27663],[138.01845,36.27869],[138.01391,36.28023],[138.0108,36.28429],[138.00865,36.28534],[138.00811,36.28745],[138.00527,36.2896],[138.00178,36.29038],[137.9969,36.2902],[137.98619,36.28533],[137.98432,36.2835],[137.97653,36.28119],[137.95547,36.28149],[137.95217,36.28086],[137.94989,36.27839],[137.94987,36.27301],[137.94789,36.26762],[137.9467,36.26622],[137.94481,36.26585]],[[139.62073,35.80217],[139.61491,35.8061],[139.61462,35.81692],[139.6085,35.82109]],[[139.21226,36.12207],[139.20809,36.12208],[139.20147,36.12581],[139.2017,36.12682]],[[139.50342,35.87242],[139.50816,35.86586]],[[138.63172,36.22936],[138.62962,36.23026],[138.63105,36.23133],[138.62788,36.23202],[138.62781,36.23078],[138.62715,36.23069],[138.62639,36.23128],[138.62689,36.23158],[138.62495,36.23197],[138.62465,36.23305],[138.62317,36.23341],[138.62368,36.23491],[138.62167,36.23555],[138.62254,36.23675],[138.62046,36.23594],[138.62172,36.2371],[138.6194,36.23632],[138.61754,36.23437],[138.61411,36.23503],[138.61318,36.23253],[138.61439,36.23012],[138.61621,36.22941],[138.61775,36.22611],[138.61607,36.22296]],[[139.5209,35.8448],[139.52767,35.83696]],[[138.97352,36.259],[138.93189,36.25958],[138.91924,36.25743],[138.91341,36.26109],[138.88231,36.26554],[138.86561,36.25851],[138.86317,36.25514]],[[139.53297,35.83047],[139.53639,35.82498],[139.54081,35.82052]],[[139.60863,35.82116],[139.61477,35.81696],[139.61496,35.80635],[139.61611,35.80493],[139.62037,35.80254]],[[139.57511,35.84665],[139.57501,35.84671]],[[138.24929,36.30504],[138.24924,36.30605]],[[139.14803,36.18381],[139.14767,36.18423]],[[139.73014,35.72564],[139.73284,35.72038]]]}}]}