{"type":"FeatureCollection","features":[{"type":"Feature","properties":{"route_id":"161","route_number":161,"name":"国道161号","source":"OpenStreetMap contributors (ODbL)","osm_relations":[7451699,8730413,9143309,9143310,9143311,9143312,19885069]},"geometry":{"type":"MultiLineString","coordinates":[[[135.88369,35.08355],[135.87576,35.06504],[135.87335,35.05661],[135.87099,35.05464],[135.8601,35.0494],[135.8557,35.04603],[135.85273,35.03927],[135.85257,35.03516],[135.85041,35.03182],[135.84992,35.02601],[135.84795,35.01976],[135.83822,35.00799],[135.83711,34.99949],[135.83421,34.99494],[135.83457,34.99172],[135.83196,34.99164]],[[136.09991,35.60274],[136.09597,35.60481],[136.089,35.6063],[136.08566,35.61019],[136.08395,35.61427],[136.0858,35.61016],[136.08908,35.60638],[136.09585,35.60497],[136.09991,35.60274]],[[136.08391,35.61528],[136.08395,35.61427]],[[135.83346,34.99189],[135.83448,34.99173],[135.83417,34.99528],[135.83723,35.00043],[135.83805,35.00804],[135.84758,35.01972],[135.84979,35.0262],[135.85019,35.03222],[135.85249,35.03552],[135.85263,35.03937],[135.85554,35.04596],[135.8604,35.0497],[135.87094,35.05471],[135.87348,35.05696],[135.87541,35.06438],[135.88137,35.07913],[135.88923,35.09207],[135.89123,35.09836],[135.89424,35.10418],[135.89795,35.11486],[135.89918,35.1242],[135.90334,35.13399],[135.90263,35.15136],[135.90065,35.16149],[135.90057,35.17249],[135.90439,35.18533],[135.91055,35.19419],[135.90694,35.1893]],[[135.94966,35.24171],[135.94431,35.23824],[135.93797,35.23604],[135.93595,35.2316],[135.93178,35.22714],[135.93018,35.21965],[135.92589,35.2135],[135.91768,35.20825],[135.91055,35.19419]],[[136.02572,35.3194],[136.02872,35.3243],[136.02955,35.32892],[136.03262,35.33256],[136.02894,35.32829],[136.02843,35.32482],[136.02642,35.32168],[136.01574,35.29605],[136.01559,35.29247],[136.01845,35.28525],[136.01683,35.27815],[136.01141,35.27431],[135.99757,35.26979],[135.9736,35.25619],[135.97176,35.25453],[135.97021,35.251],[135.96847,35.24962],[135.96381,35.24762],[135.95719,35.24729],[135.95039,35.24217]],[[136.08019,35.63321],[136.07943,35.62699],[136.08069,35.62396],[136.08402,35.61987],[136.08392,35.61535]],[[136.10024,35.60246],[136.10179,35.60017],[136.09961,35.59605],[136.10008,35.59322],[136.09926,35.59117],[136.10122,35.58694],[136.10455,35.58417],[136.09963,35.57462],[136.09883,35.5697],[136.09973,35.56636],[136.0972,35.56143],[136.09787,35.56025],[136.09709,35.55904],[136.09756,35.55268],[136.09829,35.55182],[136.09793,35.54842],[136.10227,35.54458],[136.09779,35.54088],[136.09668,35.53583],[136.09479,35.53318],[136.09441,35.52993],[136.09582,35.52475],[136.09148,35.51805],[136.09075,35.51477],[136.09173,35.51095],[136.09001,35.5022],[136.0886,35.49993],[136.08786,35.49475],[136.08237,35.48291],[136.08278,35.47862],[136.08077,35.47287],[136.07834,35.47063],[136.07849,35.46876],[136.07781,35.46791],[136.07062,35.46484],[136.06662,35.46187],[136.05017,35.46216],[136.04739,35.46082],[136.04343,35.45574],[136.0353,35.45487],[136.03297,35.45395],[136.03118,35.45181],[136.03068,35.44635],[136.02914,35.44308],[136.02683,35.44094],[136.01802,35.43602],[136.01642,35.4339],[136.01656,35.42653],[136.02106,35.41895],[136.02268,35.40148],[136.02641,35.39405],[136.02849,35.38582],[136.03534,35.37838],[136.02976,35.38419]],[[136.01593,35.29128],[136.01851,35.28568],[136.01773,35.27965],[136.01671,35.27793],[136.01271,35.27535]],[[136.03534,35.37838],[136.04622,35.36495],[136.04738,35.36216],[136.04762,35.35884],[136.04686,35.35589],[136.04367,35.35019],[136.04273,35.34475],[136.03801,35.34028],[136.03262,35.33256]],[[135.90312,35.14086],[135.90249,35.15248]],[[136.08027,35.63324],[136.08014,35.63197]]]}}]}