{"type":"FeatureCollection","features":[{"type":"Feature","properties":{"route_id":"178","route_number":178,"name":"国道178号","source":"OpenStreetMap contributors (ODbL)","osm_relations":[8385407,9350815,9350817,9350818,9350819,9350820,15405438,15405439]},"geometry":{"type":"MultiLineString","coordinates":[[[135.32907,35.45075],[135.32259,35.45109],[135.30729,35.44798],[135.3018,35.44776],[135.29671,35.44538],[135.28759,35.44832],[135.28332,35.4478],[135.28021,35.44915],[135.27598,35.44816],[135.2704,35.45017],[135.26568,35.45319],[135.26706,35.45477],[135.27006,35.45609],[135.27194,35.45922],[135.27424,35.46],[135.27711,35.45913],[135.27868,35.45971],[135.27899,35.46251],[135.27702,35.47311],[135.27709,35.47579],[135.27844,35.47841],[135.27807,35.48222],[135.27873,35.48513],[135.28397,35.49464],[135.28492,35.4997],[135.28374,35.50567],[135.28542,35.51482],[135.28506,35.51661],[135.28364,35.51801],[135.27487,35.52211],[135.27176,35.52457],[135.27253,35.52812],[135.26926,35.53018],[135.26893,35.53309],[135.26198,35.53309],[135.25801,35.53464],[135.25461,35.53382],[135.24879,35.53546],[135.24387,35.53392],[135.24149,35.53438],[135.23521,35.541],[135.23365,35.54442],[135.23384,35.5476],[135.22611,35.55179],[135.2145,35.55127],[135.21122,35.54734],[135.20776,35.53999],[135.20325,35.53679],[135.19989,35.53636],[135.1924,35.53855],[135.18999,35.54322],[135.19016,35.54508],[135.18738,35.54722],[135.18328,35.54709],[135.16479,35.55199],[135.1611,35.55161],[135.15567,35.55292],[135.15219,35.55239],[135.15042,35.55295],[135.1536,35.55862],[135.1532,35.56267],[135.15217,35.56411],[135.1525,35.56558],[135.1561,35.57047],[135.18029,35.5767],[135.19419,35.58199],[135.19799,35.58166],[135.2049,35.5845],[135.20913,35.59156],[135.21211,35.59363],[135.21365,35.59782],[135.21961,35.60225],[135.23254,35.61546],[135.24111,35.6179],[135.2444,35.62045],[135.24582,35.6259],[135.24562,35.63008],[135.25008,35.63954],[135.25104,35.64554],[135.25357,35.65015],[135.25889,35.65604],[135.25875,35.6572],[135.25729,35.65835],[135.25751,35.6596],[135.2619,35.66554],[135.26888,35.66964],[135.27401,35.6757],[135.28661,35.68143],[135.28966,35.68472],[135.2895,35.68622],[135.28805,35.6873],[135.28257,35.68751],[135.27834,35.69006],[135.27742,35.69419],[135.27863,35.7002],[135.2824,35.70448],[135.28083,35.70634],[135.27822,35.70656],[135.27614,35.70816],[135.2731,35.70777],[135.27136,35.70906],[135.26803,35.70992],[135.26633,35.70911],[135.26382,35.70949],[135.25996,35.71223],[135.25698,35.71858],[135.25275,35.72052],[135.25488,35.72386],[135.25579,35.72994],[135.25827,35.73222],[135.25407,35.73698],[135.25601,35.74395],[135.24964,35.75171],[135.25108,35.756],[135.24903,35.75671],[135.24719,35.7561],[135.24578,35.75684],[135.24405,35.7592],[135.2402,35.76079],[135.23731,35.764],[135.23575,35.76243],[135.23572,35.76429],[135.23435,35.76486],[135.23425,35.76705],[135.23352,35.76771],[135.22876,35.76725],[135.22698,35.76869],[135.22643,35.76757],[135.22322,35.76968],[135.21694,35.7683],[135.21359,35.76621],[135.20665,35.76372],[135.19358,35.76447],[135.18179,35.75872],[135.17955,35.75893],[135.17472,35.75694],[135.17177,35.75418],[135.17279,35.75306],[135.16903,35.75245],[135.16752,35.75123],[135.16708,35.75027],[135.16819,35.74903],[135.1658,35.74882],[135.16352,35.7474],[135.15661,35.7522],[135.15155,35.75081],[135.14577,35.7474],[135.14412,35.74901],[135.14113,35.7493],[135.13931,35.75095],[135.13728,35.75126],[135.12997,35.74802],[135.13035,35.74633],[135.12837,35.7465],[135.1258,35.74497],[135.1205,35.74444],[135.11693,35.74157],[135.11135,35.74172],[135.10583,35.73813],[135.10298,35.73989],[135.09506,35.72967],[135.08792,35.72993],[135.08576,35.72473],[135.08308,35.72146],[135.07521,35.71804],[135.06909,35.71713],[135.06791,35.71457],[135.06953,35.71082],[135.06937,35.7075],[135.06881,35.70406],[135.06703,35.70198],[135.06252,35.70118],[135.05852,35.69793],[135.04914,35.69551],[135.04671,35.69553],[135.04555,35.69342],[135.04032,35.69407],[135.03694,35.69341],[135.03516,35.69128],[135.03486,35.68922],[135.03006,35.68323],[135.03033,35.67972],[135.02834,35.67802],[135.02759,35.6694],[135.02381,35.66679],[135.0228,35.66189],[135.01998,35.66052],[135.01752,35.66118],[135.01566,35.66308],[135.01344,35.66334],[135.00627,35.65895],[134.99592,35.65951],[134.98534,35.65563],[134.97627,35.65098],[134.96978,35.65126],[134.96969,35.65375],[134.96729,35.65824],[134.96878,35.66083],[134.9684,35.66283],[134.96448,35.66147],[134.96313,35.6588],[134.95344,35.65425],[134.95125,35.65079],[134.95092,35.64701],[134.94791,35.64458],[134.9451,35.64438],[134.94463,35.64299],[134.94572,35.64035],[134.94255,35.63831],[134.94168,35.6363],[134.93315,35.63437],[134.92864,35.6258],[134.92784,35.62152],[134.91955,35.61507],[134.91948,35.60955],[134.91801,35.60696],[134.91011,35.60485],[134.90564,35.60672],[134.90229,35.6057],[134.90064,35.60477],[134.90168,35.601],[134.89838,35.60249],[134.89331,35.60152],[134.88902,35.59763],[134.87543,35.59322],[134.86714,35.58637],[134.85937,35.58247],[134.85717,35.58061],[134.85235,35.57337],[134.85285,35.56579],[134.85105,35.55934],[134.84983,35.55818],[134.84418,35.55631],[134.8351,35.55471],[134.82578,35.55901],[134.81704,35.55428],[134.80521,35.55437],[134.80036,35.55357],[134.79759,35.55565],[134.79533,35.56403],[134.78763,35.56684],[134.78348,35.56697],[134.77921,35.57141],[134.77353,35.5738],[134.76872,35.57374],[134.76173,35.576],[134.75554,35.57625],[134.74724,35.57909],[134.73919,35.5847],[134.72833,35.58187],[134.72315,35.58344],[134.7198,35.58229],[134.7192,35.58447],[134.71222,35.58666],[134.7062,35.5853],[134.70331,35.58565],[134.6966,35.59154],[134.69539,35.59566],[134.69196,35.59649],[134.69088,35.5975],[134.69178,35.6029],[134.69095,35.60659],[134.6917,35.60933],[134.69011,35.61558],[134.68616,35.62006],[134.68499,35.61968],[134.68396,35.6205],[134.68654,35.62232],[134.68514,35.62451],[134.67866,35.62897],[134.66394,35.63239],[134.65733,35.63274],[134.64474,35.63191],[134.63264,35.62993],[134.60689,35.62847],[134.56905,35.63733],[134.55747,35.64131],[134.55168,35.64172],[134.5456,35.63986],[134.52525,35.62945],[134.51846,35.62494],[134.4987,35.62065],[134.49152,35.62011],[134.48358,35.61528],[134.47639,35.61406],[134.46949,35.61133]],[[134.56481,35.6412],[134.55976,35.65015]],[[134.62406,35.63173],[134.62651,35.6315]],[[134.68616,35.62006],[134.68497,35.61963],[134.68394,35.62038],[134.68617,35.62256],[134.6841,35.62547],[134.68079,35.62792],[134.6648,35.63216],[134.65628,35.63261],[134.64319,35.6317],[134.63265,35.62987],[134.60628,35.62847],[134.56905,35.63727],[134.55747,35.64127],[134.55217,35.64173],[134.54562,35.63982],[134.52487,35.62919],[134.51849,35.6249],[134.4986,35.6206],[134.49154,35.62007],[134.48387,35.61535],[134.4764,35.61402],[134.47101,35.61144],[134.46956,35.61127],[134.46179,35.61905],[134.45401,35.61975],[134.44554,35.62269],[134.44355,35.62243],[134.44086,35.62388],[134.4326,35.62009],[134.42008,35.62018],[134.41456,35.61701],[134.4075,35.6171],[134.40366,35.61493],[134.40171,35.61505],[134.3979,35.61772],[134.39283,35.61496],[134.39389,35.61335],[134.3934,35.61207],[134.38814,35.60915],[134.37867,35.60217],[134.36626,35.59703],[134.36573,35.59742],[134.37498,35.60032],[134.37864,35.60221],[134.39339,35.61216],[134.3938,35.61331],[134.39283,35.61496]],[[134.31553,35.57303],[134.32317,35.57459],[134.33211,35.58158],[134.34266,35.58405],[134.3682,35.59818]],[[134.3687,35.5983],[134.34269,35.584],[134.33214,35.58155],[134.3232,35.57455],[134.31554,35.57298]],[[134.96978,35.65126],[134.95952,35.65481],[134.95208,35.6516]],[[134.36573,35.59742],[134.36546,35.59782]],[[135.27108,35.4499],[135.26568,35.45319]]]}}]}