{"type":"FeatureCollection","features":[{"type":"Feature","properties":{"route_id":"404","route_number":404,"name":"国道404号","source":"OpenStreetMap contributors (ODbL)","osm_relations":[8705506]},"geometry":{"type":"MultiLineString","coordinates":[[[138.70157,37.29346],[138.7017,37.29508],[138.71268,37.30884],[138.7123,37.31531],[138.71348,37.32227],[138.71707,37.33016],[138.72154,37.33518],[138.72547,37.33823],[138.72515,37.34226],[138.72224,37.34804],[138.72535,37.35339],[138.73585,37.35877],[138.74235,37.35939],[138.74376,37.36047],[138.74282,37.36298],[138.7439,37.36562],[138.74375,37.37368],[138.74569,37.37555],[138.74548,37.37906],[138.75078,37.38811],[138.75644,37.3958],[138.76377,37.4023],[138.77992,37.41218],[138.78524,37.42277],[138.78775,37.43298],[138.78696,37.4429],[138.7851,37.44833],[138.78559,37.44988],[138.78871,37.44976],[138.79911,37.45186],[138.8084,37.45048],[138.8137,37.44936],[138.81926,37.44577],[138.82505,37.44366],[138.8438,37.44556],[138.84644,37.4466],[138.84731,37.44842],[138.85057,37.44749],[138.84887,37.4448],[138.85191,37.4428],[138.85748,37.44094],[138.86938,37.44093]],[[138.78777,37.43423],[138.79527,37.43736],[138.79827,37.43773],[138.79526,37.43728],[138.78779,37.43413]],[[138.84731,37.44842],[138.85057,37.44749]],[[138.8358,37.42715],[138.79827,37.43773]]]}}]}