{"type":"FeatureCollection","features":[{"type":"Feature","properties":{"route_id":"331","route_number":331,"name":"国道331号","source":"OpenStreetMap contributors (ODbL)","osm_relations":[3771097,10998725,10998726,10998727,10998728,10998729,10998731]},"geometry":{"type":"MultiLineString","coordinates":[[[127.82859,26.3881],[127.8278,26.3907],[127.82892,26.40005],[127.82131,26.40653],[127.81579,26.41778],[127.81506,26.42209],[127.82146,26.43136],[127.82341,26.43293],[127.82746,26.43444],[127.83237,26.43314],[127.83593,26.43481],[127.83938,26.43462],[127.84111,26.4358],[127.83941,26.43454],[127.83585,26.43469],[127.83237,26.43305],[127.82747,26.43434],[127.82347,26.43284],[127.82122,26.43085],[127.81513,26.42185],[127.81596,26.41771],[127.82141,26.40658],[127.82848,26.4009],[127.82919,26.39925],[127.82751,26.38118],[127.82186,26.37687],[127.82009,26.37064],[127.81525,26.36558],[127.81314,26.36199],[127.81279,26.35242],[127.81173,26.34787],[127.81332,26.34539],[127.81376,26.34237],[127.81767,26.33521],[127.8222,26.33137],[127.82295,26.32586],[127.82121,26.31923],[127.81887,26.31701],[127.81892,26.314],[127.81027,26.30371],[127.80878,26.30012],[127.80928,26.29421],[127.81466,26.28708],[127.81533,26.28234],[127.81305,26.2797],[127.8075,26.27723],[127.80228,26.27814],[127.79663,26.27305],[127.7919,26.27085],[127.78952,26.26411],[127.78526,26.25662],[127.78109,26.24473],[127.77597,26.2381],[127.76975,26.2361],[127.76956,26.23276],[127.76611,26.22544],[127.76536,26.22029],[127.76365,26.21617],[127.75652,26.20663],[127.75414,26.20161],[127.75913,26.20013],[127.76415,26.19984],[127.76741,26.19702],[127.76821,26.19304],[127.77359,26.18673],[127.77515,26.18203],[127.77378,26.17675],[127.77396,26.17424],[127.78483,26.16833],[127.7915,26.16759],[127.79872,26.17075],[127.80041,26.17371],[127.79859,26.18027],[127.79902,26.1817],[127.80819,26.18816],[127.81352,26.18949],[127.81885,26.18797],[127.81876,26.18364],[127.82099,26.17806],[127.82597,26.17799],[127.82833,26.1757],[127.82892,26.17332],[127.82641,26.16916],[127.81906,26.17008],[127.8179,26.16875],[127.81862,26.16379],[127.81741,26.16221],[127.81492,26.16095],[127.81291,26.15868],[127.81018,26.15819],[127.8103,26.15678],[127.80925,26.15575],[127.80711,26.15555],[127.80625,26.15648],[127.80421,26.15419],[127.79869,26.15138],[127.79829,26.14919],[127.79505,26.14584],[127.79513,26.14221],[127.79038,26.13821],[127.78574,26.13804],[127.7827,26.14035],[127.77662,26.13884],[127.77538,26.13999],[127.7745,26.13908],[127.7728,26.13958],[127.77042,26.14174],[127.76862,26.14086],[127.76676,26.14115],[127.76641,26.13958],[127.76711,26.13846],[127.76622,26.13736],[127.76635,26.13592],[127.76316,26.13421],[127.76215,26.13038],[127.75665,26.12766],[127.74969,26.12754],[127.74851,26.12641],[127.74805,26.12333],[127.74465,26.12336],[127.73933,26.11893],[127.73299,26.11712],[127.73205,26.11548],[127.72707,26.11193],[127.72417,26.10838],[127.72198,26.1074],[127.72193,26.09924],[127.7166,26.09439],[127.7115,26.09392],[127.70872,26.09544],[127.70447,26.09612],[127.69914,26.09475],[127.69522,26.09471],[127.69033,26.09586],[127.68635,26.09476],[127.68439,26.09503],[127.67912,26.09696],[127.67737,26.09951],[127.67827,26.10274],[127.67791,26.10405],[127.66839,26.11178],[127.66825,26.11905],[127.65819,26.15399],[127.65662,26.15751],[127.65232,26.16305],[127.65143,26.16576],[127.65232,26.17318],[127.655,26.18052],[127.65604,26.18648],[127.65904,26.19102],[127.65902,26.19536],[127.66153,26.19914],[127.66271,26.20437],[127.66513,26.20592],[127.66937,26.2044],[127.67141,26.20445],[127.67324,26.20561],[127.67432,26.20781]],[[127.67445,26.20778],[127.6732,26.20537],[127.67116,26.20425],[127.66895,26.20431],[127.6657,26.20578],[127.66399,26.20552],[127.66579,26.20569],[127.67049,26.20409],[127.67374,26.20602]],[[127.66399,26.20552],[127.66242,26.20351],[127.66154,26.19888],[127.65914,26.19533],[127.65908,26.19073],[127.65614,26.18646],[127.65512,26.18049],[127.65244,26.17319],[127.65151,26.16607],[127.65241,26.16307],[127.6567,26.15757],[127.65823,26.15417],[127.6684,26.11888],[127.66851,26.1117]],[[128.10387,26.67515],[128.10583,26.67457],[128.10663,26.67244],[128.10999,26.67237],[128.11183,26.6711],[128.11417,26.67154],[128.11519,26.66983],[128.12153,26.66781],[128.12329,26.66554],[128.12197,26.66359],[128.12915,26.65775],[128.13744,26.65617],[128.13932,26.65494],[128.14148,26.65118],[128.14193,26.64813],[128.14317,26.64737],[128.14436,26.64447],[128.14357,26.64296],[128.14527,26.63848],[128.14506,26.63544],[128.14614,26.63331],[128.14917,26.63244],[128.1504,26.63029],[128.14814,26.62962],[128.14559,26.6255],[128.1454,26.62217],[128.14885,26.6177],[128.14852,26.61566],[128.14996,26.61306],[128.14823,26.61135],[128.14457,26.61022],[128.14317,26.60783],[128.14331,26.60688],[128.1455,26.60516],[128.14527,26.60411],[128.13958,26.60251],[128.13632,26.60387],[128.13242,26.60784],[128.13012,26.60748],[128.12805,26.60524],[128.12368,26.60558],[128.12351,26.60269],[128.12991,26.59077],[128.12963,26.58974],[128.12733,26.58895],[128.12874,26.58527],[128.12737,26.58402],[128.125,26.58476],[128.12223,26.58297],[128.12056,26.57954],[128.12333,26.5768],[128.12332,26.57554],[128.12185,26.57302],[128.11944,26.57341],[128.11783,26.57237],[128.11726,26.56714],[128.11557,26.56572],[128.11683,26.56276],[128.11341,26.55864],[128.1119,26.5586],[128.10982,26.55549],[128.10781,26.55002],[128.09981,26.5438],[128.09528,26.54266],[128.08985,26.53983],[128.08622,26.54055],[128.08576,26.54309],[128.08426,26.54462],[128.08311,26.54767],[128.08166,26.54875],[128.08103,26.55177],[128.07753,26.55695],[128.07546,26.5582],[128.07323,26.5573],[128.07117,26.55791],[128.06553,26.55649],[128.06467,26.55554],[128.06439,26.55256],[128.05875,26.55085],[128.05661,26.55138],[128.05217,26.54897],[128.05034,26.54934],[128.0442,26.54829],[128.0418,26.55076],[128.04231,26.55373],[128.04155,26.55455],[128.03799,26.55199],[128.0362,26.55189],[128.03522,26.55335],[128.03383,26.5537],[128.0332,26.55294],[128.0349,26.54838],[128.03307,26.54604],[128.03205,26.54606],[128.03123,26.54822],[128.02822,26.54874],[128.02782,26.54686],[128.02604,26.5459],[128.02751,26.54281],[128.03209,26.54077],[128.0344,26.53823],[128.0371,26.53669],[128.03904,26.53349],[128.04294,26.53196],[128.04296,26.52974],[128.03326,26.52531],[128.02858,26.52518],[128.02214,26.52371],[128.0171,26.52117],[128.00788,26.51944],[128.00538,26.51813],[128.00077,26.51384],[127.99573,26.51214],[127.9912,26.50542],[127.99383,26.5017],[127.99226,26.49404],[127.99028,26.49153],[127.98487,26.48767],[127.97947,26.48493],[127.97297,26.48485],[127.96781,26.48254],[127.96651,26.48125],[127.96634,26.47842],[127.9651,26.47683],[127.96181,26.47557],[127.95614,26.4756],[127.95153,26.47284],[127.94563,26.47197],[127.94254,26.46965],[127.93928,26.46861],[127.93578,26.46394],[127.93017,26.4597],[127.92584,26.45448],[127.92277,26.4536],[127.91462,26.45393],[127.91118,26.45073],[127.9086,26.44962],[127.90224,26.44934],[127.89909,26.45005],[127.89616,26.45141],[127.89064,26.45583],[127.8878,26.45621],[127.88456,26.45815],[127.87595,26.45546],[127.87044,26.45805],[127.86355,26.45611],[127.85184,26.45129],[127.84961,26.44858],[127.84672,26.44161],[127.84432,26.43992],[127.84111,26.4358]],[[127.76711,26.13846],[127.7698,26.14051],[127.77312,26.13925],[127.77616,26.14047],[127.77967,26.13986]]]}}]}