{"type":"FeatureCollection","features":[{"type":"Feature","properties":{"route_id":"427","route_number":427,"name":"国道427号","source":"OpenStreetMap contributors (ODbL)","osm_relations":[10017332,10017378]},"geometry":{"type":"MultiLineString","coordinates":[[[134.98624,34.72394],[134.98337,34.71238],[134.98303,34.69039],[134.9815,34.67181],[134.97694,34.65822],[134.97484,34.65414],[134.98142,34.67183],[134.98291,34.69027],[134.98336,34.71396],[134.98522,34.72204],[134.98676,34.72502],[134.98575,34.72856],[134.98763,34.73243],[134.98898,34.744],[134.98824,34.75298],[134.97972,34.7627],[134.9791,34.76453],[134.97641,34.76137],[134.97602,34.75785],[134.97732,34.75558],[134.98286,34.75156],[134.98345,34.74562],[134.98772,34.73499]],[[134.88252,35.31899],[134.88403,35.31426],[134.91001,35.30559],[134.91585,35.30249],[134.91866,35.30212],[134.9212,35.30371],[134.92551,35.30461],[134.92836,35.30385],[134.92908,35.30497],[134.93202,35.30445],[134.93124,35.30384],[134.93166,35.30346],[134.93303,35.30338],[134.93159,35.30373],[134.93404,35.30437],[134.93485,35.30379],[134.93414,35.30321],[134.93498,35.30296],[134.93693,35.3034],[134.94112,35.30273],[134.94141,35.30366],[134.94206,35.30297],[134.9458,35.3033],[134.9477,35.30238],[134.95117,35.3027],[134.95189,35.30216],[134.95218,35.29924],[134.95523,35.29635],[134.95518,35.29478],[134.95689,35.29281],[134.96741,35.29242],[134.97201,35.28975],[134.97597,35.28535],[134.98204,35.28227],[134.98332,35.28093],[134.98542,35.27509],[134.99514,35.26665],[134.99786,35.26224],[134.9972,35.26024],[134.99828,35.25812],[134.99873,35.25433],[134.99823,35.2499],[134.99338,35.25029],[134.99018,35.24931],[134.98633,35.25077],[134.96809,35.2491],[134.94722,35.24273],[134.94158,35.23765],[134.94477,35.2305],[134.94989,35.2278],[134.9541,35.22218],[134.95112,35.21792],[134.94612,35.21577],[134.9425,35.211],[134.93813,35.20783],[134.93727,35.20572],[134.93768,35.20116],[134.93569,35.19863],[134.93392,35.19347],[134.92923,35.18819],[134.93374,35.18156],[134.93189,35.17782],[134.92933,35.17498],[134.9298,35.1674],[134.92436,35.14766],[134.92625,35.14472],[134.926,35.14024],[134.92193,35.12689],[134.91729,35.11717],[134.91079,35.11123],[134.90978,35.10924],[134.89894,35.10103],[134.89315,35.09092],[134.89079,35.0813],[134.89177,35.07804],[134.89512,35.07782],[134.89935,35.07402],[134.90655,35.07043],[134.91939,35.06784],[134.91895,35.05779],[134.91691,35.05494],[134.92057,35.04966],[134.92276,35.04002],[134.9295,35.03583],[134.94037,35.03288],[134.94131,35.03003],[134.9411,35.02717],[134.94349,35.02364],[134.94828,35.02107],[134.95381,35.01648],[134.96097,35.01431],[134.96261,35.00035],[134.96778,34.99531],[134.96871,34.99246],[134.9719,34.99109],[134.9765,34.99106],[134.97847,34.98989],[134.97849,34.98583],[134.98475,34.986],[134.98218,34.97996],[134.97653,34.97511],[134.97612,34.97155],[134.97348,34.96357],[134.97295,34.95552],[134.96621,34.94086],[134.96009,34.93234],[134.95941,34.92943],[134.95985,34.92325],[134.95301,34.90741],[134.94954,34.88557],[134.95197,34.87473],[134.95223,34.86229],[134.94978,34.85783],[134.94977,34.84602],[134.94706,34.84124],[134.9511,34.82145],[134.95797,34.81668],[134.96506,34.80382],[134.9683,34.79447],[134.98123,34.78146],[134.98511,34.77614],[134.98535,34.77388],[134.9841,34.77008],[134.97708,34.76239]],[[134.97903,34.97755],[134.97988,34.97797],[134.97696,34.97549],[134.9765,34.97144],[134.97471,34.9681],[134.97263,34.95418],[134.96672,34.94156],[134.96022,34.93217],[134.95951,34.92943],[134.95986,34.92285],[134.95302,34.90702],[134.94966,34.88553],[134.9521,34.87464],[134.95234,34.86225],[134.94992,34.85791],[134.94988,34.846],[134.94715,34.84124],[134.9512,34.82146],[134.95789,34.81697],[134.96507,34.80408],[134.9684,34.7945],[134.9808,34.78209],[134.98518,34.77628],[134.98553,34.77419],[134.98431,34.77018],[134.97896,34.76463]],[[134.98309,34.98158],[134.98184,34.97938],[134.97988,34.97797]]]}}]}