{"type":"FeatureCollection","features":[{"type":"Feature","properties":{"route_id":"377","route_number":377,"name":"国道377号","source":"OpenStreetMap contributors (ODbL)","osm_relations":[36203,9836891,15668551]},"geometry":{"type":"MultiLineString","coordinates":[[[134.58115,34.17277],[134.58346,34.18038],[134.58302,34.18228],[134.57722,34.19244],[134.57368,34.19552],[134.5733,34.19882],[134.57106,34.20111],[134.56975,34.20401],[134.56496,34.20571],[134.56327,34.20882],[134.56108,34.21092],[134.55902,34.21548],[134.55911,34.21858],[134.55817,34.22152],[134.55002,34.22342],[134.5434,34.22379],[134.54028,34.22613],[134.53137,34.2267],[134.52406,34.22511],[134.51388,34.2261],[134.50608,34.22571],[134.49435,34.22356],[134.48852,34.21942],[134.48462,34.21828],[134.48245,34.21643],[134.48129,34.21358],[134.47256,34.20879],[134.46079,34.20709],[134.45468,34.20517],[134.44884,34.20567],[134.44219,34.20738],[134.43775,34.20645],[134.42255,34.21401],[134.41509,34.21921],[134.40296,34.22456],[134.39792,34.2247],[134.39214,34.22326],[134.38944,34.2239],[134.38697,34.22597],[134.38608,34.2286],[134.38053,34.23698],[134.37553,34.2377],[134.36993,34.24229],[134.36618,34.24339],[134.35641,34.24354],[134.35143,34.2379],[134.34842,34.23618],[134.34379,34.22946],[134.33961,34.22595],[134.33878,34.21976],[134.33402,34.21763],[134.33148,34.21315],[134.33109,34.20989],[134.32405,34.20456],[134.31705,34.20541],[134.31026,34.20221],[134.3032,34.2033],[134.30037,34.20241],[134.29216,34.20192],[134.29032,34.20129],[134.28828,34.19886],[134.2872,34.19899],[134.28507,34.19688],[134.28391,34.19669],[134.28114,34.1982],[134.268,34.19821],[134.26535,34.20554],[134.26358,34.2049],[134.25993,34.20622],[134.25872,34.20817],[134.25677,34.20915],[134.25439,34.20658],[134.25233,34.20644],[134.25,34.20494],[134.24611,34.19967],[134.24792,34.20069],[134.24858,34.1989],[134.25063,34.19704],[134.25069,34.19459],[134.24932,34.19198],[134.25136,34.18734],[134.25144,34.18417],[134.25049,34.18354],[134.24474,34.18251],[134.24196,34.18095],[134.23645,34.18076],[134.23363,34.1815],[134.23131,34.18054],[134.22723,34.18098],[134.21969,34.18949],[134.21885,34.19155],[134.21759,34.19169],[134.21476,34.19023],[134.20924,34.19073],[134.19939,34.18501],[134.1935,34.18052],[134.19086,34.17599],[134.18833,34.17577],[134.18539,34.17674],[134.18426,34.17921],[134.18139,34.1799],[134.17974,34.18264],[134.17548,34.18303],[134.17176,34.18501],[134.17086,34.187],[134.16933,34.18416],[134.16742,34.18319],[134.16653,34.18059],[134.16682,34.17324],[134.16266,34.17036],[134.15358,34.16838],[134.15244,34.16631],[134.15103,34.16803],[134.14231,34.17145],[134.1393,34.17095],[134.13304,34.17181],[134.12954,34.1711],[134.12482,34.1716],[134.12087,34.17311],[134.11623,34.17006],[134.11345,34.1693],[134.10952,34.17107],[134.10613,34.17031],[134.10545,34.17102],[134.10696,34.17352],[134.10642,34.17408],[134.10413,34.17277],[134.09783,34.17205],[134.08668,34.1684],[134.08323,34.16937],[134.08194,34.17105],[134.08297,34.17418],[134.08235,34.17583],[134.08084,34.17698],[134.07828,34.17641],[134.07395,34.17765],[134.07317,34.17909],[134.07301,34.18355],[134.06877,34.18735],[134.06683,34.18758],[134.06403,34.18602],[134.06142,34.18745],[134.05337,34.18701],[134.05054,34.18879],[134.04885,34.19236],[134.04353,34.19343],[134.04052,34.19868],[134.03646,34.20375],[134.03384,34.20561],[134.03259,34.21232]],[[134.58103,34.17278],[134.58333,34.18044],[134.58292,34.18224],[134.57716,34.19232],[134.57355,34.19552],[134.5732,34.1988],[134.57091,34.20106],[134.56967,34.20393],[134.56576,34.20531]],[[134.03286,34.21112],[134.0327,34.21233],[134.02216,34.21078],[134.018,34.20942],[134.01488,34.20733],[134.00885,34.20672],[134.00456,34.20443],[134.00087,34.20439],[133.99598,34.20593],[133.98875,34.20621],[133.98583,34.20746],[133.9822,34.20697],[133.97739,34.20856],[133.97089,34.21399],[133.96756,34.21538],[133.96491,34.21959],[133.9647,34.22128],[133.96069,34.22263],[133.95331,34.2224],[133.94942,34.2252],[133.94757,34.22557],[133.94704,34.22276],[133.93744,34.22429],[133.92631,34.22784],[133.91185,34.23373],[133.89884,34.241],[133.88266,34.23353],[133.87842,34.233],[133.87459,34.23153],[133.8655,34.22616],[133.85594,34.22445],[133.85349,34.22332],[133.84591,34.20897],[133.84651,34.20282],[133.84345,34.19668],[133.84173,34.19097],[133.83474,34.18309],[133.83115,34.18099],[133.81897,34.17826],[133.81544,34.17524],[133.81408,34.17269],[133.81039,34.17117],[133.79529,34.15996],[133.79307,34.15908],[133.78799,34.15372],[133.78241,34.15109],[133.78011,34.14794],[133.76911,34.14037],[133.76405,34.13561],[133.75771,34.13098],[133.74499,34.12403],[133.74187,34.12062],[133.71249,34.10866],[133.70832,34.10844],[133.70071,34.10526],[133.69519,34.09918],[133.69376,34.09684],[133.6937,34.09457],[133.68004,34.09087],[133.67467,34.09072],[133.67088,34.08732],[133.65195,34.07965],[133.6441,34.07849],[133.63805,34.07953]],[[133.89889,34.24092],[133.88271,34.23346],[133.87462,34.23144],[133.86555,34.22608],[133.85597,34.22434],[133.85331,34.22304],[133.846,34.20895],[133.84664,34.20291],[133.84354,34.19664],[133.84153,34.1904],[133.83414,34.18247],[133.82757,34.18]]]}}]}