{"type":"FeatureCollection","features":[{"type":"Feature","properties":{"route_id":"291","route_number":291,"name":"国道291号","source":"OpenStreetMap contributors (ODbL)","osm_relations":[6608790,10459614,10459615]},"geometry":{"type":"MultiLineString","coordinates":[[[138.57514,37.36759],[138.5802,37.3639],[138.59227,37.35948],[138.58016,37.36383],[138.57514,37.36759]],[[138.81532,37.3202],[138.81515,37.31815],[138.81263,37.31289],[138.8126,37.30952],[138.80884,37.30847],[138.80094,37.31094],[138.79457,37.30878],[138.78608,37.3101],[138.77295,37.31046],[138.7685,37.30805],[138.74887,37.31196],[138.74232,37.31529],[138.73723,37.31482],[138.73084,37.31878],[138.72301,37.3183],[138.71184,37.323],[138.70176,37.31869],[138.69003,37.32196],[138.68578,37.32156],[138.68357,37.32361],[138.67466,37.32326],[138.67333,37.32401],[138.66515,37.33482],[138.66736,37.33734],[138.65703,37.34263],[138.65228,37.34276],[138.6448,37.34127],[138.63991,37.34237],[138.63548,37.3369],[138.63203,37.3345],[138.62368,37.33518],[138.61688,37.33789],[138.6143,37.33969],[138.61173,37.34338],[138.61045,37.3469],[138.59907,37.35373],[138.59505,37.35784],[138.59227,37.35948]],[[138.82076,37.32796],[138.82165,37.32621],[138.82491,37.32724],[138.82701,37.3327],[138.82841,37.33376],[138.83479,37.33378],[138.83814,37.33527],[138.84066,37.33546],[138.84364,37.33428],[138.84695,37.33585],[138.85601,37.33325],[138.86255,37.32632],[138.86822,37.32611],[138.87234,37.32481],[138.87329,37.32189],[138.87382,37.32375],[138.87462,37.32407],[138.87975,37.32205],[138.88364,37.322],[138.88393,37.3241],[138.88563,37.32456],[138.88561,37.32326],[138.88812,37.32108],[138.88965,37.32024],[138.89042,37.3213],[138.89161,37.32132],[138.8926,37.3199],[138.89631,37.31794],[138.89684,37.3123],[138.89876,37.31117],[138.89867,37.30771],[138.89951,37.30692],[138.89859,37.30564],[138.90002,37.30369],[138.90256,37.30369],[138.90467,37.30611],[138.90672,37.30648],[138.90784,37.30761],[138.90775,37.30589],[138.90902,37.30685],[138.90886,37.30572],[138.90975,37.30652],[138.91218,37.30484],[138.91446,37.30515],[138.92309,37.30336],[138.92576,37.30383],[138.94261,37.29916],[138.9478,37.29438],[138.95185,37.29326],[138.95519,37.29075],[138.96268,37.28886],[138.96813,37.28556],[138.97497,37.27901],[138.97746,37.27218],[138.97559,37.27048],[138.97405,37.26463],[138.972,37.26116],[138.97502,37.25814],[138.97439,37.25577],[138.97173,37.25389],[138.96529,37.245],[138.96025,37.24124],[138.96633,37.23749],[138.96753,37.23559],[138.9671,37.21795],[138.97799,37.21605],[138.9803,37.21256],[138.97972,37.21048],[138.98088,37.20401],[138.98018,37.19903],[138.98145,37.18873],[138.97817,37.18111],[138.9708,37.17763],[138.96731,37.17427],[138.96849,37.17038],[138.9684,37.1626],[138.96614,37.15358],[138.96095,37.14777],[138.9544,37.13568],[138.94798,37.12935],[138.94564,37.12849],[138.93736,37.12873],[138.92128,37.11872],[138.92037,37.11607],[138.92135,37.11204],[138.92094,37.10573],[138.91852,37.09711],[138.91544,37.09161],[138.90667,37.08439],[138.90287,37.08304],[138.90029,37.08395],[138.89882,37.08362],[138.89282,37.0753],[138.88315,37.06645],[138.88279,37.05154],[138.87381,37.0523],[138.87114,37.04065],[138.87083,37.03594],[138.87184,37.02745],[138.87642,37.01886],[138.88011,37.01397],[138.89308,36.98869],[138.89754,36.98305],[138.90455,36.9795],[138.9069,36.97533],[138.91447,36.96866],[138.92029,36.96122],[138.91915,36.95892],[138.92106,36.95584],[138.92139,36.95264],[138.92291,36.95092],[138.92361,36.9469],[138.92437,36.9468],[138.92577,36.94294],[138.93124,36.93717],[138.9306,36.93572],[138.93168,36.93367],[138.93311,36.93321],[138.93261,36.93102],[138.93457,36.92857],[138.93396,36.92781],[138.93481,36.92541],[138.93533,36.92659],[138.93645,36.925],[138.93609,36.9263],[138.93951,36.92466],[138.94137,36.92478],[138.93966,36.92278],[138.94295,36.9194],[138.94808,36.9187],[138.94569,36.91933],[138.94556,36.92084],[138.94644,36.91987],[138.95176,36.9188],[138.95113,36.91763],[138.95222,36.91666],[138.95325,36.91295],[138.95856,36.91828],[138.96434,36.91904],[138.9623,36.91749],[138.9628,36.9164],[138.96151,36.91608],[138.96179,36.91433],[138.96109,36.91373],[138.96223,36.91416],[138.96038,36.91028],[138.96458,36.90756],[138.96479,36.9067],[138.96756,36.90681],[138.97183,36.90522],[138.9719,36.90445],[138.9706,36.90393],[138.96708,36.90332],[138.96646,36.90185],[138.97128,36.89852],[138.97066,36.898],[138.97331,36.89533],[138.9706,36.89612],[138.96893,36.89562],[138.96801,36.89662],[138.9657,36.89693],[138.96157,36.89503],[138.95734,36.89806],[138.95605,36.89785],[138.95479,36.89639],[138.953,36.89643],[138.95146,36.89491],[138.94605,36.89431],[138.94425,36.89265],[138.94218,36.8927],[138.93644,36.89055],[138.9351,36.88899],[138.9358,36.88797],[138.93443,36.88647],[138.93479,36.8848],[138.93378,36.88413],[138.93544,36.88202],[138.92788,36.88162],[138.92742,36.88019],[138.92616,36.8801],[138.92693,36.87871],[138.92563,36.87827],[138.92461,36.87642],[138.92566,36.87529],[138.92525,36.87477],[138.92713,36.874],[138.92466,36.87286],[138.92862,36.87157],[138.93079,36.87263],[138.93006,36.87125],[138.92712,36.87085],[138.92689,36.87],[138.92951,36.86838],[138.92963,36.86757],[138.93264,36.86762],[138.93146,36.86838],[138.93265,36.86842],[138.93394,36.86669],[138.9377,36.86521],[138.942,36.86198],[138.93703,36.86262],[138.93569,36.86145],[138.93307,36.86144],[138.9334,36.86059],[138.93241,36.85987],[138.9373,36.85888],[138.94004,36.85672],[138.94307,36.85603],[138.94481,36.85355],[138.94104,36.85213],[138.94458,36.85156],[138.94691,36.84985],[138.94418,36.84926],[138.94245,36.84696],[138.94479,36.84759],[138.94754,36.84661],[138.95012,36.84693],[138.9527,36.8436],[138.95232,36.84064],[138.95577,36.84203],[138.9568,36.84055],[138.96102,36.83889],[138.96045,36.83595],[138.96155,36.83746],[138.96127,36.83617],[138.96229,36.83662],[138.96161,36.83517],[138.96321,36.83568],[138.96465,36.83462],[138.96434,36.83361],[138.96648,36.83504],[138.96587,36.8315],[138.97187,36.82507],[138.97401,36.8234],[138.97805,36.82198],[138.98498,36.81703],[138.9864,36.80652],[138.98755,36.80455],[138.98596,36.80093],[138.98875,36.79509],[138.98706,36.79411],[138.98641,36.79249],[138.98338,36.7909],[138.98052,36.79144],[138.97922,36.79085],[138.97597,36.78369],[138.96933,36.78306],[138.96623,36.78104],[138.96568,36.77937],[138.96725,36.77148],[138.96955,36.76637],[138.96752,36.76509],[138.96767,36.76182],[138.96899,36.75972],[138.97168,36.75975],[138.97265,36.75877],[138.97007,36.75391],[138.9713,36.75334],[138.97191,36.75151],[138.97951,36.74257],[138.97845,36.73742],[138.97592,36.73382],[138.97763,36.72715],[138.97719,36.72447],[138.97879,36.72095],[138.97626,36.71808],[138.97615,36.71426],[138.97466,36.71326],[138.97682,36.70863],[138.97662,36.70673],[138.97753,36.70467],[138.97493,36.69699],[138.978,36.69509],[138.97847,36.69364],[138.97979,36.6939],[138.98433,36.68657],[138.97875,36.67996],[138.97784,36.67707],[138.9874,36.67155],[138.99126,36.66846],[138.99862,36.66877],[139.0041,36.67106],[139.00648,36.6708],[139.00958,36.66603],[139.01398,36.66304],[139.01676,36.66409],[139.02181,36.65931],[139.02252,36.65723],[139.02761,36.65272],[139.03687,36.6386],[139.03842,36.6341],[139.03679,36.63187],[139.03832,36.63043],[139.0385,36.62855],[139.03539,36.62604],[139.03515,36.62474],[139.04069,36.62018],[139.0421,36.61585],[139.04185,36.60999],[139.04895,36.60122],[139.04964,36.59671],[139.04924,36.59276],[139.05442,36.58836],[139.05657,36.58539],[139.05551,36.58465],[139.05334,36.58644],[139.0501,36.58531],[139.04856,36.57834],[139.04968,36.57331],[139.04776,36.57283],[139.04534,36.57345],[139.04176,36.57195],[139.0383,36.56839],[139.03731,36.55896],[139.02931,36.55198],[139.02791,36.54535],[139.02564,36.5434],[139.02283,36.53768],[139.01098,36.52526],[139.01142,36.52341],[139.01054,36.51992],[139.0096,36.51825],[139.00787,36.51748],[139.00554,36.51348],[139.00432,36.50524],[139.00474,36.50318],[139.01178,36.49951],[139.01315,36.49627],[139.01321,36.49457],[139.01165,36.49122],[139.01239,36.48533],[139.01466,36.48047],[139.01948,36.47751],[139.02212,36.47491],[139.02546,36.46829],[139.02932,36.46495],[139.03757,36.46414],[139.03928,36.45998],[139.04693,36.4475],[139.05066,36.43494],[139.05812,36.42354],[139.06724,36.40409],[139.05824,36.42356],[139.05074,36.43504],[139.04865,36.44174]],[[139.02932,36.46495],[139.02566,36.46784],[139.02234,36.47453],[139.0143,36.48085],[139.01225,36.48547],[139.01154,36.49135],[139.01325,36.49562],[139.01168,36.49944],[139.0051,36.50282],[139.00427,36.50394]],[[139.06771,36.39093],[139.06911,36.39882],[139.06724,36.40409]],[[138.978,37.21596],[138.9671,37.21795]],[[139.02275,36.5377],[139.0234,36.53948]],[[139.00502,36.67117],[139.00731,36.67031],[139.00844,36.66762]]]}}]}