{"type":"FeatureCollection","features":[{"type":"Feature","properties":{"route_id":"163","route_number":163,"name":"国道163号","source":"OpenStreetMap contributors (ODbL)","osm_relations":[8376126,9144398,9144399,9144400,9144401,9144402,10052981]},"geometry":{"type":"MultiLineString","coordinates":[[[135.68,34.73531],[135.68092,34.73604],[135.68328,34.73555],[135.68701,34.73653],[135.69144,34.73516],[135.69395,34.73322],[135.69949,34.73325],[135.70406,34.72954],[135.70674,34.73098],[135.71587,34.73191],[135.71965,34.73347],[135.72396,34.73034],[135.73699,34.7295],[135.74066,34.72832],[135.74652,34.72926],[135.75084,34.72765],[135.75513,34.73112],[135.76897,34.7305],[135.77503,34.73305],[135.78093,34.73301],[135.78447,34.73471],[135.80014,34.73708],[135.80327,34.73688],[135.8029,34.73009],[135.82181,34.72966],[135.823,34.73989],[135.8206,34.74604],[135.8262,34.74676],[135.83198,34.74971],[135.83603,34.75222],[135.83762,34.7546],[135.84423,34.76054],[135.84835,34.76278],[135.85398,34.76417],[135.86396,34.76389],[135.87105,34.76861],[135.87642,34.76872],[135.88244,34.76485],[135.89198,34.763],[135.89796,34.76377],[135.90241,34.76671],[135.90565,34.76683],[135.91489,34.76508],[135.9191,34.76519],[135.92761,34.76222],[135.93604,34.76208],[135.94119,34.7595],[135.95016,34.76092],[135.95162,34.76194],[135.95288,34.76441],[135.95583,34.76583],[135.96488,34.7661],[135.97748,34.76857],[135.98545,34.7742],[135.99308,34.77519],[135.99982,34.77396],[136.01249,34.77716],[136.01776,34.77613],[136.01867,34.77164],[136.02356,34.76878],[136.02382,34.7646],[136.02531,34.76307],[136.02691,34.76319],[136.02928,34.76485],[136.03659,34.7662],[136.04491,34.76544],[136.05225,34.76235],[136.05859,34.7618],[136.0622,34.75889],[136.07117,34.75804],[136.08244,34.75997],[136.09414,34.75986],[136.09762,34.76337],[136.1043,34.76668],[136.10738,34.77099],[136.11524,34.77415],[136.12379,34.77493],[136.12316,34.76728],[136.13812,34.76868],[136.14627,34.77104],[136.15353,34.77127],[136.16173,34.77299],[136.16375,34.77515],[136.1709,34.77445],[136.17524,34.77599],[136.17726,34.77884],[136.17853,34.77941],[136.18205,34.77735],[136.18519,34.77756],[136.19538,34.77572],[136.1988,34.77079],[136.20224,34.76851],[136.21046,34.76672],[136.21533,34.76377],[136.22354,34.76233],[136.22638,34.75962],[136.22717,34.75492],[136.22986,34.75015],[136.24337,34.75009],[136.24918,34.74865],[136.25076,34.74677],[136.25319,34.74595],[136.25423,34.74793],[136.25633,34.74846],[136.25689,34.75204],[136.26145,34.75779],[136.27268,34.76561],[136.27602,34.76661],[136.28251,34.76689],[136.28712,34.7712],[136.28896,34.77155],[136.29159,34.77078],[136.2975,34.77277],[136.30301,34.77289],[136.30971,34.77087],[136.31556,34.7711],[136.32191,34.76509],[136.33647,34.75905],[136.33742,34.75786],[136.33973,34.75739],[136.34392,34.7546],[136.34737,34.75384],[136.3485,34.7543],[136.34854,34.75236],[136.35028,34.7525],[136.35282,34.7513],[136.35355,34.75014],[136.35492,34.75021],[136.35539,34.7487],[136.35976,34.74603],[136.35982,34.74396],[136.36267,34.74086],[136.36959,34.7375],[136.37115,34.73346],[136.37533,34.7326],[136.38076,34.72869],[136.38543,34.72381],[136.38897,34.72286],[136.38942,34.72116],[136.39458,34.71787],[136.40026,34.71191],[136.4059,34.70875],[136.40949,34.70812],[136.41393,34.71012],[136.41874,34.71103],[136.42642,34.70822],[136.42998,34.70849],[136.4366,34.70674],[136.44288,34.70994],[136.44512,34.71273],[136.45174,34.71766],[136.46065,34.71859],[136.46685,34.7208],[136.47032,34.72596],[136.47639,34.72238],[136.48336,34.72223],[136.4803,34.7201],[136.47882,34.71991],[136.46904,34.72411]],[[135.69191,34.73463],[135.68821,34.73426],[135.67069,34.73645],[135.66402,34.73843],[135.64814,34.73818],[135.64073,34.7396],[135.62318,34.74079],[135.61645,34.74028],[135.5976,34.73424],[135.58115,34.7337],[135.56955,34.71853],[135.56428,34.71548],[135.5466,34.71545],[135.54636,34.70031],[135.54054,34.70002],[135.5263,34.6973],[135.52113,34.69766],[135.51797,34.697],[135.50058,34.69815]],[[135.50042,34.69831],[135.51829,34.69712],[135.52128,34.69781],[135.52634,34.69738],[135.54057,34.70009],[135.54625,34.70034],[135.54653,34.71552],[135.56447,34.71567],[135.56948,34.71859],[135.58106,34.73378],[135.59757,34.73431],[135.61602,34.74027],[135.62317,34.74085],[135.64042,34.73968],[135.64825,34.73828],[135.66405,34.73857],[135.67098,34.73668],[135.68713,34.73475],[135.69173,34.73494]],[[136.48336,34.72223],[136.48625,34.72249],[136.50685,34.71434],[136.50926,34.71473]],[[135.83279,34.735],[135.82992,34.72696],[135.83231,34.73441],[135.83666,34.74049],[135.83279,34.735]],[[135.72396,34.73034],[135.71909,34.73336]],[[135.83666,34.74049],[135.83637,34.74299],[135.83038,34.74882]],[[135.83002,34.72693],[135.82787,34.72699],[135.82992,34.72696]],[[135.64419,34.73898],[135.64413,34.7389]],[[135.82787,34.72699],[135.82181,34.72966]],[[135.7769,34.73323],[135.76972,34.73059],[135.76682,34.73048]]]}}]}