{"type":"FeatureCollection","features":[{"type":"Feature","properties":{"route_id":"315","route_number":315,"name":"国道315号","source":"OpenStreetMap contributors (ODbL)","osm_relations":[1113900]},"geometry":{"type":"MultiLineString","coordinates":[[[131.81503,34.0588],[131.82853,34.0658],[131.83086,34.068],[131.83355,34.07584],[131.83781,34.08274],[131.83781,34.08558],[131.84045,34.0869],[131.84347,34.09041],[131.84583,34.09148],[131.84067,34.09035],[131.84001,34.09132],[131.84048,34.09227],[131.84499,34.09236],[131.85039,34.09649],[131.85316,34.10034],[131.85389,34.10263],[131.85672,34.10559],[131.85712,34.1085],[131.85634,34.11628],[131.85558,34.11773],[131.84974,34.12064],[131.84301,34.126],[131.84031,34.1306],[131.83071,34.13448],[131.82783,34.1422],[131.82077,34.14814],[131.82046,34.15174],[131.81916,34.15443],[131.81931,34.15839],[131.82115,34.16314],[131.82416,34.1665],[131.82443,34.16802],[131.82114,34.17611],[131.82093,34.17863],[131.81889,34.18033],[131.81859,34.18636],[131.8202,34.19138],[131.81664,34.1937],[131.81717,34.19635],[131.81588,34.19931],[131.81113,34.20165],[131.81284,34.20683],[131.81478,34.20846],[131.81589,34.2112],[131.8192,34.2155],[131.81876,34.217],[131.81487,34.22061],[131.81163,34.22544],[131.81132,34.22903],[131.81317,34.23524],[131.80638,34.23905],[131.80229,34.24306],[131.80019,34.24832],[131.8001,34.25189],[131.80154,34.25751],[131.80112,34.25874],[131.79266,34.26249],[131.79145,34.26373],[131.79166,34.26813],[131.78952,34.27111],[131.79206,34.27562],[131.7938,34.27676],[131.79224,34.28026],[131.77864,34.29096],[131.77499,34.29223],[131.76813,34.29123],[131.76487,34.29269],[131.76639,34.29808],[131.7639,34.3035],[131.76383,34.3067],[131.75817,34.31199],[131.75909,34.31411],[131.75816,34.31617],[131.7612,34.31996],[131.76198,34.32333],[131.75819,34.32547],[131.75173,34.33644],[131.74794,34.33873],[131.74527,34.34167],[131.74402,34.34148],[131.74418,34.34074],[131.74483,34.34144],[131.74293,34.3429],[131.74016,34.34361],[131.7368,34.3457],[131.7373,34.34713],[131.73536,34.34508],[131.72751,34.3421],[131.721,34.34246],[131.71625,34.34469],[131.71606,34.34801],[131.71823,34.35117],[131.71862,34.35602],[131.72477,34.36805],[131.72629,34.37519],[131.72538,34.37906],[131.71517,34.38639],[131.71521,34.388],[131.71788,34.39151],[131.71487,34.39737],[131.70729,34.40197],[131.6996,34.40056],[131.68863,34.40158],[131.68499,34.40515],[131.68245,34.40966],[131.67994,34.41107],[131.67707,34.41494],[131.67268,34.41626],[131.67102,34.41823],[131.66806,34.41926],[131.66607,34.42255],[131.66092,34.42693],[131.66074,34.4285],[131.66506,34.43822],[131.66494,34.44115],[131.67397,34.44794],[131.67814,34.45324],[131.6744,34.46006],[131.67428,34.46497],[131.66579,34.47151],[131.65806,34.47117],[131.65154,34.47465],[131.64468,34.47596],[131.64046,34.47495],[131.63856,34.4755],[131.6325,34.48373],[131.63407,34.48726],[131.63361,34.48938],[131.6251,34.49332],[131.61839,34.50213],[131.61731,34.51016],[131.61401,34.51194],[131.60846,34.52204],[131.60809,34.52569],[131.6069,34.52837],[131.60285,34.52976],[131.59823,34.53356],[131.59897,34.5395],[131.60154,34.54674],[131.5988,34.55048],[131.59913,34.55221],[131.60215,34.55216],[131.60568,34.5539],[131.61082,34.55066],[131.61897,34.54927],[131.62058,34.55051],[131.61968,34.55437],[131.62079,34.56375],[131.61402,34.57081],[131.61355,34.57624],[131.60944,34.58616],[131.61091,34.58878],[131.61402,34.59037],[131.618,34.59512],[131.62205,34.59668],[131.62273,34.60147],[131.62189,34.6041],[131.61679,34.60873],[131.61688,34.61379],[131.61363,34.61791],[131.61309,34.62039],[131.61,34.62323],[131.60893,34.62284]],[[131.80898,34.23775],[131.81306,34.23547]]]}}]}