{"type":"FeatureCollection","features":[{"type":"Feature","properties":{"route_id":"285","route_number":285,"name":"国道285号","source":"OpenStreetMap contributors (ODbL)","osm_relations":[6743360,10451952,10451953,10451954,10451955]},"geometry":{"type":"MultiLineString","coordinates":[[[140.08738,39.71863],[140.08752,39.72437],[140.08525,39.72682],[140.0806,39.72914],[140.07763,39.73519],[140.07081,39.74108],[140.06752,39.74756],[140.06687,39.75315],[140.06896,39.76982],[140.06909,39.77674],[140.06573,39.78427],[140.06031,39.80078],[140.05573,39.80802],[140.05459,39.82904],[140.05017,39.84321],[140.05237,39.84863],[140.06547,39.85462],[140.06851,39.85696],[140.08998,39.88991],[140.09097,39.89256],[140.09071,39.89599],[140.08888,39.89892],[140.08598,39.9011],[140.09228,39.9064],[140.0961,39.91673],[140.107,39.9299],[140.11177,39.93922],[140.11245,39.94467],[140.11877,39.94858],[140.12686,39.9502],[140.13615,39.9473],[140.15247,39.94895],[140.16748,39.9468],[140.17017,39.94815],[140.17394,39.94708],[140.17724,39.94902],[140.18179,39.94685],[140.18624,39.94657],[140.18823,39.94787],[140.19086,39.948],[140.1971,39.94425],[140.20163,39.94353],[140.20537,39.94528],[140.20978,39.94901],[140.21618,39.95013],[140.21874,39.9531],[140.22682,39.95874],[140.23057,39.9592],[140.23194,39.96012],[140.23465,39.96438],[140.23488,39.9672],[140.23655,39.96947],[140.23873,39.97662],[140.24049,39.97823],[140.24477,39.98016],[140.24628,39.98206],[140.24656,39.99104],[140.25035,39.99379],[140.2545,39.99554],[140.26121,39.99761],[140.27198,39.99915],[140.27616,40.00165],[140.2783,40.00433],[140.27882,40.01314],[140.27593,40.01651],[140.27385,40.02671],[140.27505,40.03337],[140.28215,40.04384],[140.28612,40.04684],[140.29004,40.0514],[140.29293,40.05303],[140.29489,40.05658],[140.29844,40.05848],[140.29765,40.06139],[140.29495,40.06551],[140.29511,40.06647],[140.29926,40.06898],[140.30531,40.06942],[140.31396,40.07431],[140.31759,40.07762],[140.32333,40.0856],[140.33034,40.08729],[140.33955,40.0924],[140.34088,40.09399],[140.34227,40.09894],[140.3475,40.1026],[140.35259,40.10322],[140.35347,40.10438],[140.35331,40.10838],[140.35462,40.10885],[140.3553,40.11208],[140.35826,40.11405],[140.36284,40.11517],[140.36604,40.11969],[140.37291,40.12094],[140.37519,40.11977],[140.37871,40.11972],[140.3825,40.13529],[140.39152,40.14705],[140.39545,40.15452],[140.39467,40.16111],[140.39314,40.16379],[140.39488,40.16858],[140.39967,40.17018],[140.40088,40.17699],[140.40059,40.18794],[140.41733,40.18923],[140.42561,40.18687],[140.43205,40.18656],[140.43635,40.18418],[140.444,40.18292],[140.45118,40.17805],[140.4569,40.17598],[140.46809,40.17599],[140.47407,40.17478],[140.47829,40.17575],[140.48084,40.17745],[140.48421,40.17714],[140.49027,40.18027],[140.49673,40.18027],[140.49995,40.18252],[140.50194,40.18559],[140.50654,40.18649],[140.51209,40.18625],[140.51438,40.18802],[140.51961,40.18979],[140.521,40.19184],[140.52381,40.19258],[140.52638,40.19217],[140.52893,40.1943],[140.53317,40.19471],[140.53468,40.19637],[140.53515,40.19885],[140.54212,40.20217],[140.54874,40.20093],[140.5548,40.2021],[140.55701,40.20459],[140.58242,40.21173],[140.58334,40.21263],[140.58383,40.21592],[140.59261,40.23051],[140.59857,40.22781],[140.61202,40.21871],[140.62181,40.21532],[140.62947,40.21685],[140.63492,40.21693],[140.63967,40.21838],[140.64602,40.21865],[140.65384,40.22204],[140.67449,40.22231],[140.6774,40.22405],[140.6804,40.22876],[140.68251,40.23064],[140.68653,40.23227],[140.69178,40.23317],[140.70019,40.23333],[140.71305,40.22745],[140.71739,40.22395],[140.72114,40.22359],[140.73101,40.22871],[140.74157,40.24494],[140.74533,40.24686],[140.75286,40.24756],[140.75611,40.24876],[140.76446,40.26083],[140.77047,40.26416]],[[140.40059,40.18794],[140.40657,40.18807]],[[140.21031,39.94921],[140.20687,39.94896],[140.20312,39.94494],[140.19945,39.94609],[140.19561,39.94503]],[[140.08721,39.71861],[140.08733,39.72447],[140.08515,39.72678],[140.08051,39.72907],[140.07701,39.73582],[140.07089,39.7408],[140.06851,39.74439],[140.06706,39.74974]],[[140.3475,40.1026],[140.35228,40.10655],[140.35986,40.11055],[140.36785,40.11145],[140.37384,40.11409],[140.37677,40.11635],[140.37871,40.11972]]]}}]}