{"type":"FeatureCollection","features":[{"type":"Feature","properties":{"route_id":"447","route_number":447,"name":"国道447号","source":"OpenStreetMap contributors (ODbL)","osm_relations":[9663861]},"geometry":{"type":"MultiLineString","coordinates":[[[130.72245,32.06508],[130.72339,32.06221],[130.7208,32.0596],[130.7211,32.0605],[130.71455,32.0612],[130.71444,32.06413],[130.71345,32.06458],[130.71498,32.06492],[130.71006,32.06468],[130.70929,32.06712],[130.70763,32.06585],[130.70609,32.06598],[130.70634,32.06492],[130.70409,32.06462],[130.70458,32.06653],[130.70387,32.06665],[130.70393,32.06773],[130.70239,32.06751],[130.70257,32.0689],[130.70004,32.07071],[130.70168,32.0717],[130.7038,32.0716],[130.70538,32.07387],[130.70268,32.07292],[130.70128,32.07351],[130.69838,32.07314],[130.69815,32.07244],[130.69634,32.07206],[130.6787,32.07343],[130.67672,32.07261],[130.67187,32.06748],[130.66408,32.06773],[130.65706,32.0662],[130.64996,32.06352],[130.64075,32.05613],[130.63479,32.05372],[130.62896,32.05527],[130.62249,32.05157],[130.61853,32.05564],[130.61474,32.05638],[130.60777,32.0556],[130.60542,32.05953],[130.60271,32.05771],[130.59722,32.04975],[130.59344,32.05134],[130.58707,32.05252],[130.58374,32.05157],[130.57639,32.05333],[130.57228,32.05316],[130.56501,32.05013],[130.55738,32.04967],[130.55104,32.05068],[130.54923,32.04969],[130.54748,32.05204],[130.54391,32.05456],[130.53675,32.05466],[130.53395,32.0569],[130.53155,32.05622],[130.52461,32.05846],[130.51865,32.05828],[130.5154,32.0603],[130.51366,32.06],[130.51135,32.06167],[130.50939,32.0645],[130.50908,32.06572],[130.51007,32.06674],[130.50695,32.0698],[130.50676,32.0709],[130.50388,32.07079],[130.50001,32.07226],[130.50088,32.07387],[130.49642,32.07615],[130.49483,32.07816],[130.49474,32.07987],[130.4932,32.08138],[130.4894,32.08059],[130.48822,32.08165],[130.48576,32.08203],[130.48389,32.08098],[130.4765,32.08164],[130.47317,32.08012],[130.47189,32.08107],[130.47158,32.08247],[130.46651,32.08419],[130.46223,32.08262],[130.45862,32.07967],[130.45837,32.07778],[130.45733,32.07686],[130.45249,32.07491],[130.44471,32.07437],[130.4354,32.06857],[130.43172,32.06936],[130.4292,32.07165],[130.42446,32.07016],[130.41961,32.06676],[130.41481,32.0698],[130.40713,32.06738],[130.40318,32.07127],[130.40113,32.07091],[130.39658,32.07282],[130.38756,32.0729],[130.38496,32.07507],[130.38391,32.07834],[130.38174,32.07842],[130.37354,32.07627],[130.36781,32.07904],[130.36566,32.08127],[130.35862,32.08372],[130.35075,32.09262],[130.3404,32.11392],[130.34006,32.11751]],[[130.72509,32.06679],[130.72415,32.06865],[130.72686,32.06905],[130.72879,32.07109],[130.72882,32.07358],[130.7308,32.07387],[130.7323,32.07121],[130.73682,32.06863],[130.73931,32.06618],[130.74237,32.06173],[130.74178,32.05925],[130.74372,32.05635],[130.74616,32.05566],[130.74933,32.05299],[130.75763,32.05215],[130.76269,32.0557],[130.76518,32.05584],[130.76591,32.05223],[130.76471,32.0507],[130.76538,32.04669]]]}}]}