{"type":"FeatureCollection","features":[{"type":"Feature","properties":{"route_id":"228","route_number":228,"name":"国道228号","source":"OpenStreetMap contributors (ODbL)","osm_relations":[6585224]},"geometry":{"type":"MultiLineString","coordinates":[[[140.67986,41.82318],[140.6658,41.82389],[140.65453,41.82281],[140.64723,41.81927],[140.63005,41.81308],[140.62223,41.80648],[140.62119,41.80341],[140.62212,41.80649],[140.62997,41.81317],[140.64702,41.81928],[140.65446,41.82287],[140.66614,41.82398],[140.6797,41.82324],[140.69889,41.81858],[140.71573,41.80979],[140.72306,41.80296],[140.72806,41.79549],[140.73014,41.79011],[140.73189,41.78947]],[[140.12841,41.86937],[140.12084,41.86575],[140.12505,41.85961],[140.12519,41.85701],[140.12657,41.85485],[140.12485,41.84758],[140.1266,41.83629],[140.12459,41.82546],[140.12059,41.81692],[140.12014,41.8141],[140.12006,41.8091],[140.12321,41.80537]],[[140.1233,41.80513],[140.1174,41.80004],[140.11547,41.79942],[140.1126,41.80004],[140.10757,41.80383],[140.10186,41.80418],[140.09517,41.80782],[140.0925,41.80731],[140.09018,41.80563],[140.08474,41.80749],[140.08066,41.80682],[140.07372,41.8022],[140.0748,41.78955],[140.07437,41.7797],[140.07366,41.77345],[140.07176,41.7698],[140.07049,41.76298],[140.06646,41.75786],[140.06571,41.75458],[140.05779,41.74355],[140.05756,41.74171],[140.05352,41.73872],[140.0504,41.73386],[140.04668,41.73203],[140.04621,41.73089],[140.04686,41.72917],[140.04428,41.72754],[140.04364,41.72535],[140.03699,41.71926],[140.0321,41.71705],[140.02803,41.71397],[140.02756,41.7114],[140.02507,41.70773],[140.02683,41.70555],[140.02652,41.70361],[140.02515,41.7023],[140.02109,41.70143],[140.01934,41.7],[140.01552,41.69564],[140.01078,41.68657],[140.00932,41.67919],[140.00592,41.67061],[140.00634,41.66504],[140.00514,41.65824],[140.00587,41.65645],[140.00522,41.65469],[140.00541,41.65075],[140.00108,41.6453],[139.99888,41.63935],[139.99538,41.63602],[139.99592,41.63308],[139.99532,41.62831],[139.99272,41.62124],[139.98735,41.61144],[139.9875,41.60164],[139.98656,41.59871],[139.98709,41.59427],[139.98546,41.59146],[139.98526,41.58693],[139.98851,41.58484],[139.98951,41.58222],[139.98922,41.5775],[139.98634,41.5709],[139.98795,41.56593],[139.98668,41.56054],[139.99551,41.54433],[139.99812,41.54205],[140.00092,41.54154],[140.00203,41.54058],[140.00011,41.53561],[140.00332,41.53144],[140.00406,41.52712],[140.00852,41.52029],[140.00992,41.5135],[140.01362,41.50848],[140.0142,41.50369],[140.01874,41.50046],[140.01733,41.49078],[140.01891,41.48739],[140.02225,41.48537],[140.02329,41.48228],[140.02599,41.48065],[140.02614,41.47689],[140.0294,41.47306],[140.03145,41.46722],[140.02946,41.46399],[140.02949,41.4628],[140.03748,41.45334],[140.04168,41.45046],[140.04268,41.4483],[140.04836,41.44612],[140.05529,41.44051],[140.07311,41.4319],[140.07557,41.42759],[140.07792,41.42639],[140.08915,41.42471],[140.09607,41.42467],[140.10113,41.42612],[140.10543,41.42619],[140.11083,41.42802],[140.11579,41.42794],[140.11995,41.43037],[140.12408,41.42948],[140.12842,41.43162],[140.13223,41.43058],[140.13457,41.42851],[140.13688,41.42787],[140.14017,41.42769],[140.14333,41.42888],[140.14537,41.42879],[140.14963,41.42574],[140.15502,41.42509],[140.16661,41.41649],[140.16974,41.4157],[140.17214,41.41252],[140.18332,41.40277],[140.19427,41.39836],[140.19739,41.39781],[140.19977,41.39871],[140.20211,41.4027],[140.20467,41.40505],[140.21532,41.4102],[140.2167,41.41387],[140.21654,41.41734],[140.21998,41.42059],[140.22059,41.42499],[140.22261,41.42768],[140.22294,41.42968],[140.22848,41.43428],[140.23087,41.43762],[140.23627,41.44134],[140.23615,41.44626],[140.23833,41.44808],[140.23897,41.45009],[140.24337,41.45383],[140.24395,41.45741],[140.24614,41.45945],[140.24593,41.4635],[140.24799,41.46518],[140.25253,41.46503],[140.25619,41.46704],[140.2567,41.46916],[140.25611,41.47969],[140.25486,41.48406],[140.2521,41.48772],[140.25154,41.49604],[140.24194,41.51168],[140.24353,41.51812],[140.25218,41.52659],[140.25909,41.52995],[140.2594,41.53228],[140.25806,41.53443],[140.25699,41.53905],[140.25741,41.54116],[140.26326,41.54565],[140.26448,41.551],[140.26822,41.55372],[140.27111,41.55805],[140.27589,41.56092],[140.27871,41.56427],[140.28752,41.57025],[140.29075,41.57485],[140.29215,41.58146],[140.29465,41.58673],[140.30009,41.59386],[140.30511,41.59827],[140.30763,41.59917],[140.31219,41.59931],[140.31762,41.59705],[140.32084,41.59662],[140.33719,41.60106],[140.35797,41.60161],[140.36737,41.60069],[140.37357,41.5988],[140.38879,41.59658],[140.39658,41.5933],[140.40662,41.59495],[140.41307,41.59374],[140.416,41.59446],[140.41888,41.59947],[140.42305,41.60234],[140.42699,41.60709],[140.42891,41.6165],[140.43035,41.63513],[140.43184,41.64416],[140.43278,41.65647],[140.43203,41.6614],[140.43497,41.66632],[140.43624,41.67117],[140.44167,41.68221],[140.44842,41.68945],[140.45422,41.69472],[140.45955,41.69728],[140.47287,41.6981],[140.47874,41.70158],[140.48106,41.70139],[140.48572,41.69894],[140.49141,41.69872],[140.4973,41.70081],[140.50621,41.69982],[140.51305,41.70062],[140.51706,41.7025],[140.52506,41.7023],[140.53808,41.71184],[140.54061,41.7153],[140.54642,41.71852],[140.54876,41.72092],[140.55274,41.72096],[140.55847,41.72405],[140.56158,41.72797],[140.57717,41.73177],[140.57869,41.73315],[140.57993,41.73741],[140.58554,41.73811],[140.58882,41.74154],[140.595,41.74022],[140.60088,41.74183],[140.60186,41.74324],[140.60183,41.75011],[140.6048,41.75814],[140.60375,41.76181],[140.60627,41.76473],[140.61169,41.76826],[140.6135,41.77154],[140.61335,41.77746],[140.61483,41.77858],[140.61519,41.78066],[140.6197,41.78764],[140.61788,41.79495],[140.62119,41.80341]],[[140.12357,41.80523],[140.12357,41.80523]],[[140.12279,41.80592],[140.12334,41.80543]],[[140.12277,41.80475],[140.12319,41.80521]]]}}]}