{"type":"FeatureCollection","features":[{"type":"Feature","properties":{"route_id":"336","route_number":336,"name":"国道336号","source":"OpenStreetMap contributors (ODbL)","osm_relations":[6626646,11065615]},"geometry":{"type":"MultiLineString","coordinates":[[[144.38596,42.98015],[144.38441,42.9845],[144.37789,42.98337],[144.37595,42.98924],[144.36163,42.99869],[144.35964,43.00114],[144.36467,43.00784],[144.36228,43.0086],[144.35682,43.0129],[144.33353,43.01752],[144.29201,43.01057],[144.2703,43.00984],[144.26537,43.01188],[144.25685,43.00919],[144.25437,43.00428],[144.2521,43.00289],[144.20096,42.99381],[144.16603,42.9845],[144.14702,42.98283],[144.13677,42.98078],[144.13453,42.97957],[144.12902,42.97359],[144.11803,42.96709],[144.11239,42.96236],[144.10543,42.95915],[144.0951,42.95646],[144.0905,42.95333],[144.08288,42.95434],[144.07074,42.95435],[144.06736,42.95543],[144.05974,42.95578],[144.03905,42.94799],[144.0333,42.94312],[144.02634,42.94027],[144.0158,42.93407],[144.01469,42.93249],[144.01453,42.92822],[144.00928,42.92459],[143.98373,42.91138],[143.9744,42.9093],[143.96334,42.90071],[143.9492,42.89281],[143.92714,42.88847],[143.92251,42.8826],[143.91777,42.87847],[143.90441,42.87366],[143.89333,42.86671],[143.88362,42.86657],[143.87486,42.86437],[143.87112,42.86129],[143.86583,42.85485],[143.86185,42.85192],[143.85411,42.85051],[143.84997,42.8508],[143.83698,42.85782],[143.8296,42.85878],[143.82507,42.85815],[143.81381,42.85307],[143.80259,42.85252],[143.79447,42.85337],[143.78923,42.84974],[143.78299,42.84867],[143.78074,42.8417],[143.7703,42.83308],[143.75278,42.83116],[143.74441,42.83236],[143.7355,42.83045],[143.72775,42.83098],[143.72469,42.82993],[143.71115,42.8211],[143.70898,42.82059],[143.70242,42.82009],[143.69306,42.823],[143.68582,42.82239],[143.6806,42.82005],[143.67182,42.82192],[143.66415,42.8196],[143.66342,42.81857],[143.6613,42.80565],[143.65105,42.79707],[143.64848,42.78996],[143.64107,42.78164],[143.62737,42.77785],[143.62448,42.77575],[143.62046,42.7744],[143.61493,42.77],[143.6138,42.75942],[143.63154,42.743],[143.62976,42.73281],[143.63373,42.72974],[143.63341,42.72218],[143.63678,42.71367],[143.62053,42.70527],[143.61519,42.69373],[143.61214,42.69058],[143.60755,42.68883],[143.60437,42.68631],[143.60322,42.68398],[143.60321,42.67821],[143.60209,42.67696],[143.58726,42.67514],[143.57796,42.67658],[143.57293,42.67343],[143.56179,42.67136],[143.5472,42.66591],[143.52702,42.66241],[143.52505,42.66074],[143.52385,42.65636],[143.52022,42.65434],[143.51596,42.64434],[143.50908,42.64398],[143.50509,42.64085],[143.48775,42.63753],[143.48142,42.634],[143.47872,42.63033],[143.48018,42.62655],[143.47936,42.62054],[143.47249,42.61412],[143.46489,42.61303],[143.45787,42.60739],[143.45741,42.60234],[143.45233,42.59955],[143.44812,42.59493],[143.44742,42.5921],[143.44863,42.58558],[143.44803,42.58324],[143.44428,42.57658],[143.43919,42.5734],[143.4373,42.57009],[143.43723,42.56871],[143.43934,42.5657],[143.43843,42.56358],[143.43879,42.55983],[143.4368,42.55714],[143.43315,42.5553],[143.43276,42.55391],[143.43609,42.54877],[143.43953,42.54568],[143.43964,42.5401],[143.43794,42.53681],[143.43908,42.53515],[143.44312,42.53294],[143.44316,42.53113],[143.43401,42.52531],[143.42765,42.52259],[143.41628,42.50265],[143.41312,42.50124],[143.40498,42.50094],[143.40235,42.50002],[143.38599,42.48523],[143.3813,42.48285],[143.37327,42.47137],[143.3627,42.46697],[143.34208,42.43849],[143.33501,42.43383],[143.33328,42.42643],[143.3272,42.41778],[143.30691,42.40161],[143.30292,42.39267],[143.29376,42.38564],[143.29059,42.35984],[143.32283,42.31622],[143.32231,42.31382],[143.312,42.29316],[143.31832,42.28491],[143.31872,42.28339],[143.31734,42.28037],[143.31789,42.27862],[143.31502,42.27225],[143.3132,42.27047],[143.31357,42.2668],[143.3097,42.26125],[143.30866,42.258],[143.30856,42.25578],[143.30996,42.25382],[143.30869,42.25109],[143.30772,42.24419],[143.3109,42.23892],[143.31473,42.23572],[143.31564,42.23255],[143.31494,42.2274],[143.31939,42.22296],[143.32031,42.21968],[143.31869,42.21349],[143.32039,42.20931],[143.32434,42.20647],[143.3278,42.20529],[143.33318,42.20059],[143.33336,42.19883],[143.33134,42.19218],[143.33396,42.18678],[143.33401,42.18491],[143.33086,42.17996],[143.32571,42.16716],[143.3252,42.16311],[143.32204,42.15749],[143.31801,42.14039],[143.3191,42.13634],[143.31777,42.13138],[143.31783,42.12839],[143.31537,42.12279],[143.31627,42.11956],[143.31511,42.11278],[143.31562,42.10332],[143.31015,42.09189],[143.30734,42.07987],[143.30701,42.07378],[143.30777,42.06999],[143.30927,42.06815],[143.30884,42.0655],[143.31022,42.06134],[143.30929,42.05891],[143.31079,42.05414],[143.30378,42.04977],[143.29907,42.04532],[143.29341,42.04312],[143.29066,42.03711],[143.27623,42.03212],[143.25244,42.01607],[143.24853,42.01621],[143.241,42.01493],[143.23622,42.01718],[143.234,42.0203],[143.23097,42.02212],[143.23038,42.02381],[143.23142,42.02698],[143.23065,42.02812],[143.22903,42.02883],[143.22213,42.02903],[143.2161,42.02561],[143.2113,42.02588],[143.20319,42.02285],[143.19753,42.01391],[143.18643,42.00482],[143.16271,41.99977],[143.1607,42.00083],[143.15252,42.00993],[143.14895,42.01239],[143.14727,42.0171],[143.14277,42.02077],[143.14082,42.02367],[143.13489,42.0289],[143.12866,42.03168],[143.12261,42.03775],[143.1049,42.04324],[143.10174,42.04622],[143.09483,42.05043],[143.09161,42.05103],[143.07932,42.05639],[143.07372,42.057],[143.06984,42.06116],[143.06223,42.06541],[143.04829,42.07056],[143.04115,42.07224],[143.03668,42.07574],[143.02815,42.07811],[143.02165,42.07873],[143.01602,42.08139],[143.00257,42.08562],[143.00025,42.0872],[142.99931,42.08883],[142.99844,42.09402],[142.99261,42.09646],[142.98734,42.10056],[142.98174,42.10116],[142.97792,42.10251],[142.97477,42.10698],[142.96849,42.11225],[142.96696,42.11715],[142.96409,42.11894],[142.95662,42.12177],[142.94499,42.12303],[142.9418,42.1255],[142.92856,42.12806],[142.92449,42.1262],[142.92231,42.12619],[142.91932,42.12831],[142.91378,42.13011],[142.9106,42.13293],[142.90762,42.13438],[142.9023,42.13275],[142.89753,42.13245],[142.88774,42.1352],[142.88179,42.13387],[142.8753,42.13381],[142.85882,42.13771],[142.85501,42.14054],[142.84992,42.14229],[142.84266,42.14317],[142.82893,42.14237],[142.82508,42.14116],[142.81578,42.1423],[142.80215,42.15094],[142.79209,42.15452],[142.79034,42.15716],[142.78649,42.15856],[142.78306,42.15845],[142.78038,42.16045],[142.77624,42.16091],[142.7748,42.16243]],[[144.23286,42.99965],[144.25254,43.00314],[144.25421,43.00442],[144.25604,43.00924],[144.25746,43.00928]],[[144.38592,42.97993],[144.38592,42.97993]],[[144.26453,43.01163],[144.26608,43.01195],[144.26924,43.01003]],[[144.38564,42.98007],[144.3857,42.98055]],[[143.63678,42.71367],[143.64238,42.71749],[143.67794,42.72789],[143.70037,42.72677],[143.71522,42.73305],[143.73893,42.75104],[143.74223,42.76322],[143.74395,42.76499],[143.74406,42.76724],[143.74534,42.76842]],[[143.3205,42.3202],[143.32274,42.31708],[143.32285,42.31487],[143.31557,42.30021]]]}}]}