{"type":"FeatureCollection","features":[{"type":"Feature","properties":{"route_id":"425","route_number":425,"name":"国道425号","source":"OpenStreetMap contributors (ODbL)","osm_relations":[3791425,10086744,10088702]},"geometry":{"type":"MultiLineString","coordinates":[[[135.35709,33.89468],[135.35898,33.89693],[135.36407,33.89745],[135.36549,33.90064],[135.36703,33.90064],[135.36799,33.90233],[135.3702,33.90271],[135.37041,33.90514],[135.37354,33.90612],[135.37794,33.90523],[135.38038,33.90906],[135.3883,33.91323],[135.39011,33.91373],[135.39467,33.9132],[135.39961,33.91483],[135.40519,33.91546],[135.40897,33.91667],[135.40918,33.91792],[135.41013,33.91639],[135.41126,33.9169],[135.41267,33.91563],[135.41625,33.91584],[135.41879,33.91735],[135.41843,33.91863],[135.41728,33.91845],[135.41718,33.91936],[135.41551,33.91972],[135.41885,33.92403],[135.42203,33.92454],[135.42514,33.92225],[135.43061,33.92387],[135.43228,33.92305],[135.43368,33.92087],[135.43598,33.92046],[135.43986,33.91733],[135.43788,33.91436],[135.4377,33.90822],[135.44084,33.90171],[135.44058,33.89978],[135.43899,33.89762],[135.43916,33.89518],[135.44087,33.89306],[135.44058,33.89131],[135.44277,33.88773],[135.45002,33.88351],[135.46753,33.87906],[135.47594,33.88146],[135.47301,33.8861],[135.47512,33.8903],[135.4778,33.89019],[135.48045,33.88716],[135.4843,33.8882],[135.49158,33.88684],[135.48708,33.89663],[135.48706,33.90038],[135.48923,33.90337],[135.48588,33.90449],[135.48519,33.90578],[135.48498,33.90925],[135.48582,33.91191],[135.48417,33.91428],[135.48454,33.91568],[135.4885,33.91651],[135.49281,33.91599],[135.49661,33.91649],[135.49815,33.91396],[135.50033,33.91374],[135.50508,33.91615],[135.50802,33.91974],[135.51564,33.91986],[135.52305,33.92459],[135.53032,33.92746],[135.53665,33.92761],[135.53996,33.93078],[135.54298,33.93227],[135.54714,33.93268],[135.54623,33.93646],[135.54866,33.93914],[135.55555,33.93912],[135.55765,33.9384],[135.55969,33.93932],[135.56151,33.94358],[135.55989,33.9448],[135.55658,33.94516],[135.55581,33.94622],[135.55626,33.9478],[135.56025,33.95017],[135.56772,33.94957],[135.5685,33.94838],[135.56784,33.94625],[135.57111,33.94563],[135.57145,33.94636],[135.57003,33.94706],[135.57,33.94817],[135.57112,33.94887],[135.57067,33.95035],[135.57259,33.9538],[135.57478,33.95362],[135.57483,33.95479],[135.57717,33.95505],[135.5781,33.95594],[135.58167,33.9526],[135.58218,33.95562],[135.58344,33.95511],[135.58501,33.95611],[135.58341,33.95765],[135.58695,33.95792],[135.58719,33.95921],[135.58563,33.96108],[135.59039,33.96032],[135.59187,33.96206],[135.59455,33.96191],[135.59588,33.96348],[135.59781,33.96244],[135.59677,33.96424],[135.59856,33.96446],[135.59915,33.96714],[135.60261,33.96759],[135.60463,33.96939],[135.6061,33.9673],[135.60569,33.96811],[135.60692,33.96954],[135.6109,33.96977],[135.61098,33.97097],[135.61248,33.97189],[135.61357,33.97086],[135.61521,33.97152],[135.61623,33.97062],[135.61694,33.97212],[135.61901,33.97257],[135.61966,33.9741],[135.62067,33.97371],[135.62063,33.97264],[135.62349,33.97113],[135.62505,33.97207],[135.62659,33.97184],[135.62718,33.9706],[135.62653,33.96848],[135.62734,33.96893],[135.62935,33.9681],[135.62948,33.96985],[135.63066,33.96874],[135.63013,33.96672],[135.63181,33.96626],[135.62995,33.96534],[135.63202,33.96484],[135.63258,33.96396],[135.63388,33.96424],[135.63554,33.96293],[135.6362,33.96404],[135.63777,33.96429],[135.63802,33.96563],[135.63917,33.96525],[135.63927,33.96354],[135.64217,33.96735],[135.6447,33.96498],[135.64685,33.96663],[135.65004,33.96513],[135.65336,33.96634],[135.65525,33.96531],[135.6566,33.96559],[135.65391,33.96825],[135.64859,33.96851],[135.64682,33.96948],[135.64675,33.97009],[135.6494,33.97036],[135.65341,33.97236],[135.65313,33.97325],[135.65464,33.97514],[135.65194,33.97719],[135.65552,33.97531],[135.65494,33.97315],[135.65577,33.97071],[135.66052,33.96985],[135.66114,33.9692],[135.6601,33.96859],[135.66039,33.96751],[135.66311,33.96809],[135.6649,33.96745],[135.66577,33.96565],[135.66478,33.96478],[135.66571,33.96262],[135.66523,33.96108],[135.66734,33.9613],[135.66879,33.96032],[135.67071,33.9603],[135.67234,33.96113],[135.67394,33.96033],[135.67465,33.96132],[135.67726,33.96095],[135.68006,33.96261],[135.68062,33.96181],[135.68207,33.96288],[135.68539,33.96239],[135.6859,33.96336],[135.68515,33.96434],[135.68683,33.96563],[135.6885,33.96462],[135.69208,33.9664],[135.69415,33.96655],[135.69564,33.96333],[135.70082,33.96321],[135.6999,33.96403],[135.70002,33.96527],[135.70166,33.96513],[135.70304,33.96688],[135.70441,33.96584],[135.70413,33.96734],[135.70621,33.96802],[135.7054,33.96901],[135.70757,33.9699],[135.70767,33.9714],[135.70563,33.97202],[135.70677,33.97355],[135.71088,33.97203],[135.71107,33.96954],[135.71337,33.97333],[135.71508,33.97322],[135.7122,33.97491],[135.71258,33.97605],[135.71116,33.97627],[135.71435,33.98152],[135.71726,33.9799],[135.71845,33.98035],[135.71943,33.97915],[135.72114,33.97944],[135.72113,33.97777],[135.72423,33.97976],[135.72722,33.97827],[135.72599,33.97634],[135.72838,33.97578],[135.72944,33.97322],[135.73129,33.9727],[135.73264,33.9739],[135.73478,33.97219],[135.73777,33.97207],[135.73776,33.97058],[135.73472,33.9678],[135.73926,33.96623],[135.73754,33.96311],[135.73867,33.96108],[135.7366,33.95896],[135.74037,33.95594],[135.74023,33.95431],[135.73843,33.95372],[135.74083,33.9511],[135.74044,33.94949],[135.74395,33.94787],[135.74384,33.94621],[135.74714,33.94617],[135.74792,33.94355],[135.74704,33.94186],[135.74832,33.94182],[135.74908,33.94276],[135.74983,33.94209],[135.74946,33.94092],[135.75231,33.94002],[135.75248,33.93914],[135.75839,33.93869],[135.76066,33.93652],[135.76119,33.93844],[135.76297,33.93886],[135.7667,33.94152],[135.77191,33.94048],[135.78633,33.94729],[135.79603,33.94923],[135.80024,33.95085],[135.80258,33.95857],[135.8028,33.96877],[135.80365,33.972]],[[135.78281,33.94529],[135.78679,33.9463],[135.79001,33.94545],[135.79308,33.94349],[135.79628,33.94299],[135.80005,33.94502],[135.80499,33.94608],[135.80436,33.94871],[135.80057,33.95083],[135.80125,33.95412],[135.79949,33.95656],[135.79736,33.95731],[135.79589,33.96145],[135.79763,33.9652],[135.80088,33.96625],[135.80136,33.96751],[135.80081,33.96904],[135.79867,33.97087],[135.79933,33.97307],[135.80153,33.97431],[135.8052,33.97274],[135.80761,33.97287],[135.80876,33.97068],[135.81325,33.97095],[135.81652,33.96819],[135.82185,33.96914],[135.82178,33.96759],[135.82673,33.96556],[135.82958,33.96701],[135.83212,33.96625],[135.83323,33.96317],[135.83437,33.96472],[135.83793,33.96418],[135.83801,33.966],[135.83905,33.96665],[135.84189,33.96723],[135.84526,33.96631],[135.84527,33.9683],[135.84672,33.96925],[135.84633,33.97024],[135.84991,33.97073],[135.85037,33.96963],[135.84869,33.96886],[135.84766,33.96732],[135.84932,33.96545],[135.8479,33.96475],[135.84753,33.96278],[135.85039,33.96144],[135.84855,33.96341],[135.85163,33.96433],[135.85155,33.96668],[135.85507,33.96626],[135.85898,33.96821],[135.85817,33.97124],[135.86155,33.97396],[135.86032,33.97674],[135.8632,33.97847],[135.86568,33.97878],[135.86292,33.98002],[135.86281,33.98166],[135.86019,33.98307],[135.86143,33.98387],[135.86088,33.98575],[135.86601,33.98624],[135.86098,33.98833],[135.86222,33.9902],[135.86156,33.99121],[135.86228,33.99225],[135.86114,33.9926],[135.86186,33.99454],[135.86608,33.99163],[135.86741,33.99152],[135.8682,33.9923],[135.87325,33.99067],[135.87322,33.99268],[135.87229,33.99335],[135.87529,33.99717],[135.877,33.99665],[135.87988,33.99725],[135.8807,33.99573],[135.88165,33.9961],[135.88368,33.9945],[135.88356,33.99792],[135.88456,33.99816],[135.88619,33.99713],[135.88725,34.00124],[135.8888,33.99995],[135.88977,34.00026],[135.89026,34.00075],[135.88907,34.00112],[135.88878,34.00236],[135.89,34.00359],[135.89212,34.00377],[135.89103,34.00547],[135.89194,34.00861],[135.89446,34.00882],[135.89271,34.00687],[135.89494,34.00823],[135.89576,34.00697],[135.89754,34.00713],[135.8971,34.00799],[135.89936,34.00799],[135.90022,34.00878],[135.91049,34.00768],[135.91159,34.007],[135.91444,34.00772],[135.91554,34.00669],[135.91469,34.00826],[135.91179,34.00794],[135.91253,34.00938],[135.91148,34.00991],[135.91378,34.011],[135.91366,34.01205],[135.91198,34.01326],[135.91228,34.01449],[135.91854,34.01172],[135.91954,34.00992],[135.92119,34.01018],[135.92148,34.00858],[135.923,34.00696],[135.9258,34.00793],[135.92731,34.00673],[135.92563,34.00744],[135.92294,34.00614],[135.93025,34.00546],[135.9307,34.00455],[135.93409,34.00334],[135.93574,34.00065],[135.93843,34.00119],[135.94017,33.99956],[135.94326,33.99882],[135.94806,34.00033],[135.95354,34.00047],[135.95575,34.00187],[135.95548,34.00369],[135.95337,34.00714],[135.94957,34.01079],[135.95041,34.01471],[135.94612,34.01886],[135.9454,34.02082],[135.94798,34.02085],[135.95145,34.02234],[135.95559,34.02609],[135.95609,34.03218],[135.95857,34.0335],[135.95829,34.03495],[135.95651,34.03671],[135.95671,34.03778],[135.95684,34.0367],[135.95919,34.03483],[135.96129,34.0348],[135.95958,34.0352],[135.95784,34.03741],[135.95821,34.04138],[135.95738,34.04329],[135.96065,34.04808],[135.96559,34.05049],[135.97069,34.04996],[135.97181,34.04865],[135.97166,34.04761],[135.96895,34.04592],[135.97065,34.04299],[135.97268,34.04191],[135.97782,34.04331],[135.98031,34.04467],[135.98146,34.04629],[135.98329,34.04644],[135.9837,34.04889],[135.9852,34.04947],[135.98522,34.04813],[135.98702,34.04802],[135.98714,34.04959],[135.98976,34.05063],[135.99008,34.05274],[135.99271,34.05318],[135.99006,34.05461],[135.99099,34.0579],[135.99278,34.05799],[135.99422,34.05709],[135.99749,34.05809],[135.99969,34.05996],[136.00127,34.05806],[136.0017,34.05292],[136.00317,34.05367],[136.00467,34.05213],[136.00517,34.05367],[136.00754,34.05374],[136.00918,34.05241],[136.01182,34.05238],[136.01624,34.05598],[136.01458,34.05654],[136.01496,34.05807],[136.01772,34.05771],[136.0191,34.05854],[136.01897,34.06207],[136.02331,34.06227],[136.0215,34.06379],[136.02272,34.0653],[136.02252,34.067],[136.02492,34.06974],[136.02794,34.07039],[136.0287,34.07272],[136.02822,34.07378],[136.03741,34.07609],[136.03857,34.07754],[136.0397,34.08286],[136.04207,34.08284],[136.04502,34.08123],[136.0459,34.08387],[136.04833,34.08523],[136.04891,34.08685],[136.04852,34.08906],[136.05573,34.09108],[136.05696,34.09304],[136.06001,34.09273],[136.06308,34.09347],[136.0646,34.09045],[136.06601,34.08981],[136.06797,34.09054],[136.06832,34.08964],[136.07096,34.08968],[136.07142,34.08895],[136.07462,34.08922],[136.07902,34.08822],[136.0783,34.0862],[136.08125,34.08385],[136.07982,34.08171],[136.08,34.08042],[136.07897,34.07969],[136.0794,34.07823],[136.08059,34.07747],[136.08019,34.07595],[136.08567,34.07476],[136.08732,34.07043],[136.08967,34.06963],[136.09096,34.06615],[136.09037,34.06457],[136.09703,34.06344],[136.09751,34.06256],[136.10168,34.06069],[136.10293,34.05909],[136.10598,34.05868],[136.10727,34.05733],[136.10954,34.05679],[136.11744,34.05746],[136.11835,34.05821],[136.11901,34.05737],[136.12051,34.05749],[136.12343,34.05865],[136.12498,34.05739],[136.12616,34.05742],[136.12682,34.05451],[136.12918,34.05259],[136.12958,34.05292],[136.12791,34.05516],[136.12881,34.05812],[136.12724,34.05996],[136.12024,34.06232],[136.1207,34.06715],[136.11928,34.06865],[136.12046,34.07245],[136.11549,34.07975],[136.11774,34.07964],[136.1187,34.08112],[136.12051,34.07976],[136.12376,34.0798],[136.12532,34.08076],[136.12666,34.08028],[136.12798,34.08294],[136.12999,34.08345],[136.12971,34.08506],[136.13224,34.08522],[136.13303,34.08657],[136.1347,34.08681],[136.13675,34.08543],[136.13863,34.08548],[136.14032,34.08608],[136.14057,34.08801],[136.14247,34.08902],[136.14553,34.08872],[136.14809,34.09022],[136.1498,34.08986],[136.15062,34.09095],[136.15052,34.09326],[136.15207,34.09451],[136.15389,34.09204],[136.1556,34.09152],[136.16482,34.09266],[136.16495,34.09188],[136.16857,34.09057],[136.1683,34.08954],[136.16942,34.08715],[136.17096,34.08565],[136.17902,34.08501],[136.18202,34.08285],[136.18043,34.08388],[136.18243,34.08499],[136.18681,34.08175],[136.18733,34.07943],[136.19007,34.07857]],[[135.16032,33.86853],[135.16294,33.86923],[135.16476,33.86835],[135.16783,33.86824],[135.17719,33.87116],[135.18344,33.87088],[135.18684,33.87184],[135.19492,33.86623],[135.20383,33.86462],[135.20645,33.86243],[135.21157,33.86011],[135.22219,33.85989],[135.23089,33.8569],[135.24106,33.85834],[135.2499,33.85571],[135.25516,33.85576],[135.26065,33.85403],[135.26586,33.85796],[135.26653,33.86511],[135.26835,33.86615],[135.26955,33.86556],[135.27024,33.86393],[135.272,33.86471],[135.27299,33.86622],[135.27308,33.87059],[135.27526,33.87081],[135.27696,33.8723],[135.27882,33.87177],[135.27969,33.87014],[135.28254,33.86871],[135.28429,33.87069],[135.28768,33.8725],[135.28943,33.86986],[135.29132,33.87008],[135.29122,33.87204],[135.29245,33.87375],[135.29558,33.87319],[135.29834,33.87486],[135.30009,33.87423],[135.30095,33.87267],[135.30287,33.87283],[135.30419,33.87598],[135.3058,33.87725],[135.31212,33.87735],[135.3152,33.87909],[135.31878,33.87849],[135.33081,33.88546],[135.3366,33.88422],[135.33858,33.88496],[135.34281,33.88749],[135.34344,33.89129],[135.34542,33.89164],[135.34637,33.89313],[135.35368,33.89267],[135.35576,33.89292],[135.35663,33.89386]],[[135.80035,33.95097],[135.80057,33.95083]]]}}]}