{"type":"FeatureCollection","features":[{"type":"Feature","properties":{"route_id":"504","route_number":504,"name":"国道504号","source":"OpenStreetMap contributors (ODbL)","osm_relations":[8043875,9671641,9672251]},"geometry":{"type":"MultiLineString","coordinates":[[[130.71199,31.80371],[130.71833,31.79531],[130.72135,31.79278],[130.71822,31.79521],[130.71324,31.80261],[130.70953,31.80544],[130.70824,31.8137],[130.70497,31.81848],[130.69975,31.82066],[130.69673,31.82085],[130.68915,31.82644],[130.68903,31.83024],[130.68725,31.83474],[130.6824,31.84042],[130.67968,31.84154],[130.67477,31.84662],[130.67204,31.84763],[130.66784,31.85079],[130.66391,31.85987],[130.6594,31.8608],[130.65628,31.86336],[130.65594,31.86512],[130.65091,31.86864],[130.65089,31.87113],[130.65016,31.87198],[130.65062,31.87332],[130.64939,31.87494],[130.64327,31.87798],[130.64265,31.87951],[130.64067,31.88065],[130.63122,31.8828],[130.62602,31.88508],[130.62567,31.88672],[130.62288,31.88862],[130.62582,31.88611]],[[130.72135,31.79278],[130.72279,31.79067],[130.7241,31.78618],[130.72798,31.78345],[130.72785,31.77799],[130.73157,31.77622],[130.73156,31.7749],[130.72678,31.77253],[130.72683,31.77117],[130.7313,31.77193],[130.73473,31.77092],[130.74182,31.77424],[130.74881,31.77395],[130.75202,31.76925],[130.75217,31.76042],[130.74682,31.74667],[130.74217,31.74196],[130.73427,31.72505],[130.74439,31.72178],[130.76347,31.71177],[130.77575,31.71073],[130.78017,31.70801],[130.78665,31.70639],[130.78766,31.70707],[130.78697,31.71019],[130.78928,31.71501],[130.78935,31.71799],[130.79125,31.72026],[130.80014,31.72111],[130.8064,31.72321],[130.80977,31.72309],[130.81504,31.71836],[130.8145,31.71476],[130.81632,31.71359],[130.81701,31.71078],[130.81982,31.7077],[130.82036,31.70089],[130.8226,31.69654],[130.82302,31.69329],[130.82898,31.68671],[130.83867,31.68326],[130.84007,31.68147],[130.84005,31.67674],[130.84087,31.67427],[130.84566,31.67262],[130.84266,31.66056],[130.84073,31.65824],[130.83957,31.65303],[130.83801,31.65053],[130.8391,31.64812],[130.83952,31.64254],[130.83785,31.63524],[130.83727,31.62784],[130.83927,31.62688],[130.84364,31.62238],[130.85091,31.62021],[130.8542,31.6173],[130.85321,31.61515],[130.85488,31.61314],[130.85649,31.60788],[130.85508,31.6064],[130.85283,31.60621],[130.85058,31.60214],[130.85115,31.59979],[130.85019,31.59757],[130.85072,31.59473],[130.85219,31.59254],[130.86089,31.58549],[130.86195,31.5831],[130.86602,31.58129],[130.86765,31.57855],[130.87141,31.578],[130.87234,31.57689],[130.87484,31.57693],[130.87648,31.57427],[130.8763,31.57313],[130.87275,31.57263],[130.86958,31.57344],[130.86747,31.56985],[130.8698,31.56473],[130.86802,31.56206],[130.87033,31.56005],[130.87401,31.55945],[130.87662,31.55633],[130.87898,31.55628],[130.88005,31.55511],[130.87708,31.55185],[130.87193,31.55179],[130.8701,31.55046],[130.86607,31.55062],[130.86488,31.54895],[130.86479,31.54431],[130.86892,31.53916],[130.87023,31.53587],[130.87,31.53265],[130.87655,31.53024],[130.87675,31.52763],[130.87475,31.52455],[130.87491,31.52171],[130.87359,31.52141],[130.87182,31.52271],[130.86874,31.52184],[130.86868,31.5198],[130.87229,31.5159],[130.87229,31.51492],[130.87118,31.51379],[130.86915,31.51347],[130.86781,31.51061],[130.86222,31.50934],[130.86007,31.50749],[130.86083,31.50493],[130.86534,31.50154],[130.87005,31.49643],[130.86893,31.49208],[130.87122,31.48067],[130.86914,31.47565],[130.86924,31.47087],[130.86582,31.46734],[130.86537,31.4648],[130.86254,31.45998],[130.85757,31.45543],[130.85859,31.45123],[130.8572,31.44145],[130.85776,31.44028],[130.85607,31.43468],[130.85425,31.43291],[130.85339,31.43113],[130.85367,31.4294],[130.85122,31.4258],[130.85214,31.41995],[130.84873,31.41746],[130.8483,31.41632],[130.85349,31.41309],[130.85657,31.40863],[130.85618,31.40193],[130.8546,31.39925],[130.85424,31.39433],[130.84999,31.38819]],[[130.2459,32.07195],[130.25202,32.06967],[130.25742,32.06514],[130.25794,32.06382],[130.26271,32.06339],[130.26666,32.06002],[130.27139,32.06006],[130.2764,32.06138],[130.28204,32.06014],[130.29429,32.06105],[130.30224,32.0607],[130.30277,32.05785],[130.30113,32.05151],[130.30239,32.04769],[130.3038,32.04602],[130.30439,32.04289],[130.30302,32.03872],[130.30134,32.03711],[130.30358,32.03194],[130.30267,32.03172],[130.30157,32.03413],[130.30002,32.03266],[130.30399,32.0291],[130.30864,32.02248],[130.31988,32.0021]],[[130.62288,31.88862],[130.60417,31.90256],[130.60179,31.90348],[130.59684,31.90357],[130.59217,31.90644],[130.58707,31.91316],[130.57924,31.91813],[130.56821,31.9205],[130.56483,31.9197],[130.55836,31.91611],[130.54918,31.91593],[130.54084,31.91957],[130.54381,31.92195],[130.54371,31.92329],[130.53874,31.92477],[130.53635,31.92312],[130.53262,31.92289],[130.52987,31.92128],[130.51057,31.91948],[130.50764,31.92092],[130.49868,31.91802],[130.49382,31.91812],[130.4875,31.9202],[130.47759,31.91903],[130.465,31.91426],[130.45952,31.9138],[130.45372,31.9089],[130.44897,31.90712],[130.4461,31.90715],[130.44189,31.91011],[130.43938,31.90927],[130.43688,31.90946],[130.43157,31.91359],[130.43171,31.91569],[130.42945,31.91908],[130.42176,31.91964],[130.4195,31.92138],[130.41823,31.92377],[130.41317,31.92481],[130.4123,31.92695],[130.41064,31.9277],[130.40874,31.9333],[130.40374,31.93627],[130.39649,31.93678],[130.39588,31.93822],[130.39306,31.94009],[130.39138,31.94011],[130.39036,31.93904],[130.3812,31.94084],[130.37943,31.9425],[130.37783,31.94779],[130.37581,31.94941],[130.36718,31.94856],[130.36178,31.95069],[130.35905,31.95457],[130.35971,31.95341],[130.36033,31.95359],[130.35921,31.9531],[130.3577,31.95756],[130.35467,31.96162],[130.33563,31.97671],[130.32881,31.98329],[130.32296,31.99274],[130.32248,31.99704],[130.31894,32.00477],[130.32083,32.00129],[130.32037,32.00089]],[[130.86529,31.5486],[130.87038,31.55367],[130.87296,31.55824],[130.87294,31.56149],[130.8698,31.56473]],[[130.57962,31.91796],[130.58763,31.91276],[130.59141,31.9071]],[[130.54158,31.91928],[130.54552,31.91731],[130.54173,31.91902],[130.53808,31.91958],[130.52968,31.91834],[130.52552,31.91677],[130.52029,31.9178],[130.51538,31.9173],[130.51232,31.91856],[130.50664,31.92265],[130.50319,31.92379],[130.48311,31.92305],[130.48447,31.92377],[130.48788,31.92297]],[[130.35948,31.95441],[130.36012,31.95386]],[[130.48314,31.92376],[130.48753,31.92298]],[[130.54605,31.91703],[130.54552,31.91731]]]}}]}