{"type":"FeatureCollection","features":[{"type":"Feature","properties":{"route_id":"275","route_number":275,"name":"国道275号","source":"OpenStreetMap contributors (ODbL)","osm_relations":[6607033]},"geometry":{"type":"MultiLineString","coordinates":[[[141.51627,43.14123],[141.52439,43.18881],[141.51625,43.14173],[141.50672,43.13082],[141.47067,43.11652],[141.45738,43.09805],[141.45498,43.0959],[141.44891,43.09424],[141.42799,43.09435],[141.41728,43.09076],[141.41359,43.08845],[141.4064,43.07944],[141.39646,43.07099],[141.39075,43.07005],[141.387,43.06814],[141.38921,43.06973],[141.39179,43.07033]],[[141.50577,43.12995],[141.47086,43.1165],[141.45746,43.09796],[141.45356,43.09511],[141.44892,43.09415],[141.42912,43.09437],[141.42413,43.09327]],[[141.54338,43.22552],[141.57189,43.24641],[141.57779,43.2525],[141.57175,43.2465],[141.53092,43.21608],[141.52633,43.21376],[141.51808,43.21208],[141.52458,43.19175],[141.52439,43.18881]],[[142.29729,44.8277],[142.29273,44.82529],[142.28621,44.82378],[142.28448,44.82075],[142.28295,44.81988],[142.28072,44.81981],[142.2783,44.82133],[142.27354,44.82137],[142.27074,44.81892],[142.26958,44.8154],[142.27028,44.8139],[142.26947,44.81533],[142.27068,44.819],[142.27359,44.82148],[142.27842,44.82138],[142.28085,44.81985],[142.2832,44.82002],[142.28616,44.82384],[142.29272,44.82537],[142.29778,44.82792],[142.31028,44.82819],[142.3152,44.8315],[142.31536,44.83393],[142.31129,44.83733],[142.30325,44.83964],[142.29402,44.84589],[142.28794,44.84727],[142.28418,44.85106],[142.28155,44.85189],[142.26929,44.85263],[142.26541,44.85639],[142.26073,44.85748],[142.25374,44.86097],[142.25084,44.86592],[142.24955,44.86687],[142.24326,44.86863],[142.23306,44.86963],[142.23019,44.87123],[142.2259,44.87153],[142.22215,44.87404],[142.21522,44.8749],[142.20302,44.88812],[142.20099,44.89524],[142.20122,44.89981],[142.20275,44.90231],[142.2016,44.9043],[142.20623,44.91144],[142.21183,44.91562],[142.21551,44.9218],[142.21626,44.92392],[142.21597,44.92741],[142.21809,44.93019],[142.21687,44.93251],[142.21707,44.93366],[142.22114,44.93759],[142.22659,44.94051],[142.23011,44.94407],[142.23237,44.94801],[142.2394,44.95266],[142.24252,44.95668],[142.25585,44.96261],[142.2674,44.96105],[142.27291,44.96135],[142.28109,44.96579],[142.28704,44.97187],[142.2893,44.97617],[142.29051,44.98292],[142.29241,44.98811],[142.28872,44.9945],[142.28873,44.99617],[142.29611,45.00264],[142.2957,45.00783],[142.29661,45.01036],[142.30399,45.0182],[142.3028,45.02672],[142.3089,45.03236],[142.3107,45.03581],[142.31101,45.03973],[142.31497,45.044],[142.31501,45.04585],[142.31317,45.04767],[142.31323,45.0518],[142.31074,45.05428],[142.31063,45.05541],[142.31296,45.05959],[142.3181,45.06345],[142.32098,45.06778],[142.32242,45.07165],[142.3265,45.07434],[142.33178,45.0803],[142.33584,45.08705],[142.33577,45.09372],[142.33699,45.09599],[142.33967,45.09759],[142.34842,45.09957],[142.35402,45.10382],[142.35906,45.10501],[142.36318,45.1071],[142.3637,45.10884],[142.3602,45.12446]],[[142.27064,44.81366],[142.27127,44.81215],[142.26839,44.80898],[142.2685,44.80239],[142.26408,44.79974],[142.25838,44.79407],[142.26244,44.78799],[142.26309,44.78512],[142.2624,44.78226],[142.25721,44.77871],[142.24876,44.76719],[142.25311,44.75588],[142.25425,44.75007],[142.25341,44.73248],[142.25555,44.73111],[142.25749,44.72852],[142.2693,44.72259],[142.27495,44.70977],[142.27266,44.69912],[142.26702,44.68782],[142.26952,44.67189],[142.26801,44.66563],[142.27238,44.65918],[142.27191,44.65777],[142.26463,44.6499],[142.26389,44.64755],[142.26495,44.6458],[142.28803,44.62635],[142.29629,44.6258],[142.29839,44.62494],[142.31045,44.60964],[142.30988,44.60073],[142.31063,44.59582],[142.3061,44.59026],[142.30585,44.58826],[142.32253,44.55208],[142.32446,44.53057],[142.32655,44.52295],[142.34537,44.48398],[142.33197,44.48091],[142.32832,44.4884],[142.32926,44.49092],[142.32418,44.49461],[142.3189,44.49289],[142.30347,44.49019],[142.2932,44.48456],[142.2899,44.47704],[142.27928,44.47321],[142.27246,44.47363],[142.27028,44.47215],[142.26991,44.47045],[142.27161,44.46545],[142.27438,44.46182],[142.27873,44.44865],[142.2759,44.44168],[142.27293,44.43989],[142.26958,44.43649],[142.27096,44.4291],[142.27436,44.42351],[142.28062,44.42056],[142.2809,44.4189],[142.27776,44.41184],[142.27774,44.41024],[142.28421,44.40558],[142.2888,44.40083],[142.29199,44.39358],[142.29097,44.39239],[142.28753,44.39266],[142.28366,44.39103],[142.28017,44.38705],[142.27245,44.38188],[142.27039,44.37907],[142.26474,44.37678],[142.26055,44.37141],[142.26294,44.35933],[142.26451,44.35699],[142.26178,44.35286],[142.26059,44.34677],[142.26256,44.34197],[142.25795,44.33666],[142.25639,44.33297],[142.2571,44.33016],[142.25452,44.32757],[142.25686,44.32586],[142.25659,44.32316],[142.25218,44.31826],[142.25489,44.3168],[142.2572,44.31435],[142.25684,44.31151],[142.2604,44.30864],[142.26036,44.30752],[142.25809,44.30643],[142.25688,44.30477],[142.25353,44.3043],[142.24737,44.30569],[142.241,44.30385],[142.23762,44.30481],[142.2331,44.30447],[142.22687,44.2992],[142.22507,44.29628],[142.21327,44.29553],[142.20988,44.29411],[142.20452,44.28728],[142.20115,44.28751],[142.19916,44.28973],[142.19621,44.29002],[142.18394,44.29472],[142.18007,44.29257],[142.17385,44.29106],[142.16711,44.28649],[142.16367,44.28645],[142.16011,44.27624],[142.1598,44.27028],[142.14995,44.26329],[142.15013,44.26148],[142.15304,44.2589],[142.15306,44.25612],[142.15471,44.25283],[142.15419,44.24801],[142.15058,44.24407],[142.14884,44.24055],[142.15016,44.23457],[142.15654,44.23126],[142.16427,44.23026],[142.16606,44.22841],[142.16608,44.22642],[142.15969,44.21756],[142.14134,44.21575],[142.13807,44.2094],[142.13417,44.20533],[142.12776,44.19324],[142.12871,44.18985],[142.1353,44.1842],[142.13844,44.17975],[142.14532,44.17531],[142.14975,44.16195],[142.14714,44.15876],[142.15219,44.13167],[142.14128,44.12074],[142.1392,44.10908],[142.1408,44.10642],[142.13868,44.10281],[142.13944,44.10168],[142.14367,44.09971],[142.14916,44.09333],[142.14852,44.08811],[142.14573,44.08448],[142.14554,44.0807],[142.14132,44.07481],[142.14036,44.05713],[142.14735,44.04657],[142.15471,44.01357],[142.13911,43.99238],[142.1402,43.99048],[142.14555,43.9871],[142.14635,43.98581],[142.14664,43.98255],[142.14291,43.97171],[142.15487,43.96199],[142.15625,43.95857],[142.15678,43.95408],[142.1584,43.95149],[142.15819,43.9494],[142.1485,43.92819],[142.14546,43.92666],[142.13884,43.92661],[142.13482,43.92546],[142.12091,43.91327],[142.1141,43.90993],[142.10957,43.90254],[142.11193,43.89669],[142.11156,43.89452],[142.10228,43.88965],[142.10163,43.88641],[142.1062,43.87909],[142.10251,43.87278],[142.10232,43.87116],[142.10789,43.86254],[142.10948,43.85634],[142.10778,43.85196],[142.10384,43.85177],[142.10197,43.84992],[142.10123,43.83612],[142.0972,43.83278],[142.09347,43.83121],[142.09029,43.83112],[142.06225,43.83899],[142.0563,43.83841],[142.04453,43.83312],[142.04107,43.82931],[142.03967,43.82241],[142.02363,43.81036],[142.02295,43.80904],[142.01186,43.80966],[141.9996,43.81719],[141.95054,43.81223],[141.94885,43.81173],[141.946,43.80878],[141.9328,43.8074],[141.93259,43.80856],[141.90548,43.8058],[141.90973,43.78353],[141.9089,43.78083],[141.8832,43.76853],[141.87881,43.76757],[141.87723,43.7654],[141.87614,43.73548],[141.879,43.7307],[141.88194,43.72251],[141.88566,43.7161],[141.88913,43.70402],[141.88903,43.7002],[141.88563,43.69411],[141.88747,43.6881],[141.89137,43.66701],[141.89513,43.66096],[141.87873,43.62091],[141.87828,43.61817],[141.8792,43.61159],[141.86815,43.58856],[141.87458,43.57405],[141.8757,43.56759],[141.87997,43.56275],[141.88143,43.55975],[141.8774,43.55618],[141.8754,43.55128],[141.8758,43.54831],[141.88483,43.54583],[141.84977,43.47225],[141.84987,43.4676],[141.84642,43.46064],[141.828,43.44367],[141.82386,43.43866],[141.81814,43.42823],[141.79877,43.41477],[141.79185,43.41241],[141.78697,43.40961],[141.77895,43.399],[141.77436,43.3947],[141.76056,43.38611],[141.75536,43.38008],[141.7331,43.36233],[141.72182,43.3582],[141.71588,43.35479],[141.70081,43.34891],[141.69644,43.34825],[141.68537,43.34846],[141.68247,43.34769],[141.67211,43.33654],[141.67171,43.33469],[141.66106,43.32968],[141.61943,43.3248],[141.60117,43.31573],[141.60032,43.31339],[141.60455,43.30333],[141.60452,43.30081],[141.59907,43.29471],[141.59776,43.28705],[141.58942,43.27456],[141.59081,43.26842],[141.59055,43.26506],[141.57779,43.2525]],[[141.83642,43.45162],[141.83407,43.4495]],[[141.37964,43.06593],[141.387,43.06814]],[[142.36024,45.1245],[142.3662,45.12528]],[[142.36021,45.12462],[142.36085,45.12463]],[[142.36021,45.12402],[142.36005,45.12444]]]}}]}