{"type":"FeatureCollection","features":[{"type":"Feature","properties":{"route_id":"363","route_number":363,"name":"国道363号","source":"OpenStreetMap contributors (ODbL)","osm_relations":[8507094,15481327]},"geometry":{"type":"MultiLineString","coordinates":[[[137.08058,35.22126],[137.08094,35.21989],[137.08058,35.22126],[137.08384,35.222],[137.09014,35.22302],[137.093,35.22242],[137.09594,35.22373],[137.10108,35.22391],[137.10136,35.22626],[137.11142,35.22777],[137.11542,35.23303],[137.12051,35.24388],[137.12648,35.25085],[137.14204,35.25499],[137.14439,35.2563],[137.14684,35.26001],[137.14844,35.25997],[137.14986,35.26113],[137.15437,35.25983],[137.15872,35.26083],[137.1594,35.26027],[137.1616,35.26061],[137.16133,35.25904],[137.16468,35.25895],[137.16701,35.26175],[137.16559,35.26229],[137.16661,35.26272],[137.16597,35.26367],[137.16726,35.26434],[137.17349,35.26388],[137.17342,35.26493],[137.17514,35.26531],[137.17899,35.26394],[137.1846,35.26478],[137.1875,35.26636],[137.18896,35.26911],[137.19201,35.27071],[137.19541,35.2701],[137.19919,35.2715],[137.20344,35.27101],[137.206,35.26923],[137.21251,35.27067],[137.21566,35.26914],[137.22085,35.27412],[137.22828,35.2776],[137.23235,35.27449],[137.23498,35.27474],[137.2375,35.27636],[137.24501,35.28779],[137.24631,35.28815],[137.24891,35.28715],[137.25092,35.28839],[137.25099,35.29078],[137.25443,35.29597],[137.2631,35.29593],[137.26764,35.29944],[137.27264,35.29904],[137.27742,35.30333],[137.28711,35.30669],[137.29111,35.30674],[137.29449,35.30955],[137.29816,35.31133],[137.30918,35.31234],[137.31271,35.31667],[137.31535,35.31804],[137.31561,35.32188],[137.31812,35.32331],[137.33143,35.32386],[137.33562,35.3222],[137.33939,35.32192],[137.34551,35.3157],[137.35439,35.31285],[137.35624,35.30554],[137.36158,35.30443],[137.36738,35.30056],[137.37527,35.29919],[137.3878,35.30351],[137.38828,35.30686],[137.3904,35.30925],[137.39072,35.31272],[137.39203,35.31383],[137.3897,35.32026],[137.38668,35.32554],[137.38922,35.33278],[137.38873,35.33924],[137.38727,35.34091],[137.3893,35.34462],[137.38927,35.35132],[137.39103,35.35232],[137.39362,35.3522],[137.39456,35.35328],[137.40143,35.35546],[137.40803,35.35552],[137.4109,35.35812],[137.41714,35.35693],[137.4227,35.3623],[137.42567,35.3633],[137.42927,35.36326],[137.4317,35.36619],[137.43822,35.36375],[137.44235,35.36399],[137.44427,35.36874],[137.44743,35.37246],[137.44747,35.37483],[137.44902,35.37718],[137.45202,35.3786],[137.45728,35.37913],[137.45775,35.38002],[137.4568,35.38254],[137.45774,35.38373],[137.45911,35.38376],[137.46188,35.38221],[137.46343,35.38293],[137.46184,35.38942],[137.46474,35.39263],[137.46526,35.39471],[137.46784,35.39626],[137.47627,35.39621],[137.48603,35.40206],[137.48751,35.40488],[137.49074,35.4071],[137.49526,35.40861],[137.4973,35.41203],[137.49746,35.41407],[137.50112,35.42328],[137.50413,35.42742],[137.50401,35.42856],[137.50499,35.42904],[137.50443,35.42994],[137.50675,35.43087],[137.50749,35.43243],[137.50953,35.43201],[137.51088,35.43554],[137.51238,35.43542],[137.51237,35.43622],[137.5151,35.43671],[137.51618,35.43831],[137.51851,35.43885],[137.51821,35.43948],[137.51992,35.43937],[137.52064,35.44038],[137.52101,35.43949],[137.52144,35.44028],[137.52209,35.43898],[137.52553,35.44119],[137.52514,35.44338],[137.5185,35.44697],[137.51673,35.44965],[137.51618,35.45377],[137.51234,35.45599],[137.51123,35.45745],[137.51298,35.45884],[137.51314,35.45986],[137.51142,35.46205],[137.51165,35.46393],[137.50869,35.46642],[137.50849,35.46981],[137.50557,35.47522],[137.50715,35.47696],[137.50677,35.47941],[137.50403,35.484]],[[136.99822,35.19182],[137.0227,35.19362],[137.04671,35.20056],[137.05524,35.20471],[137.06195,35.20589],[137.07059,35.21353],[137.08094,35.21989]],[[137.11191,35.22814],[137.10863,35.22676],[137.10136,35.22593]],[[137.20937,35.27023],[137.21444,35.26602],[137.21778,35.26547],[137.2285,35.27007],[137.23043,35.27344],[137.23255,35.27443]],[[137.03978,35.19851],[137.0229,35.19359],[136.99827,35.19172]]]}}]}