{"type":"FeatureCollection","features":[{"type":"Feature","properties":{"route_id":"3","route_number":3,"name":"国道3号","source":"OpenStreetMap contributors (ODbL)","osm_relations":[2061678,2281064,2281067,2281068,2281071,8812249,8812260,8812302,8812421,8812422,8812423,8812475,8821504,19706999,19710213,19710221]},"geometry":{"type":"MultiLineString","coordinates":[[[130.52858,33.38875],[130.52906,33.3917],[130.52828,33.39608],[130.53135,33.40519],[130.53294,33.42076],[130.53224,33.4249],[130.53371,33.43168],[130.53372,33.43863],[130.53747,33.44507],[130.54562,33.44902],[130.54745,33.45225],[130.5453,33.46009],[130.54047,33.46397],[130.5389,33.46783],[130.53972,33.47406],[130.53865,33.48068],[130.53556,33.48848],[130.53511,33.49514],[130.53158,33.4989],[130.53066,33.50407],[130.52862,33.50605],[130.51972,33.51052],[130.50816,33.51186],[130.49575,33.51966],[130.49499,33.52111],[130.49513,33.52691],[130.48644,33.53686],[130.48351,33.54532],[130.47833,33.5515],[130.47327,33.55563],[130.46735,33.56275],[130.46108,33.56602],[130.45134,33.57525],[130.44615,33.57777],[130.43921,33.58501],[130.43807,33.58969],[130.43402,33.5946],[130.43079,33.58892],[130.4243,33.59426],[130.41573,33.59963],[130.41133,33.60124],[130.40943,33.60358],[130.40971,33.60725],[130.4193,33.62151],[130.42386,33.63283],[130.42504,33.63779],[130.43474,33.6461],[130.43956,33.65505],[130.43909,33.66193],[130.44112,33.66666],[130.44827,33.66909],[130.45203,33.67234],[130.45005,33.66959],[130.45128,33.66512],[130.45106,33.66031],[130.447,33.65246],[130.4421,33.64911],[130.44101,33.64733],[130.44113,33.63833],[130.43715,33.60068],[130.43394,33.59467],[130.43815,33.59003],[130.439,33.58579],[130.44601,33.57818],[130.45161,33.57533],[130.46137,33.56625],[130.46731,33.56334],[130.47391,33.55535],[130.4787,33.55149],[130.48312,33.54621],[130.48668,33.53699],[130.49507,33.52724],[130.49507,33.52138],[130.49593,33.51969],[130.50872,33.5117],[130.51917,33.5108],[130.53029,33.50484],[130.53172,33.49894],[130.53535,33.49491],[130.53569,33.48852],[130.53838,33.48202],[130.53974,33.47486],[130.53877,33.46948],[130.53943,33.46658],[130.54057,33.46402],[130.54539,33.46014],[130.54746,33.453],[130.54735,33.45094],[130.54605,33.44919],[130.53921,33.44599],[130.53677,33.44406],[130.53373,33.43807],[130.53381,33.43182],[130.53232,33.42461],[130.53304,33.42078],[130.53143,33.40489],[130.52844,33.396],[130.52911,33.39027],[130.52671,33.38382],[130.53146,33.37112],[130.53175,33.36175],[130.52777,33.35144],[130.52666,33.34617],[130.52558,33.3371],[130.52673,33.33221],[130.52399,33.32655],[130.52235,33.31385],[130.53094,33.28707],[130.53604,33.27921],[130.53608,33.27431],[130.53783,33.27137],[130.53975,33.26436],[130.54023,33.25496],[130.54414,33.24902],[130.5437,33.24685],[130.55506,33.23257],[130.55607,33.2279],[130.55967,33.21922],[130.56942,33.21396],[130.57227,33.21116],[130.57468,33.20699],[130.57788,33.20449],[130.58332,33.20441],[130.59496,33.20203],[130.5987,33.19953],[130.60425,33.19746],[130.60651,33.19295],[130.61046,33.19161],[130.61293,33.17313],[130.61519,33.17099],[130.61914,33.16986],[130.61969,33.16708],[130.61729,33.16383],[130.62174,33.16072],[130.62138,33.15973],[130.6186,33.15843],[130.61991,33.15587],[130.61812,33.14981],[130.61928,33.14638],[130.61868,33.13856],[130.62108,33.13436],[130.6261,33.12988],[130.63488,33.12879],[130.63651,33.1266],[130.63973,33.12475],[130.64182,33.12466],[130.64349,33.12092],[130.64777,33.11754],[130.64966,33.11432],[130.65205,33.11299],[130.66491,33.11249],[130.67295,33.11701],[130.67594,33.11693],[130.68172,33.11459],[130.68786,33.116],[130.69044,33.10987],[130.6961,33.10474],[130.70015,33.10335],[130.69857,33.09614],[130.69621,33.09369],[130.69725,33.09042],[130.6923,33.07476],[130.69297,33.07144],[130.69574,33.06705],[130.68995,33.05538],[130.68744,33.0528],[130.68762,33.0487],[130.68419,33.04666],[130.68236,33.04325],[130.68231,33.02703],[130.68341,33.01932],[130.68584,33.0115],[130.68567,33.00506],[130.68707,33.00078],[130.7017,32.98476],[130.71493,32.97224],[130.716,32.96986],[130.7118,32.96019],[130.71234,32.94624],[130.70439,32.93794],[130.69835,32.92704],[130.69487,32.92353],[130.69162,32.91768],[130.69236,32.90292],[130.68978,32.89544],[130.69094,32.88819],[130.69295,32.8832],[130.70077,32.87802],[130.70177,32.87261],[130.70497,32.86803],[130.70711,32.86654],[130.70923,32.86167],[130.70974,32.85652],[130.71624,32.84493],[130.7225,32.82976],[130.72268,32.82373],[130.71676,32.8166],[130.71467,32.80658],[130.71241,32.80048],[130.70986,32.79789],[130.70217,32.79464],[130.70311,32.7917],[130.69784,32.78343],[130.69654,32.77682],[130.69007,32.76377],[130.68705,32.75295],[130.68854,32.74498],[130.6888,32.73518],[130.68693,32.73261],[130.68043,32.72945],[130.67905,32.72792],[130.67069,32.68995],[130.6772,32.68909],[130.68067,32.6855],[130.68429,32.67771],[130.68869,32.66351],[130.69109,32.66109],[130.69647,32.65802],[130.69926,32.65347],[130.69949,32.64999],[130.69787,32.64529],[130.69796,32.64327],[130.70544,32.62498],[130.70438,32.61881],[130.70459,32.61253],[130.70557,32.60948],[130.70221,32.60365],[130.70269,32.58864],[130.68878,32.56624],[130.6813,32.5568],[130.67698,32.54595],[130.66996,32.53725],[130.6618,32.52948],[130.65328,32.51324],[130.64844,32.50711],[130.64524,32.50462],[130.63491,32.50152],[130.63006,32.50175],[130.62675,32.50086],[130.61137,32.50329],[130.60967,32.49245],[130.60699,32.48878],[130.6106,32.47494],[130.60402,32.46577],[130.59951,32.45678],[130.59507,32.45429],[130.59261,32.45221],[130.59153,32.45009],[130.58736,32.44695],[130.58557,32.44002],[130.58391,32.43827],[130.58063,32.43598],[130.57232,32.43263],[130.57057,32.43072],[130.56874,32.43078],[130.56602,32.42727],[130.5585,32.42556],[130.55561,32.4226],[130.55125,32.42084],[130.55039,32.41564],[130.55155,32.41379],[130.5543,32.41193],[130.55403,32.40891],[130.55579,32.40672],[130.55408,32.40056],[130.54588,32.39443],[130.54452,32.39229],[130.5449,32.39055],[130.54392,32.38926],[130.54446,32.3866],[130.53715,32.38004],[130.53595,32.37824],[130.53685,32.37651],[130.53617,32.37491],[130.52397,32.36771],[130.51914,32.36768],[130.51473,32.36528],[130.5195,32.36782],[130.52373,32.36766],[130.52756,32.37017]],[[130.4501,33.67052],[130.45467,33.67522],[130.45541,33.67693],[130.45368,33.68215],[130.45402,33.68668],[130.45043,33.69525],[130.45382,33.70202],[130.45478,33.70787],[130.46179,33.71858],[130.4736,33.72249],[130.47602,33.72416],[130.47694,33.72694],[130.4762,33.73353],[130.47753,33.73646],[130.48629,33.74219],[130.49049,33.74846],[130.49574,33.75333],[130.49921,33.75928],[130.50848,33.76568],[130.51634,33.76925],[130.52388,33.77742],[130.53035,33.78145],[130.53442,33.78295],[130.54385,33.78362],[130.54982,33.78523],[130.56292,33.78694],[130.57588,33.79621],[130.57947,33.79725],[130.58738,33.79767],[130.59544,33.80262],[130.59918,33.81067],[130.60083,33.81702],[130.60315,33.82035],[130.60741,33.82338],[130.60552,33.82907],[130.60617,33.83271],[130.60978,33.83706],[130.61432,33.84757],[130.62066,33.85221],[130.62406,33.85336],[130.6276,33.85334],[130.63531,33.84993],[130.64446,33.84935],[130.66445,33.85212],[130.67985,33.84923],[130.69341,33.85245],[130.69747,33.85666],[130.70183,33.85868],[130.70674,33.85739],[130.71687,33.85712],[130.72346,33.86009],[130.72643,33.86361],[130.73108,33.86643],[130.73848,33.86456],[130.75221,33.86399],[130.75511,33.86505],[130.77026,33.86621],[130.77943,33.86812],[130.78433,33.86758],[130.79051,33.8691],[130.80197,33.86856],[130.80953,33.86681],[130.81748,33.86765],[130.82323,33.87131],[130.83338,33.88028],[130.83661,33.88146],[130.8412,33.88122],[130.84394,33.88016],[130.84779,33.8779],[130.85211,33.87302],[130.87454,33.87185],[130.88046,33.87263],[130.88778,33.87747],[130.89087,33.88298],[130.89419,33.88376],[130.90517,33.89],[130.90653,33.89147],[130.91874,33.89191],[130.92268,33.89347],[130.93589,33.90635],[130.94365,33.92431],[130.94397,33.92891],[130.94658,33.93266],[130.95304,33.93917],[130.95868,33.94089],[130.95953,33.9422],[130.96301,33.94349],[130.96575,33.94653],[130.9684,33.94748]],[[130.89552,33.88454],[130.89109,33.883],[130.88788,33.87744],[130.88063,33.87263],[130.87524,33.87182],[130.85216,33.87293],[130.84773,33.87785],[130.84387,33.88012],[130.84106,33.88119],[130.83661,33.8814],[130.83341,33.88023],[130.82323,33.87122],[130.8175,33.86758],[130.80903,33.86673],[130.80277,33.86827],[130.79069,33.869],[130.7842,33.86744],[130.77943,33.86804],[130.77025,33.86611],[130.75496,33.86495],[130.75218,33.86391],[130.73854,33.86447],[130.73115,33.86636],[130.72648,33.86354],[130.72332,33.8599],[130.71667,33.85696],[130.70631,33.85734],[130.70152,33.85848],[130.69756,33.85659],[130.69339,33.85232],[130.67996,33.8491],[130.6644,33.85204],[130.6445,33.84925],[130.63519,33.84987],[130.62763,33.85325],[130.62128,33.8524],[130.61617,33.84929],[130.61355,33.84626],[130.60991,33.83702],[130.60603,33.83126],[130.60593,33.82877],[130.60758,33.8249],[130.60753,33.82324],[130.60339,33.82047],[130.60091,33.81698],[130.5998,33.81203],[130.59687,33.80428],[130.5955,33.80255],[130.58718,33.79751],[130.57942,33.79715],[130.57624,33.79628],[130.56291,33.78683],[130.54965,33.78511],[130.54407,33.78354],[130.53444,33.78285],[130.53039,33.78137],[130.52402,33.77741],[130.51649,33.76924],[130.50902,33.76588],[130.49949,33.75939],[130.49582,33.75324],[130.49031,33.74807],[130.48636,33.74208],[130.47763,33.73639],[130.47633,33.73374],[130.47707,33.72696],[130.47611,33.72408],[130.47409,33.72255],[130.46191,33.71852],[130.45488,33.70784],[130.45372,33.70124],[130.45057,33.69578],[130.45093,33.69329],[130.45411,33.68676],[130.45379,33.68216],[130.45556,33.67739],[130.45503,33.67552],[130.45203,33.67234]],[[130.43412,33.59505],[130.43699,33.60057],[130.44094,33.63789],[130.4408,33.64724],[130.44201,33.64918],[130.4469,33.65252],[130.45094,33.66034],[130.45116,33.66511],[130.44999,33.67027],[130.44731,33.66851],[130.44131,33.66677],[130.43923,33.66189],[130.43967,33.65502],[130.4349,33.64614],[130.4256,33.63836],[130.42432,33.63444]],[[130.51473,32.36528],[130.51147,32.3649],[130.50746,32.36293],[130.50773,32.35346],[130.50352,32.3477],[130.50235,32.34476],[130.49199,32.33785],[130.48594,32.33544],[130.48523,32.33378],[130.48582,32.33008],[130.49177,32.31487],[130.49887,32.30705],[130.49408,32.29922],[130.49432,32.28831],[130.49508,32.28541],[130.49922,32.28192],[130.49864,32.27698],[130.50167,32.27178],[130.50637,32.26667],[130.51,32.25943],[130.50975,32.25716],[130.50676,32.25573],[130.50296,32.25189],[130.5023,32.24949],[130.4996,32.24729],[130.48598,32.24552],[130.48325,32.24108],[130.48158,32.24129],[130.47702,32.24567],[130.47041,32.24511],[130.46524,32.23914],[130.46534,32.23456],[130.46094,32.23139],[130.45611,32.23162],[130.44489,32.23438],[130.44073,32.23287],[130.44029,32.23208],[130.44158,32.22975],[130.44152,32.2279],[130.4407,32.22659],[130.43795,32.22542],[130.43834,32.21966],[130.4371,32.21607],[130.4294,32.21158],[130.42314,32.2095],[130.41277,32.21019],[130.40973,32.2114],[130.40247,32.21025],[130.38618,32.19924],[130.38227,32.19818],[130.38098,32.1951],[130.38121,32.19231],[130.3793,32.1891],[130.38142,32.1857],[130.37851,32.18157],[130.37925,32.18073],[130.38262,32.18025],[130.38384,32.177],[130.38273,32.17457],[130.38066,32.17082],[130.37608,32.16627],[130.37491,32.16294],[130.37315,32.16209],[130.36808,32.16226],[130.3643,32.15853],[130.3634,32.15615],[130.36462,32.15306],[130.36368,32.15005],[130.35995,32.14818],[130.35717,32.14561],[130.35229,32.13528],[130.34967,32.1322],[130.3443,32.12856],[130.3401,32.12072],[130.33948,32.11647],[130.27542,32.08284],[130.25318,32.07619],[130.22283,32.05984],[130.22132,32.05571],[130.22066,32.04904],[130.21636,32.0456],[130.21592,32.03996],[130.21092,32.03693],[130.20737,32.03577],[130.19582,32.02763],[130.1958,32.01911],[130.19771,32.01644],[130.19584,31.99953],[130.19759,31.99491],[130.19745,31.9919],[130.19882,31.98978],[130.20152,31.98872],[130.20364,31.98662],[130.20336,31.9807],[130.20435,31.97685],[130.20637,31.97424],[130.20972,31.97185],[130.21207,31.96682],[130.21328,31.961],[130.2165,31.95337],[130.21565,31.95097],[130.21688,31.94813],[130.21644,31.94386],[130.21747,31.93799],[130.22032,31.93125],[130.2236,31.93013],[130.22425,31.92867],[130.22202,31.92073],[130.22482,31.90966],[130.22277,31.89807],[130.22202,31.8972],[130.22209,31.89394],[130.22061,31.89163],[130.22303,31.8894],[130.22691,31.87859],[130.22536,31.87371],[130.22488,31.86534],[130.22817,31.86057],[130.23097,31.85935],[130.23292,31.85615],[130.23728,31.85166],[130.24498,31.8487],[130.25411,31.84701],[130.25741,31.84734],[130.26407,31.85086],[130.26604,31.85094],[130.26969,31.8472],[130.27646,31.84397],[130.27983,31.8433],[130.28361,31.83877],[130.28855,31.83564],[130.2848,31.83799]],[[130.55266,31.59355],[130.54599,31.5903],[130.54086,31.59795],[130.53602,31.60775],[130.52695,31.61862],[130.52656,31.62347],[130.52502,31.62878],[130.52691,31.61851],[130.53597,31.60768],[130.54105,31.59743],[130.54599,31.5903]],[[130.28855,31.83564],[130.29542,31.83125],[130.30343,31.82103],[130.30385,31.81884],[130.30771,31.81212],[130.30719,31.80559],[130.30774,31.79915],[130.30685,31.79746],[130.30182,31.79323],[130.29965,31.7786],[130.30197,31.7723],[130.30635,31.76864],[130.30747,31.76464],[130.30629,31.76862],[130.30201,31.77203],[130.29955,31.77833],[130.30173,31.79326],[130.30649,31.79725],[130.30765,31.79915],[130.30709,31.8056],[130.30763,31.81233]],[[130.30747,31.76464],[130.30635,31.75957],[130.30248,31.75778],[130.29991,31.75321],[130.29709,31.75227],[130.28364,31.7429],[130.28202,31.7394],[130.28195,31.73494],[130.27955,31.73131],[130.27851,31.72755],[130.27486,31.7254],[130.27257,31.71943],[130.28561,31.70066],[130.28784,31.69956],[130.28846,31.69742],[130.29406,31.69022],[130.29638,31.68881],[130.29971,31.68324],[130.30762,31.67881],[130.31126,31.67823],[130.31403,31.6767],[130.32427,31.67738],[130.33869,31.66962],[130.34398,31.66308],[130.34378,31.65862],[130.35128,31.65278],[130.36218,31.64879],[130.3712,31.65057],[130.37713,31.6468],[130.37936,31.64721],[130.38127,31.64911],[130.38826,31.65246],[130.39464,31.65323],[130.39984,31.65201],[130.4077,31.65606],[130.41622,31.65358],[130.42563,31.65458],[130.42884,31.65269],[130.4332,31.65244],[130.44238,31.65439],[130.44681,31.65308],[130.45053,31.65408],[130.4558,31.65401],[130.45985,31.65238],[130.46236,31.65224],[130.46537,31.65399],[130.46914,31.65397],[130.47189,31.65566],[130.47882,31.65502],[130.48346,31.6607],[130.48627,31.66229],[130.48877,31.66255],[130.49546,31.65924],[130.49631,31.65581],[130.4999,31.65233],[130.50318,31.65096],[130.50503,31.65146],[130.50626,31.65328],[130.50859,31.65168],[130.51207,31.65188],[130.51462,31.64458],[130.51408,31.64231],[130.51899,31.63873],[130.51988,31.63559],[130.52353,31.63378],[130.52502,31.62878]],[[130.75036,32.81515],[130.7509,32.82146],[130.74657,32.83117],[130.74723,32.83326],[130.75126,32.83784],[130.75123,32.83999],[130.7501,32.84172],[130.72856,32.85675],[130.72514,32.85774],[130.71584,32.8585],[130.70797,32.86089],[130.71662,32.85842],[130.72556,32.85776],[130.72862,32.85683],[130.75027,32.84168],[130.75134,32.84001],[130.75137,32.83784],[130.7473,32.83316],[130.74667,32.83128],[130.75091,32.8218],[130.75075,32.81582]],[[130.41358,33.61336],[130.40969,33.60696],[130.40984,33.60279],[130.42487,33.59386]],[[130.69926,32.63996],[130.6979,32.64432],[130.6997,32.65103],[130.69839,32.65572],[130.69603,32.65852],[130.69071,32.66146],[130.68866,32.66378],[130.6844,32.67773],[130.68054,32.68583],[130.67739,32.68911],[130.67069,32.68995],[130.67074,32.69097],[130.67879,32.72762],[130.68035,32.72952],[130.68701,32.73277],[130.6887,32.73517],[130.68842,32.74496],[130.68692,32.75293],[130.68964,32.76287],[130.69651,32.77701],[130.69784,32.78365],[130.70303,32.79172],[130.70205,32.79469],[130.70979,32.79794],[130.71231,32.80054],[130.71456,32.8066],[130.71663,32.81651],[130.72252,32.82337],[130.72252,32.82924],[130.72115,32.83295]],[[130.80557,33.86843],[130.80272,33.86961],[130.78229,33.86946],[130.77162,33.86752],[130.75139,33.86703],[130.74657,33.86421],[130.74322,33.86411]],[[130.74613,33.86416],[130.75137,33.86711],[130.75656,33.86673],[130.77161,33.8676],[130.78266,33.86957],[130.80272,33.86968],[130.80582,33.86841]],[[130.43079,33.58892],[130.43394,33.59467]],[[130.67894,32.89875],[130.67835,32.89489],[130.68048,32.88996],[130.68258,32.88643],[130.68923,32.8822],[130.69416,32.86923],[130.69964,32.86661],[130.70435,32.86268],[130.70797,32.86089]],[[130.57696,33.20513],[130.57493,33.20677]],[[130.96606,33.94657],[130.96307,33.94344],[130.95953,33.94209]],[[130.6529,32.51275],[130.64959,32.50812],[130.64624,32.50501],[130.6353,32.50147],[130.63008,32.50168],[130.62684,32.50076],[130.61136,32.50322]],[[130.96849,33.94745],[130.96814,33.94728]],[[130.4178,32.20977],[130.42261,32.20948]],[[130.5224,33.3134],[130.52251,33.3161]],[[130.93818,33.91255],[130.93911,33.91445]],[[130.69121,32.88726],[130.692,32.88531]],[[130.91963,33.89208],[130.92225,33.89324],[130.93269,33.90267],[130.93608,33.90699]],[[130.4996,32.24729],[130.49517,32.24693]],[[130.5026,32.24999],[130.5012,32.24854]]]}}]}