{"type":"FeatureCollection","features":[{"type":"Feature","properties":{"route_id":"201","route_number":201,"name":"国道201号","source":"OpenStreetMap contributors (ODbL)","osm_relations":[7106297,9502835,9502836,9502837]},"geometry":{"type":"MultiLineString","coordinates":[[[130.55603,33.62207],[130.55341,33.62198],[130.5574,33.62201],[130.56065,33.62063],[130.56443,33.62064],[130.56694,33.61903],[130.5716,33.61935],[130.57319,33.6189],[130.57388,33.61765],[130.57837,33.61727],[130.58116,33.61969],[130.57795,33.6183],[130.57932,33.61891],[130.57973,33.62007],[130.58209,33.6205],[130.5823,33.62192],[130.58435,33.62102],[130.5838,33.62257],[130.5822,33.62337],[130.58359,33.62327],[130.58488,33.62173],[130.58835,33.62193],[130.58851,33.62071],[130.59112,33.62395],[130.59583,33.62613],[130.60237,33.62633],[130.6082,33.62821],[130.61548,33.63332],[130.62092,33.63983],[130.62479,33.64245],[130.62648,33.64219],[130.6278,33.63947],[130.62995,33.64147],[130.62932,33.64178],[130.62801,33.64067],[130.62738,33.64231],[130.62941,33.64723],[130.63002,33.64306],[130.63415,33.64326],[130.64642,33.64935],[130.65575,33.65166],[130.65947,33.65158],[130.6639,33.65266],[130.66521,33.65265],[130.67898,33.6457],[130.68348,33.64442],[130.6937,33.64568],[130.70047,33.64554],[130.70494,33.6429],[130.71163,33.64587],[130.72584,33.64699],[130.73071,33.64976],[130.73317,33.65216],[130.742,33.65369],[130.75399,33.65861],[130.76172,33.65167],[130.75908,33.64673],[130.76041,33.64571],[130.7636,33.64543],[130.7639,33.64358],[130.76211,33.64232],[130.76201,33.64136]],[[130.44016,33.63043],[130.46239,33.62567],[130.46714,33.62609],[130.4749,33.62914],[130.47957,33.62988],[130.4833,33.6295],[130.49123,33.62697],[130.49669,33.62647],[130.5038,33.62733],[130.51165,33.63187],[130.51638,33.63237],[130.53076,33.6267],[130.53649,33.62533],[130.54139,33.62093],[130.55029,33.6224],[130.55546,33.62195],[130.56773,33.61753],[130.57103,33.61757],[130.57377,33.61549],[130.58035,33.61619],[130.58215,33.6138],[130.58232,33.60765],[130.58812,33.60263],[130.5947,33.60032],[130.60467,33.60023],[130.61083,33.59677],[130.61497,33.59655],[130.62186,33.5994],[130.62369,33.60255],[130.62703,33.60452],[130.63065,33.60854],[130.63718,33.60936],[130.6402,33.6118],[130.64526,33.61253],[130.64946,33.61538],[130.6655,33.62172],[130.68304,33.62449],[130.69565,33.6229],[130.71223,33.63231],[130.72056,33.63489],[130.72397,33.63787],[130.73369,33.64308],[130.7404,33.64324],[130.76431,33.64146],[130.78628,33.64516],[130.79463,33.64916],[130.80805,33.65354],[130.8182,33.65906],[130.84549,33.66798],[130.84846,33.67014],[130.85053,33.67475],[130.85292,33.67557],[130.84993,33.67402],[130.84857,33.67015],[130.84572,33.66799],[130.81798,33.65889],[130.80781,33.65336],[130.79467,33.6491],[130.7863,33.64509],[130.76428,33.64139],[130.73392,33.64305],[130.72401,33.63778],[130.72047,33.63472],[130.71257,33.63238],[130.69563,33.62279],[130.68344,33.6244],[130.67223,33.62312]],[[130.60215,33.60021],[130.59303,33.60035],[130.58603,33.60357],[130.58209,33.60762],[130.58211,33.61359],[130.58045,33.61607],[130.57372,33.61543],[130.57101,33.61749],[130.5677,33.61745],[130.56374,33.6194],[130.55268,33.6222],[130.55349,33.62186]],[[130.55268,33.6222],[130.54138,33.62085],[130.53645,33.62523],[130.53097,33.62653],[130.51567,33.63237],[130.5117,33.63177],[130.50562,33.62793],[130.50197,33.62683],[130.49295,33.62656],[130.48322,33.62934],[130.47904,33.6297],[130.46367,33.62541],[130.44012,33.63019]],[[130.85292,33.67557],[130.86544,33.6785],[130.87624,33.67789],[130.90126,33.68553],[130.90674,33.68935],[130.91576,33.69792],[130.92183,33.70149],[130.94515,33.72336],[130.95161,33.72712],[130.96315,33.7322],[130.97633,33.73506],[130.97633,33.73917],[130.98005,33.74846]],[[130.9481,33.7251],[130.94668,33.7287],[130.94905,33.73085],[130.9516,33.73593],[130.95348,33.7378],[130.95762,33.73986],[130.96398,33.74115],[130.97452,33.74537],[130.97884,33.74596]],[[130.55223,33.62232],[130.55344,33.62226]],[[130.94801,33.72505],[130.94668,33.7287]],[[130.9788,33.74584],[130.97624,33.74575]]]}}]}