{"type":"FeatureCollection","features":[{"type":"Feature","properties":{"route_id":"378","route_number":378,"name":"国道378号","source":"OpenStreetMap contributors (ODbL)","osm_relations":[9724892,9727337,9727705]},"geometry":{"type":"MultiLineString","coordinates":[[[132.53909,33.28262],[132.53544,33.28508],[132.53641,33.28767],[132.53415,33.29063],[132.52836,33.29057],[132.52871,33.29392],[132.52653,33.30094],[132.5249,33.30307],[132.52376,33.30182],[132.52391,33.30369],[132.52576,33.30583],[132.52696,33.30573],[132.5283,33.3068],[132.52833,33.30988],[132.52713,33.31124],[132.52724,33.31318],[132.52573,33.31337],[132.52527,33.31443],[132.52419,33.31444],[132.52261,33.31594],[132.51775,33.31631],[132.51449,33.319],[132.50317,33.3169],[132.49901,33.31741],[132.49508,33.31957],[132.49579,33.32211],[132.4936,33.32355],[132.49252,33.32554],[132.48836,33.32361],[132.4894,33.32211],[132.48643,33.32172],[132.48398,33.31874],[132.48152,33.31981],[132.48055,33.31952],[132.48025,33.31744],[132.47159,33.31889],[132.47004,33.31855],[132.4683,33.31954],[132.4665,33.31846],[132.46635,33.31737],[132.46459,33.31682],[132.46474,33.31462],[132.46642,33.31462],[132.46708,33.31347],[132.46344,33.31341],[132.46328,33.31222],[132.46079,33.31232],[132.46013,33.31087],[132.45846,33.31239],[132.45742,33.31226],[132.45673,33.31071],[132.45594,33.31103],[132.45207,33.30941],[132.44524,33.31028],[132.44228,33.31253],[132.44031,33.31174],[132.43465,33.31577],[132.43464,33.31791],[132.43356,33.3201],[132.43032,33.32],[132.42955,33.31951],[132.42921,33.31704],[132.42704,33.31636],[132.42467,33.31374],[132.42656,33.31076],[132.42297,33.30856],[132.42332,33.30584],[132.42255,33.30392],[132.42119,33.30351],[132.41629,33.30387],[132.41221,33.30782],[132.41047,33.30807],[132.40984,33.30683],[132.40803,33.30647],[132.40086,33.30959],[132.39995,33.31068],[132.40218,33.31196],[132.40128,33.31236],[132.40165,33.31353],[132.39973,33.31365],[132.40168,33.316],[132.39985,33.3161],[132.39883,33.31703],[132.39677,33.31685],[132.39442,33.31925],[132.39128,33.31963],[132.3897,33.31776],[132.38826,33.31745],[132.38544,33.32029],[132.38646,33.32155],[132.3863,33.32254],[132.38517,33.3228],[132.38496,33.32179],[132.38397,33.3215],[132.38239,33.32399],[132.37749,33.32182],[132.37574,33.32283],[132.37568,33.32365],[132.37969,33.32632],[132.37804,33.32714],[132.37763,33.32868],[132.37987,33.33055],[132.37831,33.33115],[132.37714,33.33281],[132.37819,33.33386],[132.37807,33.33493],[132.37902,33.33535],[132.38083,33.33428],[132.38083,33.33769],[132.38167,33.33797],[132.38215,33.33663],[132.38353,33.33721],[132.3852,33.34021],[132.38678,33.33741],[132.39132,33.33845],[132.39281,33.34084],[132.39191,33.34293],[132.39373,33.34525],[132.39669,33.3443],[132.39727,33.34532],[132.39865,33.34504],[132.40083,33.34697],[132.40609,33.34643],[132.4073,33.34433],[132.40857,33.34421],[132.4095,33.34293],[132.41097,33.34306],[132.41174,33.34648],[132.40901,33.35289],[132.41884,33.35396],[132.42064,33.35687],[132.42021,33.35827],[132.41758,33.35963],[132.41549,33.36232],[132.41371,33.36152],[132.41132,33.3617],[132.40731,33.35992],[132.40669,33.36035],[132.41081,33.36456],[132.41076,33.36627],[132.41278,33.37034],[132.41261,33.37249],[132.41531,33.37768],[132.41813,33.37905],[132.41977,33.3777],[132.42084,33.37812],[132.42011,33.37868],[132.42083,33.37987],[132.41908,33.38409],[132.41435,33.3848],[132.41082,33.38439],[132.411,33.38219],[132.40975,33.37916],[132.40753,33.37723],[132.40511,33.3768],[132.40246,33.37506],[132.40252,33.37344],[132.40461,33.37289],[132.40415,33.37119],[132.39696,33.37036],[132.39338,33.369],[132.39059,33.36683],[132.39011,33.36742],[132.39084,33.36817],[132.38937,33.37049],[132.38938,33.37272],[132.3881,33.37347],[132.38732,33.37603],[132.38426,33.37949],[132.3839,33.38476],[132.37916,33.38509],[132.38026,33.38684],[132.37989,33.38754],[132.38368,33.39052],[132.38644,33.39224],[132.38919,33.39185],[132.3936,33.39531],[132.39525,33.39565],[132.3971,33.39795],[132.39703,33.39915],[132.39543,33.39986],[132.39459,33.40146],[132.39224,33.40171],[132.38975,33.40459],[132.3938,33.40667],[132.39437,33.41322],[132.39282,33.41444],[132.39085,33.41427],[132.39021,33.41656],[132.38425,33.41815],[132.38782,33.42059],[132.38894,33.42372],[132.39543,33.42926],[132.3973,33.42992],[132.39892,33.42983],[132.39912,33.4285],[132.4002,33.428],[132.39929,33.42673],[132.40015,33.42557],[132.40602,33.42463],[132.40705,33.4261],[132.40678,33.42982],[132.40491,33.43052],[132.40451,33.43141],[132.40857,33.43673],[132.41539,33.44167],[132.41604,33.4435],[132.418,33.44503],[132.42088,33.44539],[132.42254,33.4438],[132.42293,33.44463],[132.43132,33.4489],[132.43319,33.45201],[132.43156,33.45609],[132.43151,33.46017],[132.42861,33.4678],[132.42301,33.47055],[132.42105,33.47299],[132.41902,33.47628],[132.41957,33.48048],[132.41783,33.48339],[132.4094,33.48499],[132.40538,33.48351],[132.39912,33.48506],[132.39717,33.48872],[132.39725,33.49783],[132.39618,33.50194],[132.39802,33.5058],[132.39044,33.52081],[132.39029,33.5247],[132.39234,33.52788],[132.39854,33.53213],[132.39963,33.53506],[132.4031,33.53843],[132.4084,33.53686],[132.41811,33.54196],[132.42062,33.5462],[132.42462,33.54866],[132.42805,33.55565],[132.43037,33.55795],[132.43221,33.5583],[132.43387,33.55976],[132.43473,33.5621],[132.43304,33.56379],[132.43372,33.56858],[132.43668,33.57137],[132.44224,33.57337],[132.44215,33.57625],[132.44582,33.57839],[132.44851,33.58268],[132.45607,33.58819],[132.45795,33.59113],[132.45749,33.595],[132.46259,33.59762],[132.46347,33.59925],[132.46616,33.60055],[132.46923,33.60367],[132.47245,33.60459],[132.47478,33.60696],[132.47586,33.61025],[132.47928,33.6131],[132.48104,33.61591],[132.48507,33.61466],[132.48726,33.61644],[132.49363,33.6177],[132.50115,33.62241],[132.50978,33.62606],[132.51326,33.62858],[132.51614,33.62912],[132.53214,33.638],[132.53987,33.63982],[132.56335,33.64758],[132.58614,33.65352],[132.59165,33.65778],[132.60609,33.66577],[132.60975,33.66913],[132.61211,33.67271],[132.61653,33.67516],[132.61848,33.67729],[132.62695,33.67945],[132.63028,33.68347],[132.63545,33.6858],[132.63927,33.68981],[132.64774,33.69262],[132.64944,33.69485],[132.65294,33.69698],[132.65915,33.70302],[132.66112,33.70685],[132.66411,33.70776],[132.66764,33.71172],[132.66786,33.7139],[132.66878,33.71376],[132.66811,33.71233],[132.66881,33.71153],[132.67252,33.71262],[132.67931,33.72185],[132.68473,33.72658],[132.68803,33.72785],[132.6906,33.73022],[132.69074,33.73296],[132.6926,33.73586],[132.69541,33.74615],[132.69471,33.75039],[132.70105,33.75435],[132.70497,33.76004],[132.70579,33.76662],[132.70805,33.76653]]]}}]}