{"type":"FeatureCollection","features":[{"type":"Feature","properties":{"route_id":"220","route_number":220,"name":"国道220号","source":"OpenStreetMap contributors (ODbL)","osm_relations":[9696274,9696338,9696368,9699206,9699335,9702108]},"geometry":{"type":"MultiLineString","coordinates":[[[130.78665,31.70639],[130.79442,31.7029],[130.80005,31.69926],[130.80358,31.69563],[130.80607,31.6957],[130.80769,31.69042],[130.8091,31.6896],[130.81114,31.68971],[130.80897,31.68773],[130.80907,31.68569],[130.81228,31.6829],[130.81425,31.67778],[130.81727,31.67513],[130.82006,31.66513],[130.82328,31.65992],[130.82193,31.65029],[130.81967,31.64788],[130.81858,31.64501],[130.80903,31.64078],[130.80457,31.63452],[130.80137,31.63201],[130.79646,31.61979],[130.79621,31.61194],[130.79255,31.60741],[130.78607,31.60218],[130.78821,31.5993],[130.78788,31.59585],[130.78876,31.59466],[130.78752,31.58582],[130.78432,31.58273],[130.78243,31.5786],[130.78011,31.57701],[130.77773,31.57291],[130.76872,31.56758],[130.76674,31.56331],[130.76021,31.55979],[130.75289,31.55789],[130.73638,31.55856],[130.73161,31.55705],[130.72514,31.55704],[130.71858,31.55772],[130.71443,31.56008],[130.7089,31.5596],[130.70358,31.55705],[130.69867,31.55617],[130.7018,31.55051],[130.70544,31.54709],[130.70915,31.53686],[130.70954,31.53315],[130.70784,31.53068],[130.70025,31.52797],[130.69918,31.52444],[130.69876,31.51575],[130.69564,31.50928],[130.70067,31.50254],[130.70061,31.49703],[130.70203,31.49449],[130.70039,31.48972],[130.69752,31.48628],[130.69573,31.48249],[130.69732,31.47145],[130.70269,31.46181],[130.70646,31.45878],[130.72176,31.45579],[130.73275,31.45039],[130.73578,31.44743],[130.7376,31.44379],[130.74031,31.44094],[130.74482,31.43758],[130.75121,31.43048],[130.75582,31.42766],[130.75691,31.42512],[130.76072,31.42201],[130.76225,31.41849],[130.76498,31.41846],[130.77075,31.42329],[130.77365,31.42278],[130.77844,31.4105],[130.77812,31.4034],[130.78295,31.39804],[130.78507,31.39219],[130.78658,31.39057],[130.79431,31.38849],[130.79836,31.38885],[130.80378,31.3906],[130.81196,31.38808],[130.81687,31.38816],[130.83803,31.40212],[130.84684,31.40665],[130.84922,31.40718],[130.86266,31.40243],[130.87169,31.40181],[130.8764,31.39944],[130.88863,31.39868],[130.89066,31.3971],[130.8961,31.38888],[130.90857,31.39055],[130.91203,31.39365],[130.93934,31.39413],[130.94169,31.39507],[130.94619,31.39402],[130.95308,31.39631],[130.95727,31.39593],[130.96767,31.39781],[130.97676,31.40432],[131.00055,31.41824],[131.00362,31.42431],[131.01138,31.42663],[131.0208,31.43452],[131.03793,31.44279],[131.04489,31.44515],[131.04862,31.44524],[131.05541,31.44949],[131.05833,31.45297],[131.07336,31.46421],[131.08172,31.46657],[131.09323,31.47281],[131.10774,31.4777],[131.10935,31.47998],[131.1122,31.48101],[131.11799,31.47861],[131.12336,31.47909],[131.12865,31.47427],[131.13403,31.47467],[131.13511,31.4737],[131.13583,31.47008],[131.13897,31.4677],[131.14062,31.46742],[131.14529,31.4687],[131.15089,31.4673],[131.15338,31.46781],[131.15616,31.46408],[131.15938,31.46303],[131.16285,31.46013],[131.16799,31.45929],[131.17393,31.45588],[131.17603,31.45562],[131.18046,31.45836],[131.18256,31.4578],[131.18564,31.45827],[131.18848,31.45699],[131.19654,31.45742],[131.20678,31.45592],[131.21207,31.45202],[131.23247,31.46502],[131.23499,31.47469],[131.23623,31.47597],[131.23991,31.47654],[131.2417,31.48061],[131.24791,31.48879],[131.25051,31.50103],[131.24751,31.50807],[131.25167,31.51387],[131.25164,31.51648],[131.25325,31.52013],[131.25916,31.52821],[131.26535,31.53039],[131.26884,31.53632],[131.27441,31.53872],[131.27857,31.539],[131.28374,31.53754],[131.2877,31.53947],[131.28979,31.54148],[131.2923,31.54201],[131.2995,31.53619],[131.3116,31.53505],[131.31392,31.53297],[131.3173,31.53271],[131.32542,31.52901],[131.33176,31.52819],[131.3329,31.52888],[131.3332,31.53116],[131.33445,31.53233],[131.33921,31.5304],[131.34352,31.53365],[131.3509,31.53561],[131.36243,31.54802],[131.36711,31.54354],[131.36858,31.53947],[131.37055,31.53745],[131.37125,31.53534],[131.37299,31.53572],[131.37726,31.5387],[131.38321,31.54143],[131.38217,31.54461],[131.37799,31.54613],[131.38123,31.55638],[131.38442,31.55989],[131.38868,31.56155],[131.38712,31.56316],[131.38771,31.5645],[131.39303,31.56518],[131.39655,31.56673],[131.39719,31.57097],[131.39575,31.57335],[131.39848,31.57747],[131.3982,31.57999],[131.40047,31.58181],[131.40357,31.58262],[131.40285,31.58566],[131.40503,31.58874],[131.40957,31.5922],[131.4178,31.60563],[131.42077,31.61223],[131.42393,31.61331],[131.4291,31.61099],[131.43099,31.61108],[131.43657,31.6149],[131.44067,31.61559],[131.44213,31.617],[131.44632,31.61782],[131.44889,31.62017],[131.45122,31.62453],[131.45283,31.62541],[131.45513,31.6241],[131.45616,31.62438],[131.45811,31.62964],[131.46157,31.63151],[131.4617,31.63315],[131.45982,31.63494],[131.45275,31.63765],[131.4511,31.63926],[131.45142,31.64003],[131.456,31.64154],[131.45629,31.64371],[131.45489,31.64569],[131.4546,31.64773],[131.45735,31.6588],[131.4586,31.66017],[131.46221,31.66121],[131.46257,31.66207],[131.46226,31.66454],[131.46066,31.66591],[131.4606,31.66832],[131.45732,31.66786],[131.45066,31.66999],[131.45151,31.67616],[131.44972,31.67966],[131.45056,31.68122],[131.45275,31.68235],[131.45335,31.68384],[131.45075,31.69231],[131.45488,31.70038],[131.45607,31.7064],[131.45464,31.70983],[131.4553,31.71059],[131.45897,31.71105],[131.45967,31.71374],[131.46181,31.71454],[131.46011,31.71671],[131.45974,31.71907],[131.46263,31.71869],[131.46364,31.71985],[131.4676,31.7212],[131.46597,31.72555],[131.46623,31.7276],[131.46395,31.73055],[131.4627,31.73384],[131.46464,31.73528],[131.46505,31.73714],[131.46834,31.73847],[131.46943,31.74029],[131.46779,31.74934],[131.46966,31.75728],[131.46803,31.75936],[131.47123,31.7613],[131.47381,31.76433],[131.47984,31.77684],[131.47836,31.77895],[131.46786,31.78437],[131.46588,31.78609],[131.46496,31.78931],[131.46615,31.79587],[131.46428,31.79969],[131.46109,31.80179],[131.45126,31.80555],[131.44309,31.81524],[131.44299,31.8237],[131.44144,31.82726],[131.44422,31.83374],[131.44481,31.83905],[131.44303,31.85602],[131.44066,31.86486],[131.43777,31.86657],[131.41857,31.86911],[131.41459,31.87173],[131.41178,31.87608],[131.41082,31.8815],[131.41232,31.88853],[131.41646,31.89384],[131.42151,31.90842],[131.42321,31.91668]],[[131.4233,31.91655],[131.42166,31.90839],[131.41938,31.9034],[131.41657,31.89378],[131.41244,31.88854],[131.41096,31.88196],[131.41116,31.87836],[131.41406,31.87252],[131.4179,31.8695],[131.4381,31.86659],[131.44101,31.86446],[131.4432,31.85605],[131.44492,31.83908],[131.44441,31.83401],[131.44154,31.82727],[131.44306,31.824],[131.44298,31.81628],[131.44434,31.81349]],[[130.70827,31.53909],[130.70725,31.54165]],[[131.45581,31.70752],[131.4556,31.70686],[131.46075,31.70603],[131.46231,31.7043],[131.45934,31.70329],[131.45907,31.70031],[131.45455,31.69943]],[[130.81938,31.38937],[130.83797,31.4022],[130.84689,31.40678],[130.84926,31.40728],[130.86266,31.40253],[130.87169,31.4019],[130.87652,31.39951],[130.88868,31.39878],[130.89096,31.39688],[130.8961,31.38888]]]}}]}