{"type":"FeatureCollection","features":[{"type":"Feature","properties":{"route_id":"248","route_number":248,"name":"国道248号","source":"OpenStreetMap contributors (ODbL)","osm_relations":[8472959,10175484,10175589,10175668,10175740,10176526,10218392]},"geometry":{"type":"MultiLineString","coordinates":[[[136.78477,35.38842],[136.7846,35.40355],[136.78548,35.42023],[136.78634,35.42242],[136.79775,35.42852],[136.81696,35.43039],[136.82196,35.43512],[136.82885,35.43941],[136.83386,35.44411]],[[136.83433,35.4438],[136.822,35.43507],[136.81697,35.43024],[136.7977,35.42836],[136.78657,35.4222],[136.78555,35.41985],[136.78483,35.40585],[136.78492,35.38842]],[[137.20307,34.82225],[137.19763,34.826],[137.18841,34.82819],[137.17485,34.83838],[137.16972,34.84494],[137.16825,34.84981],[137.16928,34.85312],[137.1754,34.85713],[137.17707,34.85996],[137.1764,34.87715],[137.17466,34.88211],[137.17447,34.90039],[137.17154,34.9082],[137.16772,34.91299],[137.16636,34.92632],[137.16611,34.93822],[137.15637,34.94445],[137.15402,34.94839],[137.15625,34.96447],[137.16502,34.99082],[137.16821,35.00336],[137.17017,35.01644],[137.16954,35.01848],[137.16636,35.0223],[137.15484,35.02607],[137.15257,35.03261],[137.15427,35.0442],[137.15386,35.04919],[137.15784,35.05451],[137.15945,35.06168],[137.16101,35.08389],[137.15957,35.06173],[137.158,35.05449],[137.15397,35.0492],[137.15437,35.04428],[137.15268,35.03249],[137.15491,35.02612],[137.16648,35.02232],[137.16985,35.01817],[137.17026,35.01645],[137.16832,35.00332],[137.16514,34.99081],[137.15639,34.96441],[137.15415,34.94839],[137.15627,34.9447],[137.16623,34.93821],[137.16646,34.92652],[137.16784,34.91298],[137.17152,34.90843],[137.17446,34.90102],[137.17476,34.8817],[137.17652,34.87693],[137.17716,34.85988],[137.17554,34.85713],[137.16935,34.85306],[137.16834,34.84982],[137.16982,34.84498],[137.17517,34.83824],[137.18846,34.82826],[137.19767,34.82607],[137.20311,34.82234]],[[136.8166,35.42959],[136.81616,35.43009],[136.8164,35.42941],[136.82027,35.43192],[136.82609,35.43381],[136.8354,35.43961],[136.85031,35.45645],[136.85623,35.46559],[136.85995,35.46939],[136.86808,35.46813],[136.87287,35.46867],[136.87828,35.46771],[136.88436,35.46793],[136.89345,35.46634],[136.90067,35.46781],[136.90604,35.46734],[136.9114,35.4658],[136.91799,35.46666],[136.92011,35.46599],[136.92571,35.46197],[136.9335,35.45844],[136.93723,35.45786],[136.94166,35.45865],[136.94702,35.4571],[136.95416,35.45689],[136.96292,35.45299],[136.97361,35.45027],[136.98043,35.44702],[136.99522,35.44535],[137.01388,35.45005],[137.03057,35.44797],[137.03747,35.44331],[137.04253,35.43282],[137.04319,35.41176],[137.04497,35.39618],[137.04695,35.39294],[137.0553,35.38571],[137.05799,35.37516],[137.08168,35.36151],[137.0872,35.35649],[137.09065,35.35538],[137.09731,35.35499],[137.10108,35.35092],[137.11311,35.34526],[137.11534,35.33961],[137.11543,35.33549],[137.11873,35.32613],[137.12093,35.32443],[137.12365,35.32058],[137.1302,35.31816],[137.13325,35.31383],[137.13387,35.31082],[137.1312,35.30797],[137.1291,35.3069],[137.12812,35.30282],[137.12606,35.30057],[137.12608,35.29847],[137.12409,35.294],[137.12492,35.29161],[137.13093,35.28968],[137.13274,35.28733],[137.13281,35.28291],[137.12999,35.27296],[137.13188,35.26385],[137.13049,35.25928],[137.13096,35.25602],[137.12051,35.24388],[137.11542,35.23303],[137.11191,35.22814],[137.10857,35.22695],[137.10136,35.22626],[137.10099,35.22285],[137.10232,35.22122],[137.10471,35.21348],[137.10685,35.2112],[137.10296,35.20815],[137.10279,35.20552],[137.10394,35.20268],[137.1022,35.19355],[137.10625,35.19325],[137.10929,35.19511],[137.11003,35.19659],[137.10985,35.19929],[137.11216,35.20478],[137.1097,35.19844]],[[136.85999,35.46948],[136.8681,35.46821],[136.87288,35.46876],[136.87825,35.46781],[136.88436,35.46803],[136.89327,35.46644],[136.9008,35.46788],[136.90629,35.4674],[136.9117,35.46584],[136.9182,35.46667],[136.92579,35.46205],[136.93422,35.45826],[136.93724,35.4579],[136.94164,35.45869],[136.9472,35.45713],[136.95384,35.45701],[136.96264,35.45317],[136.97266,35.45068],[136.98117,35.447],[136.99523,35.44542],[137.01332,35.45013],[137.03039,35.44808],[137.03829,35.44263],[137.04273,35.43345],[137.04288,35.41856]],[[136.75456,35.38823],[136.75518,35.39464],[136.75988,35.40721],[136.76002,35.40991],[136.75851,35.41054],[136.75959,35.41237],[136.76001,35.41727],[136.78517,35.41645],[136.78565,35.4211]],[[137.11003,35.19659],[137.1094,35.19503],[137.10712,35.19339],[137.10219,35.19349],[137.10535,35.18537],[137.10505,35.18029],[137.10603,35.17571],[137.10839,35.17056],[137.11763,35.16151],[137.11733,35.15944],[137.11606,35.15765],[137.11962,35.15274],[137.11886,35.14966],[137.12366,35.14303],[137.12362,35.13606],[137.12495,35.13373],[137.12876,35.13173],[137.12666,35.12941],[137.12651,35.12647],[137.13106,35.11992],[137.13461,35.11725],[137.13733,35.11383],[137.14404,35.10101],[137.15059,35.09711],[137.15367,35.09702],[137.15672,35.09151],[137.1552,35.08462],[137.16101,35.08389]],[[137.12175,35.2105],[137.11465,35.20756],[137.12239,35.21087],[137.12502,35.21457]],[[137.05042,35.39012],[137.0554,35.38574],[137.05747,35.37638],[137.05878,35.37448],[137.08175,35.36158],[137.08712,35.35664],[137.09056,35.35549],[137.09755,35.35498],[137.10085,35.35116],[137.11314,35.34534],[137.1158,35.338]],[[137.11191,35.22814],[137.10863,35.22676],[137.10136,35.22593]],[[136.78577,35.42084],[136.78544,35.41641],[136.76007,35.4172],[136.75964,35.41237],[136.75865,35.41061],[136.75993,35.41026],[136.76022,35.40929],[136.75885,35.40472]],[[137.14558,35.09998],[137.14697,35.09877]],[[137.11216,35.20478],[137.11465,35.20756]],[[137.1022,35.19355],[137.10219,35.19349]]]}}]}