{"type":"FeatureCollection","features":[{"type":"Feature","properties":{"route_id":"250","route_number":250,"name":"国道250号","source":"OpenStreetMap contributors (ODbL)","osm_relations":[9864624,9980120]},"geometry":{"type":"MultiLineString","coordinates":[[[133.92618,34.65638],[133.93854,34.65628],[133.94082,34.66116],[133.94358,34.66274],[133.94794,34.66773],[133.95435,34.67029],[133.95826,34.67296],[133.97258,34.67392],[133.98791,34.67992],[134.02116,34.69904],[134.0338,34.70312],[134.04191,34.70295],[134.04945,34.70604],[134.06633,34.70519],[134.07742,34.708],[134.08633,34.71182],[134.08969,34.71462],[134.09635,34.71386],[134.10281,34.72306],[134.10604,34.72547],[134.12776,34.73065],[134.14768,34.73729],[134.16675,34.74046],[134.17107,34.73558],[134.17385,34.73472],[134.17757,34.73624],[134.17875,34.73807],[134.18551,34.74382],[134.18831,34.74091],[134.1875,34.73918],[134.18799,34.73851],[134.19485,34.73598],[134.19912,34.73251],[134.21141,34.73177],[134.21796,34.73059],[134.22087,34.73173],[134.22881,34.73141],[134.23049,34.72894],[134.23356,34.72867],[134.24034,34.72999],[134.25389,34.73076],[134.26133,34.73284],[134.26535,34.733],[134.26868,34.73146],[134.27125,34.73162],[134.27491,34.73496],[134.28364,34.73328],[134.29185,34.73557],[134.29235,34.73631],[134.29062,34.74007],[134.29214,34.74589],[134.30305,34.74897],[134.31217,34.74869],[134.31496,34.74729],[134.31891,34.74669],[134.32456,34.74916],[134.32827,34.74795],[134.33826,34.74709],[134.34083,34.74582],[134.34502,34.7485],[134.34858,34.74845],[134.35465,34.75061],[134.35825,34.76189],[134.36173,34.76422],[134.36794,34.76597],[134.36958,34.76563],[134.37304,34.76279],[134.37638,34.76289],[134.38043,34.76139],[134.38363,34.75871],[134.38342,34.75619],[134.3946,34.7558],[134.40086,34.75695],[134.407,34.7563],[134.41039,34.75742],[134.41212,34.75951],[134.41836,34.76381],[134.42435,34.77093],[134.42472,34.77259],[134.42939,34.77291],[134.43312,34.77549],[134.43333,34.77667],[134.43566,34.77728],[134.43532,34.77911],[134.43613,34.78105],[134.43929,34.78409],[134.43915,34.78532],[134.44194,34.78874],[134.44377,34.78937],[134.44848,34.79334],[134.44884,34.79772],[134.44994,34.79944],[134.45272,34.80151],[134.45435,34.80133],[134.45831,34.8029],[134.45946,34.80425],[134.46315,34.80463],[134.46499,34.80391],[134.47044,34.79797],[134.46845,34.79269],[134.47266,34.7886],[134.47926,34.78659],[134.47541,34.78383],[134.47261,34.77956],[134.4724,34.77443],[134.47032,34.77193],[134.46978,34.7699],[134.47022,34.7683],[134.47271,34.76869],[134.47452,34.76672],[134.47644,34.76593],[134.47969,34.76737],[134.48007,34.76848],[134.48367,34.76732],[134.48625,34.76957],[134.48953,34.76954],[134.48966,34.76741],[134.49136,34.76695],[134.49141,34.7684],[134.49306,34.77013],[134.49291,34.77172],[134.49486,34.77212],[134.49617,34.77153],[134.49755,34.77315],[134.49892,34.77317],[134.49954,34.77476],[134.50208,34.77566],[134.50328,34.77514],[134.50444,34.77282],[134.50314,34.77207],[134.50368,34.77056],[134.50214,34.77014],[134.50229,34.76907],[134.50732,34.76877],[134.50811,34.76808],[134.51201,34.76878],[134.51242,34.77006],[134.51437,34.77032],[134.51538,34.77186],[134.51765,34.77215],[134.51874,34.77313],[134.51985,34.77692],[134.52188,34.77754],[134.523,34.78008],[134.52507,34.78036],[134.52761,34.78435],[134.52897,34.78335],[134.53119,34.78392],[134.53293,34.78211],[134.53936,34.78162],[134.5563,34.78328],[134.57628,34.78179],[134.58717,34.7857],[134.59738,34.78843],[134.60244,34.78899],[134.62114,34.79528],[134.64233,34.7953],[134.66139,34.79825],[134.66823,34.79631],[134.67452,34.7956],[134.68928,34.79145],[134.6915,34.79006]],[[135.15797,34.66102],[135.14928,34.65675],[135.13062,34.64477],[135.10899,34.64267],[135.10211,34.63783],[135.09918,34.63664],[135.06786,34.62957],[135.05459,34.6282],[135.04053,34.62894],[135.03423,34.63209],[135.02801,34.63862],[135.01867,34.64348],[135.00823,34.6464],[134.98439,34.6485],[134.97432,34.65448],[134.97201,34.6585],[134.96139,34.66756],[134.95575,34.66482],[134.95329,34.66501],[134.9265,34.68324],[134.91028,34.68796],[134.90497,34.69045],[134.88688,34.70454],[134.87504,34.71792],[134.86969,34.72283],[134.81272,34.76365],[134.79442,34.77546],[134.78365,34.78423],[134.77134,34.78877],[134.77087,34.78509],[134.77192,34.78211],[134.77129,34.77905],[134.77013,34.77883],[134.77008,34.77641],[134.76869,34.77552],[134.76448,34.77621],[134.75811,34.77974],[134.75302,34.78108],[134.73875,34.77827],[134.73464,34.78014],[134.72853,34.78072],[134.72275,34.7837],[134.7189,34.78375],[134.71812,34.78499],[134.71759,34.78511],[134.71683,34.7832]],[[134.07423,34.70713],[134.06771,34.70537]],[[134.58178,34.78375],[134.58689,34.78562]],[[135.122,34.64405],[135.13094,34.64519],[135.14913,34.6569],[135.15769,34.66111]],[[134.77134,34.78877],[134.78501,34.78355],[134.79443,34.77562],[134.8128,34.76374],[134.86807,34.72418],[134.87517,34.71791],[134.88664,34.70486],[134.90505,34.69052],[134.91117,34.68775],[134.92654,34.68331],[134.95342,34.66505],[134.95575,34.66492],[134.96139,34.66756]],[[134.66139,34.79825],[134.67184,34.7957],[134.67445,34.7957],[134.68023,34.79382],[134.69018,34.78626],[134.70066,34.78284],[134.71593,34.78097],[134.71759,34.78511]],[[134.71596,34.78087],[134.70018,34.78288],[134.69049,34.78604],[134.68113,34.79333]],[[133.9589,34.6731],[133.94687,34.66694],[133.94364,34.66269],[133.94087,34.66111],[133.93857,34.65617],[133.92618,34.65628]],[[134.99359,34.6475],[134.98439,34.64843],[134.97484,34.65414]],[[134.42485,34.77251],[134.42444,34.7709],[134.42,34.76571]],[[134.42939,34.77291],[134.42472,34.77259]]]}}]}