{"type":"FeatureCollection","features":[{"type":"Feature","properties":{"route_id":"488","route_number":488,"name":"国道488号","source":"OpenStreetMap contributors (ODbL)","osm_relations":[4544688,9903578]},"geometry":{"type":"MultiLineString","coordinates":[[[132.32235,34.35442],[132.31133,34.35787],[132.30943,34.35946],[132.30914,34.36203],[132.30566,34.36567],[132.30616,34.36886],[132.3043,34.37084],[132.30602,34.37311],[132.30859,34.37373],[132.30799,34.37477],[132.30876,34.37642],[132.308,34.3764],[132.3091,34.37659],[132.3083,34.37849],[132.3052,34.3812],[132.30479,34.38458],[132.3038,34.38527],[132.3042,34.38648],[132.30318,34.38575],[132.30431,34.38852],[132.3032,34.38709],[132.30373,34.38792],[132.30326,34.38895],[132.3058,34.39154],[132.30347,34.38963],[132.3025,34.39007],[132.30161,34.38927],[132.30212,34.38825],[132.30157,34.38765],[132.29887,34.38737],[132.29548,34.38817],[132.29681,34.38916],[132.29695,34.39211],[132.29409,34.39419],[132.29262,34.3985],[132.29355,34.4142],[132.29834,34.41897],[132.30206,34.42011],[132.30318,34.42122],[132.30284,34.42457],[132.30698,34.42857],[132.30791,34.43423],[132.30678,34.43528],[132.29535,34.43725],[132.29315,34.44012],[132.29144,34.44104],[132.29152,34.44316],[132.28901,34.44743],[132.28875,34.45105],[132.28468,34.45564],[132.28184,34.46185],[132.28156,34.4658],[132.28044,34.46818],[132.27756,34.46987],[132.2791,34.47238],[132.27422,34.47596],[132.27403,34.48765],[132.26991,34.48723],[132.26806,34.48088],[132.26546,34.48003],[132.2607,34.48153],[132.25723,34.47994],[132.2546,34.47464],[132.2524,34.47281],[132.24949,34.47365],[132.24032,34.47415],[132.23833,34.47354],[132.23107,34.46466],[132.23078,34.46297],[132.23248,34.45741],[132.22566,34.45443],[132.22518,34.45375],[132.22638,34.45195],[132.22254,34.44796],[132.21844,34.45144],[132.2146,34.45],[132.21168,34.44572],[132.20967,34.44596],[132.20537,34.44978],[132.20229,34.44864],[132.20104,34.44625],[132.19721,34.44651],[132.19908,34.44234],[132.20166,34.44109],[132.20346,34.4413],[132.21168,34.44572]],[[132.32228,34.35433],[132.31119,34.35787],[132.30933,34.35948],[132.30921,34.36175],[132.3077,34.36329]],[[132.19773,34.4468],[132.19356,34.45079],[132.19002,34.44995],[132.18799,34.4508],[132.18792,34.45177],[132.18659,34.45103],[132.1849,34.45159],[132.18551,34.45371],[132.18439,34.45451],[132.18562,34.45523],[132.18568,34.45692],[132.17867,34.45943],[132.17602,34.46128],[132.17375,34.46708],[132.17437,34.46809],[132.17382,34.46886],[132.17472,34.46962],[132.17347,34.46963],[132.17222,34.47113],[132.17224,34.47292],[132.17075,34.47641],[132.16944,34.47516],[132.16994,34.47421],[132.16758,34.47389],[132.16707,34.47507],[132.16339,34.47179],[132.16299,34.47052],[132.16192,34.47134],[132.16176,34.47007],[132.15899,34.46814],[132.159,34.46563],[132.15821,34.46524],[132.15581,34.46851],[132.15475,34.47331],[132.15215,34.47509],[132.15213,34.47671],[132.15031,34.48028],[132.14389,34.48447],[132.13732,34.48043],[132.127,34.47999],[132.12026,34.47696],[132.11892,34.47556],[132.11657,34.48074],[132.11099,34.48018],[132.10517,34.48387],[132.10337,34.48325],[132.10209,34.48486],[132.0988,34.48603],[132.0957,34.48888],[132.09288,34.48946],[132.09155,34.49266],[132.09235,34.49514],[132.0922,34.49908],[132.08773,34.50021],[132.08974,34.50182],[132.08822,34.50562],[132.08885,34.50805],[132.08695,34.50856],[132.08687,34.5099],[132.08532,34.51109],[132.08641,34.51312],[132.08398,34.51351],[132.08466,34.51457],[132.0838,34.51636],[132.08216,34.51484],[132.08102,34.51497],[132.08136,34.51644],[132.07791,34.51928],[132.07594,34.52281],[132.07112,34.52481],[132.06826,34.52488],[132.06571,34.52884],[132.06436,34.53285],[132.06308,34.53237],[132.06355,34.53419],[132.06274,34.53443],[132.06192,34.53651],[132.06209,34.53741],[132.06413,34.53523],[132.06528,34.53826],[132.06733,34.53744],[132.0676,34.53923],[132.06938,34.5393],[132.0678,34.54144],[132.06875,34.54308],[132.07093,34.54323],[132.06981,34.54527],[132.07042,34.54723],[132.07601,34.54666],[132.0732,34.54876],[132.07317,34.55077],[132.07698,34.55221],[132.07738,34.55375],[132.07859,34.5534],[132.07809,34.55576],[132.08088,34.55733],[132.08096,34.55886],[132.08254,34.56017],[132.08376,34.55992],[132.08366,34.5614],[132.0854,34.56283],[132.07987,34.55987],[132.07897,34.55825],[132.07566,34.55661],[132.07497,34.55422],[132.07169,34.55273],[132.06873,34.55312],[132.06583,34.55161],[132.06108,34.55374],[132.05762,34.55396],[132.05658,34.55139],[132.05515,34.55144],[132.05471,34.5502],[132.05347,34.54987],[132.05397,34.54899],[132.05184,34.54742],[132.05224,34.54674],[132.05007,34.54592],[132.04716,34.54604],[132.04204,34.55154],[132.03891,34.55084],[132.03733,34.5517],[132.03783,34.55065],[132.03723,34.54979],[132.03901,34.5483],[132.03763,34.54712],[132.03851,34.54824],[132.03789,34.54899],[132.02854,34.55047],[132.02488,34.55445],[132.02458,34.55941],[132.02159,34.56694],[132.02118,34.57085],[132.0166,34.57318],[132.01328,34.57596],[132.01276,34.58027],[132.00861,34.58004],[132.00326,34.58145],[131.99909,34.58504],[131.998,34.58763],[131.99134,34.58978],[131.98827,34.59167],[131.98349,34.58999],[131.98263,34.58853],[131.98017,34.58706],[131.97654,34.58586],[131.9733,34.58576],[131.97085,34.58391],[131.96876,34.58403],[131.97138,34.58863],[131.96883,34.59002],[131.96923,34.59204],[131.96744,34.59599],[131.96688,34.6031],[131.96524,34.6046],[131.94908,34.60326],[131.94228,34.59875],[131.93828,34.5978],[131.93758,34.5922],[131.93425,34.59283],[131.93103,34.58961],[131.9275,34.5904],[131.92581,34.5883],[131.92344,34.58869],[131.92092,34.58778],[131.91814,34.58926],[131.91342,34.59436],[131.90427,34.59816],[131.90111,34.6012],[131.89927,34.60189],[131.89386,34.6013],[131.89097,34.59861],[131.88705,34.59829],[131.88561,34.5961],[131.87886,34.59853],[131.87533,34.59558],[131.87194,34.59462],[131.8699,34.59587],[131.86494,34.59701],[131.86439,34.59981],[131.8634,34.60048],[131.85934,34.59816],[131.85895,34.60167],[131.85717,34.60294],[131.85421,34.60329],[131.85004,34.60146],[131.84237,34.60323],[131.82978,34.60298],[131.82788,34.60556],[131.82753,34.61071],[131.82637,34.61226],[131.81696,34.61448],[131.81542,34.61644],[131.81498,34.62028],[131.8068,34.62487]],[[131.91342,34.59436],[131.92434,34.59055],[131.9275,34.5904]]]}}]}