{"type":"FeatureCollection","features":[{"type":"Feature","properties":{"route_id":"329","route_number":329,"name":"国道329号","source":"OpenStreetMap contributors (ODbL)","osm_relations":[10535240,10995294,10995295,10995296,10995297,10995298,10995299]},"geometry":{"type":"MultiLineString","coordinates":[[[127.7736,26.21787],[127.77104,26.21433],[127.7658,26.21135],[127.76324,26.21102],[127.76027,26.21205],[127.75414,26.20161],[127.75154,26.20025],[127.74872,26.19984],[127.74308,26.20081],[127.73903,26.20018],[127.73103,26.19636],[127.72312,26.19521],[127.71866,26.196],[127.71668,26.19774],[127.71375,26.19831],[127.71181,26.195],[127.70477,26.19149],[127.69635,26.19359],[127.68613,26.19367],[127.6813,26.19546],[127.67961,26.19765],[127.6801,26.20153],[127.67874,26.20501],[127.67707,26.20784],[127.67465,26.20928]],[[127.67467,26.20941],[127.67714,26.20794],[127.6791,26.20448],[127.68019,26.20165],[127.67959,26.19851],[127.68025,26.19653],[127.68567,26.19387],[127.69719,26.19372],[127.70452,26.19159],[127.71166,26.19521],[127.71375,26.19831]],[[127.72688,26.20481],[127.73035,26.2063],[127.73298,26.2055],[127.73727,26.20238],[127.74636,26.20264],[127.74865,26.20393],[127.75523,26.21056],[127.76027,26.21205],[127.75576,26.21091]],[[127.74865,26.20393],[127.74625,26.20236],[127.74143,26.2028],[127.73736,26.20198],[127.73044,26.20629]],[[127.82859,26.3881],[127.8278,26.3907],[127.82892,26.40005],[127.82131,26.40653],[127.81579,26.41778],[127.81506,26.42209],[127.82146,26.43136],[127.82341,26.43293],[127.82746,26.43444],[127.83237,26.43314],[127.83593,26.43481],[127.83938,26.43462],[127.84111,26.4358],[127.83941,26.43454],[127.83585,26.43469],[127.83237,26.43305],[127.82747,26.43434],[127.82347,26.43284],[127.82122,26.43085],[127.81513,26.42185],[127.81596,26.41771],[127.82141,26.40658],[127.82848,26.4009],[127.82919,26.39925],[127.82751,26.38118],[127.82186,26.37687],[127.82009,26.37064],[127.81525,26.36558],[127.81314,26.36199],[127.81279,26.35242],[127.81173,26.34787],[127.81332,26.34539],[127.81376,26.34237],[127.81767,26.33521],[127.8222,26.33137],[127.82295,26.32586],[127.82121,26.31923],[127.81887,26.31701],[127.81892,26.314],[127.81027,26.30371],[127.80878,26.30012],[127.80928,26.29421],[127.81466,26.28708],[127.81533,26.28234],[127.81305,26.2797],[127.8075,26.27723],[127.80228,26.27814],[127.79663,26.27305],[127.7919,26.27085],[127.78952,26.26411],[127.78526,26.25662],[127.78109,26.24473],[127.77597,26.2381],[127.76975,26.2361],[127.76956,26.23276],[127.7661,26.2254],[127.76531,26.22014],[127.76361,26.2161],[127.76027,26.21205]],[[127.98413,26.57566],[127.98639,26.57394],[127.99943,26.56876],[128.00245,26.56477],[128.00267,26.56051],[128.00523,26.55779],[128.00713,26.5565],[128.01062,26.55695],[128.01538,26.55553],[128.01811,26.55229],[128.02107,26.5503],[128.02298,26.54746],[128.02604,26.5459],[128.02751,26.54281],[128.03209,26.54077],[128.0344,26.53823],[128.0371,26.53669],[128.03883,26.53365],[128.04283,26.53206],[128.04326,26.53024],[128.04214,26.52909],[128.0336,26.52542],[128.02858,26.52518],[128.02187,26.52365],[128.01732,26.52123],[128.00887,26.51973],[128.00587,26.51849],[128.00077,26.51384],[127.99541,26.51188],[127.99143,26.50598],[127.99136,26.50441],[127.99378,26.50196],[127.99345,26.4979],[127.9921,26.49372],[127.98793,26.48969],[127.97947,26.48493],[127.97297,26.48485],[127.96781,26.48254],[127.96651,26.48125],[127.96634,26.47842],[127.9651,26.47683],[127.96181,26.47557],[127.95603,26.47557],[127.95186,26.47297],[127.94841,26.4719],[127.94601,26.47213],[127.94254,26.46965],[127.93946,26.46875],[127.93634,26.46409],[127.93017,26.4597],[127.92574,26.45443],[127.92277,26.4536],[127.91474,26.45396],[127.91118,26.45073],[127.90786,26.44949],[127.91666,26.44776],[127.92652,26.44777],[127.93034,26.44887],[127.93495,26.45146],[127.93607,26.45292],[127.93551,26.45943],[127.93634,26.46409]],[[127.90786,26.44949],[127.90204,26.44935],[127.89909,26.45005],[127.89616,26.45141],[127.89064,26.45583],[127.8878,26.45621],[127.88473,26.45813],[127.87595,26.45546],[127.86983,26.458],[127.85184,26.45129],[127.84961,26.44858],[127.84672,26.44161],[127.84432,26.43992],[127.84111,26.4358]],[[127.72172,26.2044],[127.7261,26.20448],[127.72168,26.20431]],[[127.73897,26.20234],[127.74101,26.20291]],[[127.76036,26.21216],[127.76373,26.21126],[127.76596,26.21162],[127.77111,26.21459],[127.77321,26.21804]],[[127.76548,26.21126],[127.76669,26.21183]]]}}]}