{"type":"FeatureCollection","features":[{"type":"Feature","properties":{"route_id":"141","route_number":141,"name":"国道141号","source":"OpenStreetMap contributors (ODbL)","osm_relations":[965538,9087402]},"geometry":{"type":"MultiLineString","coordinates":[[[138.46396,36.24076],[138.46689,36.24317],[138.46754,36.24495],[138.46794,36.25855],[138.46571,36.27436],[138.46816,36.27873],[138.47386,36.28466],[138.47451,36.28663],[138.47077,36.29174],[138.46701,36.3003],[138.45689,36.30751],[138.45708,36.31392],[138.45412,36.31313],[138.44353,36.31306],[138.43267,36.31754],[138.43012,36.32119],[138.42487,36.32461],[138.42079,36.3326],[138.41704,36.33556],[138.41068,36.33736],[138.39704,36.33905],[138.39047,36.34068],[138.38524,36.34325],[138.37879,36.34503],[138.37433,36.34541],[138.3653,36.34871],[138.35053,36.35267],[138.34787,36.35407],[138.33148,36.3579],[138.30813,36.36736],[138.29983,36.36963],[138.29622,36.37158],[138.28723,36.37271],[138.28076,36.37471],[138.27339,36.37907],[138.2656,36.38626],[138.26318,36.38761],[138.25511,36.39598],[138.25077,36.39857],[138.25267,36.40147],[138.25445,36.40765]],[[138.45411,35.70235],[138.44912,35.70561],[138.4392,35.71452],[138.44574,35.71911],[138.44931,35.71856],[138.45094,35.72073],[138.44864,35.72906],[138.44193,35.74314],[138.43518,35.75144],[138.43231,35.75908],[138.41885,35.77335],[138.41976,35.77686],[138.41809,35.77961],[138.4175,35.78333],[138.41874,35.78674],[138.41864,35.78998],[138.42459,35.79771],[138.42948,35.81182],[138.42867,35.82358],[138.43006,35.83549],[138.43327,35.84145],[138.43017,35.85959],[138.42802,35.86258],[138.42688,35.86599],[138.42906,35.87437],[138.42638,35.88199],[138.42653,35.88455],[138.42792,35.88497],[138.4314,35.87868],[138.43584,35.87912],[138.43795,35.87766],[138.43957,35.87809],[138.43922,35.88928],[138.44173,35.89909],[138.4432,35.90198],[138.44459,35.90975],[138.44192,35.91409],[138.43947,35.92549],[138.44372,35.93005],[138.44721,35.9321],[138.44723,35.93479],[138.45154,35.94432],[138.45505,35.94687],[138.46371,35.95624],[138.465,35.95674],[138.47153,35.95606],[138.4746,35.95841],[138.47819,35.96975],[138.48136,35.97726],[138.48415,35.98113],[138.48622,35.98698],[138.50474,36.00308],[138.50772,36.00326]],[[138.51046,36.00413],[138.50804,36.00586],[138.50675,36.00447],[138.50455,36.00536],[138.50277,36.00473],[138.50171,36.00595],[138.50001,36.00555],[138.49938,36.00454],[138.49593,36.00543],[138.4957,36.00375],[138.49383,36.00324],[138.4954,36.00766],[138.49033,36.0141],[138.4905,36.01599],[138.4931,36.01793],[138.493,36.0192],[138.48695,36.02672],[138.4861,36.02817],[138.48626,36.02991],[138.48505,36.03163],[138.47964,36.03488],[138.47655,36.03548],[138.4719,36.03913],[138.47034,36.04673],[138.47107,36.05033],[138.4676,36.05345],[138.46697,36.05551],[138.46753,36.05883],[138.47423,36.06748],[138.47873,36.0772],[138.47952,36.08551],[138.48327,36.09431],[138.48156,36.10361],[138.47733,36.11011],[138.4746,36.11184],[138.47359,36.11343],[138.47015,36.12102],[138.46912,36.12632],[138.4713,36.13281],[138.47215,36.14256],[138.47614,36.15315],[138.48589,36.16579],[138.48615,36.16867],[138.4849,36.17612],[138.48203,36.1801],[138.48135,36.18618],[138.47941,36.19266],[138.4689,36.20255],[138.46523,36.21162],[138.45748,36.22373],[138.45656,36.22651],[138.45646,36.23126],[138.45824,36.23531],[138.46734,36.24425],[138.46783,36.25855],[138.46559,36.27424],[138.46813,36.27886],[138.47174,36.28199],[138.47441,36.28636],[138.47085,36.29136],[138.46692,36.30023],[138.45754,36.30691]],[[138.4799,36.19135],[138.47859,36.19353],[138.46881,36.20251],[138.4652,36.21144],[138.45722,36.22403],[138.45627,36.2309],[138.45933,36.23688]],[[138.45708,36.31392],[138.45693,36.31257]]]}}]}